{"type":"FeatureCollection","features":[{"type":"Feature","id":"buurt-amsterdam-1","properties":{"name":"Burgwallen-Oude Zijde","province":"Noord-Holland","department":"Noord-Holland","type":"Buurt","country":"Países Bajos","iso":"NL"},"geometry":{"type":"Polygon","coordinates":[[[4.8955,52.3675],[4.8941,52.3673],[4.8925,52.3691],[4.8932,52.3732],[4.8993,52.3772],[4.9032,52.3768],[4.9004,52.3721],[4.8999,52.3722],[4.8955,52.3675]]]}},{"type":"Feature","id":"buurt-amsterdam-2","properties":{"name":"Burgwallen-Nieuwe Zijde","province":"Noord-Holland","department":"Noord-Holland","type":"Buurt","country":"Países Bajos","iso":"NL"},"geometry":{"type":"Polygon","coordinates":[[[4.8988,52.3825],[4.901,52.3812],[4.9058,52.3799],[4.9032,52.3768],[4.8993,52.3772],[4.8932,52.3732],[4.8925,52.3691],[4.8941,52.3673],[4.8959,52.3674],[4.8958,52.3657],[4.8889,52.367],[4.8897,52.3673],[4.8879,52.3688],[4.8894,52.3746],[4.8988,52.3825]]]}},{"type":"Feature","id":"buurt-amsterdam-3","properties":{"name":"Grachtengordel-West","province":"Noord-Holland","department":"Noord-Holland","type":"Buurt","country":"Países Bajos","iso":"NL"},"geometry":{"type":"Polygon","coordinates":[[[4.8884,52.3805],[4.894,52.3788],[4.8894,52.3746],[4.8884,52.3721],[4.8879,52.3688],[4.8897,52.3673],[4.8845,52.365],[4.8825,52.3666],[4.8832,52.3748],[4.8884,52.3805]]]}},{"type":"Feature","id":"buurt-amsterdam-4","properties":{"name":"Grachtengordel-Zuid","province":"Noord-Holland","department":"Noord-Holland","type":"Buurt","country":"Países Bajos","iso":"NL"},"geometry":{"type":"Polygon","coordinates":[[[4.8959,52.3674],[4.9002,52.3668],[4.9027,52.3629],[4.8961,52.3616],[4.888,52.3627],[4.8845,52.365],[4.8889,52.367],[4.8958,52.3657],[4.8959,52.3674]]]}},{"type":"Feature","id":"buurt-amsterdam-5","properties":{"name":"Nieuwmarkt/Lastage","province":"Noord-Holland","department":"Noord-Holland","type":"Buurt","country":"Países Bajos","iso":"NL"},"geometry":{"type":"Polygon","coordinates":[[[4.9058,52.3799],[4.911,52.38],[4.9122,52.3747],[4.913,52.3747],[4.9135,52.3736],[4.9134,52.3714],[4.906,52.3667],[4.9012,52.3658],[4.9002,52.3668],[4.8955,52.3675],[4.8999,52.3722],[4.9004,52.3721],[4.9025,52.3762],[4.9058,52.3799]]]}},{"type":"Feature","id":"buurt-amsterdam-6","properties":{"name":"Haarlemmerbuurt","province":"Noord-Holland","department":"Noord-Holland","type":"Buurt","country":"Países Bajos","iso":"NL"},"geometry":{"type":"Polygon","coordinates":[[[4.8957,52.3888],[4.8971,52.3835],[4.8988,52.3825],[4.894,52.3788],[4.8902,52.3796],[4.8819,52.3842],[4.8847,52.3883],[4.8957,52.3888]]]}},{"type":"Feature","id":"buurt-amsterdam-7","properties":{"name":"Jordaan","province":"Noord-Holland","department":"Noord-Holland","type":"Buurt","country":"Países Bajos","iso":"NL"},"geometry":{"type":"Polygon","coordinates":[[[4.8796,52.3819],[4.8819,52.3842],[4.8884,52.3805],[4.8832,52.3748],[4.8827,52.3662],[4.8793,52.365],[4.8757,52.3694],[4.8745,52.3722],[4.8799,52.3813],[4.8796,52.3819]]]}},{"type":"Feature","id":"buurt-amsterdam-8","properties":{"name":"De Weteringschans","province":"Noord-Holland","department":"Noord-Holland","type":"Buurt","country":"Países Bajos","iso":"NL"},"geometry":{"type":"Polygon","coordinates":[[[4.8845,52.365],[4.888,52.3627],[4.8961,52.3616],[4.9027,52.3629],[4.9047,52.3592],[4.8987,52.358],[4.8893,52.3588],[4.8855,52.3612],[4.8821,52.362],[4.8813,52.3633],[4.8795,52.3641],[4.8793,52.365],[4.8827,52.3662],[4.8845,52.365]]]}},{"type":"Feature","id":"buurt-amsterdam-9","properties":{"name":"Weesperbuurt/Plantage","province":"Noord-Holland","department":"Noord-Holland","type":"Buurt","country":"Países Bajos","iso":"NL"},"geometry":{"type":"Polygon","coordinates":[[[4.9098,52.3692],[4.9217,52.3651],[4.9209,52.3646],[4.9223,52.3638],[4.9184,52.3622],[4.9083,52.3606],[4.9047,52.3592],[4.9012,52.3658],[4.906,52.3667],[4.9098,52.3692]]]}},{"type":"Feature","id":"buurt-amsterdam-10","properties":{"name":"Oostelijke Eilanden/Kadijken","province":"Noord-Holland","department":"Noord-Holland","type":"Buurt","country":"Países Bajos","iso":"NL"},"geometry":{"type":"Polygon","coordinates":[[[4.9118,52.3765],[4.9138,52.3767],[4.9236,52.3752],[4.9305,52.3732],[4.9325,52.3718],[4.9331,52.369],[4.9318,52.3666],[4.9271,52.3664],[4.9223,52.3638],[4.9209,52.3646],[4.9217,52.3651],[4.9098,52.3692],[4.9134,52.3714],[4.9135,52.3736],[4.913,52.3747],[4.9122,52.3747],[4.9118,52.3765]]]}},{"type":"Feature","id":"buurt-amsterdam-11","properties":{"name":"Westelijk Havengebied","province":"Noord-Holland","department":"Noord-Holland","type":"Buurt","country":"Países Bajos","iso":"NL"},"geometry":{"type":"Polygon","coordinates":[[[4.7392,52.4311],[4.7672,52.4275],[4.7675,52.4285],[4.8561,52.4167],[4.8568,52.4173],[4.8657,52.4145],[4.8863,52.4006],[4.8761,52.3944],[4.872,52.3946],[4.8716,52.3954],[4.8649,52.3927],[4.8606,52.395],[4.8441,52.395],[4.8379,52.3965],[4.8372,52.3957],[4.8361,52.3957],[4.8361,52.3947],[4.8058,52.3947],[4.8029,52.3994],[4.8,52.4003],[4.7963,52.3997],[4.7693,52.3997],[4.7589,52.401],[4.7579,52.3965],[4.7561,52.3972],[4.7288,52.4007],[4.7392,52.4311]]]}},{"type":"Feature","id":"buurt-amsterdam-12","properties":{"name":"Bedrijventerrein Sloterdijk","province":"Noord-Holland","department":"Noord-Holland","type":"Buurt","country":"Países Bajos","iso":"NL"},"geometry":{"type":"Polygon","coordinates":[[[4.7579,52.3965],[4.7589,52.401],[4.7693,52.3997],[4.7963,52.3997],[4.8,52.4003],[4.8029,52.3994],[4.8058,52.3947],[4.8361,52.3947],[4.8361,52.3957],[4.8372,52.3957],[4.8379,52.3965],[4.8441,52.395],[4.8574,52.3954],[4.8574,52.3921],[4.8593,52.3912],[4.8593,52.3888],[4.8449,52.3888],[4.8451,52.3851],[4.8316,52.3848],[4.8316,52.3874],[4.8188,52.3876],[4.8188,52.3892],[4.7696,52.3892],[4.7688,52.3884],[4.7661,52.3879],[4.7583,52.3879],[4.7579,52.3965]]]}},{"type":"Feature","id":"buurt-amsterdam-13","properties":{"name":"Houthavens","province":"Noord-Holland","department":"Noord-Holland","type":"Buurt","country":"Países Bajos","iso":"NL"},"geometry":{"type":"Polygon","coordinates":[[[4.8658,52.393],[4.8716,52.3954],[4.872,52.3946],[4.8761,52.3944],[4.8844,52.3992],[4.8887,52.3968],[4.8928,52.3933],[4.8957,52.3888],[4.8912,52.3885],[4.8918,52.389],[4.8913,52.3901],[4.878,52.3916],[4.8765,52.3928],[4.8658,52.393]]]}},{"type":"Feature","id":"buurt-amsterdam-14","properties":{"name":"Spaarndammer- en Zeeheldenbuurt","province":"Noord-Holland","department":"Noord-Holland","type":"Buurt","country":"Países Bajos","iso":"NL"},"geometry":{"type":"Polygon","coordinates":[[[4.8574,52.3954],[4.8606,52.395],[4.8649,52.3927],[4.8765,52.3928],[4.878,52.3916],[4.8913,52.3901],[4.8918,52.389],[4.8912,52.3885],[4.8847,52.3883],[4.8828,52.3854],[4.8813,52.3858],[4.8647,52.3854],[4.8632,52.388],[4.865,52.3881],[4.8651,52.3888],[4.8593,52.3888],[4.8593,52.3912],[4.8574,52.3921],[4.8574,52.3954]]]}},{"type":"Feature","id":"buurt-amsterdam-15","properties":{"name":"Staatsliedenbuurt","province":"Noord-Holland","department":"Noord-Holland","type":"Buurt","country":"Países Bajos","iso":"NL"},"geometry":{"type":"Polygon","coordinates":[[[4.8828,52.3854],[4.8806,52.3824],[4.874,52.3806],[4.8704,52.3759],[4.8697,52.3762],[4.8679,52.382],[4.8706,52.3825],[4.8695,52.3855],[4.8828,52.3854]]]}},{"type":"Feature","id":"buurt-amsterdam-16","properties":{"name":"Centrale Markt","province":"Noord-Holland","department":"Noord-Holland","type":"Buurt","country":"Países Bajos","iso":"NL"},"geometry":{"type":"Polygon","coordinates":[[[4.8695,52.3855],[4.8706,52.3825],[4.8679,52.382],[4.8697,52.3762],[4.8704,52.3759],[4.8674,52.3726],[4.8647,52.3746],[4.8628,52.3801],[4.8606,52.3838],[4.8605,52.3854],[4.8695,52.3855]]]}},{"type":"Feature","id":"buurt-amsterdam-17","properties":{"name":"Frederik Hendrikbuurt","province":"Noord-Holland","department":"Noord-Holland","type":"Buurt","country":"Países Bajos","iso":"NL"},"geometry":{"type":"Polygon","coordinates":[[[4.8704,52.3759],[4.874,52.3806],[4.8796,52.3819],[4.8799,52.3813],[4.8754,52.3734],[4.8664,52.3716],[4.8704,52.3759]]]}},{"type":"Feature","id":"buurt-amsterdam-18","properties":{"name":"Da Costabuurt","province":"Noord-Holland","department":"Noord-Holland","type":"Buurt","country":"Países Bajos","iso":"NL"},"geometry":{"type":"Polygon","coordinates":[[[4.8754,52.3734],[4.8745,52.3719],[4.8767,52.3685],[4.8708,52.3668],[4.8674,52.3718],[4.8754,52.3734]]]}},{"type":"Feature","id":"buurt-amsterdam-19","properties":{"name":"Kinkerbuurt","province":"Noord-Holland","department":"Noord-Holland","type":"Buurt","country":"Países Bajos","iso":"NL"},"geometry":{"type":"Polygon","coordinates":[[[4.8674,52.3718],[4.8708,52.3668],[4.8608,52.3644],[4.8601,52.3646],[4.8664,52.3716],[4.8674,52.3718]]]}},{"type":"Feature","id":"buurt-amsterdam-20","properties":{"name":"Van Lennepbuurt","province":"Noord-Holland","department":"Noord-Holland","type":"Buurt","country":"Países Bajos","iso":"NL"},"geometry":{"type":"Polygon","coordinates":[[[4.8708,52.3668],[4.8767,52.3685],[4.8775,52.3668],[4.8574,52.3616],[4.8601,52.3646],[4.8608,52.3644],[4.8708,52.3668]]]}},{"type":"Feature","id":"buurt-amsterdam-21","properties":{"name":"Helmersbuurt","province":"Noord-Holland","department":"Noord-Holland","type":"Buurt","country":"Países Bajos","iso":"NL"},"geometry":{"type":"Polygon","coordinates":[[[4.8793,52.365],[4.8789,52.3638],[4.8656,52.3603],[4.8638,52.3631],[4.8775,52.3668],[4.8793,52.365]]]}},{"type":"Feature","id":"buurt-amsterdam-22","properties":{"name":"Overtoomse Sluis","province":"Noord-Holland","department":"Noord-Holland","type":"Buurt","country":"Países Bajos","iso":"NL"},"geometry":{"type":"Polygon","coordinates":[[[4.8574,52.3616],[4.8638,52.3631],[4.8656,52.3603],[4.8647,52.3601],[4.8654,52.359],[4.8541,52.3564],[4.8574,52.3616]]]}},{"type":"Feature","id":"buurt-amsterdam-23","properties":{"name":"Vondelbuurt","province":"Noord-Holland","department":"Noord-Holland","type":"Buurt","country":"Países Bajos","iso":"NL"},"geometry":{"type":"Polygon","coordinates":[[[4.8821,52.362],[4.8766,52.3606],[4.8741,52.3608],[4.87,52.3601],[4.8658,52.3588],[4.8647,52.3601],[4.8794,52.3643],[4.8813,52.3633],[4.8821,52.362]]]}},{"type":"Feature","id":"buurt-amsterdam-24","properties":{"name":"Sloterdijk","province":"Noord-Holland","department":"Noord-Holland","type":"Buurt","country":"Países Bajos","iso":"NL"},"geometry":{"type":"Polygon","coordinates":[[[4.8647,52.3854],[4.8451,52.3851],[4.8449,52.3888],[4.8651,52.3888],[4.865,52.3881],[4.8632,52.388],[4.8647,52.3854]]]}},{"type":"Feature","id":"buurt-amsterdam-25","properties":{"name":"Landlust","province":"Noord-Holland","department":"Noord-Holland","type":"Buurt","country":"Países Bajos","iso":"NL"},"geometry":{"type":"Polygon","coordinates":[[[4.8451,52.3851],[4.8605,52.3854],[4.8606,52.3838],[4.8646,52.3754],[4.8555,52.3744],[4.8549,52.3766],[4.8568,52.3768],[4.856,52.3788],[4.8536,52.38],[4.8462,52.3777],[4.8442,52.378],[4.8449,52.3802],[4.8447,52.3851],[4.8451,52.3851]]]}},{"type":"Feature","id":"buurt-amsterdam-26","properties":{"name":"Erasmuspark","province":"Noord-Holland","department":"Noord-Holland","type":"Buurt","country":"Países Bajos","iso":"NL"},"geometry":{"type":"Polygon","coordinates":[[[4.8555,52.3744],[4.8468,52.3723],[4.8455,52.3752],[4.8473,52.3756],[4.8462,52.3777],[4.8536,52.38],[4.856,52.3788],[4.8568,52.3768],[4.8549,52.3766],[4.8555,52.3744]]]}},{"type":"Feature","id":"buurt-amsterdam-27","properties":{"name":"De Kolenkit","province":"Noord-Holland","department":"Noord-Holland","type":"Buurt","country":"Países Bajos","iso":"NL"},"geometry":{"type":"Polygon","coordinates":[[[4.8392,52.385],[4.8447,52.3851],[4.8449,52.3802],[4.8442,52.378],[4.8462,52.3777],[4.8473,52.3756],[4.8455,52.3752],[4.8468,52.3723],[4.8422,52.3721],[4.8352,52.3732],[4.8394,52.3829],[4.8392,52.385]]]}},{"type":"Feature","id":"buurt-amsterdam-28","properties":{"name":"De Krommert","province":"Noord-Holland","department":"Noord-Holland","type":"Buurt","country":"Países Bajos","iso":"NL"},"geometry":{"type":"Polygon","coordinates":[[[4.8646,52.3754],[4.8647,52.3746],[4.8674,52.3726],[4.8593,52.3637],[4.8581,52.3643],[4.8555,52.3744],[4.8646,52.3754]]]}},{"type":"Feature","id":"buurt-amsterdam-29","properties":{"name":"Van Galenbuurt","province":"Noord-Holland","department":"Noord-Holland","type":"Buurt","country":"Países Bajos","iso":"NL"},"geometry":{"type":"Polygon","coordinates":[[[4.8555,52.3744],[4.8566,52.3711],[4.8469,52.3695],[4.8421,52.3693],[4.8422,52.3721],[4.8468,52.3723],[4.8555,52.3744]]]}},{"type":"Feature","id":"buurt-amsterdam-30","properties":{"name":"Hoofdweg en omgeving","province":"Noord-Holland","department":"Noord-Holland","type":"Buurt","country":"Países Bajos","iso":"NL"},"geometry":{"type":"Polygon","coordinates":[[[4.8484,52.3697],[4.8566,52.3711],[4.8581,52.3643],[4.8501,52.3634],[4.8505,52.3653],[4.8484,52.3697]]]}},{"type":"Feature","id":"buurt-amsterdam-31","properties":{"name":"Westindische buurt","province":"Noord-Holland","department":"Noord-Holland","type":"Buurt","country":"Países Bajos","iso":"NL"},"geometry":{"type":"Polygon","coordinates":[[[4.8581,52.3643],[4.8593,52.3637],[4.8549,52.3578],[4.8488,52.3581],[4.8495,52.3634],[4.8581,52.3643]]]}},{"type":"Feature","id":"buurt-amsterdam-32","properties":{"name":"Spieringhorn","province":"Noord-Holland","department":"Noord-Holland","type":"Buurt","country":"Países Bajos","iso":"NL"},"geometry":{"type":"Polygon","coordinates":[[[4.8187,52.3848],[4.7589,52.3843],[4.7583,52.3879],[4.7661,52.3879],[4.7688,52.3884],[4.7696,52.3892],[4.8188,52.3892],[4.8188,52.3876],[4.8316,52.3874],[4.8316,52.3848],[4.8187,52.3848]]]}},{"type":"Feature","id":"buurt-amsterdam-33","properties":{"name":"Slotermeer-Noordoost","province":"Noord-Holland","department":"Noord-Holland","type":"Buurt","country":"Países Bajos","iso":"NL"},"geometry":{"type":"Polygon","coordinates":[[[4.8316,52.3848],[4.8392,52.385],[4.8394,52.3829],[4.8367,52.3764],[4.8227,52.3786],[4.823,52.3795],[4.8208,52.3798],[4.8215,52.3814],[4.8189,52.3823],[4.8187,52.3848],[4.8316,52.3848]]]}},{"type":"Feature","id":"buurt-amsterdam-34","properties":{"name":"Slotermeer-Zuidwest","province":"Noord-Holland","department":"Noord-Holland","type":"Buurt","country":"Países Bajos","iso":"NL"},"geometry":{"type":"Polygon","coordinates":[[[4.8187,52.3848],[4.8189,52.3823],[4.8215,52.3814],[4.8208,52.3798],[4.823,52.3795],[4.8227,52.3786],[4.8367,52.3764],[4.8344,52.3704],[4.8323,52.3707],[4.8306,52.3697],[4.8271,52.3721],[4.8261,52.3716],[4.812,52.3594],[4.8088,52.3646],[4.8085,52.3661],[4.8077,52.3664],[4.805,52.3717],[4.8051,52.3727],[4.8075,52.3724],[4.8094,52.3804],[4.8121,52.3806],[4.812,52.3848],[4.8187,52.3848]]]}},{"type":"Feature","id":"buurt-amsterdam-35","properties":{"name":"Geuzenveld","province":"Noord-Holland","department":"Noord-Holland","type":"Buurt","country":"Países Bajos","iso":"NL"},"geometry":{"type":"Polygon","coordinates":[[[4.812,52.3848],[4.8121,52.3806],[4.8094,52.3804],[4.8075,52.3724],[4.7929,52.3738],[4.7918,52.3752],[4.7906,52.3756],[4.7936,52.3772],[4.7944,52.3801],[4.7943,52.3844],[4.812,52.3848]]]}},{"type":"Feature","id":"buurt-amsterdam-36","properties":{"name":"Eendracht","province":"Noord-Holland","department":"Noord-Holland","type":"Buurt","country":"Países Bajos","iso":"NL"},"geometry":{"type":"Polygon","coordinates":[[[4.7943,52.3844],[4.7944,52.3801],[4.7936,52.3772],[4.7906,52.3756],[4.7893,52.3763],[4.7808,52.3698],[4.7601,52.3815],[4.7591,52.3807],[4.7589,52.3843],[4.7943,52.3844]]]}},{"type":"Feature","id":"buurt-amsterdam-37","properties":{"name":"Lutkemeer en Ookmeer","province":"Noord-Holland","department":"Noord-Holland","type":"Buurt","country":"Países Bajos","iso":"NL"},"geometry":{"type":"Polygon","coordinates":[[[4.7567,52.3778],[4.7591,52.3793],[4.7591,52.3807],[4.7601,52.3815],[4.7808,52.3698],[4.7893,52.3763],[4.7918,52.3752],[4.7929,52.3738],[4.8051,52.3727],[4.805,52.3717],[4.8075,52.367],[4.7835,52.3617],[4.7785,52.3576],[4.7718,52.3542],[4.7681,52.3512],[4.7571,52.3556],[4.7553,52.357],[4.7552,52.3583],[4.7589,52.3716],[4.7585,52.3748],[4.7567,52.3778]]]}},{"type":"Feature","id":"buurt-amsterdam-38","properties":{"name":"Osdorp-Oost","province":"Noord-Holland","department":"Noord-Holland","type":"Buurt","country":"Países Bajos","iso":"NL"},"geometry":{"type":"Polygon","coordinates":[[[4.8075,52.367],[4.8134,52.358],[4.8174,52.3588],[4.8186,52.3582],[4.8186,52.3564],[4.8181,52.3563],[4.8204,52.3517],[4.8125,52.3517],[4.8036,52.35],[4.7952,52.3645],[4.8075,52.367]]]}},{"type":"Feature","id":"buurt-amsterdam-39","properties":{"name":"Osdorp-Midden","province":"Noord-Holland","department":"Noord-Holland","type":"Buurt","country":"Países Bajos","iso":"NL"},"geometry":{"type":"Polygon","coordinates":[[[4.7867,52.3627],[4.7952,52.3645],[4.8036,52.35],[4.7987,52.3488],[4.7955,52.3462],[4.7867,52.3627]]]}},{"type":"Feature","id":"buurt-amsterdam-40","properties":{"name":"De Punt","province":"Noord-Holland","department":"Noord-Holland","type":"Buurt","country":"Países Bajos","iso":"NL"},"geometry":{"type":"Polygon","coordinates":[[[4.7767,52.357],[4.7785,52.3576],[4.7835,52.3617],[4.7867,52.3627],[4.7918,52.3532],[4.7878,52.3525],[4.7767,52.357]]]}},{"type":"Feature","id":"buurt-amsterdam-41","properties":{"name":"Middelveldsche Akerpolder en Sloten","province":"Noord-Holland","department":"Noord-Holland","type":"Buurt","country":"Países Bajos","iso":"NL"},"geometry":{"type":"Polygon","coordinates":[[[4.7918,52.3532],[4.7955,52.3462],[4.7977,52.3483],[4.8006,52.3468],[4.7991,52.3436],[4.8016,52.3431],[4.8006,52.3372],[4.8016,52.3366],[4.799,52.3349],[4.7909,52.3419],[4.7681,52.3512],[4.7718,52.3542],[4.7731,52.3545],[4.7767,52.357],[4.7878,52.3525],[4.7918,52.3532]]]}},{"type":"Feature","id":"buurt-amsterdam-42","properties":{"name":"Slotervaart","province":"Noord-Holland","department":"Noord-Holland","type":"Buurt","country":"Países Bajos","iso":"NL"},"geometry":{"type":"Polygon","coordinates":[[[4.812,52.3594],[4.8261,52.3716],[4.8271,52.3721],[4.8306,52.3697],[4.8323,52.3707],[4.8344,52.3704],[4.8337,52.364],[4.8344,52.3457],[4.8229,52.3451],[4.8213,52.3487],[4.8212,52.3517],[4.8204,52.3517],[4.8181,52.3563],[4.8186,52.3564],[4.8186,52.3582],[4.8174,52.3588],[4.8134,52.358],[4.812,52.3594]]]}},{"type":"Feature","id":"buurt-amsterdam-43","properties":{"name":"Overtoomse Veld","province":"Noord-Holland","department":"Noord-Holland","type":"Buurt","country":"Países Bajos","iso":"NL"},"geometry":{"type":"Polygon","coordinates":[[[4.8422,52.3721],[4.8421,52.3693],[4.8484,52.3697],[4.8505,52.3653],[4.8501,52.3634],[4.8495,52.3634],[4.8495,52.361],[4.8488,52.3608],[4.8488,52.3581],[4.8339,52.3579],[4.8337,52.3661],[4.8352,52.3732],[4.8422,52.3721]]]}},{"type":"Feature","id":"buurt-amsterdam-44","properties":{"name":"Westlandgracht","province":"Noord-Holland","department":"Noord-Holland","type":"Buurt","country":"Países Bajos","iso":"NL"},"geometry":{"type":"Polygon","coordinates":[[[4.8339,52.3579],[4.8488,52.3581],[4.8488,52.3555],[4.8446,52.3554],[4.8447,52.3525],[4.8455,52.3525],[4.8456,52.3464],[4.8415,52.346],[4.8424,52.3391],[4.847,52.3377],[4.8414,52.3376],[4.8385,52.3383],[4.8353,52.3412],[4.8344,52.3457],[4.8339,52.3579]]]}},{"type":"Feature","id":"buurt-amsterdam-45","properties":{"name":"Sloten- en Riekerpolder","province":"Noord-Holland","department":"Noord-Holland","type":"Buurt","country":"Países Bajos","iso":"NL"},"geometry":{"type":"Polygon","coordinates":[[[4.8036,52.35],[4.8125,52.3517],[4.8212,52.3517],[4.8213,52.3487],[4.8229,52.3451],[4.8344,52.3457],[4.8353,52.3412],[4.8371,52.339],[4.8414,52.3376],[4.847,52.3377],[4.8471,52.3363],[4.8451,52.334],[4.8417,52.3325],[4.8364,52.3317],[4.8228,52.3312],[4.8196,52.3305],[4.8164,52.3276],[4.799,52.3349],[4.8016,52.3366],[4.8006,52.3372],[4.8016,52.3431],[4.7991,52.3436],[4.8006,52.3468],[4.7977,52.3483],[4.8036,52.35]]]}},{"type":"Feature","id":"buurt-amsterdam-46","properties":{"name":"Oude Pijp","province":"Noord-Holland","department":"Noord-Holland","type":"Buurt","country":"Países Bajos","iso":"NL"},"geometry":{"type":"Polygon","coordinates":[[[4.9047,52.3592],[4.9059,52.3561],[4.8992,52.3541],[4.8865,52.3522],[4.8869,52.3597],[4.8874,52.3602],[4.8909,52.3583],[4.8987,52.358],[4.9047,52.3592]]]}},{"type":"Feature","id":"buurt-amsterdam-47","properties":{"name":"Nieuwe Pijp","province":"Noord-Holland","department":"Noord-Holland","type":"Buurt","country":"Países Bajos","iso":"NL"},"geometry":{"type":"Polygon","coordinates":[[[4.9086,52.3534],[4.8947,52.3513],[4.8953,52.348],[4.8863,52.3485],[4.8865,52.3522],[4.8992,52.3541],[4.9059,52.3561],[4.9086,52.3534]]]}},{"type":"Feature","id":"buurt-amsterdam-48","properties":{"name":"Diamantbuurt","province":"Noord-Holland","department":"Noord-Holland","type":"Buurt","country":"Países Bajos","iso":"NL"},"geometry":{"type":"Polygon","coordinates":[[[4.9086,52.3534],[4.911,52.35],[4.8964,52.348],[4.8953,52.348],[4.8945,52.3504],[4.8947,52.3513],[4.9086,52.3534]]]}},{"type":"Feature","id":"buurt-amsterdam-49","properties":{"name":"Hoofddorppleinbuurt","province":"Noord-Holland","department":"Noord-Holland","type":"Buurt","country":"Países Bajos","iso":"NL"},"geometry":{"type":"Polygon","coordinates":[[[4.8549,52.3578],[4.8517,52.3487],[4.8474,52.3415],[4.847,52.3381],[4.8429,52.3387],[4.842,52.3398],[4.8415,52.346],[4.8456,52.3464],[4.8455,52.3525],[4.8447,52.3525],[4.8446,52.3554],[4.8488,52.3555],[4.8488,52.3581],[4.8549,52.3578]]]}},{"type":"Feature","id":"buurt-amsterdam-50","properties":{"name":"Schinkelbuurt","province":"Noord-Holland","department":"Noord-Holland","type":"Buurt","country":"Países Bajos","iso":"NL"},"geometry":{"type":"Polygon","coordinates":[[[4.8548,52.3563],[4.8574,52.3498],[4.8576,52.3474],[4.8531,52.3468],[4.8516,52.3448],[4.8518,52.3433],[4.8481,52.3426],[4.8517,52.3487],[4.8541,52.3564],[4.8548,52.3563]]]}},{"type":"Feature","id":"buurt-amsterdam-51","properties":{"name":"Willemspark","province":"Noord-Holland","department":"Noord-Holland","type":"Buurt","country":"Países Bajos","iso":"NL"},"geometry":{"type":"Polygon","coordinates":[[[4.8654,52.359],[4.8668,52.356],[4.8674,52.356],[4.8706,52.352],[4.8615,52.3498],[4.8609,52.3508],[4.8574,52.3498],[4.8548,52.3563],[4.8654,52.359]]]}},{"type":"Feature","id":"buurt-amsterdam-52","properties":{"name":"Museumkwartier","province":"Noord-Holland","department":"Noord-Holland","type":"Buurt","country":"Países Bajos","iso":"NL"},"geometry":{"type":"Polygon","coordinates":[[[4.8874,52.3602],[4.8866,52.3576],[4.8868,52.3546],[4.8817,52.3537],[4.8834,52.3526],[4.8865,52.3522],[4.8863,52.3485],[4.8837,52.3504],[4.8738,52.3522],[4.8706,52.352],[4.8674,52.356],[4.8668,52.356],[4.8655,52.3589],[4.8741,52.3608],[4.8766,52.3606],[4.8821,52.362],[4.884,52.3619],[4.8874,52.3602]]]}},{"type":"Feature","id":"buurt-amsterdam-53","properties":{"name":"Stadionbuurt","province":"Noord-Holland","department":"Noord-Holland","type":"Buurt","country":"Países Bajos","iso":"NL"},"geometry":{"type":"Polygon","coordinates":[[[4.8574,52.3498],[4.8609,52.3508],[4.8615,52.3498],[4.8667,52.3505],[4.8681,52.3465],[4.8671,52.3464],[4.868,52.344],[4.8627,52.3425],[4.8575,52.3423],[4.8574,52.3389],[4.847,52.3381],[4.8468,52.3394],[4.8481,52.3426],[4.8518,52.3433],[4.8516,52.3448],[4.8531,52.3468],[4.8576,52.3474],[4.8574,52.3498]]]}},{"type":"Feature","id":"buurt-amsterdam-54","properties":{"name":"Apollobuurt","province":"Noord-Holland","department":"Noord-Holland","type":"Buurt","country":"Países Bajos","iso":"NL"},"geometry":{"type":"Polygon","coordinates":[[[4.8652,52.3507],[4.8718,52.3522],[4.8837,52.3504],[4.8863,52.3485],[4.8857,52.3444],[4.8832,52.3443],[4.8809,52.3459],[4.8785,52.3446],[4.868,52.344],[4.8671,52.3464],[4.8681,52.3465],[4.8667,52.3505],[4.8652,52.3507]]]}},{"type":"Feature","id":"buurt-amsterdam-55","properties":{"name":"Duivelseiland","province":"Noord-Holland","department":"Noord-Holland","type":"Buurt","country":"Países Bajos","iso":"NL"},"geometry":{"type":"Polygon","coordinates":[[[4.8865,52.3522],[4.8834,52.3526],[4.8817,52.3537],[4.8868,52.3546],[4.8865,52.3522]]]}},{"type":"Feature","id":"buurt-amsterdam-56","properties":{"name":"Scheldebuurt","province":"Noord-Holland","department":"Noord-Holland","type":"Buurt","country":"Países Bajos","iso":"NL"},"geometry":{"type":"Polygon","coordinates":[[[4.8863,52.3485],[4.8953,52.348],[4.8951,52.3469],[4.9052,52.3463],[4.9065,52.3428],[4.899,52.343],[4.8972,52.3423],[4.8974,52.3406],[4.9017,52.3404],[4.9015,52.3381],[4.8992,52.3382],[4.893,52.3347],[4.8847,52.3381],[4.8863,52.3485]]]}},{"type":"Feature","id":"buurt-amsterdam-57","properties":{"name":"IJselbuurt","province":"Noord-Holland","department":"Noord-Holland","type":"Buurt","country":"Países Bajos","iso":"NL"},"geometry":{"type":"Polygon","coordinates":[[[4.911,52.35],[4.9128,52.3473],[4.9039,52.3461],[4.8951,52.3469],[4.8953,52.348],[4.911,52.35]]]}},{"type":"Feature","id":"buurt-amsterdam-58","properties":{"name":"Rijnbuurt","province":"Noord-Holland","department":"Noord-Holland","type":"Buurt","country":"Países Bajos","iso":"NL"},"geometry":{"type":"Polygon","coordinates":[[[4.913,52.3464],[4.9148,52.3415],[4.9143,52.3404],[4.9079,52.3381],[4.9052,52.3338],[4.8993,52.3332],[4.8982,52.3323],[4.893,52.3347],[4.8992,52.3382],[4.9015,52.3381],[4.9017,52.3404],[4.8974,52.3406],[4.8972,52.3423],[4.899,52.343],[4.9065,52.3428],[4.9052,52.3463],[4.9128,52.3473],[4.913,52.3464]]]}},{"type":"Feature","id":"buurt-amsterdam-59","properties":{"name":"Station-Zuid WTC en omgeving","province":"Noord-Holland","department":"Noord-Holland","type":"Buurt","country":"Países Bajos","iso":"NL"},"geometry":{"type":"Polygon","coordinates":[[[4.8857,52.3444],[4.8847,52.3381],[4.8574,52.3376],[4.8575,52.3423],[4.8627,52.3425],[4.8708,52.3444],[4.8785,52.3446],[4.8809,52.3459],[4.8832,52.3443],[4.8857,52.3444]]]}},{"type":"Feature","id":"buurt-amsterdam-60","properties":{"name":"Buitenveldert-West","province":"Noord-Holland","department":"Noord-Holland","type":"Buurt","country":"Países Bajos","iso":"NL"},"geometry":{"type":"Polygon","coordinates":[[[4.8574,52.3389],[4.8574,52.3376],[4.8767,52.3383],[4.8794,52.3339],[4.8796,52.3248],[4.878,52.3248],[4.8781,52.3221],[4.8568,52.3214],[4.8559,52.3303],[4.848,52.3306],[4.8452,52.3297],[4.844,52.3302],[4.8395,52.3291],[4.8394,52.3274],[4.8252,52.3257],[4.8188,52.3256],[4.8164,52.3276],[4.8196,52.3305],[4.8228,52.3312],[4.8364,52.3317],[4.8417,52.3325],[4.8451,52.334],[4.8471,52.3363],[4.847,52.3381],[4.8574,52.3389]]]}},{"type":"Feature","id":"buurt-amsterdam-61","properties":{"name":"Buitenveldert-Oost","province":"Noord-Holland","department":"Noord-Holland","type":"Buurt","country":"Países Bajos","iso":"NL"},"geometry":{"type":"Polygon","coordinates":[[[4.8847,52.3381],[4.8982,52.3323],[4.8993,52.3302],[4.897,52.3278],[4.8951,52.3239],[4.8964,52.3224],[4.8781,52.3221],[4.878,52.3248],[4.8796,52.3248],[4.8794,52.3339],[4.8767,52.3383],[4.8847,52.3381]]]}},{"type":"Feature","id":"buurt-amsterdam-62","properties":{"name":"Weesperzijde","province":"Noord-Holland","department":"Noord-Holland","type":"Buurt","country":"Países Bajos","iso":"NL"},"geometry":{"type":"Polygon","coordinates":[[[4.9047,52.3592],[4.9083,52.3606],[4.9109,52.3564],[4.9159,52.3543],[4.9148,52.3529],[4.9147,52.3511],[4.9164,52.35],[4.9123,52.3481],[4.9103,52.3514],[4.9059,52.3561],[4.9047,52.3592]]]}},{"type":"Feature","id":"buurt-amsterdam-63","properties":{"name":"Oosterparkbuurt","province":"Noord-Holland","department":"Noord-Holland","type":"Buurt","country":"Países Bajos","iso":"NL"},"geometry":{"type":"Polygon","coordinates":[[[4.9083,52.3606],[4.9184,52.3622],[4.9223,52.3638],[4.9234,52.363],[4.9266,52.3579],[4.9159,52.3543],[4.9109,52.3564],[4.9083,52.3606]]]}},{"type":"Feature","id":"buurt-amsterdam-64","properties":{"name":"Dapperbuurt","province":"Noord-Holland","department":"Noord-Holland","type":"Buurt","country":"Países Bajos","iso":"NL"},"geometry":{"type":"Polygon","coordinates":[[[4.9318,52.3666],[4.9312,52.364],[4.9318,52.3615],[4.9336,52.3596],[4.9375,52.3577],[4.9282,52.3553],[4.9234,52.363],[4.9223,52.3638],[4.9271,52.3664],[4.9318,52.3666]]]}},{"type":"Feature","id":"buurt-amsterdam-65","properties":{"name":"Transvaalbuurt","province":"Noord-Holland","department":"Noord-Holland","type":"Buurt","country":"Países Bajos","iso":"NL"},"geometry":{"type":"Polygon","coordinates":[[[4.9282,52.3553],[4.9164,52.35],[4.9147,52.3511],[4.9148,52.3529],[4.9158,52.3545],[4.9192,52.3557],[4.9266,52.3579],[4.9282,52.3553]]]}},{"type":"Feature","id":"buurt-amsterdam-66","properties":{"name":"Indische Buurt West","province":"Noord-Holland","department":"Noord-Holland","type":"Buurt","country":"Países Bajos","iso":"NL"},"geometry":{"type":"Polygon","coordinates":[[[4.9395,52.3666],[4.9396,52.362],[4.9409,52.3584],[4.9375,52.3577],[4.9336,52.3596],[4.9318,52.3615],[4.9312,52.364],[4.9321,52.3666],[4.9395,52.3666]]]}},{"type":"Feature","id":"buurt-amsterdam-67","properties":{"name":"Indische Buurt Oost","province":"Noord-Holland","department":"Noord-Holland","type":"Buurt","country":"Países Bajos","iso":"NL"},"geometry":{"type":"Polygon","coordinates":[[[4.9395,52.3666],[4.9498,52.3667],[4.9549,52.3675],[4.9566,52.3684],[4.9598,52.3613],[4.9621,52.3592],[4.9586,52.3577],[4.9409,52.3584],[4.9396,52.362],[4.9395,52.3666]]]}},{"type":"Feature","id":"buurt-amsterdam-68","properties":{"name":"Oostelijk Havengebied","province":"Noord-Holland","department":"Noord-Holland","type":"Buurt","country":"Países Bajos","iso":"NL"},"geometry":{"type":"Polygon","coordinates":[[[4.9524,52.3821],[4.958,52.382],[4.9597,52.3814],[4.9585,52.381],[4.9579,52.3797],[4.9538,52.376],[4.9552,52.3745],[4.9566,52.3684],[4.9549,52.3675],[4.9498,52.3667],[4.9318,52.3666],[4.9331,52.369],[4.9321,52.3722],[4.9305,52.3732],[4.9236,52.3752],[4.9138,52.3767],[4.9118,52.3765],[4.911,52.38],[4.9315,52.382],[4.9524,52.3821]]]}},{"type":"Feature","id":"buurt-amsterdam-69","properties":{"name":"Zeeburgereiland/Nieuwe Diep","province":"Noord-Holland","department":"Noord-Holland","type":"Buurt","country":"Países Bajos","iso":"NL"},"geometry":{"type":"Polygon","coordinates":[[[4.9593,52.3818],[4.9604,52.3812],[4.9588,52.3806],[4.9619,52.3798],[4.96,52.38],[4.9616,52.3794],[4.9614,52.3791],[4.9599,52.3795],[4.977,52.3704],[4.982,52.3684],[4.9797,52.3691],[4.9737,52.3686],[4.9733,52.3676],[4.976,52.3657],[4.9726,52.3651],[4.9693,52.3657],[4.9688,52.3671],[4.9699,52.3682],[4.9691,52.3686],[4.9651,52.3686],[4.9651,52.3679],[4.963,52.3679],[4.963,52.3686],[4.9582,52.3685],[4.9578,52.3677],[4.9582,52.3669],[4.9597,52.3669],[4.9585,52.3658],[4.961,52.366],[4.9622,52.3649],[4.9613,52.3637],[4.9593,52.3651],[4.96,52.3641],[4.9683,52.3609],[4.9739,52.3605],[4.9741,52.358],[4.9753,52.3572],[4.9833,52.3581],[4.9862,52.3577],[4.986,52.3557],[4.9974,52.3497],[4.9976,52.3481],[4.9991,52.346],[5.005,52.3439],[5.0128,52.3448],[5.0121,52.3435],[5.0089,52.3419],[5.0042,52.3426],[4.9993,52.3415],[4.9745,52.3547],[4.9638,52.358],[4.961,52.36],[4.9576,52.3652],[4.9552,52.3745],[4.9538,52.376],[4.9579,52.3797],[4.9585,52.381],[4.9597,52.3814],[4.9593,52.3818]]]}},{"type":"Feature","id":"buurt-amsterdam-70","properties":{"name":"IJburg West","province":"Noord-Holland","department":"Noord-Holland","type":"Buurt","country":"Países Bajos","iso":"NL"},"geometry":{"type":"MultiPolygon","coordinates":[[[[4.9956,52.3601],[5.0045,52.3555],[5.0067,52.3549],[5.0054,52.3538],[5.0039,52.3545],[4.9974,52.3497],[4.986,52.3557],[4.9865,52.358],[4.9901,52.3572],[4.9865,52.3596],[4.9921,52.3617],[4.9956,52.3601]]],[[[4.9867,52.3651],[4.9908,52.3638],[4.9866,52.3608],[4.9858,52.3612],[4.9854,52.3609],[4.9863,52.3604],[4.9848,52.3604],[4.9804,52.3586],[4.9784,52.3608],[4.9771,52.3603],[4.9745,52.3616],[4.9779,52.3647],[4.9809,52.3633],[4.9837,52.3647],[4.9838,52.3642],[4.9813,52.3632],[4.9852,52.3612],[4.987,52.3627],[4.985,52.3646],[4.9839,52.3643],[4.9838,52.3647],[4.9847,52.3649],[4.9842,52.3652],[4.9847,52.3657],[4.9867,52.3651]]],[[[4.9947,52.3664],[5.002,52.3669],[4.9918,52.3665],[4.9818,52.3683],[4.9884,52.3669],[4.9947,52.3664]]]]}},{"type":"Feature","id":"buurt-amsterdam-71","properties":{"name":"IJburg Zuid","province":"Noord-Holland","department":"Noord-Holland","type":"Buurt","country":"Países Bajos","iso":"NL"},"geometry":{"type":"Polygon","coordinates":[[[5.0067,52.3549],[5.0095,52.3532],[5.0162,52.3554],[5.0171,52.3547],[5.0148,52.3536],[5.0135,52.3538],[5.0117,52.3532],[5.0154,52.348],[5.0128,52.3448],[5.005,52.3439],[4.9983,52.3467],[4.9974,52.3497],[5.0039,52.3545],[5.0054,52.3538],[5.0067,52.3549]]]}},{"type":"Feature","id":"buurt-amsterdam-72","properties":{"name":"Frankendael","province":"Noord-Holland","department":"Noord-Holland","type":"Buurt","country":"Países Bajos","iso":"NL"},"geometry":{"type":"Polygon","coordinates":[[[4.9164,52.35],[4.9282,52.3553],[4.9402,52.3478],[4.9272,52.3398],[4.913,52.3464],[4.9123,52.3481],[4.9164,52.35]]]}},{"type":"Feature","id":"buurt-amsterdam-73","properties":{"name":"Middenmeer","province":"Noord-Holland","department":"Noord-Holland","type":"Buurt","country":"Países Bajos","iso":"NL"},"geometry":{"type":"Polygon","coordinates":[[[4.9375,52.3577],[4.9409,52.3584],[4.9586,52.3577],[4.9621,52.3592],[4.9638,52.358],[4.9696,52.356],[4.9695,52.3555],[4.9662,52.3542],[4.9658,52.3547],[4.9597,52.3469],[4.9527,52.3401],[4.9284,52.3551],[4.9299,52.3561],[4.9375,52.3577]]]}},{"type":"Feature","id":"buurt-amsterdam-74","properties":{"name":"Betondorp","province":"Noord-Holland","department":"Noord-Holland","type":"Buurt","country":"Países Bajos","iso":"NL"},"geometry":{"type":"Polygon","coordinates":[[[4.9402,52.3478],[4.9524,52.3399],[4.9495,52.3384],[4.9432,52.3366],[4.9293,52.3389],[4.9272,52.3398],[4.9402,52.3478]]]}},{"type":"Feature","id":"buurt-amsterdam-75","properties":{"name":"De Omval","province":"Noord-Holland","department":"Noord-Holland","type":"Buurt","country":"Países Bajos","iso":"NL"},"geometry":{"type":"Polygon","coordinates":[[[4.913,52.3464],[4.9288,52.3391],[4.9432,52.3366],[4.9417,52.3364],[4.9417,52.3355],[4.9395,52.3356],[4.9365,52.3346],[4.9356,52.3355],[4.9285,52.3366],[4.9258,52.3354],[4.9238,52.3354],[4.9226,52.3331],[4.9129,52.3305],[4.9139,52.3246],[4.9103,52.3236],[4.9114,52.3229],[4.9107,52.3219],[4.9143,52.3204],[4.9124,52.3182],[4.9091,52.3183],[4.9078,52.3195],[4.9025,52.3213],[4.8971,52.3219],[4.8951,52.3239],[4.897,52.3278],[4.8993,52.3302],[4.8982,52.3323],[4.8993,52.3332],[4.9052,52.3338],[4.9079,52.3381],[4.9143,52.3404],[4.9148,52.3415],[4.913,52.3464]]]}},{"type":"Feature","id":"buurt-amsterdam-76","properties":{"name":"IJburg Oost","province":"Noord-Holland","department":"Noord-Holland","type":"Buurt","country":"Países Bajos","iso":"NL"},"geometry":{"type":"Polygon","coordinates":[[[5.002,52.3669],[5.0145,52.368],[5.002,52.3669],[5.002,52.3669]]]}},{"type":"Feature","id":"buurt-amsterdam-77","properties":{"name":"Volewijck","province":"Noord-Holland","department":"Noord-Holland","type":"Buurt","country":"Países Bajos","iso":"NL"},"geometry":{"type":"Polygon","coordinates":[[[4.9148,52.4009],[4.9198,52.4],[4.9213,52.3991],[4.9207,52.3988],[4.9223,52.3967],[4.9196,52.3913],[4.914,52.3868],[4.9018,52.381],[4.8988,52.3825],[4.9021,52.3831],[4.9061,52.3848],[4.9073,52.3862],[4.906,52.3904],[4.9086,52.3933],[4.9125,52.3919],[4.9132,52.3926],[4.9107,52.3969],[4.9092,52.3977],[4.9099,52.3985],[4.9083,52.4012],[4.9148,52.4009]]]}},{"type":"Feature","id":"buurt-amsterdam-78","properties":{"name":"Ijplein/Vogelbuurt","province":"Noord-Holland","department":"Noord-Holland","type":"Buurt","country":"Países Bajos","iso":"NL"},"geometry":{"type":"Polygon","coordinates":[[[4.9385,52.3867],[4.9329,52.3876],[4.9324,52.3863],[4.9296,52.3874],[4.9281,52.3859],[4.9239,52.3876],[4.9224,52.3862],[4.9188,52.3855],[4.9198,52.3808],[4.9058,52.3799],[4.9018,52.381],[4.914,52.3868],[4.9181,52.3897],[4.9196,52.3913],[4.9223,52.3967],[4.9207,52.3988],[4.9213,52.3991],[4.9229,52.3972],[4.9248,52.3907],[4.9332,52.3914],[4.9397,52.3906],[4.9385,52.3867]]]}},{"type":"Feature","id":"buurt-amsterdam-79","properties":{"name":"Tuindorp Nieuwendam","province":"Noord-Holland","department":"Noord-Holland","type":"Buurt","country":"Países Bajos","iso":"NL"},"geometry":{"type":"Polygon","coordinates":[[[4.941,52.3944],[4.9517,52.3912],[4.9525,52.3898],[4.9524,52.3867],[4.9481,52.3868],[4.942,52.391],[4.935,52.393],[4.9402,52.3947],[4.941,52.3944]]]}},{"type":"Feature","id":"buurt-amsterdam-80","properties":{"name":"Tuindorp Buiksloot","province":"Noord-Holland","department":"Noord-Holland","type":"Buurt","country":"Países Bajos","iso":"NL"},"geometry":{"type":"Polygon","coordinates":[[[4.9245,52.3952],[4.9336,52.393],[4.9329,52.3926],[4.9337,52.3922],[4.9251,52.3912],[4.9245,52.3952]]]}},{"type":"Feature","id":"buurt-amsterdam-81","properties":{"name":"Nieuwendammerdijk/Buiksloterdijk","province":"Noord-Holland","department":"Noord-Holland","type":"Buurt","country":"Países Bajos","iso":"NL"},"geometry":{"type":"Polygon","coordinates":[[[4.9148,52.4009],[4.9146,52.4015],[4.9172,52.4011],[4.9223,52.3993],[4.9249,52.3957],[4.9242,52.3948],[4.9251,52.3912],[4.9332,52.3919],[4.9337,52.3922],[4.933,52.3921],[4.933,52.3928],[4.935,52.393],[4.942,52.391],[4.9481,52.3868],[4.9524,52.3867],[4.9524,52.3863],[4.9451,52.386],[4.9449,52.3856],[4.9385,52.3867],[4.9397,52.3906],[4.9332,52.3914],[4.9248,52.3907],[4.9229,52.3972],[4.9213,52.3991],[4.9198,52.4],[4.9148,52.4009]]]}},{"type":"Feature","id":"buurt-amsterdam-82","properties":{"name":"Tuindorp Oostzaan","province":"Noord-Holland","department":"Noord-Holland","type":"Buurt","country":"Países Bajos","iso":"NL"},"geometry":{"type":"Polygon","coordinates":[[[4.8748,52.4161],[4.8781,52.4189],[4.8795,52.4191],[4.8858,52.4147],[4.8959,52.4159],[4.8979,52.4152],[4.9072,52.4079],[4.9066,52.4064],[4.9026,52.4042],[4.8999,52.4016],[4.8936,52.4046],[4.8926,52.4069],[4.8752,52.4152],[4.8748,52.4161]]]}},{"type":"Feature","id":"buurt-amsterdam-83","properties":{"name":"Oostzanerwerf","province":"Noord-Holland","department":"Noord-Holland","type":"Buurt","country":"Países Bajos","iso":"NL"},"geometry":{"type":"Polygon","coordinates":[[[4.8627,52.4299],[4.8667,52.4307],[4.8697,52.4297],[4.8707,52.4304],[4.8733,52.4295],[4.8741,52.428],[4.876,52.4265],[4.8784,52.4258],[4.8906,52.4256],[4.8984,52.4246],[4.8984,52.4165],[4.8971,52.4156],[4.8974,52.4154],[4.8959,52.4159],[4.8858,52.4147],[4.8795,52.4191],[4.8781,52.4189],[4.8748,52.4161],[4.8729,52.4161],[4.8678,52.4183],[4.8645,52.4149],[4.8568,52.4173],[4.8599,52.4205],[4.8579,52.4237],[4.8579,52.4247],[4.8625,52.4288],[4.8627,52.4299]]]}},{"type":"Feature","id":"buurt-amsterdam-84","properties":{"name":"Kadoelen","province":"Noord-Holland","department":"Noord-Holland","type":"Buurt","country":"Países Bajos","iso":"NL"},"geometry":{"type":"Polygon","coordinates":[[[4.8987,52.4245],[4.9205,52.4166],[4.9126,52.4101],[4.909,52.408],[4.9072,52.4079],[4.9044,52.4105],[4.8971,52.4156],[4.8984,52.4165],[4.8987,52.4245]]]}},{"type":"Feature","id":"buurt-amsterdam-85","properties":{"name":"Nieuwendam-Noord","province":"Noord-Holland","department":"Noord-Holland","type":"Buurt","country":"Países Bajos","iso":"NL"},"geometry":{"type":"Polygon","coordinates":[[[4.941,52.3944],[4.9447,52.3979],[4.9466,52.3979],[4.9518,52.4027],[4.9548,52.401],[4.9557,52.4016],[4.9577,52.4013],[4.9588,52.4025],[4.964,52.3993],[4.9708,52.3916],[4.9681,52.3911],[4.9686,52.3904],[4.9524,52.3863],[4.9525,52.3898],[4.9517,52.3912],[4.941,52.3944]]]}},{"type":"Feature","id":"buurt-amsterdam-86","properties":{"name":"Buikslotermeer","province":"Noord-Holland","department":"Noord-Holland","type":"Buurt","country":"Países Bajos","iso":"NL"},"geometry":{"type":"Polygon","coordinates":[[[4.931,52.4117],[4.9351,52.412],[4.9426,52.4139],[4.9445,52.411],[4.9497,52.4079],[4.9584,52.4058],[4.9595,52.4032],[4.9577,52.4013],[4.9557,52.4016],[4.9548,52.401],[4.9518,52.4027],[4.9466,52.3979],[4.9447,52.3979],[4.941,52.3944],[4.9402,52.3947],[4.935,52.393],[4.9245,52.3952],[4.9249,52.3957],[4.9223,52.3993],[4.9252,52.4048],[4.9252,52.4071],[4.9297,52.4111],[4.931,52.4117]]]}},{"type":"Feature","id":"buurt-amsterdam-87","properties":{"name":"Banne Buiksloot","province":"Noord-Holland","department":"Noord-Holland","type":"Buurt","country":"Países Bajos","iso":"NL"},"geometry":{"type":"Polygon","coordinates":[[[4.9205,52.4166],[4.931,52.4117],[4.9297,52.4111],[4.9252,52.4071],[4.9252,52.4048],[4.9223,52.3993],[4.9146,52.4015],[4.9148,52.4009],[4.913,52.4008],[4.9083,52.4012],[4.9022,52.4038],[4.9066,52.4064],[4.9072,52.4079],[4.909,52.408],[4.9126,52.4101],[4.9205,52.4166]]]}},{"type":"Feature","id":"buurt-amsterdam-88","properties":{"name":"Buiksloterham","province":"Noord-Holland","department":"Noord-Holland","type":"Buurt","country":"Países Bajos","iso":"NL"},"geometry":{"type":"Polygon","coordinates":[[[4.8645,52.4149],[4.8678,52.4183],[4.8729,52.4161],[4.8748,52.4161],[4.8752,52.4152],[4.8926,52.4069],[4.8936,52.4046],[4.8999,52.4016],[4.9022,52.4038],[4.9083,52.4012],[4.9099,52.3985],[4.9092,52.3977],[4.9107,52.3969],[4.9132,52.3926],[4.9125,52.3919],[4.9086,52.3933],[4.906,52.3904],[4.9073,52.3862],[4.9061,52.3848],[4.9021,52.3831],[4.8988,52.3825],[4.8971,52.3835],[4.8957,52.3888],[4.8928,52.3933],[4.8887,52.3968],[4.8844,52.3992],[4.8863,52.4006],[4.8645,52.4149]]]}},{"type":"Feature","id":"buurt-amsterdam-89","properties":{"name":"Nieuwendammerham","province":"Noord-Holland","department":"Noord-Holland","type":"Buurt","country":"Países Bajos","iso":"NL"},"geometry":{"type":"Polygon","coordinates":[[[4.9524,52.3863],[4.9524,52.3821],[4.9315,52.382],[4.9198,52.3808],[4.9187,52.3843],[4.9193,52.3844],[4.9188,52.3855],[4.9224,52.3862],[4.9239,52.3876],[4.9281,52.3859],[4.9296,52.3874],[4.9324,52.3863],[4.9329,52.3876],[4.9449,52.3856],[4.9451,52.386],[4.9524,52.3863]]]}},{"type":"Feature","id":"buurt-amsterdam-90","properties":{"name":"Waterland","province":"Noord-Holland","department":"Noord-Holland","type":"Buurt","country":"Países Bajos","iso":"NL"},"geometry":{"type":"MultiPolygon","coordinates":[[[[5.0141,52.3717],[5.0132,52.3717],[5.0125,52.3725],[5.0131,52.3731],[5.0145,52.373],[5.0141,52.3717]]],[[[5.0215,52.3841],[5.0141,52.3742],[5.0134,52.375],[5.0148,52.376],[5.0144,52.3774],[5.0154,52.378],[5.016,52.3775],[5.0165,52.3809],[5.0183,52.3835],[5.0207,52.3839],[5.0235,52.3868],[5.0215,52.3841]]],[[[4.9853,52.4245],[4.9871,52.4228],[4.9892,52.4234],[4.9904,52.4245],[4.9904,52.4255],[5.0002,52.4254],[5.0182,52.4191],[5.0203,52.4199],[5.0216,52.4212],[5.0236,52.4203],[5.0273,52.4199],[5.0295,52.4181],[5.03,52.4156],[5.0335,52.4167],[5.0355,52.4183],[5.0492,52.4151],[5.0578,52.4165],[5.0626,52.4162],[5.0654,52.4172],[5.0683,52.4166],[5.0684,52.4155],[5.0673,52.4134],[5.0576,52.4148],[5.0522,52.4132],[5.0463,52.4067],[5.0384,52.4049],[5.0315,52.4009],[5.0291,52.398],[5.0252,52.3882],[5.0193,52.3867],[5.0171,52.3844],[5.0141,52.3846],[5.0085,52.3827],[5.0131,52.384],[5.0131,52.3835],[5.0109,52.3831],[5.0112,52.3822],[5.013,52.3823],[5.0138,52.3808],[5.0136,52.3787],[5.0124,52.3775],[5.013,52.377],[5.0117,52.3758],[5.0121,52.3749],[5.0115,52.374],[5.0128,52.3732],[5.0119,52.3737],[5.0084,52.3726],[5.0018,52.3749],[4.9999,52.3782],[4.9985,52.3788],[4.9926,52.3772],[4.9895,52.3776],[4.9838,52.374],[4.9817,52.3735],[4.9801,52.3737],[4.974,52.3794],[4.974,52.3764],[4.973,52.3798],[4.9686,52.3793],[4.9633,52.3836],[4.9612,52.3818],[4.9615,52.3814],[4.9596,52.382],[4.9609,52.3812],[4.958,52.382],[4.9524,52.3821],[4.9524,52.3863],[4.9686,52.3904],[4.9681,52.3911],[4.9708,52.3916],[4.964,52.3993],[4.9588,52.4025],[4.9595,52.4032],[4.9584,52.4058],[4.9497,52.4079],[4.9445,52.411],[4.9426,52.4139],[4.9448,52.415],[4.9478,52.4216],[4.9515,52.4219],[4.9513,52.4232],[4.9528,52.4237],[4.9536,52.4222],[4.9559,52.4224],[4.9559,52.422],[4.9733,52.4228],[4.9826,52.4268],[4.9853,52.4245]]]]}},{"type":"Feature","id":"buurt-amsterdam-91","properties":{"name":"Amstel III/Bullewijk","province":"Noord-Holland","department":"Noord-Holland","type":"Buurt","country":"Países Bajos","iso":"NL"},"geometry":{"type":"Polygon","coordinates":[[[4.9294,52.3086],[4.9341,52.3119],[4.9364,52.3127],[4.9352,52.3139],[4.9387,52.3151],[4.938,52.3165],[4.9398,52.3171],[4.9403,52.3183],[4.9396,52.3191],[4.9402,52.3193],[4.9719,52.2844],[4.9697,52.2831],[4.9677,52.2796],[4.9665,52.2801],[4.9662,52.281],[4.9622,52.2802],[4.9611,52.2782],[4.9571,52.2787],[4.9552,52.2783],[4.9349,52.302],[4.9303,52.3064],[4.9294,52.3086]]]}},{"type":"Feature","id":"buurt-amsterdam-92","properties":{"name":"Bijlmer-Centrum (D, F, H)","province":"Noord-Holland","department":"Noord-Holland","type":"Buurt","country":"Países Bajos","iso":"NL"},"geometry":{"type":"Polygon","coordinates":[[[4.9447,52.3271],[4.9477,52.3281],[4.9527,52.3226],[4.9567,52.324],[4.9714,52.308],[4.9555,52.3025],[4.9406,52.3188],[4.9402,52.3193],[4.941,52.3196],[4.9399,52.3219],[4.9376,52.3233],[4.938,52.3241],[4.9405,52.3257],[4.9447,52.3271]]]}},{"type":"Feature","id":"buurt-amsterdam-93","properties":{"name":"Bijlmer-Oost (E, G, K)","province":"Noord-Holland","department":"Noord-Holland","type":"Buurt","country":"Países Bajos","iso":"NL"},"geometry":{"type":"Polygon","coordinates":[[[4.9779,52.3311],[4.9848,52.3305],[4.9892,52.3279],[4.9969,52.3176],[4.9893,52.3141],[4.9714,52.308],[4.9567,52.324],[4.9675,52.3278],[4.9703,52.3262],[4.974,52.3289],[4.9753,52.3306],[4.9779,52.3311]]]}},{"type":"Feature","id":"buurt-amsterdam-94","properties":{"name":"Nellestein","province":"Noord-Holland","department":"Noord-Holland","type":"Buurt","country":"Países Bajos","iso":"NL"},"geometry":{"type":"Polygon","coordinates":[[[4.9969,52.3176],[4.9973,52.3142],[5.0016,52.3108],[5.0076,52.3098],[5.0098,52.3083],[5.011,52.3059],[5.0141,52.3042],[5.0142,52.3036],[5.0118,52.3034],[5.0078,52.3015],[4.9791,52.3015],[4.9763,52.3026],[4.9714,52.308],[4.9893,52.3141],[4.9969,52.3176]]]}},{"type":"Feature","id":"buurt-amsterdam-95","properties":{"name":"Holendrecht/Reigersbos","province":"Noord-Holland","department":"Noord-Holland","type":"Buurt","country":"Países Bajos","iso":"NL"},"geometry":{"type":"Polygon","coordinates":[[[4.9555,52.3025],[4.9714,52.308],[4.9763,52.3026],[4.9799,52.3015],[4.9801,52.3002],[4.9819,52.2987],[4.9819,52.2962],[4.9826,52.2947],[4.982,52.2927],[4.9822,52.2906],[4.9835,52.2904],[4.9719,52.2844],[4.9555,52.3025]]]}},{"type":"Feature","id":"buurt-amsterdam-96","properties":{"name":"Gein","province":"Noord-Holland","department":"Noord-Holland","type":"Buurt","country":"Países Bajos","iso":"NL"},"geometry":{"type":"Polygon","coordinates":[[[5.0078,52.3015],[5.0053,52.2984],[5.0038,52.2985],[5.0032,52.2961],[5.0019,52.2959],[5.0018,52.2928],[4.9975,52.2891],[4.9822,52.2906],[4.982,52.2927],[4.9826,52.2947],[4.9819,52.2962],[4.9819,52.2987],[4.9801,52.3002],[4.9799,52.3015],[5.0078,52.3015]]]}},{"type":"Feature","id":"buurt-amsterdam-97","properties":{"name":"Driemond","province":"Noord-Holland","department":"Noord-Holland","type":"Buurt","country":"Países Bajos","iso":"NL"},"geometry":{"type":"Polygon","coordinates":[[[5.0161,52.3245],[5.0167,52.323],[5.0179,52.3232],[5.0215,52.3025],[5.0142,52.3036],[5.011,52.3059],[5.0098,52.3083],[5.0076,52.3098],[5.0016,52.3108],[4.9979,52.314],[5.0161,52.3245]]]}}]}