{"type":"FeatureCollection","features":[{"type":"Feature","id":"py00001001","properties":{"name":"Sajonia","province":"Asunción","department":"Asunción","type":"Barrio","country":"Paraguay","iso":"PY"},"geometry":{"type":"Polygon","coordinates":[[[-57.673,-25.3009],[-57.673,-25.3021],[-57.6688,-25.302],[-57.669,-25.3027],[-57.6685,-25.3029],[-57.6667,-25.3022],[-57.6648,-25.2997],[-57.6669,-25.2909],[-57.6659,-25.2907],[-57.6672,-25.2849],[-57.6716,-25.2849],[-57.6728,-25.2876],[-57.673,-25.3009]]]}},{"type":"Feature","id":"py00001002","properties":{"name":"San Antonio","province":"Asunción","department":"Asunción","type":"Barrio","country":"Paraguay","iso":"PY"},"geometry":{"type":"Polygon","coordinates":[[[-57.6661,-25.2895],[-57.6659,-25.2907],[-57.6531,-25.2886],[-57.6569,-25.2727],[-57.6657,-25.2773],[-57.6632,-25.2803],[-57.6626,-25.2824],[-57.6617,-25.2823],[-57.6613,-25.2841],[-57.6622,-25.2842],[-57.6615,-25.2876],[-57.6664,-25.2884],[-57.6661,-25.2895]]]}},{"type":"Feature","id":"py00001003","properties":{"name":"Dr. Gaspar Rodriguez de Francia","province":"Asunción","department":"Asunción","type":"Barrio","country":"Paraguay","iso":"PY"},"geometry":{"type":"Polygon","coordinates":[[[-57.6476,-25.2872],[-57.6401,-25.2767],[-57.6389,-25.2762],[-57.6415,-25.2758],[-57.6479,-25.2725],[-57.6495,-25.2728],[-57.651,-25.2692],[-57.6569,-25.2727],[-57.6531,-25.2886],[-57.6476,-25.2872]]]}},{"type":"Feature","id":"py00001004","properties":{"name":"Ita Pyta Punta","province":"Asunción","department":"Asunción","type":"Barrio","country":"Paraguay","iso":"PY"},"geometry":{"type":"Polygon","coordinates":[[[-57.6687,-25.28],[-57.6716,-25.2849],[-57.6672,-25.2849],[-57.6664,-25.2884],[-57.6615,-25.2876],[-57.6622,-25.2842],[-57.6613,-25.2841],[-57.6617,-25.2823],[-57.6626,-25.2824],[-57.6632,-25.2803],[-57.6657,-25.2773],[-57.6687,-25.28]]]}},{"type":"Feature","id":"py00001005","properties":{"name":"La Encarnacion","province":"Asunción","department":"Asunción","type":"Barrio","country":"Paraguay","iso":"PY"},"geometry":{"type":"Polygon","coordinates":[[[-57.6424,-25.289],[-57.6415,-25.2896],[-57.6346,-25.2805],[-57.6353,-25.2799],[-57.6326,-25.2757],[-57.6342,-25.2747],[-57.6394,-25.2759],[-57.6389,-25.2762],[-57.6401,-25.2767],[-57.647,-25.2864],[-57.6424,-25.289]]]}},{"type":"Feature","id":"py00001006","properties":{"name":"Tacumbu","province":"Asunción","department":"Asunción","type":"Barrio","country":"Paraguay","iso":"PY"},"geometry":{"type":"Polygon","coordinates":[[[-57.6655,-25.3222],[-57.6651,-25.3224],[-57.6525,-25.305],[-57.652,-25.3052],[-57.6415,-25.2896],[-57.647,-25.2864],[-57.6558,-25.2987],[-57.6592,-25.3005],[-57.6612,-25.2988],[-57.6626,-25.2996],[-57.6635,-25.299],[-57.6667,-25.3022],[-57.6683,-25.3029],[-57.669,-25.3027],[-57.6688,-25.302],[-57.673,-25.3021],[-57.6739,-25.3158],[-57.6725,-25.322],[-57.6681,-25.3208],[-57.6655,-25.3222]]]}},{"type":"Feature","id":"py00001007","properties":{"name":"Jukyty","province":"Asunción","department":"Asunción","type":"Barrio","country":"Paraguay","iso":"PY"},"geometry":{"type":"Polygon","coordinates":[[[-57.64,-25.3433],[-57.6384,-25.3431],[-57.6384,-25.3381],[-57.6398,-25.3367],[-57.6387,-25.3357],[-57.6383,-25.3323],[-57.6396,-25.3308],[-57.6389,-25.3295],[-57.6392,-25.3277],[-57.641,-25.3241],[-57.6438,-25.3252],[-57.6463,-25.3271],[-57.6502,-25.3287],[-57.6541,-25.3293],[-57.6518,-25.3311],[-57.6545,-25.333],[-57.6525,-25.3355],[-57.6512,-25.3358],[-57.6486,-25.3342],[-57.6472,-25.3352],[-57.6465,-25.3351],[-57.6472,-25.3374],[-57.6466,-25.3439],[-57.6452,-25.345],[-57.64,-25.3433]]]}},{"type":"Feature","id":"py00001008","properties":{"name":"La Catedral","province":"Asunción","department":"Asunción","type":"Barrio","country":"Paraguay","iso":"PY"},"geometry":{"type":"Polygon","coordinates":[[[-57.6341,-25.2907],[-57.6333,-25.2912],[-57.6296,-25.2859],[-57.6284,-25.2842],[-57.6292,-25.2837],[-57.6281,-25.2821],[-57.6308,-25.2817],[-57.6344,-25.2787],[-57.6353,-25.2799],[-57.6346,-25.2805],[-57.6399,-25.2874],[-57.6341,-25.2907]]]}},{"type":"Feature","id":"py00001009","properties":{"name":"General Jose Eduvigis Diaz","province":"Asunción","department":"Asunción","type":"Barrio","country":"Paraguay","iso":"PY"},"geometry":{"type":"Polygon","coordinates":[[[-57.6438,-25.293],[-57.644,-25.2934],[-57.6343,-25.2989],[-57.6321,-25.2993],[-57.6316,-25.2952],[-57.6348,-25.2934],[-57.6333,-25.2912],[-57.6399,-25.2874],[-57.6438,-25.293]]]}},{"type":"Feature","id":"py00001010","properties":{"name":"Obrero Intendente B. Guggiari","province":"Asunción","department":"Asunción","type":"Barrio","country":"Paraguay","iso":"PY"},"geometry":{"type":"Polygon","coordinates":[[[-57.6503,-25.3026],[-57.6507,-25.3033],[-57.6353,-25.312],[-57.6331,-25.313],[-57.6309,-25.3125],[-57.6325,-25.302],[-57.6321,-25.2993],[-57.6343,-25.2989],[-57.644,-25.2934],[-57.6503,-25.3026]]]}},{"type":"Feature","id":"py00001011","properties":{"name":"Roberto L. Petit","province":"Asunción","department":"Asunción","type":"Barrio","country":"Paraguay","iso":"PY"},"geometry":{"type":"Polygon","coordinates":[[[-57.639,-25.3181],[-57.6367,-25.3163],[-57.6359,-25.3148],[-57.6348,-25.3151],[-57.6331,-25.3136],[-57.6323,-25.3143],[-57.6307,-25.3136],[-57.6309,-25.3125],[-57.6331,-25.313],[-57.6353,-25.312],[-57.6507,-25.3033],[-57.6552,-25.3089],[-57.6503,-25.3117],[-57.6497,-25.3126],[-57.6491,-25.3123],[-57.639,-25.3181]]]}},{"type":"Feature","id":"py00001012","properties":{"name":"Ricardo Brugada","province":"Asunción","department":"Asunción","type":"Barrio","country":"Paraguay","iso":"PY"},"geometry":{"type":"Polygon","coordinates":[[[-57.6344,-25.2787],[-57.6308,-25.2817],[-57.6281,-25.2821],[-57.6292,-25.2837],[-57.6275,-25.2847],[-57.6269,-25.2839],[-57.6167,-25.2862],[-57.616,-25.2791],[-57.6176,-25.2763],[-57.6212,-25.2735],[-57.6223,-25.2742],[-57.6251,-25.2731],[-57.6252,-25.2726],[-57.6261,-25.2728],[-57.6265,-25.2723],[-57.6261,-25.2723],[-57.628,-25.2722],[-57.6287,-25.273],[-57.6269,-25.2728],[-57.6273,-25.2737],[-57.629,-25.2738],[-57.6306,-25.2756],[-57.6326,-25.2757],[-57.6344,-25.2787]]]}},{"type":"Feature","id":"py00001013","properties":{"name":"San Roque","province":"Asunción","department":"Asunción","type":"Barrio","country":"Paraguay","iso":"PY"},"geometry":{"type":"Polygon","coordinates":[[[-57.6321,-25.2949],[-57.6317,-25.2952],[-57.6302,-25.293],[-57.6285,-25.2939],[-57.6262,-25.2908],[-57.6239,-25.2958],[-57.6167,-25.2862],[-57.6269,-25.2839],[-57.6275,-25.2847],[-57.6284,-25.2842],[-57.6348,-25.2934],[-57.6321,-25.2949]]]}},{"type":"Feature","id":"py00001014","properties":{"name":"Tte. Silvio Pettirossi","province":"Asunción","department":"Asunción","type":"Barrio","country":"Paraguay","iso":"PY"},"geometry":{"type":"Polygon","coordinates":[[[-57.6215,-25.3061],[-57.6199,-25.3042],[-57.6207,-25.3015],[-57.6262,-25.2908],[-57.6285,-25.2939],[-57.6302,-25.293],[-57.6317,-25.2952],[-57.6325,-25.3014],[-57.6319,-25.3064],[-57.6271,-25.3064],[-57.6235,-25.3086],[-57.6215,-25.3061]]]}},{"type":"Feature","id":"py00001015","properties":{"name":"San Vicente","province":"Asunción","department":"Asunción","type":"Barrio","country":"Paraguay","iso":"PY"},"geometry":{"type":"Polygon","coordinates":[[[-57.6273,-25.3267],[-57.626,-25.3317],[-57.6232,-25.328],[-57.6213,-25.3276],[-57.6214,-25.3261],[-57.62,-25.3251],[-57.6216,-25.3235],[-57.6193,-25.3197],[-57.6197,-25.3192],[-57.6146,-25.3125],[-57.6166,-25.3106],[-57.6158,-25.3088],[-57.6188,-25.3068],[-57.6199,-25.3042],[-57.6235,-25.3086],[-57.6271,-25.3064],[-57.6319,-25.3064],[-57.6273,-25.3267]]]}},{"type":"Feature","id":"py00001016","properties":{"name":"Pinoza","province":"Asunción","department":"Asunción","type":"Barrio","country":"Paraguay","iso":"PY"},"geometry":{"type":"Polygon","coordinates":[[[-57.6149,-25.3123],[-57.6122,-25.3149],[-57.6076,-25.3049],[-57.6178,-25.3016],[-57.6217,-25.2994],[-57.6189,-25.3065],[-57.6158,-25.3088],[-57.6166,-25.3106],[-57.6149,-25.3123]]]}},{"type":"Feature","id":"py00001017","properties":{"name":"Vista Alegre","province":"Asunción","department":"Asunción","type":"Barrio","country":"Paraguay","iso":"PY"},"geometry":{"type":"Polygon","coordinates":[[[-57.6122,-25.3149],[-57.6127,-25.3159],[-57.6112,-25.3167],[-57.6115,-25.3173],[-57.6079,-25.3183],[-57.6095,-25.3224],[-57.6079,-25.3208],[-57.6045,-25.3237],[-57.6054,-25.3247],[-57.6031,-25.3265],[-57.6009,-25.324],[-57.5963,-25.3086],[-57.6076,-25.3049],[-57.6122,-25.3149]]]}},{"type":"Feature","id":"py00001018","properties":{"name":"Mburicao","province":"Asunción","department":"Asunción","type":"Barrio","country":"Paraguay","iso":"PY"},"geometry":{"type":"Polygon","coordinates":[[[-57.5979,-25.3081],[-57.5963,-25.3086],[-57.5927,-25.2961],[-57.5947,-25.2956],[-57.5941,-25.2941],[-57.5949,-25.294],[-57.597,-25.2913],[-57.6033,-25.2925],[-57.6044,-25.2971],[-57.6076,-25.3049],[-57.5979,-25.3081]]]}},{"type":"Feature","id":"py00001019","properties":{"name":"General Bernardino Caballero","province":"Asunción","department":"Asunción","type":"Barrio","country":"Paraguay","iso":"PY"},"geometry":{"type":"Polygon","coordinates":[[[-57.6079,-25.3048],[-57.6044,-25.2971],[-57.6033,-25.2925],[-57.6112,-25.2939],[-57.6139,-25.3029],[-57.6079,-25.3048]]]}},{"type":"Feature","id":"py00001020","properties":{"name":"Ciudad Nueva","province":"Asunción","department":"Asunción","type":"Barrio","country":"Paraguay","iso":"PY"},"geometry":{"type":"Polygon","coordinates":[[[-57.6147,-25.3026],[-57.6139,-25.3029],[-57.6112,-25.2939],[-57.6191,-25.2895],[-57.6239,-25.2958],[-57.6217,-25.2994],[-57.6147,-25.3026]]]}},{"type":"Feature","id":"py00001021","properties":{"name":"Las Mercedes","province":"Asunción","department":"Asunción","type":"Barrio","country":"Paraguay","iso":"PY"},"geometry":{"type":"Polygon","coordinates":[[[-57.621,-25.2737],[-57.6176,-25.2763],[-57.6158,-25.2799],[-57.6167,-25.2862],[-57.6191,-25.2895],[-57.6112,-25.2939],[-57.6096,-25.2875],[-57.6098,-25.2741],[-57.6136,-25.2701],[-57.6183,-25.271],[-57.6192,-25.2738],[-57.621,-25.2737]]]}},{"type":"Feature","id":"py00001022","properties":{"name":"Bañado Cara Cara","province":"Asunción","department":"Asunción","type":"Barrio","country":"Paraguay","iso":"PY"},"geometry":{"type":"Polygon","coordinates":[[[-57.5931,-25.2411],[-57.6008,-25.2449],[-57.5988,-25.2486],[-57.5973,-25.2559],[-57.5966,-25.2544],[-57.5954,-25.2547],[-57.5941,-25.253],[-57.5934,-25.2539],[-57.5923,-25.2537],[-57.5921,-25.253],[-57.5892,-25.2512],[-57.5886,-25.2519],[-57.588,-25.2504],[-57.5892,-25.2494],[-57.5861,-25.2473],[-57.5881,-25.2464],[-57.5931,-25.2411]]]}},{"type":"Feature","id":"py00001023","properties":{"name":"Jara","province":"Asunción","department":"Asunción","type":"Barrio","country":"Paraguay","iso":"PY"},"geometry":{"type":"Polygon","coordinates":[[[-57.6095,-25.2836],[-57.6095,-25.2844],[-57.606,-25.2851],[-57.6056,-25.2831],[-57.6006,-25.2815],[-57.5971,-25.2667],[-57.5983,-25.2669],[-57.6097,-25.2754],[-57.6095,-25.2836]]]}},{"type":"Feature","id":"py00001024","properties":{"name":"Mariscal Francisco Solano Lopez","province":"Asunción","department":"Asunción","type":"Barrio","country":"Paraguay","iso":"PY"},"geometry":{"type":"Polygon","coordinates":[[[-57.6109,-25.2927],[-57.611,-25.2939],[-57.597,-25.2913],[-57.5951,-25.2878],[-57.5945,-25.2824],[-57.6006,-25.2815],[-57.6056,-25.2831],[-57.606,-25.2851],[-57.6095,-25.2844],[-57.6096,-25.2875],[-57.6109,-25.2927]]]}},{"type":"Feature","id":"py00001025","properties":{"name":"Virgen del Huerto","province":"Asunción","department":"Asunción","type":"Barrio","country":"Paraguay","iso":"PY"},"geometry":{"type":"Polygon","coordinates":[[[-57.5967,-25.269],[-57.5978,-25.2697],[-57.6006,-25.2815],[-57.5945,-25.2824],[-57.5931,-25.2676],[-57.5967,-25.269]]]}},{"type":"Feature","id":"py00001026","properties":{"name":"Banco San Miguel","province":"Asunción","department":"Asunción","type":"Barrio","country":"Paraguay","iso":"PY"},"geometry":{"type":"Polygon","coordinates":[[[-57.6396,-25.2619],[-57.651,-25.2692],[-57.6495,-25.2728],[-57.6479,-25.2725],[-57.6415,-25.2758],[-57.6395,-25.276],[-57.6345,-25.2746],[-57.6333,-25.2757],[-57.6306,-25.2756],[-57.629,-25.2738],[-57.6277,-25.274],[-57.6268,-25.2732],[-57.6273,-25.2726],[-57.6287,-25.273],[-57.628,-25.2722],[-57.6252,-25.2726],[-57.6236,-25.2739],[-57.6221,-25.2742],[-57.6206,-25.2735],[-57.6197,-25.274],[-57.6183,-25.271],[-57.6136,-25.2701],[-57.6112,-25.2722],[-57.6066,-25.2683],[-57.603,-25.2659],[-57.6024,-25.2665],[-57.6003,-25.2643],[-57.6115,-25.2491],[-57.6228,-25.2527],[-57.6278,-25.255],[-57.6396,-25.2619]]]}},{"type":"Feature","id":"py00001027","properties":{"name":"San Cayetano","province":"Asunción","department":"Asunción","type":"Barrio","country":"Paraguay","iso":"PY"},"geometry":{"type":"Polygon","coordinates":[[[-57.6542,-25.3292],[-57.6502,-25.3287],[-57.6458,-25.3269],[-57.6419,-25.3245],[-57.6431,-25.3211],[-57.6371,-25.3191],[-57.6461,-25.314],[-57.6491,-25.3191],[-57.6509,-25.3187],[-57.6556,-25.3197],[-57.6583,-25.3217],[-57.6643,-25.3229],[-57.6621,-25.3247],[-57.6542,-25.3292]]]}},{"type":"Feature","id":"py00001028","properties":{"name":"Republicano","province":"Asunción","department":"Asunción","type":"Barrio","country":"Paraguay","iso":"PY"},"geometry":{"type":"Polygon","coordinates":[[[-57.6284,-25.327],[-57.6273,-25.3267],[-57.6307,-25.3136],[-57.6323,-25.3143],[-57.6331,-25.3136],[-57.6348,-25.3151],[-57.6359,-25.3148],[-57.6386,-25.3178],[-57.6387,-25.3182],[-57.6371,-25.3191],[-57.6431,-25.3211],[-57.6419,-25.3245],[-57.6379,-25.3229],[-57.6336,-25.3234],[-57.6335,-25.3251],[-57.6347,-25.3269],[-57.6306,-25.3274],[-57.6284,-25.327]]]}},{"type":"Feature","id":"py00001029","properties":{"name":"Santa Ana","province":"Asunción","department":"Asunción","type":"Barrio","country":"Paraguay","iso":"PY"},"geometry":{"type":"Polygon","coordinates":[[[-57.6643,-25.3229],[-57.6583,-25.3217],[-57.6556,-25.3197],[-57.6509,-25.3187],[-57.6491,-25.3191],[-57.6461,-25.314],[-57.6491,-25.3123],[-57.6497,-25.3126],[-57.6503,-25.3117],[-57.6552,-25.3089],[-57.6651,-25.3224],[-57.6643,-25.3229]]]}},{"type":"Feature","id":"py00001030","properties":{"name":"Ita Enramada","province":"Asunción","department":"Asunción","type":"Barrio","country":"Paraguay","iso":"PY"},"geometry":{"type":"Polygon","coordinates":[[[-57.6451,-25.3768],[-57.6414,-25.3809],[-57.6353,-25.3675],[-57.6386,-25.3654],[-57.6377,-25.3622],[-57.6369,-25.3623],[-57.6367,-25.3551],[-57.636,-25.355],[-57.6364,-25.3531],[-57.6353,-25.3494],[-57.6364,-25.3491],[-57.6345,-25.3427],[-57.6406,-25.3434],[-57.6452,-25.345],[-57.647,-25.3432],[-57.6472,-25.3374],[-57.6465,-25.3351],[-57.6472,-25.3352],[-57.6486,-25.3342],[-57.6512,-25.3358],[-57.6525,-25.3355],[-57.6545,-25.333],[-57.6518,-25.3311],[-57.6542,-25.3289],[-57.6621,-25.3247],[-57.6681,-25.3208],[-57.6725,-25.322],[-57.668,-25.3322],[-57.6672,-25.3357],[-57.6678,-25.3453],[-57.6666,-25.3491],[-57.6618,-25.3564],[-57.6501,-25.3661],[-57.6483,-25.3684],[-57.6466,-25.3741],[-57.6451,-25.3768]]]}},{"type":"Feature","id":"py00001031","properties":{"name":"Santa Librada","province":"Asunción","department":"Asunción","type":"Barrio","country":"Paraguay","iso":"PY"},"geometry":{"type":"Polygon","coordinates":[[[-57.6378,-25.343],[-57.634,-25.3426],[-57.6339,-25.3412],[-57.6333,-25.3397],[-57.6325,-25.3397],[-57.6324,-25.3384],[-57.6341,-25.338],[-57.6332,-25.3379],[-57.6323,-25.3363],[-57.6291,-25.3338],[-57.6278,-25.3331],[-57.6272,-25.3334],[-57.626,-25.3317],[-57.6273,-25.3267],[-57.6306,-25.3274],[-57.6347,-25.3269],[-57.6335,-25.3251],[-57.6336,-25.3234],[-57.6379,-25.3229],[-57.641,-25.3241],[-57.6392,-25.3277],[-57.6389,-25.3295],[-57.6396,-25.3308],[-57.6383,-25.3323],[-57.6387,-25.3357],[-57.6398,-25.3367],[-57.6384,-25.3381],[-57.6386,-25.3422],[-57.6384,-25.3431],[-57.6378,-25.343]]]}},{"type":"Feature","id":"py00001032","properties":{"name":"San Juan","province":"Asunción","department":"Asunción","type":"Barrio","country":"Paraguay","iso":"PY"},"geometry":{"type":"Polygon","coordinates":[[[-57.611,-25.2721],[-57.6098,-25.2741],[-57.6098,-25.2754],[-57.5976,-25.2664],[-57.6001,-25.2638],[-57.6009,-25.2653],[-57.6024,-25.2665],[-57.603,-25.2659],[-57.6066,-25.2683],[-57.611,-25.2721]]]}},{"type":"Feature","id":"py00001033","properties":{"name":"Presidente Carlos Antonio Lopez","province":"Asunción","department":"Asunción","type":"Barrio","country":"Paraguay","iso":"PY"},"geometry":{"type":"Polygon","coordinates":[[[-57.6484,-25.2884],[-57.6479,-25.2877],[-57.6669,-25.2909],[-57.6648,-25.2997],[-57.6657,-25.3004],[-57.6655,-25.3008],[-57.6635,-25.299],[-57.6626,-25.2996],[-57.6612,-25.2988],[-57.6592,-25.3005],[-57.6558,-25.2987],[-57.6484,-25.2884]]]}},{"type":"Feature","id":"py00001034","properties":{"name":"Nazareth","province":"Asunción","department":"Asunción","type":"Barrio","country":"Paraguay","iso":"PY"},"geometry":{"type":"Polygon","coordinates":[[[-57.5949,-25.3227],[-57.5871,-25.3119],[-57.5963,-25.3086],[-57.6009,-25.324],[-57.6023,-25.3256],[-57.599,-25.328],[-57.5949,-25.3227]]]}},{"type":"Feature","id":"py00001035","properties":{"name":"Terminal","province":"Asunción","department":"Asunción","type":"Barrio","country":"Paraguay","iso":"PY"},"geometry":{"type":"Polygon","coordinates":[[[-57.5919,-25.3357],[-57.5891,-25.3349],[-57.59,-25.3342],[-57.5865,-25.3304],[-57.5878,-25.329],[-57.5871,-25.3286],[-57.5897,-25.3244],[-57.5942,-25.3217],[-57.599,-25.328],[-57.5975,-25.3291],[-57.5964,-25.328],[-57.5957,-25.3285],[-57.5964,-25.3292],[-57.5956,-25.3299],[-57.5962,-25.3303],[-57.5944,-25.3328],[-57.5935,-25.3323],[-57.5919,-25.3357]]]}},{"type":"Feature","id":"py00001036","properties":{"name":"Hipodromo","province":"Asunción","department":"Asunción","type":"Barrio","country":"Paraguay","iso":"PY"},"geometry":{"type":"Polygon","coordinates":[[[-57.5748,-25.3172],[-57.5741,-25.3164],[-57.5871,-25.3119],[-57.5942,-25.3217],[-57.5897,-25.3244],[-57.5871,-25.3286],[-57.5878,-25.329],[-57.5865,-25.3304],[-57.5748,-25.3172]]]}},{"type":"Feature","id":"py00001037","properties":{"name":"San Pablo","province":"Asunción","department":"Asunción","type":"Barrio","country":"Paraguay","iso":"PY"},"geometry":{"type":"Polygon","coordinates":[[[-57.5884,-25.3403],[-57.5861,-25.3414],[-57.5844,-25.3388],[-57.5604,-25.3202],[-57.5741,-25.3164],[-57.59,-25.3342],[-57.5891,-25.3349],[-57.5898,-25.3351],[-57.5882,-25.338],[-57.5905,-25.3388],[-57.5895,-25.3404],[-57.5884,-25.3403]]]}},{"type":"Feature","id":"py00001038","properties":{"name":"Villa Aurelia","province":"Asunción","department":"Asunción","type":"Barrio","country":"Paraguay","iso":"PY"},"geometry":{"type":"Polygon","coordinates":[[[-57.5703,-25.3176],[-57.5604,-25.3202],[-57.5557,-25.3135],[-57.5537,-25.3097],[-57.5532,-25.3075],[-57.5625,-25.3023],[-57.5741,-25.3164],[-57.5703,-25.3176]]]}},{"type":"Feature","id":"py00001039","properties":{"name":"Los Laureles","province":"Asunción","department":"Asunción","type":"Barrio","country":"Paraguay","iso":"PY"},"geometry":{"type":"Polygon","coordinates":[[[-57.5711,-25.3129],[-57.5704,-25.3121],[-57.5839,-25.3066],[-57.5871,-25.3119],[-57.5741,-25.3164],[-57.5711,-25.3129]]]}},{"type":"Feature","id":"py00001040","properties":{"name":"Tembetary","province":"Asunción","department":"Asunción","type":"Barrio","country":"Paraguay","iso":"PY"},"geometry":{"type":"Polygon","coordinates":[[[-57.588,-25.3116],[-57.5871,-25.3119],[-57.5845,-25.3076],[-57.5947,-25.303],[-57.5963,-25.3086],[-57.588,-25.3116]]]}},{"type":"Feature","id":"py00001041","properties":{"name":"Recoleta","province":"Asunción","department":"Asunción","type":"Barrio","country":"Paraguay","iso":"PY"},"geometry":{"type":"Polygon","coordinates":[[[-57.597,-25.2913],[-57.5949,-25.294],[-57.5941,-25.2941],[-57.5947,-25.2956],[-57.5927,-25.2961],[-57.5947,-25.303],[-57.5845,-25.3076],[-57.5771,-25.2953],[-57.5893,-25.29],[-57.5896,-25.2894],[-57.5887,-25.2865],[-57.595,-25.2872],[-57.597,-25.2913]]]}},{"type":"Feature","id":"py00001042","properties":{"name":"Villa Morra","province":"Asunción","department":"Asunción","type":"Barrio","country":"Paraguay","iso":"PY"},"geometry":{"type":"Polygon","coordinates":[[[-57.578,-25.2949],[-57.5771,-25.2953],[-57.5719,-25.2865],[-57.579,-25.285],[-57.5887,-25.2865],[-57.5896,-25.2894],[-57.5893,-25.29],[-57.578,-25.2949]]]}},{"type":"Feature","id":"py00001043","properties":{"name":"Mariscal Jose Felix Estigarribia","province":"Asunción","department":"Asunción","type":"Barrio","country":"Paraguay","iso":"PY"},"geometry":{"type":"Polygon","coordinates":[[[-57.5631,-25.3031],[-57.5625,-25.3023],[-57.5771,-25.2953],[-57.5839,-25.3066],[-57.5704,-25.3121],[-57.5631,-25.3031]]]}},{"type":"Feature","id":"py00001044","properties":{"name":"San Cristobal","province":"Asunción","department":"Asunción","type":"Barrio","country":"Paraguay","iso":"PY"},"geometry":{"type":"Polygon","coordinates":[[[-57.5575,-25.2939],[-57.557,-25.293],[-57.5629,-25.2927],[-57.5737,-25.2897],[-57.5771,-25.2953],[-57.5629,-25.3021],[-57.5575,-25.2939]]]}},{"type":"Feature","id":"py00001045","properties":{"name":"Ykua Sati","province":"Asunción","department":"Asunción","type":"Barrio","country":"Paraguay","iso":"PY"},"geometry":{"type":"Polygon","coordinates":[[[-57.5503,-25.2934],[-57.5545,-25.2888],[-57.5597,-25.2854],[-57.5643,-25.2834],[-57.5673,-25.284],[-57.5718,-25.2865],[-57.5737,-25.2897],[-57.5629,-25.2927],[-57.5503,-25.2934]]]}},{"type":"Feature","id":"py00001046","properties":{"name":"Luis Alberto de Herrera","province":"Asunción","department":"Asunción","type":"Barrio","country":"Paraguay","iso":"PY"},"geometry":{"type":"Polygon","coordinates":[[[-57.5538,-25.3071],[-57.5532,-25.3075],[-57.5503,-25.2934],[-57.557,-25.293],[-57.5629,-25.3021],[-57.5538,-25.3071]]]}},{"type":"Feature","id":"py00001047","properties":{"name":"Santa Maria","province":"Asunción","department":"Asunción","type":"Barrio","country":"Paraguay","iso":"PY"},"geometry":{"type":"Polygon","coordinates":[[[-57.5536,-25.3093],[-57.5521,-25.3089],[-57.5452,-25.2987],[-57.5503,-25.2932],[-57.5536,-25.3093]]]}},{"type":"Feature","id":"py00001048","properties":{"name":"Ytay","province":"Asunción","department":"Asunción","type":"Barrio","country":"Paraguay","iso":"PY"},"geometry":{"type":"Polygon","coordinates":[[[-57.5443,-25.275],[-57.5451,-25.2753],[-57.5503,-25.2932],[-57.5452,-25.2987],[-57.5431,-25.2962],[-57.5438,-25.2937],[-57.5419,-25.292],[-57.5412,-25.2864],[-57.5405,-25.2857],[-57.5412,-25.2847],[-57.5405,-25.2816],[-57.5414,-25.2802],[-57.5413,-25.2777],[-57.5425,-25.2765],[-57.5426,-25.2743],[-57.5443,-25.275]]]}},{"type":"Feature","id":"py00001049","properties":{"name":"San Jorge","province":"Asunción","department":"Asunción","type":"Barrio","country":"Paraguay","iso":"PY"},"geometry":{"type":"Polygon","coordinates":[[[-57.5636,-25.2833],[-57.5642,-25.2836],[-57.5597,-25.2854],[-57.5545,-25.2888],[-57.5503,-25.2932],[-57.5451,-25.2753],[-57.5557,-25.2784],[-57.5636,-25.2833]]]}},{"type":"Feature","id":"py00001050","properties":{"name":"Tablada Nueva","province":"Asunción","department":"Asunción","type":"Barrio","country":"Paraguay","iso":"PY"},"geometry":{"type":"Polygon","coordinates":[[[-57.6008,-25.2449],[-57.6115,-25.2491],[-57.6006,-25.2643],[-57.5999,-25.2639],[-57.5976,-25.2664],[-57.5922,-25.2624],[-57.5939,-25.2606],[-57.5932,-25.2598],[-57.5938,-25.2582],[-57.5972,-25.2563],[-57.5988,-25.2486],[-57.6008,-25.2449]]]}},{"type":"Feature","id":"py00001051","properties":{"name":"Virgen de Fatima","province":"Asunción","department":"Asunción","type":"Barrio","country":"Paraguay","iso":"PY"},"geometry":{"type":"Polygon","coordinates":[[[-57.5923,-25.2624],[-57.5849,-25.257],[-57.5899,-25.2516],[-57.5921,-25.253],[-57.5923,-25.2537],[-57.5934,-25.2539],[-57.5941,-25.253],[-57.5954,-25.2547],[-57.5966,-25.2544],[-57.5973,-25.2559],[-57.5938,-25.2582],[-57.5932,-25.2598],[-57.5939,-25.2606],[-57.5923,-25.2624]]]}},{"type":"Feature","id":"py00001052","properties":{"name":"Santa Rosa","province":"Asunción","department":"Asunción","type":"Barrio","country":"Paraguay","iso":"PY"},"geometry":{"type":"Polygon","coordinates":[[[-57.5898,-25.2515],[-57.5849,-25.257],[-57.5783,-25.2521],[-57.5861,-25.2473],[-57.5892,-25.2494],[-57.588,-25.2504],[-57.5886,-25.2519],[-57.5892,-25.2512],[-57.5898,-25.2515]]]}},{"type":"Feature","id":"py00001053","properties":{"name":"Virgen de la Asuncion","province":"Asunción","department":"Asunción","type":"Barrio","country":"Paraguay","iso":"PY"},"geometry":{"type":"Polygon","coordinates":[[[-57.5938,-25.2636],[-57.5983,-25.2669],[-57.5971,-25.2668],[-57.5978,-25.2697],[-57.5946,-25.2679],[-57.5919,-25.2679],[-57.59,-25.2692],[-57.5866,-25.2674],[-57.584,-25.2709],[-57.581,-25.2608],[-57.5849,-25.257],[-57.5938,-25.2636]]]}},{"type":"Feature","id":"py00001054","properties":{"name":"Bella Vista","province":"Asunción","department":"Asunción","type":"Barrio","country":"Paraguay","iso":"PY"},"geometry":{"type":"Polygon","coordinates":[[[-57.5929,-25.2676],[-57.595,-25.2872],[-57.5887,-25.2865],[-57.584,-25.2709],[-57.5866,-25.2674],[-57.59,-25.2692],[-57.5929,-25.2676]]]}},{"type":"Feature","id":"py00001055","properties":{"name":"Santo Domingo","province":"Asunción","department":"Asunción","type":"Barrio","country":"Paraguay","iso":"PY"},"geometry":{"type":"Polygon","coordinates":[[[-57.5885,-25.2858],[-57.5887,-25.2865],[-57.5802,-25.2851],[-57.5805,-25.2837],[-57.5789,-25.2786],[-57.5765,-25.2747],[-57.5846,-25.2727],[-57.5885,-25.2858]]]}},{"type":"Feature","id":"py00001056","properties":{"name":"Cañada del Yvyray","province":"Asunción","department":"Asunción","type":"Barrio","country":"Paraguay","iso":"PY"},"geometry":{"type":"Polygon","coordinates":[[[-57.5837,-25.2697],[-57.5846,-25.2727],[-57.577,-25.2745],[-57.5756,-25.2728],[-57.5769,-25.2718],[-57.5744,-25.2692],[-57.5749,-25.2686],[-57.5742,-25.2681],[-57.581,-25.2608],[-57.5837,-25.2697]]]}},{"type":"Feature","id":"py00001057","properties":{"name":"Santisima Trinidad","province":"Asunción","department":"Asunción","type":"Barrio","country":"Paraguay","iso":"PY"},"geometry":{"type":"Polygon","coordinates":[[[-57.5813,-25.2606],[-57.5792,-25.2627],[-57.5754,-25.2599],[-57.5686,-25.2575],[-57.5783,-25.2521],[-57.5849,-25.257],[-57.5813,-25.2606]]]}},{"type":"Feature","id":"py00001058","properties":{"name":"Manora","province":"Asunción","department":"Asunción","type":"Barrio","country":"Paraguay","iso":"PY"},"geometry":{"type":"Polygon","coordinates":[[[-57.5805,-25.284],[-57.5802,-25.2851],[-57.5719,-25.2865],[-57.5673,-25.284],[-57.5639,-25.2834],[-57.5639,-25.2819],[-57.5709,-25.281],[-57.5711,-25.282],[-57.5759,-25.2813],[-57.5794,-25.2801],[-57.5805,-25.284]]]}},{"type":"Feature","id":"py00001059","properties":{"name":"Las Lomas","province":"Asunción","department":"Asunción","type":"Barrio","country":"Paraguay","iso":"PY"},"geometry":{"type":"Polygon","coordinates":[[[-57.5767,-25.2737],[-57.5768,-25.2757],[-57.5794,-25.2801],[-57.5759,-25.2813],[-57.5711,-25.282],[-57.5709,-25.281],[-57.5639,-25.2819],[-57.5639,-25.2834],[-57.56,-25.2807],[-57.5626,-25.2783],[-57.57,-25.2735],[-57.5742,-25.2681],[-57.5749,-25.2686],[-57.5744,-25.2692],[-57.5769,-25.2718],[-57.5756,-25.2728],[-57.5767,-25.2737]]]}},{"type":"Feature","id":"py00001060","properties":{"name":"Mburucuya","province":"Asunción","department":"Asunción","type":"Barrio","country":"Paraguay","iso":"PY"},"geometry":{"type":"Polygon","coordinates":[[[-57.5773,-25.2646],[-57.57,-25.2735],[-57.5674,-25.2754],[-57.5589,-25.2629],[-57.5686,-25.2575],[-57.5749,-25.2597],[-57.5774,-25.2612],[-57.5792,-25.2627],[-57.5773,-25.2646]]]}},{"type":"Feature","id":"py00001061","properties":{"name":"Madame Elisa Alicia Linch","province":"Asunción","department":"Asunción","type":"Barrio","country":"Paraguay","iso":"PY"},"geometry":{"type":"Polygon","coordinates":[[[-57.5576,-25.2637],[-57.5589,-25.2629],[-57.5674,-25.2754],[-57.5626,-25.2783],[-57.56,-25.2807],[-57.5561,-25.2786],[-57.5528,-25.273],[-57.5502,-25.2713],[-57.5492,-25.2682],[-57.5576,-25.2637]]]}},{"type":"Feature","id":"py00001062","properties":{"name":"Salvador del Mundo","province":"Asunción","department":"Asunción","type":"Barrio","country":"Paraguay","iso":"PY"},"geometry":{"type":"Polygon","coordinates":[[[-57.5481,-25.2688],[-57.5492,-25.2682],[-57.5502,-25.2713],[-57.5528,-25.273],[-57.5561,-25.2786],[-57.5451,-25.2753],[-57.5462,-25.2699],[-57.5481,-25.2688]]]}},{"type":"Feature","id":"py00001063","properties":{"name":"Mbocayaty","province":"Asunción","department":"Asunción","type":"Barrio","country":"Paraguay","iso":"PY"},"geometry":{"type":"Polygon","coordinates":[[[-57.5685,-25.2561],[-57.5711,-25.2561],[-57.5462,-25.2699],[-57.549,-25.2571],[-57.5685,-25.2561]]]}},{"type":"Feature","id":"py00001064","properties":{"name":"Ñu Guasu","province":"Asunción","department":"Asunción","type":"Barrio","country":"Paraguay","iso":"PY"},"geometry":{"type":"Polygon","coordinates":[[[-57.5482,-25.2572],[-57.549,-25.2571],[-57.5489,-25.2578],[-57.5451,-25.2753],[-57.5426,-25.2743],[-57.5416,-25.2698],[-57.5386,-25.2652],[-57.5359,-25.2593],[-57.5482,-25.2572]]]}},{"type":"Feature","id":"py00001065","properties":{"name":"Loma Pyta","province":"Asunción","department":"Asunción","type":"Barrio","country":"Paraguay","iso":"PY"},"geometry":{"type":"Polygon","coordinates":[[[-57.5794,-25.2493],[-57.5803,-25.251],[-57.5711,-25.2561],[-57.5514,-25.2568],[-57.5359,-25.2593],[-57.5336,-25.2531],[-57.5336,-25.25],[-57.5327,-25.2488],[-57.5311,-25.2483],[-57.5432,-25.2408],[-57.5398,-25.2362],[-57.5452,-25.2344],[-57.5474,-25.2398],[-57.5479,-25.2393],[-57.5522,-25.2427],[-57.5547,-25.2415],[-57.5555,-25.243],[-57.5638,-25.2387],[-57.5647,-25.2403],[-57.5729,-25.2363],[-57.5725,-25.2358],[-57.5754,-25.2348],[-57.5778,-25.237],[-57.5783,-25.2387],[-57.5796,-25.24],[-57.5803,-25.2447],[-57.5779,-25.2465],[-57.5794,-25.2493]]]}},{"type":"Feature","id":"py00001066","properties":{"name":"San Blas","province":"Asunción","department":"Asunción","type":"Barrio","country":"Paraguay","iso":"PY"},"geometry":{"type":"Polygon","coordinates":[[[-57.532,-25.2474],[-57.5311,-25.2483],[-57.5305,-25.2482],[-57.526,-25.2447],[-57.5248,-25.2428],[-57.5279,-25.2412],[-57.5288,-25.242],[-57.5306,-25.2413],[-57.5301,-25.2399],[-57.5327,-25.2383],[-57.5331,-25.2389],[-57.536,-25.2372],[-57.5365,-25.2378],[-57.5384,-25.2365],[-57.5388,-25.2371],[-57.5399,-25.2363],[-57.5432,-25.2408],[-57.532,-25.2474]]]}},{"type":"Feature","id":"py00001067","properties":{"name":"Botanico","province":"Asunción","department":"Asunción","type":"Barrio","country":"Paraguay","iso":"PY"},"geometry":{"type":"Polygon","coordinates":[[[-57.58,-25.2292],[-57.5931,-25.2411],[-57.5878,-25.2467],[-57.5803,-25.251],[-57.5779,-25.2465],[-57.5803,-25.2447],[-57.5796,-25.2398],[-57.5783,-25.2387],[-57.5774,-25.2365],[-57.5745,-25.2344],[-57.58,-25.2292]]]}},{"type":"Feature","id":"py00001068","properties":{"name":"Zeballos Kue","province":"Asunción","department":"Asunción","type":"Barrio","country":"Paraguay","iso":"PY"},"geometry":{"type":"Polygon","coordinates":[[[-57.5767,-25.2265],[-57.58,-25.2292],[-57.5745,-25.2344],[-57.5754,-25.2348],[-57.5725,-25.2358],[-57.5729,-25.2363],[-57.5647,-25.2403],[-57.5638,-25.2387],[-57.5555,-25.243],[-57.5547,-25.2415],[-57.5522,-25.2427],[-57.5479,-25.2393],[-57.5474,-25.2398],[-57.5452,-25.2344],[-57.5508,-25.2325],[-57.5592,-25.2281],[-57.5609,-25.2286],[-57.575,-25.2246],[-57.5767,-25.2265]]]}}]}