{"type":"FeatureCollection","features":[{"type":"Feature","id":"dimos-athens-40","properties":{"name":"Athinaion","province":"Atenas","department":"Ática","type":"Dímos","country":"Grecia","iso":"GR"},"geometry":{"type":"Polygon","coordinates":[[[23.7436,38.0336],[23.7447,38.0308],[23.7536,38.0269],[23.7487,38.0231],[23.7445,38.0213],[23.744,38.0203],[23.7449,38.0153],[23.7428,38.0118],[23.7427,38.0102],[23.7457,38.0089],[23.7496,38.0086],[23.7536,38.0092],[23.7589,38.0085],[23.7677,38.0006],[23.7703,37.9989],[23.7734,38.0024],[23.7797,37.9999],[23.7826,38.0033],[23.7881,38.0011],[23.7842,37.9989],[23.7894,37.9951],[23.7908,37.9934],[23.791,37.9926],[23.7891,37.9907],[23.7895,37.9899],[23.7889,37.9885],[23.7891,37.9844],[23.7876,37.9806],[23.7829,37.9809],[23.7818,37.9815],[23.7818,37.9822],[23.7789,37.9835],[23.7738,37.9837],[23.7706,37.9827],[23.7689,37.9838],[23.761,37.9803],[23.7575,37.9796],[23.7586,37.9757],[23.7662,37.9722],[23.7667,37.9707],[23.7663,37.9696],[23.7634,37.9697],[23.7589,37.9723],[23.7499,37.9727],[23.756,37.9655],[23.7551,37.9658],[23.753,37.9645],[23.7504,37.9644],[23.7443,37.9609],[23.7474,37.9576],[23.7463,37.9564],[23.7445,37.9556],[23.7433,37.9562],[23.7399,37.9557],[23.7388,37.9567],[23.7364,37.9566],[23.7337,37.9554],[23.7327,37.9557],[23.7282,37.9532],[23.7253,37.953],[23.7252,37.9504],[23.7228,37.949],[23.7145,37.9554],[23.72,37.9594],[23.7186,37.9603],[23.7186,37.9615],[23.7155,37.9637],[23.7075,37.9632],[23.7056,37.9637],[23.7031,37.9659],[23.7032,37.9673],[23.7005,37.9689],[23.7054,37.9721],[23.7054,37.9742],[23.7047,37.9753],[23.6958,37.9755],[23.6898,37.978],[23.6872,37.9782],[23.6953,37.9884],[23.6972,37.9928],[23.6929,37.9947],[23.6949,37.9964],[23.7056,38.0014],[23.7171,38.0098],[23.7197,38.0151],[23.7196,38.016],[23.7218,38.0183],[23.726,38.0207],[23.7298,38.0251],[23.7355,38.0276],[23.739,38.0316],[23.7436,38.0336]]]}},{"type":"Feature","id":"dimos-athens-93","properties":{"name":"Glyfadas","province":"Atenas","department":"Ática","type":"Dímos","country":"Grecia","iso":"GR"},"geometry":{"type":"Polygon","coordinates":[[[23.8025,37.9117],[23.8006,37.909],[23.8028,37.9026],[23.804,37.9005],[23.8076,37.8987],[23.8104,37.8936],[23.8102,37.8923],[23.7944,37.8836],[23.7912,37.881],[23.7914,37.8777],[23.7943,37.873],[23.7909,37.8688],[23.7883,37.8642],[23.7858,37.8628],[23.7819,37.8619],[23.7807,37.8603],[23.7758,37.8574],[23.7734,37.8541],[23.7431,37.8542],[23.7428,37.8558],[23.7439,37.8564],[23.7453,37.8567],[23.7473,37.8557],[23.7491,37.856],[23.7502,37.8588],[23.7465,37.8614],[23.7466,37.8621],[23.7443,37.8628],[23.7439,37.8644],[23.7429,37.8644],[23.7427,37.8638],[23.7438,37.8617],[23.7425,37.8615],[23.742,37.8638],[23.74,37.8663],[23.738,37.867],[23.7362,37.8665],[23.7365,37.8684],[23.7354,37.8693],[23.7332,37.8698],[23.7318,37.8711],[23.7327,37.8714],[23.7352,37.8701],[23.7361,37.8701],[23.7359,37.8707],[23.7348,37.8718],[23.7333,37.8715],[23.733,37.873],[23.7312,37.8739],[23.7447,37.8856],[23.7495,37.8885],[23.7555,37.8896],[23.7609,37.8891],[23.761,37.8953],[23.763,37.901],[23.7655,37.9049],[23.7706,37.9086],[23.7757,37.9108],[23.7811,37.9121],[23.7953,37.9126],[23.8025,37.9117]]]}},{"type":"Feature","id":"dimos-athens-115","properties":{"name":"Dafnis - Ymittou","province":"Atenas","department":"Ática","type":"Dímos","country":"Grecia","iso":"GR"},"geometry":{"type":"Polygon","coordinates":[[[23.7474,37.9576],[23.751,37.9542],[23.7577,37.9494],[23.7512,37.9495],[23.747,37.9465],[23.7449,37.9431],[23.742,37.941],[23.7413,37.9473],[23.739,37.9475],[23.7381,37.9492],[23.7336,37.9463],[23.7295,37.9452],[23.7283,37.9438],[23.7265,37.9483],[23.7249,37.9489],[23.7243,37.9499],[23.7252,37.9504],[23.7253,37.953],[23.7282,37.9532],[23.7327,37.9557],[23.7337,37.9554],[23.7364,37.9566],[23.7388,37.9567],[23.7399,37.9557],[23.7433,37.9562],[23.7445,37.9556],[23.7474,37.9576]]]}},{"type":"Feature","id":"dimos-athens-190","properties":{"name":"Kifisias","province":"Atenas","department":"Ática","type":"Dímos","country":"Grecia","iso":"GR"},"geometry":{"type":"Polygon","coordinates":[[[23.8845,38.0794],[23.8791,38.0781],[23.8753,38.0751],[23.8694,38.0726],[23.8664,38.0704],[23.8608,38.0685],[23.8512,38.0683],[23.8476,38.0658],[23.8433,38.0679],[23.8416,38.067],[23.84,38.0675],[23.8361,38.0668],[23.8357,38.0666],[23.8366,38.0649],[23.8299,38.0624],[23.8291,38.0609],[23.8264,38.0623],[23.825,38.0619],[23.8169,38.0662],[23.8097,38.0654],[23.8075,38.0638],[23.8062,38.0651],[23.8048,38.0649],[23.8037,38.0675],[23.8026,38.0681],[23.7988,38.0693],[23.7964,38.0689],[23.7921,38.0695],[23.7913,38.0714],[23.7924,38.0741],[23.794,38.0746],[23.7945,38.0767],[23.794,38.0775],[23.787,38.0773],[23.7779,38.0799],[23.7763,38.0789],[23.7703,38.0781],[23.7684,38.0784],[23.7673,38.0795],[23.7683,38.0802],[23.7681,38.0813],[23.7699,38.0826],[23.7705,38.0846],[23.7727,38.0876],[23.7819,38.092],[23.7827,38.0943],[23.7841,38.0954],[23.7866,38.0997],[23.793,38.1016],[23.794,38.1025],[23.7964,38.1021],[23.803,38.1053],[23.8073,38.1047],[23.8097,38.1073],[23.8142,38.109],[23.8173,38.1122],[23.8196,38.1126],[23.8216,38.1144],[23.8235,38.115],[23.824,38.1164],[23.826,38.1182],[23.8298,38.12],[23.8353,38.1206],[23.841,38.1169],[23.8446,38.1157],[23.8553,38.122],[23.858,38.1226],[23.8553,38.1176],[23.8574,38.1163],[23.8584,38.1149],[23.8587,38.1128],[23.8485,38.1059],[23.8455,38.1031],[23.8452,38.1007],[23.8691,38.0879],[23.88,38.083],[23.8842,38.0804],[23.8845,38.0794]]]}},{"type":"Feature","id":"dimos-athens-278","properties":{"name":"Pendelis","province":"Atenas","department":"Ática","type":"Dímos","country":"Grecia","iso":"GR"},"geometry":{"type":"Polygon","coordinates":[[[23.8845,38.0794],[23.886,38.0775],[23.8911,38.076],[23.8925,38.0751],[23.8958,38.0714],[23.9025,38.0712],[23.9096,38.0688],[23.9116,38.0694],[23.9181,38.0693],[23.9217,38.0673],[23.9287,38.0658],[23.9299,38.0649],[23.932,38.0611],[23.9382,38.0577],[23.9423,38.0546],[23.9479,38.0523],[23.953,38.0471],[23.9571,38.0457],[23.9622,38.0423],[23.9649,38.0417],[23.9536,38.0375],[23.9465,38.0339],[23.9382,38.0381],[23.9283,38.037],[23.923,38.039],[23.9081,38.0401],[23.905,38.0428],[23.9013,38.0436],[23.8964,38.0432],[23.8882,38.0412],[23.8799,38.0404],[23.8708,38.0414],[23.8673,38.0433],[23.8633,38.0423],[23.8599,38.0426],[23.8538,38.0441],[23.8542,38.0464],[23.8535,38.0483],[23.8542,38.0498],[23.8499,38.0501],[23.8502,38.0525],[23.8464,38.0516],[23.8407,38.0464],[23.8361,38.0436],[23.8351,38.044],[23.8346,38.0457],[23.8315,38.0433],[23.8298,38.0427],[23.8296,38.0448],[23.831,38.0447],[23.8313,38.0457],[23.829,38.0473],[23.829,38.048],[23.8311,38.0507],[23.8288,38.0524],[23.8282,38.0538],[23.8287,38.0553],[23.8316,38.0564],[23.8315,38.059],[23.8293,38.0595],[23.8291,38.0609],[23.8299,38.0624],[23.8366,38.0649],[23.8357,38.0666],[23.84,38.0675],[23.8416,38.067],[23.8433,38.0679],[23.8476,38.0658],[23.8512,38.0683],[23.8608,38.0685],[23.8664,38.0704],[23.8694,38.0726],[23.8753,38.0751],[23.8791,38.0781],[23.8845,38.0794]]]}},{"type":"Feature","id":"dimos-athens-2","properties":{"name":"Zografou","province":"Atenas","department":"Ática","type":"Dímos","country":"Grecia","iso":"GR"},"geometry":{"type":"Polygon","coordinates":[[[23.788,37.9807],[23.7933,37.9787],[23.7958,37.9811],[23.7951,37.9824],[23.7969,37.9834],[23.7992,37.9862],[23.8003,37.986],[23.8034,37.9847],[23.8093,37.9835],[23.8169,37.9764],[23.8221,37.9738],[23.82,37.9707],[23.8195,37.9674],[23.8178,37.9668],[23.8134,37.9637],[23.8099,37.963],[23.8073,37.9634],[23.8032,37.9663],[23.8018,37.9665],[23.788,37.9665],[23.7663,37.9696],[23.7667,37.9707],[23.7662,37.9722],[23.7586,37.9757],[23.7575,37.9796],[23.761,37.9803],[23.7689,37.9838],[23.7706,37.9827],[23.7738,37.9837],[23.7789,37.9835],[23.7818,37.9822],[23.7818,37.9815],[23.7829,37.9809],[23.788,37.9807]]]}},{"type":"Feature","id":"dimos-athens-312","properties":{"name":"Filadelfias - Chalkidonas","province":"Atenas","department":"Ática","type":"Dímos","country":"Grecia","iso":"GR"},"geometry":{"type":"Polygon","coordinates":[[[23.7196,38.016],[23.7197,38.0189],[23.7224,38.02],[23.7251,38.0249],[23.7282,38.0274],[23.7298,38.0301],[23.7291,38.0316],[23.7303,38.033],[23.7301,38.0353],[23.7325,38.0388],[23.7349,38.0406],[23.7342,38.0437],[23.7363,38.0451],[23.7372,38.0466],[23.7349,38.048],[23.7357,38.0497],[23.7353,38.0499],[23.7417,38.053],[23.7416,38.0548],[23.7431,38.0554],[23.7442,38.0575],[23.7451,38.0579],[23.7481,38.0524],[23.7509,38.0506],[23.7496,38.0487],[23.7489,38.0462],[23.7461,38.0422],[23.7467,38.0389],[23.7457,38.0377],[23.7452,38.0354],[23.7426,38.0329],[23.739,38.0316],[23.7355,38.0276],[23.7298,38.0251],[23.726,38.0207],[23.7218,38.0183],[23.7196,38.016]]]}},{"type":"Feature","id":"dimos-athens-23","properties":{"name":"Agias Varvaras","province":"Atenas","department":"Ática","type":"Dímos","country":"Grecia","iso":"GR"},"geometry":{"type":"Polygon","coordinates":[[[23.6439,37.9986],[23.6532,37.9983],[23.6578,37.9957],[23.6602,37.9974],[23.663,37.9965],[23.6652,37.9985],[23.6679,37.9971],[23.6652,37.9921],[23.6659,37.9837],[23.6644,37.9837],[23.6635,37.9831],[23.6636,37.9822],[23.656,37.9862],[23.6546,37.989],[23.6483,37.9916],[23.645,37.9937],[23.6434,37.9955],[23.6439,37.9986]]]}},{"type":"Feature","id":"dimos-athens-178","properties":{"name":"Kallitheas","province":"Atenas","department":"Ática","type":"Dímos","country":"Grecia","iso":"GR"},"geometry":{"type":"Polygon","coordinates":[[[23.7056,37.9637],[23.7075,37.9632],[23.7155,37.9637],[23.7186,37.9615],[23.7186,37.9603],[23.72,37.9594],[23.6914,37.9371],[23.6905,37.9382],[23.6891,37.9369],[23.6884,37.9374],[23.6891,37.9382],[23.6888,37.9385],[23.6881,37.9378],[23.6872,37.9393],[23.6882,37.9387],[23.6888,37.939],[23.6876,37.9406],[23.6825,37.9427],[23.6875,37.9515],[23.6912,37.9551],[23.6954,37.9577],[23.6942,37.9613],[23.6973,37.9626],[23.6985,37.9608],[23.7029,37.9619],[23.7056,37.9637]]]}},{"type":"Feature","id":"dimos-athens-3","properties":{"name":"Ilioupolis","province":"Atenas","department":"Ática","type":"Dímos","country":"Grecia","iso":"GR"},"geometry":{"type":"Polygon","coordinates":[[[23.7577,37.9494],[23.7639,37.9492],[23.7677,37.943],[23.7756,37.9404],[23.7814,37.9365],[23.7898,37.935],[23.8004,37.9359],[23.8009,37.9329],[23.8033,37.9292],[23.8039,37.9231],[23.8067,37.9198],[23.8063,37.9174],[23.7963,37.918],[23.7878,37.921],[23.7834,37.9216],[23.7728,37.9208],[23.7607,37.9187],[23.7577,37.9194],[23.756,37.9206],[23.7494,37.9203],[23.7448,37.9193],[23.7441,37.9344],[23.742,37.9369],[23.7407,37.94],[23.7449,37.9431],[23.747,37.9465],[23.7512,37.9495],[23.7577,37.9494]]]}},{"type":"Feature","id":"dimos-athens-13","properties":{"name":"Iliou","province":"Atenas","department":"Ática","type":"Dímos","country":"Grecia","iso":"GR"},"geometry":{"type":"Polygon","coordinates":[[[23.6839,38.0643],[23.6876,38.0613],[23.6919,38.0562],[23.6934,38.0536],[23.6942,38.0506],[23.6962,38.0491],[23.7043,38.046],[23.7085,38.0453],[23.7157,38.0464],[23.7151,38.0511],[23.7168,38.0515],[23.7193,38.0508],[23.7209,38.0518],[23.7258,38.0489],[23.7253,38.0469],[23.7288,38.0453],[23.729,38.0418],[23.7273,38.0402],[23.7258,38.0407],[23.7242,38.0384],[23.723,38.0344],[23.7216,38.0322],[23.7177,38.0326],[23.7171,38.0306],[23.7154,38.03],[23.7153,38.0286],[23.7136,38.0273],[23.7129,38.0226],[23.7107,38.0156],[23.7075,38.0158],[23.7055,38.0196],[23.7021,38.0213],[23.7034,38.0232],[23.7016,38.0232],[23.7009,38.0244],[23.6986,38.0227],[23.6944,38.0228],[23.6951,38.0245],[23.6926,38.0246],[23.685,38.0309],[23.6862,38.0314],[23.6891,38.0347],[23.6905,38.0374],[23.6944,38.0403],[23.6952,38.0424],[23.6906,38.0457],[23.6868,38.0499],[23.6838,38.0521],[23.6828,38.0576],[23.6792,38.0608],[23.6839,38.0643]]]}},{"type":"Feature","id":"dimos-athens-55","properties":{"name":"Alimou","province":"Atenas","department":"Ática","type":"Dímos","country":"Grecia","iso":"GR"},"geometry":{"type":"Polygon","coordinates":[[[23.7444,37.9284],[23.7448,37.9158],[23.7431,37.917],[23.742,37.9131],[23.7369,37.9126],[23.7354,37.9103],[23.7357,37.9081],[23.7377,37.9079],[23.7377,37.9044],[23.7346,37.905],[23.7305,37.9037],[23.7235,37.9027],[23.7182,37.901],[23.7178,37.9014],[23.7189,37.9022],[23.7189,37.9033],[23.7136,37.9094],[23.7126,37.9099],[23.7104,37.9095],[23.709,37.911],[23.7039,37.9112],[23.7075,37.9113],[23.7082,37.9118],[23.7075,37.9121],[23.7082,37.9126],[23.7087,37.9121],[23.709,37.9129],[23.7083,37.9129],[23.7063,37.9149],[23.7031,37.916],[23.7026,37.9168],[23.7013,37.9161],[23.7004,37.9144],[23.7023,37.9122],[23.7,37.9144],[23.7005,37.9172],[23.7028,37.9183],[23.7043,37.9216],[23.7051,37.9221],[23.7076,37.9205],[23.711,37.9197],[23.7192,37.922],[23.7265,37.9191],[23.7304,37.9229],[23.734,37.9231],[23.7364,37.927],[23.7444,37.9284]]]}},{"type":"Feature","id":"dimos-athens-36","properties":{"name":"Agion Anargyron - Kamaterou","province":"Atenas","department":"Ática","type":"Dímos","country":"Grecia","iso":"GR"},"geometry":{"type":"Polygon","coordinates":[[[23.7353,38.0499],[23.7357,38.0497],[23.7349,38.048],[23.7372,38.0466],[23.7363,38.0451],[23.7342,38.0437],[23.7349,38.0406],[23.7325,38.0388],[23.7301,38.0353],[23.7303,38.033],[23.7291,38.0316],[23.7298,38.0301],[23.7282,38.0274],[23.7251,38.0249],[23.7224,38.02],[23.7197,38.0189],[23.7197,38.0151],[23.7183,38.0123],[23.7107,38.0156],[23.7129,38.0226],[23.7136,38.0273],[23.7153,38.0286],[23.7154,38.03],[23.7171,38.0306],[23.7177,38.0326],[23.7216,38.0322],[23.723,38.0344],[23.7242,38.0384],[23.7258,38.0407],[23.7273,38.0402],[23.729,38.0418],[23.7288,38.0453],[23.7253,38.0469],[23.7258,38.0489],[23.7209,38.0518],[23.7193,38.0508],[23.7168,38.0515],[23.7151,38.0511],[23.7157,38.0464],[23.7085,38.0453],[23.7043,38.046],[23.6962,38.0491],[23.6942,38.0506],[23.6934,38.0536],[23.6919,38.0562],[23.6876,38.0613],[23.6839,38.0643],[23.6856,38.0655],[23.6874,38.0658],[23.6918,38.0641],[23.696,38.0636],[23.7018,38.0667],[23.7143,38.0665],[23.7159,38.0619],[23.7193,38.061],[23.7202,38.0626],[23.7242,38.0598],[23.7286,38.053],[23.7353,38.0499]]]}},{"type":"Feature","id":"dimos-athens-231","properties":{"name":"Moschatou - Tavrou","province":"Atenas","department":"Ática","type":"Dímos","country":"Grecia","iso":"GR"},"geometry":{"type":"Polygon","coordinates":[[[23.7056,37.9637],[23.7029,37.9619],[23.6985,37.9608],[23.6973,37.9626],[23.6942,37.9613],[23.6954,37.9577],[23.6912,37.9551],[23.6875,37.9515],[23.6825,37.9427],[23.6751,37.9439],[23.6729,37.944],[23.6728,37.943],[23.6723,37.943],[23.6742,37.9557],[23.6753,37.9567],[23.6807,37.9576],[23.6817,37.9596],[23.6845,37.9622],[23.6897,37.9607],[23.6915,37.9624],[23.6869,37.9641],[23.6889,37.9668],[23.6848,37.9695],[23.6872,37.9727],[23.6838,37.9743],[23.6872,37.9782],[23.6898,37.978],[23.6958,37.9755],[23.7047,37.9753],[23.7054,37.9742],[23.7054,37.9721],[23.7005,37.9689],[23.7032,37.9673],[23.7031,37.9659],[23.7056,37.9637]]]}},{"type":"Feature","id":"dimos-athens-41","properties":{"name":"Egaleo","province":"Atenas","department":"Ática","type":"Dímos","country":"Grecia","iso":"GR"},"geometry":{"type":"Polygon","coordinates":[[[23.6711,38.0091],[23.6733,38.0072],[23.6805,38.0033],[23.6834,38.0004],[23.6928,37.9945],[23.6972,37.9928],[23.6953,37.9884],[23.6855,37.9763],[23.6788,37.9765],[23.6726,37.9759],[23.6676,37.9764],[23.6698,37.9793],[23.6667,37.9819],[23.6656,37.9845],[23.6652,37.9921],[23.6679,37.9971],[23.6675,38.0009],[23.6689,38.0062],[23.6711,38.0091]]]}},{"type":"Feature","id":"dimos-athens-285","properties":{"name":"Peristeriou","province":"Atenas","department":"Ática","type":"Dímos","country":"Grecia","iso":"GR"},"geometry":{"type":"Polygon","coordinates":[[[23.6694,38.0342],[23.6744,38.0334],[23.6799,38.0337],[23.6826,38.0309],[23.6837,38.0304],[23.685,38.0309],[23.6926,38.0246],[23.6951,38.0245],[23.6944,38.0228],[23.6986,38.0227],[23.7013,38.0244],[23.7016,38.0232],[23.7034,38.0232],[23.7021,38.0213],[23.7055,38.0196],[23.7075,38.0158],[23.7116,38.0157],[23.7183,38.0123],[23.7171,38.0098],[23.7056,38.0014],[23.6949,37.9964],[23.6929,37.9947],[23.6834,38.0004],[23.6805,38.0033],[23.6733,38.0072],[23.6711,38.0091],[23.674,38.013],[23.6741,38.015],[23.67,38.018],[23.6687,38.0215],[23.6663,38.0232],[23.6656,38.0249],[23.666,38.0269],[23.6688,38.0315],[23.6694,38.0342]]]}},{"type":"Feature","id":"dimos-athens-24","properties":{"name":"Agias Paraskevis","province":"Atenas","department":"Ática","type":"Dímos","country":"Grecia","iso":"GR"},"geometry":{"type":"Polygon","coordinates":[[[23.8401,38.0241],[23.8481,38.0228],[23.8442,38.0161],[23.8437,38.0137],[23.8443,38.0108],[23.8387,38.0117],[23.8382,38.0104],[23.84,38.0108],[23.8405,38.0104],[23.8406,38.005],[23.8378,38.0047],[23.8367,38.0035],[23.836,38.002],[23.8364,37.9989],[23.8294,37.9939],[23.8278,37.9905],[23.8265,37.9853],[23.8253,37.9856],[23.8232,37.987],[23.8209,37.9917],[23.8156,37.9945],[23.8141,37.9964],[23.8117,37.997],[23.8111,38.0003],[23.8049,38.0092],[23.8119,38.012],[23.8151,38.0158],[23.8197,38.0198],[23.8234,38.0219],[23.8341,38.0242],[23.8357,38.0218],[23.8375,38.0217],[23.8385,38.022],[23.8401,38.0241]]]}},{"type":"Feature","id":"dimos-athens-286","properties":{"name":"Petroupolis","province":"Atenas","department":"Ática","type":"Dímos","country":"Grecia","iso":"GR"},"geometry":{"type":"Polygon","coordinates":[[[23.6792,38.0608],[23.6828,38.0576],[23.6838,38.0521],[23.6868,38.0499],[23.6906,38.0457],[23.6952,38.0424],[23.6944,38.0403],[23.6905,38.0374],[23.6891,38.0347],[23.6862,38.0314],[23.6837,38.0304],[23.6799,38.0337],[23.6744,38.0334],[23.6583,38.0356],[23.6561,38.0365],[23.6552,38.0394],[23.6553,38.0424],[23.6577,38.0457],[23.6586,38.049],[23.6693,38.0539],[23.6792,38.0608]]]}},{"type":"Feature","id":"dimos-athens-26","properties":{"name":"Amarousiou","province":"Atenas","department":"Ática","type":"Dímos","country":"Grecia","iso":"GR"},"geometry":{"type":"Polygon","coordinates":[[[23.8026,38.0681],[23.8037,38.0675],[23.8048,38.0649],[23.8062,38.0651],[23.8075,38.0638],[23.8097,38.0654],[23.8169,38.0662],[23.825,38.0619],[23.8264,38.0623],[23.8276,38.0618],[23.8291,38.0609],[23.8293,38.0595],[23.8312,38.0592],[23.8316,38.0564],[23.8287,38.0553],[23.8282,38.0538],[23.8288,38.0524],[23.8311,38.0507],[23.829,38.0473],[23.8313,38.0457],[23.8313,38.0451],[23.8303,38.0444],[23.8296,38.0448],[23.8298,38.0427],[23.825,38.0406],[23.8223,38.0343],[23.804,38.0326],[23.7949,38.0333],[23.7922,38.0295],[23.7897,38.0275],[23.7897,38.0236],[23.7814,38.0288],[23.7801,38.037],[23.7788,38.0392],[23.7761,38.0413],[23.781,38.0446],[23.7796,38.0455],[23.7802,38.047],[23.783,38.0483],[23.7846,38.0504],[23.7858,38.05],[23.7879,38.0509],[23.7936,38.0496],[23.7947,38.0531],[23.794,38.0554],[23.7945,38.0568],[23.7968,38.0567],[23.798,38.0578],[23.7986,38.0614],[23.8019,38.0626],[23.8015,38.0648],[23.8026,38.0681]]]}},{"type":"Feature","id":"dimos-athens-28","properties":{"name":"Agiou Dimitriou","province":"Atenas","department":"Ática","type":"Dímos","country":"Grecia","iso":"GR"},"geometry":{"type":"Polygon","coordinates":[[[23.742,37.941],[23.7407,37.94],[23.742,37.9369],[23.7441,37.9344],[23.7444,37.9284],[23.7364,37.927],[23.734,37.9231],[23.7304,37.9229],[23.7265,37.9191],[23.7192,37.922],[23.7228,37.9242],[23.7255,37.9273],[23.7252,37.9284],[23.7224,37.9265],[23.7124,37.923],[23.7101,37.9229],[23.7092,37.9238],[23.7099,37.9244],[23.7148,37.9248],[23.7185,37.9268],[23.7183,37.9275],[23.7147,37.9285],[23.7162,37.9329],[23.7199,37.9369],[23.7211,37.9393],[23.7227,37.9407],[23.7262,37.9414],[23.7295,37.9452],[23.7336,37.9463],[23.7381,37.9492],[23.739,37.9475],[23.7413,37.9473],[23.742,37.941]]]}},{"type":"Feature","id":"dimos-athens-84","properties":{"name":"Vrylission","province":"Atenas","department":"Ática","type":"Dímos","country":"Grecia","iso":"GR"},"geometry":{"type":"Polygon","coordinates":[[[23.8535,38.0483],[23.8515,38.0451],[23.8486,38.0421],[23.8472,38.0379],[23.8451,38.0362],[23.8432,38.0359],[23.8418,38.0364],[23.841,38.0357],[23.8332,38.0254],[23.8253,38.0315],[23.8257,38.0326],[23.8252,38.0332],[23.8234,38.0343],[23.8223,38.0343],[23.8243,38.0396],[23.8256,38.0411],[23.8311,38.043],[23.8339,38.0455],[23.8346,38.0457],[23.8351,38.044],[23.8361,38.0436],[23.8407,38.0464],[23.847,38.0519],[23.8502,38.0525],[23.8499,38.0501],[23.8542,38.0498],[23.8535,38.0483]]]}},{"type":"Feature","id":"dimos-athens-89","properties":{"name":"Vyrona","province":"Atenas","department":"Ática","type":"Dímos","country":"Grecia","iso":"GR"},"geometry":{"type":"Polygon","coordinates":[[[23.756,37.9655],[23.7604,37.9609],[23.7631,37.9621],[23.7653,37.9612],[23.7724,37.961],[23.7757,37.9602],[23.7799,37.9566],[23.7905,37.9556],[23.7925,37.9547],[23.7955,37.9552],[23.8003,37.9485],[23.8051,37.9471],[23.8122,37.9438],[23.8021,37.938],[23.8004,37.9359],[23.7898,37.935],[23.7814,37.9365],[23.7756,37.9404],[23.7677,37.943],[23.7639,37.9492],[23.7577,37.9494],[23.7494,37.9554],[23.7443,37.9609],[23.7504,37.9644],[23.753,37.9645],[23.7551,37.9658],[23.756,37.9655]]]}},{"type":"Feature","id":"dimos-athens-90","properties":{"name":"Galatsiou","province":"Atenas","department":"Ática","type":"Dímos","country":"Grecia","iso":"GR"},"geometry":{"type":"Polygon","coordinates":[[[23.7536,38.0269],[23.7556,38.0292],[23.7588,38.0288],[23.7601,38.0296],[23.7618,38.0289],[23.763,38.0314],[23.7636,38.0317],[23.7649,38.0303],[23.7685,38.0336],[23.7703,38.0343],[23.7718,38.0338],[23.768,38.0239],[23.768,38.0209],[23.7665,38.0197],[23.7667,38.0181],[23.7645,38.0155],[23.7634,38.0109],[23.7629,38.0052],[23.76,38.0078],[23.7575,38.0089],[23.7457,38.0089],[23.7427,38.0102],[23.7428,38.0118],[23.7449,38.0153],[23.744,38.0203],[23.7445,38.0213],[23.7487,38.0231],[23.7536,38.0269]]]}},{"type":"Feature","id":"dimos-athens-134","properties":{"name":"Ellinikou - Argyroupolis","province":"Atenas","department":"Ática","type":"Dímos","country":"Grecia","iso":"GR"},"geometry":{"type":"Polygon","coordinates":[[[23.8063,37.9174],[23.8025,37.9117],[23.7953,37.9126],[23.7805,37.912],[23.774,37.9102],[23.7696,37.908],[23.7655,37.9049],[23.763,37.901],[23.761,37.8953],[23.7609,37.8891],[23.7555,37.8896],[23.7495,37.8885],[23.7447,37.8856],[23.7312,37.8739],[23.7272,37.8737],[23.7246,37.8761],[23.7237,37.8777],[23.7243,37.8784],[23.7273,37.8748],[23.73,37.8751],[23.7283,37.8786],[23.7285,37.8791],[23.7267,37.8807],[23.7253,37.8833],[23.7252,37.8855],[23.7234,37.8885],[23.7214,37.8908],[23.7193,37.8911],[23.7186,37.8904],[23.7169,37.8916],[23.7166,37.8923],[23.7182,37.8915],[23.7182,37.8924],[23.7174,37.893],[23.7178,37.8932],[23.7152,37.895],[23.7175,37.8952],[23.7169,37.8992],[23.7184,37.9001],[23.7182,37.901],[23.7235,37.9027],[23.7305,37.9037],[23.7346,37.905],[23.7377,37.9044],[23.7377,37.9079],[23.7357,37.9081],[23.7357,37.9114],[23.7369,37.9126],[23.742,37.9131],[23.7431,37.917],[23.7448,37.9158],[23.7448,37.9193],[23.7494,37.9203],[23.756,37.9206],[23.7577,37.9194],[23.7607,37.9187],[23.7728,37.9208],[23.7834,37.9216],[23.7878,37.921],[23.7963,37.918],[23.8063,37.9174]]]}},{"type":"Feature","id":"dimos-athens-168","properties":{"name":"Kesarianis","province":"Atenas","department":"Ática","type":"Dímos","country":"Grecia","iso":"GR"},"geometry":{"type":"Polygon","coordinates":[[[23.756,37.9655],[23.7499,37.9727],[23.7582,37.9724],[23.765,37.9693],[23.7675,37.9695],[23.788,37.9665],[23.8018,37.9665],[23.8085,37.963],[23.8134,37.9637],[23.8178,37.9668],[23.8195,37.9674],[23.8195,37.9602],[23.8168,37.9506],[23.8122,37.9438],[23.8051,37.9471],[23.8003,37.9485],[23.7955,37.9552],[23.7925,37.9547],[23.7905,37.9556],[23.7799,37.9566],[23.7757,37.9602],[23.7724,37.961],[23.7653,37.9612],[23.7631,37.9621],[23.7604,37.9609],[23.756,37.9655]]]}},{"type":"Feature","id":"dimos-athens-218","properties":{"name":"Lykovrisis - Pefkis","province":"Atenas","department":"Ática","type":"Dímos","country":"Grecia","iso":"GR"},"geometry":{"type":"Polygon","coordinates":[[[23.8026,38.0681],[23.8015,38.0648],[23.8019,38.0626],[23.7986,38.0614],[23.798,38.0578],[23.7968,38.0567],[23.7945,38.0568],[23.794,38.0554],[23.7947,38.0531],[23.7931,38.0494],[23.7879,38.0509],[23.7858,38.05],[23.7846,38.0504],[23.7852,38.0536],[23.7869,38.0572],[23.786,38.0583],[23.7849,38.0585],[23.7856,38.0601],[23.782,38.063],[23.7742,38.0652],[23.7743,38.0686],[23.7726,38.0686],[23.7782,38.073],[23.7776,38.0746],[23.7788,38.0751],[23.7802,38.0738],[23.7841,38.0761],[23.7847,38.078],[23.7883,38.0772],[23.794,38.0775],[23.7945,38.0767],[23.794,38.0746],[23.7924,38.0741],[23.7913,38.0714],[23.7921,38.0695],[23.7964,38.0689],[23.7988,38.0693],[23.8026,38.0681]]]}},{"type":"Feature","id":"dimos-athens-228","properties":{"name":"Metamorfosis","province":"Atenas","department":"Ática","type":"Dímos","country":"Grecia","iso":"GR"},"geometry":{"type":"Polygon","coordinates":[[[23.7673,38.0795],[23.7684,38.0784],[23.7703,38.0781],[23.7789,38.0798],[23.7806,38.0787],[23.7847,38.078],[23.7845,38.0765],[23.7802,38.0738],[23.7788,38.0751],[23.7776,38.0746],[23.7782,38.073],[23.773,38.0692],[23.7726,38.0686],[23.7738,38.0688],[23.7745,38.0682],[23.7742,38.0652],[23.7712,38.0625],[23.7665,38.0541],[23.7658,38.0549],[23.7623,38.0557],[23.7602,38.0532],[23.7565,38.0535],[23.7545,38.0515],[23.7509,38.0506],[23.7495,38.0512],[23.7468,38.0541],[23.7451,38.0579],[23.7469,38.0592],[23.7477,38.0617],[23.7474,38.063],[23.7494,38.0657],[23.7523,38.0672],[23.7537,38.069],[23.7549,38.0695],[23.7585,38.0745],[23.7626,38.0763],[23.7647,38.0787],[23.7673,38.0795]]]}},{"type":"Feature","id":"dimos-athens-240","properties":{"name":"Neas Ionias","province":"Atenas","department":"Ática","type":"Dímos","country":"Grecia","iso":"GR"},"geometry":{"type":"Polygon","coordinates":[[[23.7509,38.0506],[23.7597,38.0467],[23.7615,38.0433],[23.7697,38.0389],[23.7713,38.0399],[23.7727,38.0391],[23.773,38.0398],[23.7742,38.0399],[23.7761,38.0413],[23.7772,38.0407],[23.7801,38.037],[23.7814,38.0288],[23.7764,38.0319],[23.7703,38.0343],[23.7685,38.0336],[23.7649,38.0303],[23.7636,38.0317],[23.763,38.0314],[23.7623,38.0291],[23.7601,38.0296],[23.7588,38.0288],[23.7556,38.0292],[23.7536,38.0269],[23.7447,38.0308],[23.7436,38.0336],[23.7452,38.0354],[23.7457,38.0377],[23.7467,38.0389],[23.7461,38.0422],[23.7489,38.0462],[23.7496,38.0487],[23.7509,38.0506]]]}},{"type":"Feature","id":"dimos-athens-241","properties":{"name":"Neas Smyrnis","province":"Atenas","department":"Ática","type":"Dímos","country":"Grecia","iso":"GR"},"geometry":{"type":"Polygon","coordinates":[[[23.7145,37.9554],[23.7228,37.949],[23.7243,37.9499],[23.7249,37.9489],[23.7265,37.9483],[23.7283,37.9438],[23.7262,37.9414],[23.7227,37.9407],[23.7211,37.9393],[23.7199,37.9369],[23.7162,37.9329],[23.7156,37.9313],[23.7139,37.9317],[23.7131,37.9302],[23.7107,37.9308],[23.7106,37.9329],[23.7062,37.9365],[23.7074,37.9396],[23.7017,37.9417],[23.6998,37.9433],[23.7145,37.9554]]]}},{"type":"Feature","id":"dimos-athens-269","properties":{"name":"Palaiou Falirou","province":"Atenas","department":"Ática","type":"Dímos","country":"Grecia","iso":"GR"},"geometry":{"type":"Polygon","coordinates":[[[23.6998,37.9433],[23.7017,37.9417],[23.7074,37.9396],[23.7062,37.9365],[23.7106,37.9329],[23.7107,37.9308],[23.7131,37.9302],[23.7139,37.9317],[23.7156,37.9313],[23.7147,37.9285],[23.7187,37.9273],[23.7148,37.9248],[23.7099,37.9244],[23.7092,37.9238],[23.7101,37.9229],[23.7124,37.923],[23.7224,37.9265],[23.7252,37.9284],[23.7255,37.9273],[23.721,37.9228],[23.7168,37.921],[23.711,37.9197],[23.7076,37.9205],[23.7051,37.9221],[23.7043,37.9216],[23.7028,37.9183],[23.7005,37.9172],[23.7002,37.9191],[23.6984,37.9206],[23.6932,37.9226],[23.6901,37.926],[23.6815,37.9292],[23.6839,37.9285],[23.6845,37.9292],[23.6844,37.9284],[23.6888,37.9269],[23.6892,37.9274],[23.6888,37.928],[23.6869,37.9287],[23.6864,37.9303],[23.6846,37.9314],[23.6855,37.9322],[23.6844,37.9333],[23.6848,37.9344],[23.6861,37.9346],[23.6872,37.9358],[23.6886,37.9353],[23.6913,37.9358],[23.6914,37.9371],[23.6998,37.9433]]]}},{"type":"Feature","id":"dimos-athens-273","properties":{"name":"Papagou - Cholargou","province":"Atenas","department":"Ática","type":"Dímos","country":"Grecia","iso":"GR"},"geometry":{"type":"Polygon","coordinates":[[[23.8265,37.9853],[23.8248,37.9778],[23.8221,37.9738],[23.8169,37.9764],[23.8093,37.9835],[23.8034,37.9847],[23.8003,37.986],[23.7992,37.9862],[23.7969,37.9834],[23.7951,37.9824],[23.7958,37.9811],[23.7933,37.9787],[23.7912,37.9791],[23.788,37.9807],[23.7882,37.983],[23.7891,37.9844],[23.7889,37.9885],[23.7895,37.9899],[23.7891,37.9907],[23.791,37.9926],[23.7908,37.9934],[23.7894,37.9951],[23.7842,37.9989],[23.7881,38.0011],[23.792,38.002],[23.7935,38.0043],[23.7967,38.0061],[23.8049,38.0092],[23.8111,38.0003],[23.8117,37.997],[23.8141,37.9964],[23.8156,37.9945],[23.8209,37.9917],[23.8232,37.987],[23.8265,37.9853]]]}},{"type":"Feature","id":"dimos-athens-314","properties":{"name":"Filotheis - Psychikou","province":"Atenas","department":"Ática","type":"Dímos","country":"Grecia","iso":"GR"},"geometry":{"type":"Polygon","coordinates":[[[23.7927,38.0034],[23.792,38.002],[23.7881,38.0011],[23.7826,38.0033],[23.7797,37.9999],[23.7734,38.0024],[23.7703,37.9989],[23.7677,38.0006],[23.7629,38.0052],[23.7634,38.0109],[23.7645,38.0155],[23.7667,38.0181],[23.7665,38.0197],[23.768,38.0209],[23.768,38.0239],[23.7718,38.0338],[23.7787,38.0305],[23.7897,38.0236],[23.7885,38.0193],[23.7803,38.0099],[23.7843,38.0105],[23.7927,38.0034]]]}},{"type":"Feature","id":"dimos-athens-323","properties":{"name":"Chalandriou","province":"Atenas","department":"Ática","type":"Dímos","country":"Grecia","iso":"GR"},"geometry":{"type":"Polygon","coordinates":[[[23.8491,38.0428],[23.8493,38.0416],[23.851,38.0397],[23.8507,38.0391],[23.847,38.0332],[23.8385,38.022],[23.8357,38.0218],[23.8341,38.0242],[23.8234,38.0219],[23.8197,38.0198],[23.8151,38.0158],[23.8119,38.012],[23.7977,38.0065],[23.7937,38.0045],[23.7927,38.0034],[23.7843,38.0105],[23.7803,38.0099],[23.7885,38.0193],[23.7896,38.0225],[23.7897,38.0275],[23.7922,38.0295],[23.7949,38.0333],[23.804,38.0326],[23.8234,38.0343],[23.8257,38.0326],[23.8253,38.0315],[23.8275,38.0294],[23.8332,38.0254],[23.841,38.0357],[23.8418,38.0364],[23.8432,38.0359],[23.8451,38.0362],[23.8472,38.0379],[23.8491,38.0428]]]}},{"type":"Feature","id":"dimos-athens-325","properties":{"name":"Chaidariou","province":"Atenas","department":"Ática","type":"Dímos","country":"Grecia","iso":"GR"},"geometry":{"type":"Polygon","coordinates":[[[23.656,38.0366],[23.6583,38.0356],[23.6694,38.0342],[23.6688,38.0315],[23.666,38.0269],[23.6656,38.0249],[23.6663,38.0232],[23.6687,38.0215],[23.67,38.018],[23.6741,38.015],[23.6743,38.0141],[23.674,38.013],[23.6689,38.0062],[23.6675,38.0009],[23.6679,37.9971],[23.6652,37.9985],[23.663,37.9965],[23.6602,37.9974],[23.6578,37.9957],[23.6532,37.9983],[23.6411,37.9985],[23.6247,37.9942],[23.6187,37.9967],[23.6164,37.9965],[23.6099,37.9942],[23.6024,37.9906],[23.5932,37.9893],[23.576,37.9921],[23.5726,37.9929],[23.5699,37.9946],[23.5679,37.9938],[23.5669,37.9923],[23.568,37.9946],[23.5674,37.9964],[23.5701,37.9978],[23.5688,37.9991],[23.57,37.9998],[23.5755,37.9985],[23.5793,37.9986],[23.581,37.9979],[23.5812,37.9964],[23.5841,37.9967],[23.587,37.9983],[23.5919,38.0027],[23.5928,38.0041],[23.5911,38.0051],[23.5929,38.0043],[23.5947,38.0057],[23.5942,38.006],[23.595,38.0069],[23.5944,38.0072],[23.5963,38.0097],[23.5931,38.0112],[23.5938,38.0119],[23.5955,38.0112],[23.5966,38.0119],[23.597,38.0152],[23.6258,38.0207],[23.6296,38.0252],[23.6345,38.0247],[23.6389,38.0268],[23.6481,38.0281],[23.6535,38.0323],[23.6549,38.0357],[23.656,38.0366]]]}}]}