{"type":"FeatureCollection","features":[{"type":"Feature","id":"bangkok-khet-1025","properties":{"name":"Bang Phlat","province":"Bangkok","department":"Central","type":"Khet (Distrito)","country":"Tailandia","iso":"TH"},"geometry":{"type":"Polygon","coordinates":[[[100.5165,13.8003],[100.5141,13.7956],[100.5038,13.7837],[100.497,13.7682],[100.491,13.7619],[100.4822,13.7735],[100.4689,13.7875],[100.4663,13.7871],[100.4665,13.7889],[100.4739,13.7908],[100.5011,13.8007],[100.5152,13.8131],[100.5163,13.812],[100.5175,13.8087],[100.5176,13.8046],[100.5165,13.8003]]]}},{"type":"Feature","id":"bangkok-khet-1017","properties":{"name":"Huai Khwang","province":"Bangkok","department":"Central","type":"Khet (Distrito)","country":"Tailandia","iso":"TH"},"geometry":{"type":"Polygon","coordinates":[[[100.5885,13.8028],[100.5902,13.7865],[100.5936,13.7794],[100.5932,13.7726],[100.5948,13.766],[100.5949,13.7626],[100.5977,13.7575],[100.6043,13.751],[100.6004,13.7473],[100.5982,13.7412],[100.5633,13.7479],[100.5663,13.7606],[100.5726,13.7689],[100.5734,13.7712],[100.5749,13.8011],[100.5803,13.8019],[100.5819,13.8028],[100.5885,13.8028]]]}},{"type":"Feature","id":"bangkok-khet-1045","properties":{"name":"Wang Thong Lang","province":"Bangkok","department":"Central","type":"Khet (Distrito)","country":"Tailandia","iso":"TH"},"geometry":{"type":"Polygon","coordinates":[[[100.613,13.7949],[100.615,13.7997],[100.6161,13.7993],[100.6237,13.8001],[100.626,13.7881],[100.6291,13.7887],[100.6307,13.7841],[100.6293,13.7751],[100.6283,13.7756],[100.6305,13.7632],[100.6152,13.7612],[100.6099,13.7571],[100.6041,13.7512],[100.5977,13.7575],[100.5949,13.7626],[100.5948,13.766],[100.5932,13.7726],[100.5936,13.7794],[100.5902,13.7865],[100.5885,13.8028],[100.5918,13.8026],[100.5964,13.8013],[100.596,13.7993],[100.5972,13.799],[100.5973,13.7983],[100.5997,13.7961],[100.6053,13.7952],[100.613,13.7949]]]}},{"type":"Feature","id":"bangkok-khet-1048","properties":{"name":"Thawi Watthana","province":"Bangkok","department":"Central","type":"Khet (Distrito)","country":"Tailandia","iso":"TH"},"geometry":{"type":"Polygon","coordinates":[[[100.3967,13.8019],[100.4111,13.8014],[100.4093,13.7805],[100.4059,13.7553],[100.4059,13.7495],[100.3899,13.7521],[100.3685,13.754],[100.3626,13.7538],[100.3527,13.7522],[100.3594,13.738],[100.3399,13.7366],[100.3354,13.7361],[100.3335,13.7352],[100.3328,13.737],[100.3332,13.7394],[100.3313,13.7483],[100.3318,13.7536],[100.3292,13.766],[100.3304,13.7881],[100.3279,13.8042],[100.3967,13.8019]]]}},{"type":"Feature","id":"bangkok-khet-1011","properties":{"name":"Lat Krabang","province":"Bangkok","department":"Central","type":"Khet (Distrito)","country":"Tailandia","iso":"TH"},"geometry":{"type":"Polygon","coordinates":[[[100.7951,13.794],[100.7964,13.7911],[100.796,13.7884],[100.7936,13.7848],[100.7939,13.7839],[100.8008,13.7816],[100.8085,13.7816],[100.8132,13.7827],[100.8148,13.7842],[100.8156,13.7831],[100.8198,13.7818],[100.823,13.7796],[100.8228,13.7777],[100.8293,13.7722],[100.8301,13.7699],[100.8322,13.7675],[100.8345,13.768],[100.8374,13.7676],[100.8398,13.77],[100.8422,13.771],[100.8553,13.7711],[100.8606,13.7705],[100.8637,13.7675],[100.8666,13.7583],[100.8665,13.7532],[100.8681,13.7499],[100.8737,13.7431],[100.8804,13.7401],[100.8551,13.6994],[100.8607,13.697],[100.8593,13.6895],[100.8288,13.7019],[100.788,13.7167],[100.7712,13.7165],[100.7709,13.7157],[100.7666,13.7154],[100.7667,13.7167],[100.7534,13.7167],[100.7521,13.716],[100.7472,13.7169],[100.7307,13.7168],[100.7303,13.7185],[100.7097,13.7184],[100.7083,13.7309],[100.7098,13.7565],[100.7066,13.7568],[100.7125,13.7651],[100.7161,13.7717],[100.7164,13.7781],[100.7208,13.7783],[100.7248,13.7763],[100.7337,13.7748],[100.7389,13.7774],[100.739,13.7717],[100.7463,13.772],[100.7464,13.7779],[100.755,13.7779],[100.758,13.7759],[100.7595,13.7757],[100.7648,13.7817],[100.7768,13.7831],[100.7822,13.7819],[100.7824,13.7969],[100.7818,13.7984],[100.7827,13.7989],[100.7886,13.8004],[100.7917,13.7961],[100.7951,13.794]]]}},{"type":"Feature","id":"bangkok-khet-1026","properties":{"name":"Din Daeng","province":"Bangkok","department":"Central","type":"Khet (Distrito)","country":"Tailandia","iso":"TH"},"geometry":{"type":"Polygon","coordinates":[[[100.5749,13.8011],[100.5734,13.7712],[100.5729,13.7694],[100.5665,13.761],[100.5649,13.7551],[100.5525,13.756],[100.5505,13.7587],[100.5474,13.7598],[100.5471,13.7605],[100.5461,13.7605],[100.5435,13.7627],[100.5485,13.764],[100.55,13.7666],[100.5616,13.7883],[100.5614,13.795],[100.5665,13.7947],[100.567,13.795],[100.5675,13.7993],[100.572,13.7997],[100.5749,13.8011]]]}},{"type":"Feature","id":"bangkok-khet-1019","properties":{"name":"Taling Chan","province":"Bangkok","department":"Central","type":"Khet (Distrito)","country":"Tailandia","iso":"TH"},"geometry":{"type":"Polygon","coordinates":[[[100.4258,13.8005],[100.4578,13.7983],[100.4647,13.797],[100.4697,13.7949],[100.4664,13.7893],[100.4669,13.7887],[100.4662,13.7865],[100.4669,13.7846],[100.4667,13.7821],[100.4679,13.7799],[100.4656,13.7787],[100.4612,13.779],[100.4577,13.7773],[100.4548,13.7728],[100.4536,13.7682],[100.4543,13.7628],[100.4576,13.7594],[100.462,13.7516],[100.4623,13.7443],[100.4597,13.7437],[100.4571,13.744],[100.4563,13.7421],[100.4545,13.7426],[100.4523,13.7411],[100.4506,13.7412],[100.45,13.7405],[100.4492,13.741],[100.4479,13.7404],[100.4405,13.7407],[100.4392,13.74],[100.435,13.7401],[100.4325,13.7403],[100.4309,13.7423],[100.4271,13.7425],[100.4215,13.7443],[100.4164,13.7474],[100.4059,13.7495],[100.4059,13.7553],[100.4093,13.7805],[100.4111,13.8014],[100.4258,13.8005]]]}},{"type":"Feature","id":"bangkok-khet-1002","properties":{"name":"Dusit","province":"Bangkok","department":"Central","type":"Khet (Distrito)","country":"Tailandia","iso":"TH"},"geometry":{"type":"Polygon","coordinates":[[[100.5374,13.7979],[100.5192,13.7527],[100.5174,13.7533],[100.5172,13.7551],[100.5159,13.7573],[100.5039,13.7698],[100.499,13.7729],[100.5026,13.7812],[100.5054,13.7859],[100.5153,13.7971],[100.5165,13.8003],[100.5224,13.8],[100.527,13.7986],[100.5323,13.7983],[100.5332,13.7998],[100.5374,13.7979]]]}},{"type":"Feature","id":"bangkok-khet-1044","properties":{"name":"Saphan Sung","province":"Bangkok","department":"Central","type":"Khet (Distrito)","country":"Tailandia","iso":"TH"},"geometry":{"type":"Polygon","coordinates":[[[100.705,13.7977],[100.7061,13.7984],[100.7104,13.7909],[100.7148,13.783],[100.7167,13.777],[100.7161,13.7716],[100.7125,13.7651],[100.7066,13.7568],[100.7098,13.7565],[100.7084,13.7321],[100.659,13.7377],[100.6596,13.7386],[100.6635,13.7402],[100.6632,13.7423],[100.6646,13.7432],[100.6663,13.7468],[100.6705,13.7477],[100.6726,13.7494],[100.6755,13.7485],[100.6774,13.749],[100.679,13.752],[100.6697,13.7563],[100.6689,13.7664],[100.6646,13.7754],[100.705,13.7977]]]}},{"type":"Feature","id":"bangkok-khet-1014","properties":{"name":"Phaya Thai","province":"Bangkok","department":"Central","type":"Khet (Distrito)","country":"Tailandia","iso":"TH"},"geometry":{"type":"Polygon","coordinates":[[[100.5507,13.7962],[100.5614,13.795],[100.5618,13.789],[100.5485,13.764],[100.5435,13.7627],[100.5279,13.7744],[100.5374,13.7979],[100.5507,13.7962]]]}},{"type":"Feature","id":"bangkok-khet-1020","properties":{"name":"Bangkok Noi","province":"Bangkok","department":"Central","type":"Khet (Distrito)","country":"Tailandia","iso":"TH"},"geometry":{"type":"Polygon","coordinates":[[[100.4687,13.7876],[100.4822,13.7735],[100.491,13.7619],[100.489,13.7589],[100.4879,13.7554],[100.4877,13.7518],[100.4884,13.7482],[100.4821,13.7461],[100.4782,13.7464],[100.477,13.7441],[100.4754,13.7446],[100.4739,13.7437],[100.467,13.743],[100.4623,13.7443],[100.4625,13.7491],[100.4618,13.752],[100.4576,13.7594],[100.4543,13.7628],[100.4535,13.7666],[100.4547,13.7726],[100.4576,13.7773],[100.4612,13.779],[100.4656,13.7787],[100.4678,13.7798],[100.467,13.7811],[100.4663,13.7867],[100.4687,13.7876]]]}},{"type":"Feature","id":"bangkok-khet-1037","properties":{"name":"Ratchathewi","province":"Bangkok","department":"Central","type":"Khet (Distrito)","country":"Tailandia","iso":"TH"},"geometry":{"type":"Polygon","coordinates":[[[100.539,13.766],[100.5461,13.7605],[100.5471,13.7605],[100.5474,13.7598],[100.5505,13.7587],[100.5525,13.756],[100.5649,13.7551],[100.5633,13.7479],[100.5587,13.7485],[100.5476,13.7485],[100.5376,13.7497],[100.5333,13.7491],[100.5275,13.7497],[100.5254,13.7493],[100.5192,13.7527],[100.5279,13.7744],[100.539,13.766]]]}},{"type":"Feature","id":"bangkok-khet-1001","properties":{"name":"Phra Nakhon","province":"Bangkok","department":"Central","type":"Khet (Distrito)","country":"Tailandia","iso":"TH"},"geometry":{"type":"Polygon","coordinates":[[[100.5039,13.7698],[100.5094,13.7636],[100.5059,13.7561],[100.5035,13.7452],[100.501,13.7415],[100.4999,13.7387],[100.494,13.7407],[100.4905,13.7443],[100.4881,13.7491],[100.4877,13.7546],[100.4897,13.7601],[100.497,13.7682],[100.499,13.7729],[100.5039,13.7698]]]}},{"type":"Feature","id":"bangkok-khet-1008","properties":{"name":"Pom Prap Sattru Phai","province":"Bangkok","department":"Central","type":"Khet (Distrito)","country":"Tailandia","iso":"TH"},"geometry":{"type":"Polygon","coordinates":[[[100.5121,13.761],[100.5162,13.757],[100.5173,13.7548],[100.5157,13.738],[100.5039,13.7468],[100.5059,13.7561],[100.5094,13.7636],[100.5121,13.761]]]}},{"type":"Feature","id":"bangkok-khet-1007","properties":{"name":"Parthum Wan","province":"Bangkok","department":"Central","type":"Khet (Distrito)","country":"Tailandia","iso":"TH"},"geometry":{"type":"Polygon","coordinates":[[[100.5192,13.7527],[100.5254,13.7493],[100.5275,13.7497],[100.5333,13.7491],[100.5376,13.7497],[100.5501,13.7484],[100.5529,13.7228],[100.5157,13.738],[100.5174,13.7533],[100.5192,13.7527]]]}},{"type":"Feature","id":"bangkok-khet-1040","properties":{"name":"Bang Khae","province":"Bangkok","department":"Central","type":"Khet (Distrito)","country":"Tailandia","iso":"TH"},"geometry":{"type":"Polygon","coordinates":[[[100.401,13.7504],[100.4134,13.7479],[100.4144,13.7388],[100.4168,13.7381],[100.4164,13.7358],[100.4178,13.7312],[100.4249,13.7322],[100.4267,13.6947],[100.4278,13.6876],[100.3936,13.6694],[100.3884,13.668],[100.3874,13.6704],[100.3848,13.6714],[100.3853,13.6759],[100.3838,13.6798],[100.3813,13.6917],[100.3527,13.752],[100.3626,13.7538],[100.3685,13.754],[100.378,13.7534],[100.401,13.7504]]]}},{"type":"Feature","id":"bangkok-khet-1034","properties":{"name":"Suanluang","province":"Bangkok","department":"Central","type":"Khet (Distrito)","country":"Tailandia","iso":"TH"},"geometry":{"type":"Polygon","coordinates":[[[100.6512,13.741],[100.6593,13.7384],[100.6582,13.7366],[100.6566,13.7366],[100.6558,13.7345],[100.6539,13.7338],[100.652,13.7311],[100.6519,13.7295],[100.6498,13.7288],[100.6479,13.7173],[100.6515,13.718],[100.6507,13.7147],[100.6511,13.7138],[100.6503,13.7128],[100.6492,13.7075],[100.651,13.703],[100.6498,13.7033],[100.6419,13.7026],[100.6341,13.7007],[100.6323,13.7044],[100.6304,13.704],[100.6301,13.7054],[100.6164,13.7045],[100.6158,13.7068],[100.6063,13.7055],[100.6026,13.7121],[100.6019,13.712],[100.6023,13.7133],[100.6055,13.714],[100.6072,13.7157],[100.6062,13.7182],[100.6069,13.7192],[100.6053,13.7202],[100.606,13.7215],[100.6046,13.7321],[100.605,13.7377],[100.5984,13.7385],[100.5989,13.7404],[100.5982,13.7412],[100.601,13.7479],[100.6106,13.7438],[100.6358,13.7501],[100.6388,13.7494],[100.6432,13.7467],[100.6456,13.7464],[100.6486,13.7441],[100.6484,13.7432],[100.6475,13.7426],[100.6512,13.741]]]}},{"type":"Feature","id":"bangkok-khet-1039","properties":{"name":"Vadhana","province":"Bangkok","department":"Central","type":"Khet (Distrito)","country":"Tailandia","iso":"TH"},"geometry":{"type":"Polygon","coordinates":[[[100.5633,13.7479],[100.5982,13.7412],[100.5989,13.7404],[100.5985,13.7383],[100.605,13.7377],[100.6046,13.7321],[100.606,13.7215],[100.6053,13.7202],[100.6069,13.7192],[100.6062,13.7182],[100.6072,13.7157],[100.6055,13.714],[100.6023,13.7133],[100.6019,13.712],[100.6026,13.7121],[100.6057,13.7066],[100.6016,13.7047],[100.5986,13.7102],[100.5542,13.7416],[100.5507,13.7429],[100.5501,13.7484],[100.5587,13.7485],[100.5633,13.7479]]]}},{"type":"Feature","id":"bangkok-khet-1016","properties":{"name":"Bangkok Yai","province":"Bangkok","department":"Central","type":"Khet (Distrito)","country":"Tailandia","iso":"TH"},"geometry":{"type":"Polygon","coordinates":[[[100.4884,13.7482],[100.492,13.7423],[100.4889,13.7387],[100.4874,13.7352],[100.4862,13.7286],[100.4847,13.7249],[100.4804,13.723],[100.4759,13.7222],[100.4719,13.7225],[100.4677,13.7247],[100.4628,13.7325],[100.4616,13.7389],[100.462,13.7444],[100.467,13.743],[100.4715,13.7432],[100.4744,13.7438],[100.4754,13.7446],[100.4771,13.7441],[100.4782,13.7464],[100.4821,13.7461],[100.4884,13.7482]]]}},{"type":"Feature","id":"bangkok-khet-1022","properties":{"name":"Phasi Charoen","province":"Bangkok","department":"Central","type":"Khet (Distrito)","country":"Tailandia","iso":"TH"},"geometry":{"type":"Polygon","coordinates":[[[100.462,13.7444],[100.4616,13.7389],[100.4629,13.7324],[100.4674,13.7251],[100.4718,13.7228],[100.4715,13.7211],[100.4692,13.7177],[100.4692,13.716],[100.4628,13.7179],[100.4636,13.7139],[100.4553,13.7118],[100.4559,13.7084],[100.4528,13.7101],[100.4501,13.7053],[100.4392,13.7094],[100.4347,13.6988],[100.4377,13.6937],[100.4278,13.6876],[100.4267,13.6947],[100.425,13.7318],[100.4249,13.7322],[100.4178,13.7312],[100.4164,13.7358],[100.4168,13.7381],[100.4144,13.7388],[100.4134,13.7479],[100.4171,13.7471],[100.4215,13.7443],[100.4271,13.7425],[100.4309,13.7423],[100.4325,13.7403],[100.435,13.7401],[100.4392,13.74],[100.4405,13.7407],[100.4479,13.7404],[100.4492,13.741],[100.45,13.7405],[100.4506,13.7412],[100.4523,13.7411],[100.4545,13.7426],[100.4563,13.7421],[100.4571,13.744],[100.4597,13.7437],[100.462,13.7444]]]}},{"type":"Feature","id":"bangkok-khet-1013","properties":{"name":"Samphanthawong","province":"Bangkok","department":"Central","type":"Khet (Distrito)","country":"Tailandia","iso":"TH"},"geometry":{"type":"Polygon","coordinates":[[[100.5057,13.7456],[100.5157,13.738],[100.5155,13.7325],[100.5133,13.7296],[100.5123,13.7294],[100.5102,13.7345],[100.5084,13.7361],[100.5056,13.7374],[100.4999,13.7387],[100.5039,13.7468],[100.5057,13.7456]]]}},{"type":"Feature","id":"bangkok-khet-1033","properties":{"name":"Khlong Toei","province":"Bangkok","department":"Central","type":"Khet (Distrito)","country":"Tailandia","iso":"TH"},"geometry":{"type":"Polygon","coordinates":[[[100.5653,13.7337],[100.5987,13.7101],[100.6016,13.7047],[100.5956,13.7016],[100.5835,13.697],[100.5812,13.6989],[100.5774,13.7007],[100.5643,13.7058],[100.5594,13.7066],[100.5549,13.7057],[100.5507,13.7429],[100.5537,13.7418],[100.5653,13.7337]]]}},{"type":"Feature","id":"bangkok-khet-1015","properties":{"name":"Thon buri","province":"Bangkok","department":"Central","type":"Khet (Distrito)","country":"Tailandia","iso":"TH"},"geometry":{"type":"Polygon","coordinates":[[[100.4938,13.7408],[100.4987,13.739],[100.4966,13.7359],[100.4935,13.727],[100.4939,13.726],[100.4929,13.7254],[100.4922,13.7231],[100.493,13.721],[100.4932,13.7129],[100.4987,13.7051],[100.492,13.7006],[100.4903,13.6978],[100.49,13.695],[100.4825,13.6948],[100.4826,13.6953],[100.4804,13.6964],[100.4795,13.6981],[100.477,13.7088],[100.4717,13.7072],[100.4665,13.7093],[100.4662,13.71],[100.4687,13.7126],[100.4692,13.7177],[100.4715,13.7211],[100.4717,13.7225],[100.4778,13.7224],[100.4847,13.7249],[100.4862,13.7286],[100.4867,13.7332],[100.4889,13.7385],[100.492,13.7423],[100.4938,13.7408]]]}},{"type":"Feature","id":"bangkok-khet-1018","properties":{"name":"Khlong San","province":"Bangkok","department":"Central","type":"Khet (Distrito)","country":"Tailandia","iso":"TH"},"geometry":{"type":"Polygon","coordinates":[[[100.4999,13.7387],[100.5065,13.737],[100.5102,13.7345],[100.5122,13.7302],[100.5129,13.7243],[100.5119,13.7183],[100.509,13.7134],[100.5041,13.7082],[100.4987,13.7051],[100.4932,13.7129],[100.493,13.721],[100.4922,13.7231],[100.4929,13.7254],[100.4939,13.726],[100.4935,13.727],[100.4966,13.7359],[100.4987,13.739],[100.4999,13.7387]]]}},{"type":"Feature","id":"bangkok-khet-1032","properties":{"name":"Pra Wet","province":"Bangkok","department":"Central","type":"Khet (Distrito)","country":"Tailandia","iso":"TH"},"geometry":{"type":"Polygon","coordinates":[[[100.7084,13.7321],[100.7089,13.7242],[100.7123,13.7013],[100.711,13.7011],[100.7097,13.6907],[100.7073,13.6848],[100.7064,13.6786],[100.7055,13.6788],[100.7047,13.6748],[100.7052,13.6744],[100.6998,13.6641],[100.6983,13.6563],[100.6882,13.6583],[100.6783,13.6615],[100.6758,13.6634],[100.6666,13.6671],[100.6669,13.6682],[100.6612,13.6717],[100.6599,13.6701],[100.6554,13.6722],[100.6538,13.669],[100.6467,13.6692],[100.645,13.6698],[100.6406,13.6765],[100.6371,13.6952],[100.6341,13.7007],[100.6419,13.7026],[100.6498,13.7033],[100.651,13.703],[100.6492,13.7075],[100.6503,13.7128],[100.6511,13.7138],[100.6507,13.7147],[100.6515,13.718],[100.6479,13.7173],[100.6497,13.7287],[100.6519,13.7295],[100.652,13.7312],[100.6539,13.7338],[100.656,13.7347],[100.6567,13.7367],[100.6582,13.7366],[100.659,13.7377],[100.6672,13.7371],[100.7084,13.7321]]]}},{"type":"Feature","id":"bangkok-khet-1004","properties":{"name":"Bang Rak","province":"Bangkok","department":"Central","type":"Khet (Distrito)","country":"Tailandia","iso":"TH"},"geometry":{"type":"Polygon","coordinates":[[[100.5216,13.7357],[100.5447,13.7262],[100.5174,13.7181],[100.5122,13.7193],[100.5129,13.7243],[100.5123,13.7294],[100.5135,13.7298],[100.5154,13.7321],[100.5157,13.738],[100.5216,13.7357]]]}},{"type":"Feature","id":"bangkok-khet-1023","properties":{"name":"Nong Khaem","province":"Bangkok","department":"Central","type":"Khet (Distrito)","country":"Tailandia","iso":"TH"},"geometry":{"type":"Polygon","coordinates":[[[100.3594,13.738],[100.3814,13.6916],[100.3838,13.6798],[100.3853,13.6759],[100.3848,13.6714],[100.3832,13.6717],[100.3606,13.6613],[100.3571,13.6617],[100.3566,13.6599],[100.3512,13.6575],[100.3514,13.6566],[100.3488,13.6548],[100.3473,13.6554],[100.3453,13.6547],[100.3396,13.6549],[100.3398,13.6576],[100.3409,13.6588],[100.3413,13.6613],[100.3388,13.67],[100.3377,13.6773],[100.3362,13.6769],[100.3336,13.6815],[100.3339,13.6837],[100.3325,13.6884],[100.3313,13.6975],[100.3304,13.6998],[100.3303,13.7035],[100.3317,13.7043],[100.3335,13.7081],[100.3336,13.7103],[100.3326,13.7123],[100.3348,13.7132],[100.3352,13.7116],[100.3385,13.7126],[100.338,13.7141],[100.3389,13.7168],[100.3361,13.7213],[100.3364,13.726],[100.3372,13.7261],[100.3361,13.7291],[100.3366,13.7294],[100.3335,13.7352],[100.3354,13.7361],[100.3399,13.7366],[100.3594,13.738]]]}},{"type":"Feature","id":"bangkok-khet-1028","properties":{"name":"Sathon","province":"Bangkok","department":"Central","type":"Khet (Distrito)","country":"Tailandia","iso":"TH"},"geometry":{"type":"Polygon","coordinates":[[[100.5529,13.7228],[100.5537,13.7165],[100.553,13.7163],[100.5525,13.7181],[100.549,13.7192],[100.5443,13.7123],[100.5417,13.7106],[100.5436,13.707],[100.5391,13.7044],[100.5377,13.7072],[100.5334,13.7054],[100.5287,13.7059],[100.53,13.7026],[100.5269,13.7011],[100.5263,13.7018],[100.5249,13.7009],[100.5222,13.703],[100.5214,13.7023],[100.5186,13.7038],[100.5146,13.7049],[100.5169,13.7097],[100.51,13.7112],[100.5082,13.7123],[100.5122,13.7193],[100.5174,13.7181],[100.5447,13.7262],[100.5529,13.7228]]]}},{"type":"Feature","id":"bangkok-khet-1012","properties":{"name":"Yan na wa","province":"Bangkok","department":"Central","type":"Khet (Distrito)","country":"Tailandia","iso":"TH"},"geometry":{"type":"Polygon","coordinates":[[[100.5549,13.7057],[100.553,13.7044],[100.5516,13.7011],[100.5515,13.6963],[100.5525,13.6881],[100.5518,13.6803],[100.5496,13.6753],[100.5464,13.6719],[100.5408,13.6694],[100.5341,13.6703],[100.5287,13.6733],[100.5208,13.6802],[100.5168,13.6828],[100.5217,13.6883],[100.5242,13.6925],[100.5314,13.699],[100.5287,13.7059],[100.5334,13.7054],[100.5377,13.7072],[100.5391,13.7044],[100.5435,13.707],[100.5417,13.7106],[100.5443,13.7123],[100.549,13.7192],[100.5525,13.7181],[100.553,13.7163],[100.5537,13.7165],[100.5549,13.7057]]]}},{"type":"Feature","id":"bangkok-khet-1035","properties":{"name":"Chom Thong","province":"Bangkok","department":"Central","type":"Khet (Distrito)","country":"Tailandia","iso":"TH"},"geometry":{"type":"Polygon","coordinates":[[[100.4692,13.716],[100.4686,13.7125],[100.4668,13.7111],[100.4662,13.7095],[100.4717,13.7072],[100.477,13.7088],[100.4796,13.698],[100.4804,13.6964],[100.4826,13.6953],[100.4824,13.693],[100.4817,13.6929],[100.4814,13.6919],[100.4815,13.6905],[100.489,13.6846],[100.4882,13.6824],[100.4874,13.6824],[100.4886,13.6796],[100.4802,13.6692],[100.4821,13.6648],[100.4756,13.6636],[100.4759,13.6609],[100.4701,13.6602],[100.4703,13.659],[100.4665,13.6573],[100.4641,13.6546],[100.4628,13.654],[100.4611,13.6552],[100.4499,13.6593],[100.4535,13.6688],[100.4516,13.6754],[100.4488,13.6754],[100.4492,13.6765],[100.4485,13.6791],[100.4486,13.6817],[100.4472,13.6817],[100.4464,13.6839],[100.4454,13.6843],[100.444,13.6866],[100.4381,13.6932],[100.4347,13.6988],[100.4392,13.7094],[100.4501,13.7053],[100.4528,13.7101],[100.4559,13.7084],[100.4553,13.7118],[100.4636,13.7139],[100.4628,13.7179],[100.4692,13.716]]]}},{"type":"Feature","id":"bangkok-khet-1031","properties":{"name":"Bang Kho laen","province":"Bangkok","department":"Central","type":"Khet (Distrito)","country":"Tailandia","iso":"TH"},"geometry":{"type":"Polygon","coordinates":[[[100.5169,13.7097],[100.5146,13.7049],[100.5186,13.7038],[100.5214,13.7023],[100.5222,13.703],[100.5249,13.7009],[100.5263,13.7018],[100.5269,13.7011],[100.53,13.7026],[100.5314,13.699],[100.5242,13.6925],[100.5217,13.6883],[100.5168,13.6828],[100.5107,13.6851],[100.504,13.686],[100.4969,13.6878],[100.4927,13.6904],[100.4905,13.6934],[100.4899,13.6963],[100.492,13.7006],[100.495,13.703],[100.5041,13.7082],[100.5082,13.7123],[100.51,13.7112],[100.5169,13.7097]]]}},{"type":"Feature","id":"bangkok-khet-1009","properties":{"name":"Phra Khanong","province":"Bangkok","department":"Central","type":"Khet (Distrito)","country":"Tailandia","iso":"TH"},"geometry":{"type":"Polygon","coordinates":[[[100.6057,13.7066],[100.6064,13.7053],[100.6158,13.7068],[100.6164,13.7045],[100.6301,13.7054],[100.6304,13.704],[100.6323,13.7044],[100.6371,13.6952],[100.6402,13.6779],[100.6247,13.6783],[100.6227,13.6845],[100.6105,13.6843],[100.6075,13.682],[100.6069,13.6824],[100.6044,13.681],[100.6003,13.6799],[100.5887,13.683],[100.5892,13.6867],[100.5882,13.6912],[100.5835,13.697],[100.5956,13.7016],[100.6057,13.7066]]]}},{"type":"Feature","id":"bangkok-khet-1024","properties":{"name":"Rat Burana","province":"Bangkok","department":"Central","type":"Khet (Distrito)","country":"Tailandia","iso":"TH"},"geometry":{"type":"Polygon","coordinates":[[[100.49,13.695],[100.4905,13.6934],[100.4927,13.6904],[100.4956,13.6884],[100.4993,13.687],[100.5132,13.6845],[100.5187,13.6817],[100.5228,13.6784],[100.5204,13.6757],[100.522,13.6744],[100.5216,13.672],[100.5204,13.671],[100.5211,13.6691],[100.5176,13.6673],[100.5176,13.6618],[100.5138,13.6614],[100.5086,13.6634],[100.5065,13.6599],[100.5034,13.662],[100.5008,13.6575],[100.4995,13.654],[100.4964,13.6561],[100.497,13.659],[100.4939,13.6602],[100.4929,13.6604],[100.4913,13.6565],[100.4882,13.6577],[100.4841,13.6578],[100.482,13.662],[100.4758,13.6618],[100.4756,13.6636],[100.4821,13.6648],[100.4802,13.6692],[100.4886,13.6796],[100.4874,13.6824],[100.4882,13.6824],[100.489,13.6846],[100.482,13.6898],[100.4814,13.6911],[100.4817,13.6929],[100.4824,13.693],[100.4826,13.6948],[100.4833,13.695],[100.49,13.695]]]}},{"type":"Feature","id":"bangkok-khet-1050","properties":{"name":"Bang Bon","province":"Bangkok","department":"Central","type":"Khet (Distrito)","country":"Tailandia","iso":"TH"},"geometry":{"type":"Polygon","coordinates":[[[100.4377,13.6937],[100.444,13.6866],[100.4454,13.6843],[100.4463,13.6839],[100.4468,13.6825],[100.3752,13.6185],[100.3729,13.6201],[100.373,13.6208],[100.372,13.6209],[100.371,13.6256],[100.3691,13.6256],[100.3672,13.6263],[100.3672,13.6272],[100.3651,13.6275],[100.3632,13.6292],[100.3627,13.6308],[100.3631,13.6312],[100.3617,13.6315],[100.3616,13.6329],[100.3602,13.6334],[100.36,13.6344],[100.3587,13.6343],[100.3585,13.6367],[100.3562,13.6423],[100.3542,13.6421],[100.3544,13.6409],[100.352,13.6409],[100.3521,13.6402],[100.3478,13.6404],[100.3409,13.639],[100.3385,13.6425],[100.3387,13.6522],[100.3395,13.655],[100.3453,13.6547],[100.3473,13.6554],[100.3488,13.6548],[100.3514,13.6566],[100.3512,13.6575],[100.3566,13.6599],[100.3571,13.6617],[100.3606,13.6613],[100.3833,13.6717],[100.3874,13.6704],[100.3884,13.668],[100.3933,13.6693],[100.4222,13.6843],[100.4377,13.6937]]]}},{"type":"Feature","id":"bangkok-khet-1047","properties":{"name":"Bang Na","province":"Bangkok","department":"Central","type":"Khet (Distrito)","country":"Tailandia","iso":"TH"},"geometry":{"type":"Polygon","coordinates":[[[100.5887,13.683],[100.6003,13.6799],[100.6044,13.681],[100.6069,13.6824],[100.6075,13.682],[100.6105,13.6843],[100.6227,13.6845],[100.6247,13.6783],[100.6402,13.6779],[100.6412,13.6754],[100.6453,13.6696],[100.6538,13.669],[100.6507,13.6593],[100.65,13.6593],[100.6503,13.6517],[100.6491,13.6519],[100.6489,13.6527],[100.6397,13.6539],[100.6344,13.6474],[100.6301,13.6492],[100.6308,13.6512],[100.6186,13.655],[100.6191,13.6564],[100.6176,13.657],[100.6165,13.6539],[100.6072,13.6567],[100.6078,13.6586],[100.6054,13.6593],[100.6049,13.6583],[100.6031,13.6589],[100.6006,13.6584],[100.6015,13.6606],[100.6006,13.6609],[100.599,13.6598],[100.5962,13.6608],[100.592,13.6638],[100.579,13.6688],[100.5866,13.6785],[100.5887,13.683]]]}},{"type":"Feature","id":"bangkok-khet-1021","properties":{"name":"Bang Khun thain","province":"Bangkok","department":"Central","type":"Khet (Distrito)","country":"Tailandia","iso":"TH"},"geometry":{"type":"Polygon","coordinates":[[[100.4486,13.6817],[100.4485,13.6791],[100.4492,13.6765],[100.4488,13.6754],[100.4516,13.6754],[100.4535,13.6688],[100.4499,13.6593],[100.4611,13.6552],[100.4628,13.654],[100.4641,13.6546],[100.4665,13.6573],[100.4703,13.659],[100.4735,13.6396],[100.4758,13.6308],[100.4756,13.6296],[100.4741,13.6288],[100.4744,13.6274],[100.4723,13.6253],[100.4721,13.6241],[100.4762,13.6201],[100.4784,13.6197],[100.4787,13.6182],[100.4805,13.6174],[100.4815,13.6159],[100.4817,13.6125],[100.4808,13.6093],[100.4795,13.6075],[100.4795,13.6058],[100.4782,13.6057],[100.4769,13.604],[100.4767,13.6027],[100.4754,13.602],[100.4732,13.5992],[100.473,13.5969],[100.4737,13.5938],[100.4698,13.5927],[100.4669,13.597],[100.4671,13.5986],[100.4657,13.6017],[100.4658,13.6039],[100.4652,13.6039],[100.4639,13.6059],[100.463,13.6061],[100.4615,13.605],[100.4602,13.6054],[100.4575,13.6044],[100.4557,13.6053],[100.4547,13.605],[100.4539,13.6059],[100.4537,13.604],[100.4524,13.6017],[100.4522,13.5984],[100.4509,13.5965],[100.4508,13.5945],[100.4491,13.592],[100.4492,13.5908],[100.4466,13.5871],[100.4463,13.5849],[100.4468,13.5829],[100.4446,13.5523],[100.4539,13.5001],[100.4528,13.4994],[100.4361,13.4959],[100.4232,13.495],[100.4221,13.4953],[100.4216,13.4948],[100.4189,13.4956],[100.417,13.4945],[100.4156,13.4953],[100.414,13.4944],[100.4133,13.495],[100.4099,13.4938],[100.4066,13.508],[100.4067,13.5199],[100.4088,13.5236],[100.4111,13.5262],[100.4125,13.5299],[100.4128,13.5332],[100.415,13.5377],[100.4148,13.5387],[100.4186,13.5409],[100.42,13.5454],[100.4193,13.5473],[100.4165,13.5504],[100.4148,13.5511],[100.4152,13.5572],[100.4126,13.5573],[100.412,13.5555],[100.4086,13.5546],[100.4065,13.5545],[100.4044,13.5552],[100.4033,13.5535],[100.4013,13.5529],[100.3973,13.5531],[100.3952,13.5541],[100.3943,13.5562],[100.3942,13.5583],[100.3934,13.5587],[100.3926,13.5608],[100.3931,13.5614],[100.3923,13.563],[100.3913,13.5633],[100.3907,13.5674],[100.3916,13.5689],[100.3897,13.5697],[100.3889,13.5725],[100.3881,13.5723],[100.3875,13.5735],[100.388,13.5744],[100.3868,13.5746],[100.3872,13.5755],[100.3863,13.5762],[100.387,13.5767],[100.3866,13.578],[100.385,13.579],[100.3856,13.5801],[100.3851,13.581],[100.3857,13.5816],[100.3852,13.5838],[100.386,13.585],[100.3851,13.5855],[100.3857,13.5859],[100.3849,13.5861],[100.3853,13.5866],[100.3848,13.587],[100.3851,13.5875],[100.3842,13.5877],[100.3842,13.5891],[100.381,13.5915],[100.3814,13.5926],[100.3835,13.5935],[100.3786,13.6013],[100.3771,13.6066],[100.3771,13.6095],[100.3763,13.6095],[100.3749,13.6181],[100.4468,13.6825],[100.4475,13.6815],[100.4486,13.6817]]]}},{"type":"Feature","id":"bangkok-khet-1036","properties":{"name":"Don Mueang","province":"Bangkok","department":"Central","type":"Khet (Distrito)","country":"Tailandia","iso":"TH"},"geometry":{"type":"Polygon","coordinates":[[[100.6224,13.9503],[100.6264,13.926],[100.6109,13.8996],[100.5948,13.8876],[100.5904,13.8893],[100.5829,13.8907],[100.5877,13.8994],[100.5794,13.9038],[100.5736,13.9059],[100.5682,13.9091],[100.5632,13.9133],[100.559,13.9145],[100.5678,13.9516],[100.5742,13.9546],[100.5914,13.9504],[100.6057,13.9441],[100.6043,13.9539],[100.6144,13.9544],[100.6224,13.9503]]]}},{"type":"Feature","id":"bangkok-khet-1003","properties":{"name":"Nong Chok","province":"Bangkok","department":"Central","type":"Khet (Distrito)","country":"Tailandia","iso":"TH"},"geometry":{"type":"Polygon","coordinates":[[[100.8203,13.9367],[100.84,13.9407],[100.9141,13.9487],[100.9068,13.8854],[100.9062,13.8606],[100.9044,13.8587],[100.9021,13.849],[100.9127,13.8468],[100.909,13.8411],[100.9079,13.838],[100.9385,13.8143],[100.9286,13.8015],[100.9096,13.79],[100.8917,13.7581],[100.8804,13.7401],[100.8737,13.7431],[100.8684,13.7494],[100.8665,13.7533],[100.8666,13.7582],[100.8647,13.765],[100.8637,13.7676],[100.8606,13.7705],[100.8555,13.7711],[100.8422,13.771],[100.8398,13.77],[100.8374,13.7676],[100.8345,13.768],[100.8322,13.7675],[100.8301,13.7699],[100.8293,13.7722],[100.8228,13.7777],[100.823,13.7796],[100.8198,13.7818],[100.8156,13.7831],[100.8148,13.7842],[100.8132,13.7827],[100.8103,13.7818],[100.8014,13.7816],[100.7964,13.7827],[100.7936,13.7843],[100.7961,13.7887],[100.7964,13.7915],[100.7951,13.7941],[100.7969,13.7973],[100.7996,13.8004],[100.8045,13.8042],[100.8078,13.8081],[100.8035,13.8079],[100.8017,13.8095],[100.8015,13.8163],[100.8009,13.8174],[100.8014,13.8205],[100.8039,13.8258],[100.8059,13.8262],[100.8059,13.8299],[100.808,13.837],[100.8064,13.8454],[100.8085,13.8513],[100.8084,13.8535],[100.8066,13.8534],[100.7994,13.8496],[100.7935,13.863],[100.7874,13.8799],[100.791,13.882],[100.7928,13.8857],[100.7946,13.8868],[100.796,13.8906],[100.7978,13.8912],[100.7983,13.8924],[100.7929,13.894],[100.7929,13.897],[100.7922,13.8974],[100.7926,13.9314],[100.8203,13.9367]]]}},{"type":"Feature","id":"bangkok-khet-1042","properties":{"name":"Sai Mai","province":"Bangkok","department":"Central","type":"Khet (Distrito)","country":"Tailandia","iso":"TH"},"geometry":{"type":"Polygon","coordinates":[[[100.6588,13.9306],[100.6897,13.9309],[100.6893,13.9259],[100.6871,13.9207],[100.6876,13.9172],[100.686,13.9151],[100.6838,13.9137],[100.6836,13.9116],[100.687,13.9094],[100.6878,13.9059],[100.6923,13.898],[100.6914,13.8883],[100.6921,13.8868],[100.69,13.8844],[100.6894,13.8816],[100.6899,13.8796],[100.6881,13.8786],[100.6845,13.8742],[100.6818,13.8778],[100.6813,13.8797],[100.6758,13.8791],[100.6737,13.8811],[100.6725,13.8797],[100.6694,13.8811],[100.6672,13.8804],[100.6649,13.8811],[100.6643,13.8796],[100.662,13.8787],[100.6591,13.8797],[100.656,13.8818],[100.6553,13.8856],[100.654,13.8856],[100.6531,13.8864],[100.6527,13.8829],[100.6442,13.8827],[100.6431,13.8833],[100.643,13.8857],[100.6402,13.8868],[100.6341,13.8851],[100.6324,13.8858],[100.6297,13.8856],[100.6254,13.8841],[100.6253,13.8834],[100.6239,13.8829],[100.6163,13.8856],[100.611,13.8867],[100.6088,13.8884],[100.6114,13.8924],[100.6086,13.8958],[100.6265,13.9263],[100.6224,13.9503],[100.6245,13.9493],[100.6255,13.9479],[100.6265,13.938],[100.6397,13.9376],[100.6396,13.9323],[100.6411,13.9314],[100.6588,13.9306]]]}},{"type":"Feature","id":"bangkok-khet-1046","properties":{"name":"Khlong Sam Wa","province":"Bangkok","department":"Central","type":"Khet (Distrito)","country":"Tailandia","iso":"TH"},"geometry":{"type":"Polygon","coordinates":[[[100.7926,13.9315],[100.7922,13.8974],[100.7929,13.897],[100.7929,13.894],[100.7983,13.8924],[100.7978,13.8912],[100.796,13.8906],[100.7946,13.8868],[100.7928,13.8857],[100.791,13.882],[100.7874,13.88],[100.7935,13.863],[100.7994,13.8495],[100.7493,13.8221],[100.7486,13.824],[100.7467,13.8248],[100.7456,13.8311],[100.7441,13.8349],[100.74,13.8374],[100.7358,13.8367],[100.7352,13.8378],[100.7296,13.8358],[100.7298,13.8277],[100.7224,13.8275],[100.7223,13.8375],[100.7203,13.8373],[100.7202,13.8315],[100.7146,13.8314],[100.7145,13.8252],[100.7154,13.8219],[100.7123,13.8216],[100.712,13.8221],[100.7059,13.8212],[100.7046,13.8194],[100.6968,13.8155],[100.697,13.8204],[100.6956,13.8217],[100.6953,13.8242],[100.6919,13.8302],[100.691,13.8309],[100.6907,13.8324],[100.6879,13.8347],[100.6884,13.8361],[100.6878,13.8386],[100.6856,13.8452],[100.6838,13.8481],[100.6771,13.8516],[100.6712,13.8525],[100.6708,13.8534],[100.6746,13.8556],[100.6769,13.8577],[100.6805,13.8588],[100.6831,13.862],[100.6842,13.8664],[100.6858,13.8692],[100.6846,13.8745],[100.6881,13.8786],[100.6899,13.8796],[100.6894,13.8816],[100.69,13.8844],[100.6921,13.8868],[100.6914,13.8883],[100.6923,13.898],[100.6878,13.9059],[100.687,13.9094],[100.6836,13.9116],[100.6838,13.9137],[100.686,13.9151],[100.6876,13.9171],[100.6873,13.9193],[100.7124,13.921],[100.7926,13.9315]]]}},{"type":"Feature","id":"bangkok-khet-1041","properties":{"name":"Lak Si","province":"Bangkok","department":"Central","type":"Khet (Distrito)","country":"Tailandia","iso":"TH"},"geometry":{"type":"Polygon","coordinates":[[[100.559,13.9145],[100.5632,13.9133],[100.5682,13.9091],[100.5736,13.9059],[100.5794,13.9038],[100.5877,13.8994],[100.5829,13.8907],[100.5904,13.8893],[100.5948,13.8876],[100.5882,13.8797],[100.5866,13.8589],[100.5834,13.858],[100.5656,13.8558],[100.5569,13.8539],[100.5438,13.8499],[100.559,13.9145]]]}},{"type":"Feature","id":"bangkok-khet-1005","properties":{"name":"Bang Khen","province":"Bangkok","department":"Central","type":"Khet (Distrito)","country":"Tailandia","iso":"TH"},"geometry":{"type":"Polygon","coordinates":[[[100.6108,13.8996],[100.6086,13.8958],[100.6114,13.8924],[100.6088,13.8884],[100.611,13.8867],[100.6163,13.8856],[100.623,13.8831],[100.6243,13.883],[100.6253,13.8834],[100.6254,13.8841],[100.6297,13.8856],[100.6324,13.8858],[100.6341,13.8851],[100.6402,13.8868],[100.643,13.8857],[100.6431,13.8833],[100.6442,13.8827],[100.6527,13.8829],[100.6531,13.8864],[100.654,13.8856],[100.6553,13.8856],[100.6559,13.8821],[100.6567,13.881],[100.6617,13.8788],[100.6642,13.8795],[100.6649,13.8811],[100.6672,13.8804],[100.6696,13.8811],[100.6725,13.8797],[100.6737,13.8811],[100.6758,13.8791],[100.6813,13.8797],[100.6818,13.8778],[100.6845,13.8742],[100.6858,13.8694],[100.6842,13.8664],[100.6831,13.862],[100.6805,13.8588],[100.6769,13.8577],[100.6755,13.8564],[100.6721,13.8572],[100.669,13.8568],[100.6647,13.8547],[100.6632,13.856],[100.6612,13.8525],[100.6612,13.8492],[100.6592,13.8488],[100.6592,13.8479],[100.6488,13.8462],[100.6479,13.8463],[100.6481,13.8476],[100.6411,13.8467],[100.633,13.8425],[100.6287,13.8427],[100.6207,13.8481],[100.6139,13.8491],[100.6069,13.8493],[100.6023,13.8469],[100.594,13.8454],[100.59,13.844],[100.5877,13.8523],[100.5875,13.8566],[100.5865,13.8587],[100.5882,13.8797],[100.596,13.8888],[100.6108,13.8996]]]}},{"type":"Feature","id":"bangkok-khet-1030","properties":{"name":"Chatu Chak","province":"Bangkok","department":"Central","type":"Khet (Distrito)","country":"Tailandia","iso":"TH"},"geometry":{"type":"Polygon","coordinates":[[[100.5867,13.8583],[100.5875,13.8566],[100.5877,13.8523],[100.5911,13.8377],[100.5899,13.832],[100.5891,13.8239],[100.5896,13.8181],[100.5886,13.8124],[100.5892,13.8104],[100.5884,13.8031],[100.5819,13.8028],[100.5803,13.8019],[100.5755,13.8014],[100.572,13.7997],[100.5675,13.7993],[100.567,13.795],[100.5661,13.7946],[100.5374,13.7979],[100.545,13.8178],[100.5444,13.8195],[100.5429,13.8209],[100.537,13.8216],[100.5435,13.8496],[100.5569,13.8539],[100.5656,13.8558],[100.5834,13.858],[100.5863,13.859],[100.5867,13.8583]]]}},{"type":"Feature","id":"bangkok-khet-1043","properties":{"name":"Khan Na Yao","province":"Bangkok","department":"Central","type":"Khet (Distrito)","country":"Tailandia","iso":"TH"},"geometry":{"type":"Polygon","coordinates":[[[100.6755,13.8564],[100.6708,13.8535],[100.6709,13.8526],[100.6769,13.8516],[100.6838,13.8481],[100.6856,13.8452],[100.6878,13.8386],[100.6884,13.8361],[100.6879,13.8347],[100.6907,13.8324],[100.691,13.8309],[100.6919,13.8302],[100.6953,13.8242],[100.6956,13.8217],[100.697,13.8204],[100.6967,13.8161],[100.6976,13.8126],[100.7019,13.8091],[100.702,13.8067],[100.7006,13.8045],[100.705,13.7977],[100.6751,13.7812],[100.6738,13.7838],[100.6766,13.7867],[100.6745,13.7906],[100.6736,13.7962],[100.6699,13.8022],[100.6687,13.8057],[100.6666,13.8051],[100.6641,13.8101],[100.6629,13.81],[100.663,13.8128],[100.6611,13.8177],[100.6602,13.824],[100.6614,13.8264],[100.6614,13.8335],[100.6579,13.833],[100.6573,13.8356],[100.654,13.8354],[100.6486,13.8339],[100.6478,13.8441],[100.6502,13.8449],[100.648,13.8463],[100.659,13.8478],[100.6592,13.8488],[100.6612,13.8492],[100.6612,13.8525],[100.6632,13.856],[100.6647,13.8547],[100.669,13.8568],[100.6721,13.8572],[100.6755,13.8564]]]}},{"type":"Feature","id":"bangkok-khet-1010","properties":{"name":"Min Buri","province":"Bangkok","department":"Central","type":"Khet (Distrito)","country":"Tailandia","iso":"TH"},"geometry":{"type":"Polygon","coordinates":[[[100.8084,13.8535],[100.8085,13.8508],[100.8064,13.8454],[100.808,13.837],[100.8059,13.8299],[100.8059,13.8262],[100.8039,13.8258],[100.8014,13.8205],[100.8009,13.8174],[100.8015,13.8163],[100.8017,13.8095],[100.8035,13.8079],[100.8078,13.8081],[100.8045,13.8042],[100.7978,13.7986],[100.7951,13.794],[100.7917,13.7961],[100.7886,13.8004],[100.7818,13.7984],[100.7824,13.7969],[100.7822,13.7819],[100.7768,13.7831],[100.7648,13.7817],[100.7595,13.7757],[100.758,13.7759],[100.755,13.7779],[100.7464,13.7779],[100.7463,13.772],[100.739,13.7717],[100.7389,13.7774],[100.7337,13.7748],[100.7248,13.7763],[100.7208,13.7783],[100.7164,13.7781],[100.7148,13.7831],[100.7063,13.7981],[100.7049,13.7978],[100.7006,13.8044],[100.702,13.8067],[100.7021,13.8087],[100.6978,13.8123],[100.6968,13.8155],[100.7046,13.8194],[100.7059,13.8212],[100.712,13.8221],[100.7123,13.8216],[100.7154,13.8219],[100.7145,13.8252],[100.7146,13.8314],[100.7202,13.8315],[100.7202,13.8373],[100.7223,13.8375],[100.7224,13.8275],[100.7298,13.8277],[100.7296,13.8358],[100.7352,13.8378],[100.7358,13.8367],[100.74,13.8374],[100.7441,13.8349],[100.7456,13.8311],[100.7467,13.8248],[100.7486,13.824],[100.7493,13.8221],[100.8056,13.8529],[100.8084,13.8535]]]}},{"type":"Feature","id":"bangkok-khet-1038","properties":{"name":"Lat Phrao","province":"Bangkok","department":"Central","type":"Khet (Distrito)","country":"Tailandia","iso":"TH"},"geometry":{"type":"Polygon","coordinates":[[[100.619,13.8485],[100.6209,13.848],[100.6287,13.8427],[100.633,13.8425],[100.6372,13.8447],[100.6311,13.8332],[100.6278,13.8238],[100.6196,13.8098],[100.6129,13.7949],[100.6053,13.7952],[100.5997,13.7961],[100.5973,13.7983],[100.5972,13.799],[100.596,13.7993],[100.5964,13.8013],[100.5884,13.8029],[100.5892,13.8104],[100.5886,13.8124],[100.5896,13.8181],[100.5891,13.8239],[100.5899,13.832],[100.5911,13.8374],[100.5899,13.8438],[100.594,13.8454],[100.6023,13.8469],[100.607,13.8493],[100.619,13.8485]]]}},{"type":"Feature","id":"bangkok-khet-1029","properties":{"name":"Bang Sue","province":"Bangkok","department":"Central","type":"Khet (Distrito)","country":"Tailandia","iso":"TH"},"geometry":{"type":"Polygon","coordinates":[[[100.5391,13.8305],[100.537,13.8216],[100.5429,13.8209],[100.5443,13.8198],[100.545,13.8179],[100.5374,13.7979],[100.5332,13.7998],[100.5323,13.7983],[100.527,13.7986],[100.5224,13.8],[100.5165,13.8003],[100.5177,13.8058],[100.5174,13.8092],[100.5163,13.812],[100.5129,13.8145],[100.5074,13.8164],[100.5064,13.8189],[100.5077,13.8228],[100.5102,13.8242],[100.5093,13.8255],[100.5106,13.8252],[100.511,13.8262],[100.5118,13.8261],[100.5131,13.8247],[100.5132,13.8262],[100.5154,13.8271],[100.516,13.8286],[100.5361,13.8462],[100.5435,13.8496],[100.5391,13.8305]]]}},{"type":"Feature","id":"bangkok-khet-1027","properties":{"name":"Bueng Kum","province":"Bangkok","department":"Central","type":"Khet (Distrito)","country":"Tailandia","iso":"TH"},"geometry":{"type":"Polygon","coordinates":[[[100.648,13.8463],[100.6502,13.8449],[100.6478,13.8442],[100.6486,13.8339],[100.654,13.8354],[100.6573,13.8356],[100.6579,13.833],[100.6614,13.8335],[100.6614,13.8264],[100.6602,13.824],[100.6611,13.8177],[100.663,13.8128],[100.6629,13.81],[100.6641,13.8101],[100.6666,13.8051],[100.6687,13.8057],[100.6699,13.8022],[100.6736,13.7962],[100.6745,13.7906],[100.6766,13.7867],[100.6738,13.7838],[100.6751,13.7812],[100.6561,13.7708],[100.6537,13.7739],[100.6509,13.7798],[100.6477,13.7841],[100.648,13.7848],[100.6427,13.787],[100.6405,13.792],[100.6393,13.8041],[100.6341,13.8095],[100.6319,13.8153],[100.631,13.8155],[100.6314,13.8192],[100.626,13.8193],[100.6255,13.8176],[100.6245,13.8174],[100.6281,13.8243],[100.6311,13.8332],[100.6372,13.8447],[100.6413,13.8467],[100.6481,13.8476],[100.648,13.8463]]]}},{"type":"Feature","id":"bangkok-khet-1006","properties":{"name":"Bang Kapi","province":"Bangkok","department":"Central","type":"Khet (Distrito)","country":"Tailandia","iso":"TH"},"geometry":{"type":"Polygon","coordinates":[[[100.6245,13.8174],[100.6255,13.8176],[100.626,13.8193],[100.6314,13.8192],[100.631,13.8155],[100.6319,13.8153],[100.6341,13.8095],[100.6393,13.8041],[100.6405,13.792],[100.6427,13.787],[100.648,13.7848],[100.6477,13.7841],[100.6509,13.7798],[100.6537,13.7739],[100.6561,13.7708],[100.6646,13.7754],[100.6689,13.7664],[100.6697,13.7563],[100.679,13.7521],[100.6774,13.749],[100.6755,13.7485],[100.6726,13.7494],[100.6705,13.7477],[100.6663,13.7468],[100.6646,13.7432],[100.6632,13.7423],[100.6635,13.7402],[100.6588,13.7384],[100.6493,13.7415],[100.6475,13.7426],[100.6485,13.7432],[100.6485,13.7441],[100.6456,13.7464],[100.6432,13.7467],[100.6388,13.7494],[100.6358,13.7501],[100.6106,13.7438],[100.6013,13.7481],[100.6099,13.7571],[100.6146,13.7609],[100.6167,13.7616],[100.6305,13.7632],[100.6283,13.7756],[100.6293,13.7751],[100.6307,13.784],[100.6291,13.7887],[100.626,13.7881],[100.6236,13.8002],[100.6161,13.7993],[100.615,13.7997],[100.6196,13.8098],[100.6245,13.8174]]]}},{"type":"Feature","id":"bangkok-khet-1049","properties":{"name":"Thung khru","province":"Bangkok","department":"Central","type":"Khet (Distrito)","country":"Tailandia","iso":"TH"},"geometry":{"type":"Polygon","coordinates":[[[100.4758,13.6618],[100.482,13.662],[100.4841,13.6578],[100.4882,13.6577],[100.4913,13.6565],[100.4929,13.6604],[100.4939,13.6602],[100.497,13.659],[100.4964,13.6561],[100.4995,13.654],[100.5008,13.6575],[100.5034,13.662],[100.5065,13.6599],[100.5086,13.6634],[100.5138,13.6614],[100.5176,13.6618],[100.5168,13.6545],[100.5216,13.6424],[100.5169,13.6377],[100.5169,13.6364],[100.5181,13.6349],[100.5142,13.6285],[100.5165,13.6187],[100.5161,13.6179],[100.5169,13.614],[100.5164,13.6126],[100.5177,13.6122],[100.518,13.6109],[100.5204,13.609],[100.5211,13.6051],[100.5137,13.6026],[100.5114,13.5968],[100.5046,13.5976],[100.5017,13.5959],[100.4996,13.5955],[100.4987,13.5913],[100.4961,13.5882],[100.4946,13.5876],[100.4896,13.5883],[100.4821,13.5925],[100.4807,13.598],[100.4786,13.5982],[100.4769,13.5993],[100.4778,13.6019],[100.4769,13.6039],[100.4782,13.6057],[100.4796,13.6061],[100.4795,13.6075],[100.4808,13.6093],[100.4817,13.6125],[100.4816,13.6153],[100.4804,13.6175],[100.4787,13.6182],[100.4784,13.6197],[100.4762,13.6201],[100.4721,13.6241],[100.4723,13.6253],[100.4744,13.6274],[100.4741,13.6288],[100.4756,13.6296],[100.4758,13.6308],[100.4735,13.6396],[100.4723,13.6493],[100.4701,13.6601],[100.4759,13.6609],[100.4758,13.6618]]]}}]}