{"type":"FeatureCollection","features":[{"type":"Feature","id":"opstina-belgrade-1","properties":{"name":"Stari Grad","province":"Beograd","department":"Grad Beograd","type":"Opština","country":"Serbia","iso":"RS"},"geometry":{"type":"MultiPolygon","coordinates":[[[[20.4436,44.8256],[20.4462,44.8291],[20.4521,44.8339],[20.4641,44.833],[20.4787,44.83],[20.4787,44.8275],[20.4796,44.8265],[20.4782,44.8252],[20.4784,44.824],[20.4765,44.8192],[20.4746,44.8193],[20.4749,44.8148],[20.466,44.8103],[20.4627,44.8076],[20.4574,44.8142],[20.4481,44.8153],[20.4472,44.8182],[20.4445,44.8221],[20.4436,44.8256]]]]}},{"type":"Feature","id":"opstina-belgrade-2","properties":{"name":"Vračar","province":"Beograd","department":"Grad Beograd","type":"Opština","country":"Serbia","iso":"RS"},"geometry":{"type":"MultiPolygon","coordinates":[[[[20.4627,44.8076],[20.4645,44.8063],[20.4662,44.803],[20.4654,44.8024],[20.4661,44.802],[20.465,44.7952],[20.466,44.7928],[20.4663,44.7923],[20.4694,44.7918],[20.4702,44.7903],[20.4841,44.7923],[20.4937,44.791],[20.4977,44.7914],[20.4958,44.7932],[20.4902,44.7955],[20.484,44.8004],[20.4818,44.8025],[20.4821,44.8028],[20.4717,44.8072],[20.4666,44.8104],[20.4627,44.8076]]]]}},{"type":"Feature","id":"opstina-belgrade-3","properties":{"name":"Savski Venac","province":"Beograd","department":"Grad Beograd","type":"Opština","country":"Serbia","iso":"RS"},"geometry":{"type":"MultiPolygon","coordinates":[[[[20.4248,44.7928],[20.4288,44.7968],[20.4377,44.8007],[20.4436,44.805],[20.4474,44.8097],[20.4483,44.8127],[20.4481,44.8153],[20.4579,44.8139],[20.4626,44.8074],[20.4645,44.8063],[20.4662,44.803],[20.4654,44.8024],[20.4661,44.802],[20.465,44.7952],[20.4668,44.7918],[20.4653,44.7875],[20.4659,44.7846],[20.4683,44.7796],[20.4675,44.7789],[20.4681,44.7775],[20.4672,44.7716],[20.4657,44.7698],[20.4738,44.7615],[20.4723,44.756],[20.4707,44.7548],[20.4686,44.7545],[20.4579,44.7582],[20.4557,44.7585],[20.4525,44.7579],[20.4488,44.7586],[20.4475,44.7612],[20.4477,44.7631],[20.4469,44.7631],[20.4463,44.7647],[20.4456,44.7647],[20.444,44.7683],[20.4409,44.7703],[20.44,44.7738],[20.4381,44.7738],[20.4382,44.7725],[20.437,44.7715],[20.4361,44.7772],[20.4369,44.7822],[20.4303,44.785],[20.4295,44.7883],[20.4273,44.7897],[20.4248,44.7928]]]]}},{"type":"Feature","id":"opstina-belgrade-4","properties":{"name":"Novi Beograd","province":"Beograd","department":"Grad Beograd","type":"Opština","country":"Serbia","iso":"RS"},"geometry":{"type":"MultiPolygon","coordinates":[[[[20.3257,44.8343],[20.3328,44.8098],[20.3367,44.8081],[20.3345,44.8056],[20.334,44.8058],[20.3353,44.8011],[20.3336,44.8004],[20.3339,44.7963],[20.3356,44.793],[20.336,44.7898],[20.3385,44.7908],[20.3382,44.7884],[20.3405,44.7859],[20.3417,44.7872],[20.3474,44.7713],[20.351,44.7688],[20.3538,44.7711],[20.3603,44.7742],[20.3725,44.7859],[20.3779,44.7891],[20.3869,44.7902],[20.398,44.794],[20.4119,44.7967],[20.4199,44.7963],[20.4288,44.7968],[20.4354,44.7995],[20.4418,44.8033],[20.4466,44.8084],[20.4482,44.8123],[20.4477,44.8169],[20.4445,44.8221],[20.4436,44.8256],[20.4396,44.8233],[20.4352,44.8225],[20.4292,44.8234],[20.4275,44.8245],[20.4274,44.8266],[20.4251,44.8251],[20.422,44.8247],[20.4204,44.826],[20.4198,44.8282],[20.417,44.8279],[20.4157,44.8339],[20.4104,44.8333],[20.4096,44.8358],[20.3956,44.8342],[20.3943,44.8298],[20.3905,44.8251],[20.3816,44.8282],[20.3792,44.8277],[20.3776,44.8281],[20.3779,44.829],[20.3756,44.8299],[20.3651,44.8314],[20.3626,44.8307],[20.3611,44.832],[20.3585,44.8324],[20.3257,44.8343]]]]}},{"type":"Feature","id":"opstina-belgrade-5","properties":{"name":"Zemun","province":"Beograd","department":"Grad Beograd","type":"Opština","country":"Serbia","iso":"RS"},"geometry":{"type":"MultiPolygon","coordinates":[[[[20.1424,44.8111],[20.1458,44.8301],[20.1461,44.8568],[20.1601,44.8625],[20.1659,44.8693],[20.1635,44.8853],[20.167,44.8891],[20.167,44.8903],[20.1693,44.8913],[20.1696,44.8925],[20.1709,44.8937],[20.1693,44.9071],[20.2015,44.9089],[20.2252,44.907],[20.2214,44.9155],[20.2335,44.921],[20.2704,44.9346],[20.2746,44.9304],[20.296,44.9381],[20.2946,44.9402],[20.3011,44.9427],[20.3059,44.9377],[20.3143,44.9327],[20.3297,44.9204],[20.3391,44.9118],[20.3437,44.9104],[20.3475,44.906],[20.3559,44.8913],[20.3606,44.8807],[20.364,44.877],[20.3717,44.8706],[20.3794,44.8655],[20.3912,44.8598],[20.4029,44.8569],[20.4139,44.8527],[20.4245,44.8431],[20.4288,44.8425],[20.4457,44.8356],[20.4521,44.8339],[20.4462,44.8291],[20.4428,44.8249],[20.4396,44.8233],[20.4352,44.8225],[20.4292,44.8234],[20.4275,44.8245],[20.4274,44.8266],[20.4251,44.8251],[20.4215,44.825],[20.4204,44.826],[20.4198,44.8282],[20.417,44.8279],[20.4157,44.8339],[20.4104,44.8333],[20.4096,44.8358],[20.3956,44.8342],[20.3943,44.8298],[20.3905,44.8251],[20.3816,44.8282],[20.3792,44.8277],[20.3776,44.8281],[20.3779,44.829],[20.3756,44.8299],[20.3651,44.8314],[20.3626,44.8307],[20.3607,44.8321],[20.3531,44.833],[20.3274,44.8343],[20.2857,44.8332],[20.2858,44.8448],[20.2794,44.8754],[20.2661,44.8812],[20.261,44.8827],[20.2543,44.8709],[20.2401,44.866],[20.2138,44.8593],[20.1964,44.8453],[20.1859,44.8437],[20.1838,44.844],[20.1811,44.8456],[20.1791,44.8381],[20.1777,44.8282],[20.1756,44.8193],[20.1609,44.8197],[20.1587,44.8121],[20.1556,44.8092],[20.1424,44.8111]]]]}},{"type":"Feature","id":"opstina-belgrade-6","properties":{"name":"Palilula","province":"Beograd","department":"Grad Beograd","type":"Opština","country":"Serbia","iso":"RS"},"geometry":{"type":"MultiPolygon","coordinates":[[[[20.2879,44.9667],[20.289,44.9581],[20.2949,44.9495],[20.3059,44.9377],[20.3143,44.9327],[20.3325,44.9181],[20.3391,44.9118],[20.3437,44.9104],[20.3475,44.906],[20.3559,44.8913],[20.3606,44.8807],[20.364,44.877],[20.3717,44.8706],[20.3794,44.8655],[20.3912,44.8598],[20.4029,44.8569],[20.4139,44.8527],[20.4245,44.8431],[20.4288,44.8425],[20.4498,44.8344],[20.4641,44.833],[20.4787,44.83],[20.4787,44.8275],[20.4796,44.8265],[20.4782,44.8252],[20.4784,44.824],[20.4765,44.8192],[20.4746,44.8193],[20.4749,44.8148],[20.4666,44.8104],[20.4717,44.8072],[20.4776,44.8047],[20.4865,44.8105],[20.492,44.815],[20.5086,44.8112],[20.5122,44.8093],[20.5201,44.8028],[20.5208,44.8031],[20.523,44.8015],[20.5305,44.8034],[20.5311,44.8029],[20.5335,44.8091],[20.5351,44.8093],[20.5358,44.8116],[20.538,44.8106],[20.5368,44.8089],[20.5425,44.8073],[20.5424,44.8063],[20.5435,44.8055],[20.5435,44.8023],[20.5461,44.7992],[20.5484,44.7934],[20.5502,44.7909],[20.5536,44.7898],[20.5598,44.7902],[20.5635,44.7922],[20.5653,44.792],[20.5648,44.791],[20.5655,44.7906],[20.5693,44.7912],[20.574,44.7887],[20.5731,44.7881],[20.5746,44.7873],[20.5744,44.7854],[20.5753,44.7864],[20.5778,44.7873],[20.5792,44.7843],[20.5811,44.7851],[20.5823,44.7846],[20.5824,44.7834],[20.5817,44.7826],[20.5852,44.7809],[20.5865,44.7826],[20.587,44.7854],[20.5883,44.7857],[20.5895,44.7878],[20.5922,44.7887],[20.5922,44.7916],[20.5946,44.7923],[20.5983,44.7955],[20.6023,44.7962],[20.6048,44.7954],[20.6059,44.7965],[20.6067,44.7955],[20.6078,44.7955],[20.6078,44.796],[20.6089,44.7961],[20.6088,44.7971],[20.6168,44.7963],[20.6183,44.7988],[20.6191,44.7986],[20.6214,44.8],[20.6294,44.7992],[20.6301,44.802],[20.6248,44.809],[20.6214,44.8126],[20.6149,44.817],[20.6136,44.8194],[20.6137,44.8208],[20.6178,44.8251],[20.6183,44.8274],[20.6174,44.8291],[20.6131,44.8297],[20.6045,44.8276],[20.601,44.8275],[20.5969,44.8283],[20.5938,44.8301],[20.5912,44.833],[20.5897,44.8386],[20.5863,44.8427],[20.5826,44.8463],[20.5762,44.8486],[20.5825,44.8521],[20.5954,44.8552],[20.6039,44.8556],[20.6207,44.8543],[20.6213,44.856],[20.6174,44.8575],[20.6078,44.8595],[20.6027,44.8599],[20.5962,44.8616],[20.5928,44.861],[20.5912,44.8627],[20.5925,44.8629],[20.5986,44.8662],[20.6019,44.8671],[20.6052,44.8677],[20.614,44.8679],[20.6188,44.868],[20.6189,44.8672],[20.6196,44.8673],[20.6197,44.8678],[20.6215,44.8679],[20.6232,44.8694],[20.6164,44.8815],[20.6143,44.8878],[20.6197,44.8948],[20.6197,44.8977],[20.6184,44.9024],[20.622,44.907],[20.6224,44.9085],[20.6167,44.9137],[20.6107,44.9177],[20.6085,44.9209],[20.6018,44.9265],[20.5976,44.9316],[20.5927,44.9348],[20.5881,44.9365],[20.5828,44.9372],[20.5761,44.9356],[20.575,44.9371],[20.5763,44.9397],[20.576,44.9409],[20.5742,44.9423],[20.5718,44.9431],[20.5687,44.9423],[20.5675,44.9414],[20.5667,44.9396],[20.5546,44.9409],[20.5346,44.9497],[20.5328,44.9517],[20.5309,44.9564],[20.5201,44.9684],[20.5178,44.9721],[20.5175,44.9732],[20.5181,44.9744],[20.5229,44.9767],[20.523,44.9778],[20.5211,44.98],[20.5142,44.984],[20.5076,44.9868],[20.4997,44.9886],[20.4893,44.9894],[20.488,44.9906],[20.4879,44.9928],[20.4866,44.9937],[20.4844,44.9938],[20.4825,44.9929],[20.481,44.9932],[20.4769,44.9963],[20.4744,45.0008],[20.4695,45.0073],[20.4635,45.0145],[20.4598,45.0165],[20.4584,45.0191],[20.4492,45.0238],[20.4428,45.0254],[20.4422,45.0264],[20.4425,45.0275],[20.4405,45.0296],[20.4371,45.0316],[20.4281,45.0347],[20.4271,45.0375],[20.4229,45.0413],[20.4216,45.0458],[20.4217,45.0474],[20.4227,45.0484],[20.416,45.0525],[20.417,45.0605],[20.419,45.0638],[20.4172,45.0706],[20.419,45.0736],[20.4218,45.0764],[20.4203,45.0784],[20.42,45.0811],[20.4186,45.0824],[20.405,45.0886],[20.3768,45.0968],[20.3748,45.0969],[20.3717,45.0961],[20.3616,45.0884],[20.3464,45.0798],[20.3423,45.0787],[20.3384,45.0758],[20.3341,45.0744],[20.3453,45.066],[20.3578,45.0491],[20.3588,45.042],[20.3629,45.0308],[20.3594,45.0165],[20.3576,45.0134],[20.3552,45.0114],[20.3509,45.0094],[20.3386,45.0077],[20.32,45.003],[20.3078,44.9963],[20.2993,44.993],[20.2906,44.9868],[20.2899,44.9847],[20.2876,44.9693],[20.2879,44.9667]]]]}},{"type":"Feature","id":"opstina-belgrade-7","properties":{"name":"Zvezdara","province":"Beograd","department":"Grad Beograd","type":"Opština","country":"Serbia","iso":"RS"},"geometry":{"type":"MultiPolygon","coordinates":[[[[20.4776,44.8047],[20.4821,44.8028],[20.4818,44.8025],[20.484,44.8004],[20.4902,44.7955],[20.4958,44.7932],[20.4979,44.7914],[20.4998,44.7883],[20.5023,44.7803],[20.5078,44.7789],[20.5093,44.7778],[20.5128,44.7767],[20.5103,44.7735],[20.5095,44.7739],[20.5074,44.7732],[20.5077,44.7726],[20.5037,44.7713],[20.5009,44.769],[20.5007,44.7683],[20.5025,44.7673],[20.5004,44.7664],[20.5015,44.7653],[20.5015,44.7663],[20.5033,44.7638],[20.5047,44.7643],[20.5055,44.7634],[20.5049,44.7634],[20.5063,44.7609],[20.5062,44.7599],[20.5057,44.7596],[20.5065,44.7592],[20.5069,44.7601],[20.5079,44.7594],[20.5082,44.7605],[20.5089,44.7604],[20.5086,44.7596],[20.5097,44.7602],[20.5113,44.7596],[20.5104,44.7582],[20.5137,44.7577],[20.5142,44.757],[20.5125,44.7559],[20.5157,44.7551],[20.5177,44.7515],[20.521,44.7503],[20.5212,44.7488],[20.5223,44.7473],[20.5259,44.7462],[20.529,44.7444],[20.533,44.7398],[20.5397,44.7401],[20.543,44.7394],[20.5447,44.7359],[20.546,44.7345],[20.5456,44.7332],[20.5463,44.7313],[20.546,44.73],[20.5484,44.7281],[20.549,44.7296],[20.5514,44.7309],[20.5507,44.7314],[20.5514,44.7326],[20.5511,44.7341],[20.5488,44.7338],[20.5484,44.7346],[20.5504,44.7352],[20.5509,44.7434],[20.5462,44.7468],[20.5417,44.7521],[20.5359,44.7553],[20.5344,44.7587],[20.5349,44.761],[20.5393,44.7625],[20.5423,44.7672],[20.5449,44.7699],[20.549,44.7709],[20.5495,44.7714],[20.5488,44.7733],[20.5543,44.7706],[20.5589,44.7671],[20.5641,44.7647],[20.5648,44.7649],[20.5673,44.7664],[20.5669,44.7667],[20.5674,44.7679],[20.569,44.7677],[20.5694,44.7693],[20.5711,44.7694],[20.5711,44.7708],[20.5772,44.7711],[20.5799,44.7728],[20.5822,44.7773],[20.5852,44.7809],[20.5817,44.7826],[20.5824,44.7834],[20.5823,44.7846],[20.5811,44.7851],[20.5792,44.7843],[20.5778,44.7873],[20.5753,44.7864],[20.5744,44.7854],[20.5746,44.7873],[20.5731,44.7881],[20.574,44.7887],[20.5693,44.7912],[20.5655,44.7906],[20.5648,44.791],[20.5653,44.792],[20.5635,44.7922],[20.5598,44.7902],[20.5536,44.7898],[20.5502,44.7909],[20.5484,44.7934],[20.5461,44.7992],[20.5435,44.8023],[20.5435,44.8055],[20.5424,44.8063],[20.5425,44.8073],[20.5368,44.8089],[20.538,44.8106],[20.5358,44.8116],[20.5351,44.8093],[20.5335,44.8091],[20.5311,44.8029],[20.5305,44.8034],[20.5237,44.8016],[20.5208,44.8031],[20.5201,44.8028],[20.5122,44.8093],[20.5086,44.8112],[20.492,44.815],[20.4865,44.8105],[20.4776,44.8047]]]]}},{"type":"Feature","id":"opstina-belgrade-8","properties":{"name":"Voždovac","province":"Beograd","department":"Grad Beograd","type":"Opština","country":"Serbia","iso":"RS"},"geometry":{"type":"MultiPolygon","coordinates":[[[[20.4356,44.6491],[20.4364,44.6503],[20.4389,44.6506],[20.4439,44.6532],[20.4474,44.6539],[20.4489,44.6534],[20.4512,44.6538],[20.4581,44.6564],[20.4591,44.6582],[20.4574,44.6625],[20.4578,44.6633],[20.4627,44.6615],[20.4667,44.6615],[20.4682,44.6631],[20.4681,44.6639],[20.4769,44.6672],[20.4775,44.6681],[20.477,44.6683],[20.4775,44.6691],[20.4768,44.6697],[20.4775,44.6712],[20.4812,44.6723],[20.4791,44.6751],[20.4797,44.6762],[20.4793,44.6771],[20.481,44.6782],[20.4813,44.6801],[20.4755,44.6814],[20.4723,44.6844],[20.4714,44.684],[20.4701,44.6847],[20.469,44.6845],[20.468,44.6867],[20.4679,44.6892],[20.4635,44.6868],[20.4614,44.6869],[20.4571,44.6887],[20.454,44.6888],[20.453,44.6911],[20.4545,44.6909],[20.4549,44.6915],[20.4534,44.6929],[20.4571,44.6958],[20.4577,44.6978],[20.4559,44.6993],[20.4587,44.7019],[20.4613,44.7021],[20.4615,44.7027],[20.4646,44.7019],[20.4657,44.7033],[20.4664,44.7031],[20.4674,44.705],[20.4691,44.7053],[20.4718,44.7052],[20.4751,44.704],[20.4759,44.7041],[20.4761,44.705],[20.4802,44.7033],[20.4852,44.7059],[20.4868,44.7059],[20.4878,44.707],[20.4904,44.7063],[20.4892,44.7091],[20.4861,44.7128],[20.4845,44.7132],[20.4837,44.7144],[20.4801,44.7147],[20.4766,44.7166],[20.4773,44.718],[20.4753,44.7195],[20.477,44.7235],[20.4841,44.7266],[20.4849,44.7278],[20.4805,44.7275],[20.4772,44.7285],[20.4741,44.7313],[20.4742,44.732],[20.4715,44.7348],[20.4688,44.7359],[20.4664,44.7344],[20.4637,44.738],[20.4634,44.7419],[20.4682,44.7426],[20.4686,44.7431],[20.4674,44.7449],[20.4678,44.7499],[20.4673,44.7516],[20.4645,44.7555],[20.4623,44.7565],[20.4684,44.7546],[20.4709,44.7549],[20.4728,44.7569],[20.473,44.7601],[20.4738,44.7615],[20.4657,44.7698],[20.4672,44.7716],[20.4681,44.7775],[20.4675,44.7789],[20.4683,44.7796],[20.4659,44.7846],[20.4653,44.7875],[20.4666,44.7922],[20.4694,44.7918],[20.4702,44.7903],[20.4841,44.7923],[20.4937,44.791],[20.4979,44.7914],[20.4998,44.7883],[20.5023,44.7803],[20.5078,44.7789],[20.5093,44.7778],[20.5128,44.7767],[20.5103,44.7735],[20.5095,44.7739],[20.5074,44.7732],[20.5077,44.7726],[20.5037,44.7713],[20.5009,44.769],[20.5007,44.7683],[20.5025,44.7673],[20.5004,44.7664],[20.5015,44.7653],[20.5015,44.7663],[20.5033,44.7638],[20.5047,44.7643],[20.5055,44.7634],[20.5049,44.7634],[20.5063,44.7609],[20.5062,44.7599],[20.5057,44.7596],[20.5065,44.7592],[20.5069,44.7601],[20.5079,44.7594],[20.5082,44.7605],[20.5089,44.7604],[20.5086,44.7596],[20.5097,44.7602],[20.5113,44.7596],[20.5104,44.7582],[20.5137,44.7577],[20.5142,44.757],[20.5125,44.7559],[20.5157,44.7551],[20.5177,44.7515],[20.5209,44.7503],[20.5211,44.7489],[20.5222,44.7473],[20.5262,44.746],[20.529,44.7443],[20.533,44.7398],[20.5397,44.7401],[20.543,44.7394],[20.5446,44.7359],[20.546,44.7345],[20.5456,44.7332],[20.5463,44.7313],[20.546,44.73],[20.5484,44.7278],[20.5522,44.725],[20.5573,44.7236],[20.5603,44.7214],[20.5664,44.7192],[20.5695,44.7165],[20.57,44.716],[20.5689,44.7151],[20.568,44.7116],[20.5693,44.7108],[20.5671,44.7087],[20.5676,44.7066],[20.569,44.7054],[20.5715,44.7053],[20.5715,44.7043],[20.5726,44.7051],[20.5726,44.7041],[20.5736,44.7041],[20.575,44.702],[20.5759,44.7024],[20.5758,44.7015],[20.5777,44.7011],[20.5771,44.6998],[20.5805,44.6968],[20.5803,44.6964],[20.5812,44.6964],[20.5807,44.6957],[20.5813,44.6955],[20.5816,44.6935],[20.5828,44.6919],[20.5828,44.6901],[20.5815,44.6884],[20.5824,44.6882],[20.5819,44.6875],[20.5838,44.6868],[20.584,44.6856],[20.5823,44.6855],[20.5679,44.6792],[20.5656,44.6794],[20.5595,44.6783],[20.5527,44.6786],[20.5386,44.6811],[20.535,44.6805],[20.5324,44.6812],[20.5347,44.6788],[20.5375,44.6772],[20.5407,44.6731],[20.542,44.6706],[20.5422,44.6645],[20.5442,44.6625],[20.5475,44.6617],[20.5489,44.6604],[20.5498,44.6586],[20.5502,44.6549],[20.5524,44.6533],[20.5544,44.6502],[20.5515,44.6429],[20.5521,44.6386],[20.551,44.6364],[20.5517,44.635],[20.5536,44.6336],[20.5626,44.6339],[20.5715,44.6379],[20.5777,44.6396],[20.5806,44.6418],[20.5804,44.6434],[20.5821,44.6435],[20.582,44.6429],[20.5831,44.6422],[20.594,44.643],[20.5953,44.6395],[20.6019,44.6363],[20.6046,44.6328],[20.6104,44.6299],[20.6125,44.6255],[20.6119,44.6236],[20.6065,44.6169],[20.6002,44.6158],[20.5974,44.6141],[20.5957,44.614],[20.593,44.615],[20.5859,44.6122],[20.5779,44.6105],[20.5721,44.6118],[20.5687,44.6114],[20.5633,44.6135],[20.5591,44.6143],[20.5573,44.6129],[20.5567,44.6109],[20.5573,44.6054],[20.5633,44.5987],[20.5584,44.5956],[20.5574,44.5937],[20.5511,44.5911],[20.5492,44.589],[20.5453,44.588],[20.5424,44.588],[20.5393,44.5888],[20.5283,44.5879],[20.5225,44.5852],[20.5202,44.5852],[20.5191,44.5825],[20.5151,44.581],[20.5133,44.579],[20.5089,44.5778],[20.5048,44.5788],[20.502,44.5763],[20.4997,44.5754],[20.4958,44.5778],[20.495,44.5802],[20.4959,44.5825],[20.4952,44.5845],[20.4929,44.5868],[20.4933,44.5902],[20.4918,44.5909],[20.491,44.5924],[20.491,44.5949],[20.4923,44.5979],[20.4922,44.6001],[20.4902,44.6026],[20.4885,44.6066],[20.4856,44.61],[20.4855,44.6115],[20.4824,44.6146],[20.4817,44.6169],[20.4801,44.618],[20.4791,44.6197],[20.4767,44.6212],[20.4736,44.6221],[20.4714,44.6221],[20.4698,44.6231],[20.47,44.6261],[20.469,44.6277],[20.4626,44.6341],[20.4551,44.64],[20.4529,44.6449],[20.4496,44.6458],[20.4467,44.6445],[20.443,44.6442],[20.4357,44.647],[20.4356,44.6491]]]]}},{"type":"Feature","id":"opstina-belgrade-9","properties":{"name":"Čukarica","province":"Beograd","department":"Grad Beograd","type":"Opština","country":"Serbia","iso":"RS"},"geometry":{"type":"MultiPolygon","coordinates":[[[[20.2876,44.6658],[20.2887,44.6641],[20.2917,44.6632],[20.2948,44.6614],[20.2959,44.6603],[20.3014,44.6572],[20.3018,44.6561],[20.3039,44.6562],[20.3074,44.6546],[20.3094,44.6529],[20.3099,44.6509],[20.3113,44.6494],[20.3136,44.6507],[20.3162,44.6508],[20.3203,44.6452],[20.3204,44.643],[20.3211,44.6428],[20.3203,44.6419],[20.3213,44.6411],[20.3231,44.642],[20.3238,44.6414],[20.322,44.6403],[20.3234,44.6391],[20.3266,44.6407],[20.328,44.6392],[20.3261,44.6381],[20.3252,44.6386],[20.3244,44.6381],[20.3322,44.6334],[20.3326,44.6328],[20.3316,44.6321],[20.3307,44.6299],[20.3356,44.6315],[20.3424,44.6314],[20.3469,44.6341],[20.3512,44.6378],[20.3545,44.6394],[20.3561,44.636],[20.36,44.6316],[20.3605,44.6302],[20.363,44.6301],[20.3656,44.631],[20.3812,44.6308],[20.3816,44.6343],[20.3784,44.6392],[20.3793,44.6422],[20.3754,44.6465],[20.3839,44.6492],[20.3844,44.651],[20.3853,44.6516],[20.3872,44.6507],[20.3918,44.645],[20.3942,44.6441],[20.3977,44.6481],[20.401,44.6485],[20.4048,44.65],[20.4018,44.6523],[20.4038,44.6569],[20.4065,44.659],[20.4087,44.6574],[20.4084,44.6571],[20.4124,44.6529],[20.412,44.6521],[20.4125,44.6509],[20.4185,44.6488],[20.4139,44.6477],[20.4162,44.646],[20.4137,44.6456],[20.4127,44.6446],[20.4093,44.6469],[20.4086,44.6461],[20.4105,44.6455],[20.4099,44.6448],[20.411,44.6444],[20.4116,44.642],[20.4124,44.6423],[20.4122,44.6413],[20.4149,44.6415],[20.4167,44.6422],[20.4164,44.6428],[20.4172,44.6437],[20.4184,44.6427],[20.4218,44.6448],[20.4235,44.6471],[20.425,44.648],[20.4299,44.6491],[20.4332,44.6478],[20.4357,44.6492],[20.4364,44.6503],[20.4389,44.6506],[20.4439,44.6532],[20.4474,44.6539],[20.4489,44.6534],[20.4512,44.6538],[20.458,44.6565],[20.459,44.6582],[20.4573,44.6625],[20.4577,44.6633],[20.4627,44.6616],[20.4667,44.6615],[20.4681,44.663],[20.4681,44.6639],[20.4769,44.6673],[20.4774,44.6681],[20.477,44.6683],[20.4775,44.6691],[20.4768,44.6697],[20.4775,44.6712],[20.4812,44.6723],[20.4791,44.6751],[20.4797,44.6763],[20.4792,44.6771],[20.481,44.6782],[20.4813,44.68],[20.4756,44.6812],[20.4723,44.6844],[20.4714,44.684],[20.4701,44.6847],[20.4689,44.6842],[20.468,44.6863],[20.4678,44.6892],[20.4635,44.6868],[20.4602,44.687],[20.4571,44.6887],[20.4525,44.6888],[20.4491,44.6881],[20.447,44.6904],[20.4452,44.691],[20.4433,44.6902],[20.4403,44.6905],[20.4358,44.6934],[20.4313,44.6941],[20.4294,44.6956],[20.4279,44.6981],[20.4252,44.6976],[20.4243,44.6993],[20.4213,44.7019],[20.4217,44.7035],[20.4206,44.7037],[20.4192,44.7021],[20.4134,44.7024],[20.4146,44.7147],[20.4161,44.7196],[20.4197,44.7274],[20.4201,44.7299],[20.4197,44.734],[20.4186,44.7366],[20.4126,44.7419],[20.4143,44.7416],[20.4191,44.7424],[20.4226,44.7438],[20.4249,44.7434],[20.4367,44.7532],[20.4374,44.7546],[20.437,44.756],[20.4331,44.7594],[20.4349,44.7617],[20.4323,44.7636],[20.4338,44.7651],[20.4346,44.7669],[20.4347,44.7646],[20.4352,44.7645],[20.4366,44.767],[20.4384,44.7687],[20.437,44.7715],[20.4361,44.7766],[20.4369,44.7822],[20.4303,44.785],[20.4295,44.7883],[20.4273,44.7897],[20.4248,44.7928],[20.4288,44.7968],[20.4199,44.7963],[20.4119,44.7967],[20.398,44.794],[20.3869,44.7902],[20.3779,44.7891],[20.3725,44.7859],[20.3603,44.7742],[20.3538,44.7711],[20.351,44.7688],[20.3398,44.7559],[20.322,44.7449],[20.3182,44.7403],[20.3108,44.7344],[20.3081,44.7298],[20.306,44.7195],[20.3052,44.7064],[20.3061,44.7029],[20.3063,44.6964],[20.306,44.6925],[20.3047,44.6867],[20.3027,44.6831],[20.2945,44.6747],[20.2876,44.6658]]]]}},{"type":"Feature","id":"opstina-belgrade-10","properties":{"name":"Rakovica","province":"Beograd","department":"Grad Beograd","type":"Opština","country":"Serbia","iso":"RS"},"geometry":{"type":"MultiPolygon","coordinates":[[[[20.4126,44.7419],[20.4186,44.7366],[20.4197,44.734],[20.4201,44.7299],[20.4197,44.7274],[20.4161,44.7196],[20.4146,44.7147],[20.4134,44.7024],[20.4192,44.7021],[20.4206,44.7037],[20.4217,44.7035],[20.4213,44.7019],[20.4243,44.6993],[20.4252,44.6976],[20.4279,44.6981],[20.4294,44.6956],[20.4313,44.6941],[20.4358,44.6934],[20.4403,44.6905],[20.4433,44.6902],[20.4452,44.691],[20.447,44.6904],[20.4491,44.6881],[20.4535,44.6887],[20.4539,44.6898],[20.453,44.6911],[20.4545,44.6909],[20.4551,44.6919],[20.4534,44.6929],[20.4571,44.6958],[20.4577,44.6978],[20.4559,44.6993],[20.4587,44.7019],[20.4612,44.7021],[20.4615,44.7028],[20.4647,44.7019],[20.4657,44.7033],[20.4664,44.7031],[20.4674,44.705],[20.4691,44.7053],[20.4718,44.7052],[20.4751,44.704],[20.4759,44.7041],[20.4761,44.705],[20.4802,44.7033],[20.4852,44.7059],[20.4868,44.7059],[20.4878,44.707],[20.4904,44.7063],[20.4892,44.7091],[20.4861,44.7128],[20.4845,44.7132],[20.4837,44.7144],[20.4801,44.7147],[20.4766,44.7166],[20.4773,44.718],[20.4753,44.7195],[20.477,44.7235],[20.4841,44.7266],[20.4849,44.7278],[20.4805,44.7275],[20.4772,44.7285],[20.4741,44.7313],[20.4742,44.732],[20.4714,44.7349],[20.4688,44.7359],[20.4664,44.7344],[20.4641,44.7368],[20.4631,44.7415],[20.4642,44.7423],[20.4682,44.7426],[20.4686,44.7431],[20.4674,44.7449],[20.4678,44.7503],[20.4653,44.7546],[20.4625,44.7567],[20.4579,44.7582],[20.4557,44.7585],[20.4525,44.7579],[20.4488,44.7586],[20.4475,44.7612],[20.4477,44.7631],[20.4469,44.7631],[20.4463,44.7647],[20.4456,44.7647],[20.444,44.7683],[20.4409,44.7703],[20.44,44.7738],[20.4381,44.7738],[20.4382,44.7725],[20.4372,44.771],[20.4383,44.7686],[20.4366,44.767],[20.4352,44.7645],[20.4347,44.7646],[20.4346,44.7669],[20.4338,44.7651],[20.4323,44.7636],[20.4349,44.7617],[20.4331,44.7594],[20.437,44.756],[20.4374,44.7548],[20.4368,44.7534],[20.4249,44.7434],[20.4226,44.7438],[20.4191,44.7424],[20.4143,44.7416],[20.4126,44.7419]]]]}},{"type":"Feature","id":"opstina-belgrade-11","properties":{"name":"Surčin","province":"Beograd","department":"Grad Beograd","type":"Opština","country":"Serbia","iso":"RS"},"geometry":{"type":"MultiPolygon","coordinates":[[[[20.0879,44.7873],[20.0954,44.786],[20.0965,44.7815],[20.0986,44.78],[20.1054,44.7795],[20.1161,44.7737],[20.1213,44.7724],[20.1276,44.7725],[20.1316,44.7679],[20.1358,44.7667],[20.1348,44.7648],[20.1349,44.7608],[20.1244,44.7602],[20.1237,44.7574],[20.1137,44.7584],[20.112,44.752],[20.1324,44.7388],[20.1272,44.7372],[20.1276,44.7364],[20.1251,44.7363],[20.1242,44.7374],[20.1213,44.7362],[20.1194,44.7328],[20.121,44.7316],[20.1217,44.7277],[20.1158,44.7267],[20.1154,44.7276],[20.113,44.7276],[20.1124,44.7288],[20.1047,44.7275],[20.1046,44.7254],[20.1029,44.7257],[20.1021,44.7239],[20.107,44.7219],[20.1156,44.7161],[20.117,44.716],[20.118,44.7144],[20.1246,44.7156],[20.1238,44.7151],[20.124,44.714],[20.1251,44.7139],[20.1285,44.7117],[20.1368,44.7138],[20.1439,44.7138],[20.1489,44.7125],[20.1562,44.7077],[20.1597,44.7039],[20.1614,44.6996],[20.1607,44.6931],[20.1581,44.683],[20.1589,44.6798],[20.1615,44.6761],[20.1677,44.673],[20.176,44.6721],[20.1835,44.6734],[20.1916,44.6769],[20.1955,44.6795],[20.1986,44.6836],[20.2084,44.7022],[20.2108,44.7054],[20.2199,44.7134],[20.2253,44.7147],[20.2311,44.7146],[20.2342,44.7138],[20.2378,44.7119],[20.2409,44.7078],[20.2412,44.7048],[20.2391,44.7007],[20.2295,44.6935],[20.228,44.6914],[20.2264,44.687],[20.228,44.6816],[20.2326,44.6766],[20.2429,44.6686],[20.2493,44.6647],[20.2578,44.6623],[20.2637,44.6616],[20.276,44.6617],[20.2804,44.6626],[20.2868,44.6652],[20.2889,44.6668],[20.2945,44.6747],[20.3027,44.6831],[20.3047,44.6867],[20.306,44.6925],[20.3063,44.7007],[20.3052,44.7064],[20.3054,44.7122],[20.306,44.7195],[20.3081,44.7298],[20.3093,44.7326],[20.3123,44.7358],[20.3182,44.7403],[20.322,44.7449],[20.3398,44.7559],[20.351,44.7688],[20.3474,44.7713],[20.3417,44.7872],[20.3405,44.7859],[20.3382,44.7884],[20.3385,44.7908],[20.336,44.7898],[20.3356,44.793],[20.3339,44.7963],[20.3336,44.8004],[20.3353,44.8011],[20.334,44.8058],[20.3345,44.8056],[20.3367,44.8081],[20.3328,44.8098],[20.3257,44.8343],[20.2857,44.8332],[20.2858,44.8448],[20.2794,44.8754],[20.2613,44.8827],[20.2543,44.8709],[20.2401,44.866],[20.2138,44.8593],[20.1964,44.8453],[20.1859,44.8437],[20.1838,44.844],[20.1811,44.8456],[20.1791,44.8381],[20.1777,44.8282],[20.1756,44.8193],[20.1609,44.8197],[20.1587,44.8121],[20.1556,44.8092],[20.1424,44.8111],[20.1389,44.803],[20.1216,44.804],[20.0966,44.8073],[20.0968,44.8058],[20.0928,44.7968],[20.0914,44.7959],[20.0879,44.7873]]]]}},{"type":"Feature","id":"opstina-belgrade-12","properties":{"name":"Grocka","province":"Beograd","department":"Grad Beograd","type":"Opština","country":"Serbia","iso":"RS"},"geometry":{"type":"MultiPolygon","coordinates":[[[[20.533,44.6808],[20.5386,44.6811],[20.5514,44.6788],[20.5625,44.6786],[20.5656,44.6794],[20.5681,44.6793],[20.5748,44.6825],[20.584,44.6857],[20.5839,44.6868],[20.5819,44.6875],[20.5824,44.6882],[20.5815,44.6884],[20.5829,44.6901],[20.5828,44.6919],[20.5816,44.6935],[20.5813,44.6956],[20.5808,44.6957],[20.5812,44.6963],[20.5803,44.6964],[20.5805,44.6968],[20.5777,44.6988],[20.5781,44.6993],[20.5771,44.6998],[20.5777,44.7011],[20.5759,44.7015],[20.5759,44.7024],[20.575,44.702],[20.5736,44.7041],[20.5726,44.7041],[20.5727,44.7051],[20.5715,44.7044],[20.5715,44.7054],[20.5691,44.7055],[20.5677,44.7066],[20.5671,44.7087],[20.5693,44.7107],[20.568,44.7116],[20.5689,44.7151],[20.57,44.7161],[20.5664,44.7192],[20.5603,44.7214],[20.5573,44.7236],[20.5522,44.725],[20.5482,44.728],[20.549,44.7296],[20.5514,44.7309],[20.5507,44.7314],[20.5514,44.7326],[20.5511,44.7341],[20.5488,44.7338],[20.5484,44.7346],[20.5504,44.7352],[20.5509,44.7434],[20.5462,44.7468],[20.5417,44.7521],[20.5359,44.7553],[20.5344,44.7587],[20.5349,44.761],[20.5393,44.7625],[20.5423,44.7672],[20.5449,44.7699],[20.549,44.7709],[20.5495,44.7714],[20.5489,44.7732],[20.5544,44.7703],[20.5578,44.7674],[20.5641,44.7647],[20.5673,44.7664],[20.5669,44.7667],[20.5674,44.7679],[20.569,44.7677],[20.5694,44.7693],[20.5711,44.7694],[20.5711,44.7708],[20.5773,44.7711],[20.5799,44.7728],[20.5822,44.7773],[20.5865,44.7826],[20.587,44.7854],[20.5883,44.7857],[20.5895,44.7878],[20.592,44.7883],[20.5926,44.7897],[20.5922,44.7916],[20.5946,44.7923],[20.5983,44.7955],[20.6023,44.7962],[20.6048,44.7954],[20.6059,44.7965],[20.6067,44.7955],[20.6078,44.7955],[20.6078,44.796],[20.6089,44.7961],[20.6088,44.7971],[20.6168,44.7963],[20.6183,44.7988],[20.6191,44.7986],[20.6214,44.8],[20.6294,44.7992],[20.6285,44.7871],[20.627,44.7809],[20.6268,44.7688],[20.6285,44.7634],[20.6304,44.76],[20.64,44.7508],[20.6434,44.7483],[20.6492,44.7454],[20.6589,44.742],[20.6781,44.732],[20.6815,44.7278],[20.6856,44.7182],[20.6915,44.7115],[20.6947,44.7085],[20.7002,44.7051],[20.7079,44.6965],[20.7224,44.6841],[20.7264,44.6816],[20.7352,44.6787],[20.7593,44.6678],[20.763,44.6656],[20.7684,44.6607],[20.7728,44.6592],[20.7812,44.6581],[20.7923,44.6586],[20.8194,44.6583],[20.8164,44.6538],[20.8148,44.6538],[20.8144,44.6527],[20.8113,44.6527],[20.8114,44.6517],[20.8089,44.6516],[20.8088,44.6508],[20.8078,44.6512],[20.8074,44.6506],[20.8081,44.65],[20.8059,44.6508],[20.806,44.65],[20.8043,44.6498],[20.8043,44.6491],[20.8016,44.6489],[20.8024,44.6486],[20.8025,44.6478],[20.8015,44.6481],[20.8007,44.6472],[20.8016,44.6464],[20.8008,44.6442],[20.8013,44.644],[20.8006,44.6432],[20.8022,44.6413],[20.8022,44.6403],[20.8028,44.6402],[20.8033,44.6372],[20.802,44.6352],[20.8037,44.6299],[20.8033,44.6276],[20.8004,44.6241],[20.7978,44.6226],[20.7969,44.6201],[20.7936,44.6183],[20.7938,44.6162],[20.7921,44.6118],[20.7955,44.612],[20.799,44.611],[20.8022,44.608],[20.8023,44.6063],[20.8051,44.6061],[20.805,44.6073],[20.8058,44.6073],[20.806,44.6061],[20.8069,44.6062],[20.8082,44.6048],[20.8107,44.605],[20.8114,44.6041],[20.809,44.6036],[20.8087,44.6045],[20.8079,44.6043],[20.808,44.6031],[20.811,44.6034],[20.8112,44.6025],[20.8128,44.6024],[20.8133,44.5994],[20.8127,44.5994],[20.8127,44.5983],[20.8134,44.5973],[20.8143,44.5967],[20.8163,44.5971],[20.8181,44.5958],[20.8172,44.5952],[20.8183,44.594],[20.8177,44.5935],[20.8185,44.5915],[20.8176,44.5914],[20.8187,44.5884],[20.8202,44.587],[20.8193,44.5839],[20.8165,44.5845],[20.8133,44.5842],[20.8136,44.5847],[20.8111,44.5861],[20.8107,44.5855],[20.8111,44.585],[20.8103,44.5851],[20.8093,44.5838],[20.8088,44.5843],[20.8063,44.5833],[20.8046,44.5839],[20.8042,44.5829],[20.8035,44.5832],[20.8026,44.5821],[20.8009,44.5822],[20.8004,44.5814],[20.7996,44.5816],[20.7976,44.5803],[20.7958,44.58],[20.7953,44.5792],[20.7936,44.5794],[20.7938,44.5799],[20.7927,44.5803],[20.7914,44.5777],[20.7902,44.5776],[20.7894,44.5786],[20.7872,44.578],[20.7834,44.578],[20.7835,44.5772],[20.7819,44.577],[20.7821,44.5758],[20.7808,44.5752],[20.7817,44.5742],[20.7781,44.5732],[20.7775,44.5746],[20.7755,44.5744],[20.7745,44.5724],[20.7765,44.5724],[20.7768,44.5718],[20.7738,44.5704],[20.7718,44.5712],[20.7701,44.5703],[20.7719,44.5687],[20.7687,44.5669],[20.7691,44.5665],[20.7675,44.5651],[20.7685,44.5636],[20.7665,44.5621],[20.7651,44.5613],[20.7643,44.5623],[20.7619,44.5628],[20.762,44.5621],[20.7605,44.5616],[20.7599,44.5626],[20.7579,44.5621],[20.7584,44.5593],[20.7553,44.561],[20.7542,44.5602],[20.7553,44.5596],[20.7548,44.5593],[20.7551,44.5587],[20.7536,44.5586],[20.7534,44.5595],[20.7508,44.5564],[20.7465,44.5547],[20.7461,44.5551],[20.7449,44.5546],[20.7434,44.5531],[20.7441,44.5527],[20.7437,44.552],[20.7427,44.5514],[20.741,44.5528],[20.7402,44.5528],[20.7399,44.552],[20.7386,44.5526],[20.7385,44.5538],[20.7366,44.554],[20.7364,44.553],[20.7349,44.5519],[20.7321,44.5531],[20.7325,44.5541],[20.7296,44.5555],[20.7273,44.5587],[20.724,44.5578],[20.7244,44.5567],[20.7233,44.5564],[20.724,44.5547],[20.7237,44.5536],[20.7253,44.5534],[20.7246,44.5528],[20.7252,44.5502],[20.7225,44.5487],[20.7225,44.5474],[20.7182,44.5445],[20.7177,44.5429],[20.7166,44.5425],[20.7168,44.5409],[20.7156,44.5419],[20.7142,44.5457],[20.7114,44.5498],[20.711,44.5531],[20.712,44.5544],[20.711,44.5567],[20.7114,44.5576],[20.7039,44.5611],[20.7,44.5622],[20.6977,44.562],[20.6969,44.563],[20.6954,44.5625],[20.6931,44.5648],[20.6909,44.5655],[20.6902,44.5674],[20.6892,44.5676],[20.687,44.57],[20.6871,44.5691],[20.6864,44.5692],[20.686,44.5703],[20.6835,44.5695],[20.6791,44.5695],[20.6786,44.569],[20.678,44.5696],[20.6772,44.5691],[20.6761,44.5696],[20.675,44.5692],[20.6744,44.568],[20.6715,44.5679],[20.6709,44.5683],[20.6719,44.5716],[20.6715,44.5732],[20.6649,44.5778],[20.6629,44.5804],[20.6552,44.5846],[20.6501,44.5916],[20.6494,44.592],[20.6479,44.5908],[20.6471,44.5911],[20.6473,44.5916],[20.6463,44.5918],[20.6467,44.593],[20.6439,44.5948],[20.6412,44.5949],[20.6409,44.5943],[20.6392,44.5941],[20.6392,44.5954],[20.6381,44.5955],[20.6372,44.5988],[20.6382,44.5997],[20.6388,44.6022],[20.6372,44.6023],[20.6369,44.6012],[20.6355,44.6013],[20.6338,44.604],[20.6266,44.6087],[20.6271,44.6088],[20.626,44.6096],[20.6246,44.6093],[20.6113,44.6115],[20.6078,44.6167],[20.6065,44.617],[20.6123,44.6242],[20.6125,44.6258],[20.6109,44.6293],[20.6046,44.6329],[20.602,44.6364],[20.5953,44.6395],[20.594,44.643],[20.5833,44.6424],[20.5823,44.6426],[20.582,44.6435],[20.5805,44.6434],[20.5806,44.6418],[20.5777,44.6396],[20.5674,44.6364],[20.5639,44.6344],[20.5567,44.6334],[20.5539,44.6337],[20.5522,44.6348],[20.5513,44.6364],[20.5523,44.6387],[20.5517,44.6428],[20.5547,44.6501],[20.5527,44.6535],[20.5502,44.6555],[20.5499,44.6586],[20.5488,44.6608],[20.5475,44.6619],[20.5443,44.6625],[20.5428,44.664],[20.542,44.6685],[20.5422,44.6711],[20.5415,44.6726],[20.538,44.6772],[20.5349,44.6789],[20.533,44.6808]]]]}},{"type":"Feature","id":"opstina-belgrade-13","properties":{"name":"Barajevo","province":"Beograd","department":"Grad Beograd","type":"Opština","country":"Serbia","iso":"RS"},"geometry":{"type":"MultiPolygon","coordinates":[[[[20.2678,44.6036],[20.2708,44.605],[20.2802,44.6069],[20.2942,44.6129],[20.3043,44.6151],[20.3103,44.6177],[20.314,44.6182],[20.3261,44.6241],[20.3291,44.6268],[20.3307,44.6298],[20.3359,44.6315],[20.343,44.6316],[20.3541,44.6393],[20.3561,44.636],[20.36,44.6316],[20.3605,44.6302],[20.363,44.6301],[20.3656,44.631],[20.3812,44.6308],[20.3816,44.6343],[20.3784,44.6392],[20.3793,44.6422],[20.3754,44.6465],[20.3839,44.6492],[20.3844,44.651],[20.386,44.6517],[20.3905,44.6471],[20.3918,44.645],[20.3942,44.6441],[20.3977,44.6481],[20.401,44.6485],[20.4048,44.65],[20.4018,44.6523],[20.4038,44.6569],[20.4065,44.659],[20.4087,44.6574],[20.4084,44.6571],[20.4124,44.6529],[20.412,44.6521],[20.4125,44.6509],[20.4185,44.6488],[20.4139,44.6477],[20.4162,44.646],[20.4137,44.6456],[20.4127,44.6446],[20.4093,44.6469],[20.4087,44.6463],[20.4105,44.6455],[20.4099,44.6448],[20.411,44.6444],[20.4116,44.642],[20.4124,44.6423],[20.4122,44.6413],[20.4167,44.6422],[20.4164,44.6428],[20.4172,44.6437],[20.4184,44.6427],[20.4218,44.6448],[20.4241,44.6475],[20.4299,44.6491],[20.4332,44.6478],[20.4356,44.6491],[20.4357,44.647],[20.443,44.6442],[20.4467,44.6445],[20.4496,44.6458],[20.453,44.6448],[20.4551,44.64],[20.4626,44.6341],[20.469,44.6277],[20.47,44.6261],[20.4698,44.6231],[20.4714,44.6221],[20.4754,44.6217],[20.4791,44.6197],[20.4801,44.618],[20.4817,44.6169],[20.4828,44.6141],[20.4855,44.6115],[20.4856,44.61],[20.4885,44.6066],[20.4902,44.6026],[20.4922,44.6001],[20.4923,44.5979],[20.491,44.5949],[20.4909,44.5929],[20.4918,44.5909],[20.4933,44.5902],[20.4929,44.5868],[20.4952,44.5845],[20.4959,44.5825],[20.495,44.5802],[20.4956,44.5781],[20.4978,44.5763],[20.494,44.5756],[20.4943,44.5744],[20.4962,44.5742],[20.4972,44.5723],[20.4988,44.5721],[20.499,44.5715],[20.497,44.5685],[20.4933,44.567],[20.4901,44.5669],[20.4865,44.5683],[20.4825,44.5675],[20.4779,44.5635],[20.4698,44.5587],[20.4599,44.5553],[20.455,44.5522],[20.4514,44.5508],[20.4501,44.5495],[20.4499,44.547],[20.4484,44.5453],[20.4429,44.5429],[20.4398,44.5405],[20.4374,44.5408],[20.4364,44.5392],[20.437,44.5389],[20.435,44.5369],[20.4335,44.5371],[20.4308,44.534],[20.4298,44.5347],[20.4279,44.5332],[20.4303,44.5321],[20.4283,44.5307],[20.4265,44.5278],[20.4251,44.5267],[20.4281,44.5239],[20.4289,44.5212],[20.4311,44.5215],[20.4347,44.5188],[20.4406,44.5167],[20.4413,44.5172],[20.4449,44.5146],[20.4446,44.5135],[20.4459,44.5129],[20.4442,44.5106],[20.4439,44.507],[20.4399,44.5062],[20.44,44.5056],[20.4378,44.5058],[20.4375,44.5051],[20.4363,44.5056],[20.4351,44.5051],[20.435,44.5043],[20.4322,44.5039],[20.4293,44.5051],[20.4306,44.5031],[20.43,44.5004],[20.4266,44.4961],[20.4251,44.4963],[20.4222,44.4943],[20.423,44.4926],[20.423,44.4907],[20.4185,44.4844],[20.417,44.4739],[20.4155,44.4729],[20.4152,44.4716],[20.4158,44.468],[20.4152,44.4666],[20.414,44.4651],[20.4103,44.4664],[20.4061,44.465],[20.4041,44.4649],[20.3999,44.4673],[20.3895,44.4673],[20.3797,44.4696],[20.3752,44.4722],[20.3656,44.4735],[20.3601,44.4771],[20.359,44.4765],[20.3595,44.4754],[20.3561,44.4746],[20.3548,44.4751],[20.3534,44.4766],[20.3543,44.477],[20.3535,44.4778],[20.3541,44.4782],[20.3537,44.4785],[20.3542,44.4804],[20.3554,44.482],[20.351,44.4869],[20.3495,44.4902],[20.3494,44.4926],[20.3476,44.4921],[20.3471,44.4942],[20.3445,44.4963],[20.343,44.4958],[20.34,44.499],[20.3392,44.4983],[20.3374,44.498],[20.3376,44.4967],[20.3358,44.4972],[20.3344,44.4969],[20.3344,44.4962],[20.3335,44.4964],[20.3335,44.4946],[20.3321,44.4944],[20.3317,44.4933],[20.33,44.4936],[20.3269,44.4911],[20.3274,44.4901],[20.3268,44.4897],[20.3275,44.4894],[20.3266,44.488],[20.3252,44.4876],[20.3262,44.4862],[20.3252,44.4855],[20.3224,44.4859],[20.3215,44.4849],[20.3189,44.4851],[20.3215,44.4849],[20.3225,44.486],[20.3233,44.4855],[20.3255,44.4857],[20.3261,44.4862],[20.326,44.4869],[20.3252,44.4876],[20.3265,44.488],[20.3274,44.4894],[20.3268,44.4897],[20.3273,44.4901],[20.3269,44.4911],[20.33,44.4937],[20.3317,44.4934],[20.3322,44.4945],[20.3335,44.4946],[20.3333,44.4964],[20.3343,44.4963],[20.3343,44.497],[20.3359,44.4973],[20.3376,44.4967],[20.3372,44.4979],[20.3391,44.4983],[20.3406,44.5004],[20.3453,44.5002],[20.3451,44.5009],[20.3458,44.5016],[20.3456,44.5029],[20.3478,44.5028],[20.3469,44.503],[20.3469,44.5042],[20.3484,44.5041],[20.3486,44.5054],[20.3496,44.5053],[20.3501,44.5059],[20.3508,44.5055],[20.3533,44.5064],[20.3528,44.5073],[20.3554,44.5086],[20.3556,44.5099],[20.3528,44.5117],[20.3524,44.5135],[20.3501,44.5146],[20.3505,44.5148],[20.3479,44.5187],[20.3452,44.5205],[20.3461,44.5211],[20.3468,44.5208],[20.344,44.524],[20.3424,44.5272],[20.3398,44.5277],[20.3346,44.5315],[20.3315,44.5312],[20.331,44.5338],[20.3282,44.534],[20.3288,44.536],[20.3247,44.5359],[20.3203,44.5371],[20.3161,44.537],[20.315,44.5377],[20.3085,44.5386],[20.302,44.5426],[20.3004,44.5429],[20.2988,44.5355],[20.3057,44.5282],[20.309,44.5213],[20.3056,44.5281],[20.2988,44.5354],[20.2969,44.5307],[20.2939,44.528],[20.2932,44.5241],[20.2937,44.528],[20.2966,44.5307],[20.2981,44.5334],[20.3007,44.5446],[20.3001,44.5526],[20.2982,44.5571],[20.3021,44.5631],[20.3018,44.5645],[20.2986,44.5638],[20.3018,44.5645],[20.3008,44.5679],[20.2956,44.5702],[20.2942,44.5694],[20.2915,44.5709],[20.2918,44.5717],[20.2904,44.5721],[20.2903,44.5716],[20.286,44.5711],[20.2837,44.5726],[20.2841,44.573],[20.281,44.5747],[20.281,44.5755],[20.2797,44.5756],[20.2798,44.5776],[20.2815,44.5778],[20.2819,44.5783],[20.2802,44.579],[20.2805,44.5796],[20.2793,44.5803],[20.2772,44.5808],[20.2775,44.582],[20.2757,44.5824],[20.273,44.582],[20.2691,44.583],[20.2714,44.5851],[20.276,44.5875],[20.2719,44.5959],[20.2734,44.596],[20.2748,44.5969],[20.2716,44.6006],[20.2678,44.6036]]]]}},{"type":"Feature","id":"opstina-belgrade-14","properties":{"name":"Obrenovac","province":"Beograd","department":"Grad Beograd","type":"Opština","country":"Serbia","iso":"RS"},"geometry":{"type":"MultiPolygon","coordinates":[[[[19.9858,44.6423],[19.9977,44.6567],[20.0039,44.6628],[20.013,44.6686],[20.0278,44.6759],[20.03,44.6786],[20.0355,44.682],[20.0431,44.6848],[20.0605,44.6881],[20.0778,44.6941],[20.0843,44.6952],[20.0912,44.6952],[20.1031,44.6977],[20.1083,44.7001],[20.1247,44.7104],[20.1368,44.7138],[20.1439,44.7138],[20.1489,44.7125],[20.1562,44.7077],[20.1597,44.7039],[20.1614,44.6996],[20.1614,44.6972],[20.1581,44.683],[20.1589,44.6798],[20.1609,44.6766],[20.1661,44.6736],[20.1716,44.6723],[20.1784,44.6723],[20.1835,44.6734],[20.1916,44.6769],[20.1961,44.6802],[20.1986,44.6836],[20.2094,44.7037],[20.2173,44.7115],[20.2214,44.7141],[20.2278,44.7148],[20.2311,44.7146],[20.2362,44.7129],[20.24,44.7096],[20.2409,44.7078],[20.2412,44.7048],[20.2402,44.702],[20.2377,44.6993],[20.2295,44.6935],[20.227,44.6897],[20.2264,44.687],[20.2282,44.6813],[20.2314,44.6777],[20.2365,44.6736],[20.2429,44.6686],[20.2493,44.6647],[20.2578,44.6623],[20.2666,44.6615],[20.276,44.6617],[20.2804,44.6626],[20.2876,44.6658],[20.2887,44.6641],[20.2917,44.6632],[20.2948,44.6614],[20.2959,44.6603],[20.3014,44.6572],[20.3018,44.6561],[20.3039,44.6562],[20.3074,44.6546],[20.3094,44.6529],[20.3099,44.6509],[20.3113,44.6494],[20.3136,44.6507],[20.3162,44.6508],[20.3203,44.6452],[20.3204,44.643],[20.3211,44.6428],[20.3203,44.6419],[20.3213,44.6411],[20.3231,44.642],[20.3238,44.6414],[20.322,44.6403],[20.3234,44.6391],[20.3266,44.6407],[20.328,44.6392],[20.3261,44.6381],[20.3252,44.6386],[20.3244,44.6381],[20.3267,44.6371],[20.3281,44.6355],[20.3326,44.6328],[20.3314,44.632],[20.3291,44.6269],[20.3266,44.6247],[20.316,44.6193],[20.3099,44.6176],[20.304,44.6151],[20.2937,44.6128],[20.2792,44.6067],[20.2706,44.6051],[20.2677,44.6037],[20.2716,44.6006],[20.2747,44.5969],[20.2734,44.596],[20.2719,44.5959],[20.2746,44.5895],[20.276,44.5875],[20.2713,44.5852],[20.2689,44.583],[20.2731,44.582],[20.2775,44.582],[20.2772,44.5808],[20.2793,44.5803],[20.2805,44.5796],[20.2802,44.579],[20.2819,44.5783],[20.2815,44.5778],[20.2798,44.5776],[20.2797,44.5756],[20.281,44.5755],[20.281,44.5747],[20.2841,44.573],[20.2837,44.5726],[20.2861,44.571],[20.2868,44.5715],[20.2903,44.5716],[20.2904,44.5721],[20.2918,44.5717],[20.2915,44.5709],[20.2942,44.5694],[20.2956,44.5702],[20.2988,44.5688],[20.3008,44.5679],[20.3018,44.5645],[20.2927,44.5627],[20.2876,44.5605],[20.2825,44.5598],[20.2781,44.5574],[20.2746,44.5563],[20.2702,44.556],[20.2686,44.5573],[20.2632,44.5586],[20.2625,44.5564],[20.2629,44.5552],[20.2601,44.5512],[20.2619,44.5461],[20.2601,44.5429],[20.2606,44.5416],[20.2636,44.5395],[20.2654,44.5404],[20.2663,44.54],[20.2653,44.5387],[20.2658,44.5379],[20.2646,44.5374],[20.2653,44.5359],[20.273,44.5337],[20.2735,44.5334],[20.2725,44.5328],[20.2733,44.531],[20.274,44.5309],[20.2761,44.5326],[20.2802,44.5309],[20.2788,44.5292],[20.277,44.5289],[20.2762,44.5278],[20.2772,44.5269],[20.2793,44.5277],[20.2789,44.5245],[20.276,44.5245],[20.2727,44.5269],[20.271,44.5267],[20.2717,44.5223],[20.2597,44.5201],[20.2579,44.5192],[20.257,44.5171],[20.2529,44.5124],[20.2515,44.5076],[20.2495,44.5077],[20.2389,44.5045],[20.2385,44.5048],[20.2395,44.5063],[20.2375,44.5062],[20.2372,44.5037],[20.2362,44.5044],[20.2346,44.5043],[20.2355,44.5057],[20.2339,44.5064],[20.2334,44.5061],[20.2337,44.5047],[20.2317,44.5056],[20.2339,44.5079],[20.2361,44.5071],[20.2356,44.5079],[20.2363,44.5087],[20.2343,44.5086],[20.2338,44.5102],[20.2331,44.5101],[20.2331,44.509],[20.231,44.5076],[20.2307,44.5082],[20.2315,44.5097],[20.2306,44.5104],[20.229,44.5088],[20.2292,44.5064],[20.2284,44.5062],[20.2261,44.5086],[20.2256,44.5071],[20.2247,44.5076],[20.2246,44.5089],[20.2242,44.5077],[20.2234,44.5079],[20.2236,44.5096],[20.225,44.5099],[20.226,44.5112],[20.2236,44.512],[20.2228,44.5115],[20.2227,44.5103],[20.2217,44.51],[20.2211,44.5104],[20.2216,44.5116],[20.2203,44.5116],[20.2199,44.5102],[20.2161,44.5096],[20.2123,44.5111],[20.213,44.5136],[20.2143,44.5144],[20.214,44.515],[20.2116,44.5142],[20.2091,44.5148],[20.21,44.516],[20.2148,44.5167],[20.2153,44.5176],[20.2161,44.516],[20.2171,44.5157],[20.2173,44.5163],[20.2163,44.5175],[20.2166,44.5181],[20.2184,44.5186],[20.2187,44.5173],[20.2197,44.5181],[20.2194,44.5193],[20.2179,44.5196],[20.2155,44.5195],[20.2145,44.5181],[20.2135,44.5179],[20.2116,44.5183],[20.2113,44.5194],[20.2081,44.5184],[20.2073,44.5193],[20.2086,44.5218],[20.2128,44.5219],[20.2124,44.5227],[20.2133,44.5234],[20.2123,44.5241],[20.2126,44.5247],[20.2137,44.5246],[20.2145,44.5229],[20.2151,44.5233],[20.2147,44.5246],[20.2109,44.5254],[20.2126,44.5275],[20.2135,44.5276],[20.2143,44.5269],[20.2147,44.5277],[20.2172,44.5291],[20.2169,44.5302],[20.2187,44.5299],[20.218,44.5307],[20.2168,44.5308],[20.2167,44.5314],[20.219,44.5308],[20.2199,44.5314],[20.2185,44.5324],[20.2186,44.5335],[20.2164,44.5326],[20.2144,44.5326],[20.2174,44.5338],[20.2159,44.535],[20.2168,44.5358],[20.2152,44.5359],[20.2138,44.5347],[20.2127,44.535],[20.2136,44.5362],[20.2133,44.5373],[20.214,44.5374],[20.2154,44.5364],[20.2155,44.5376],[20.2133,44.5379],[20.212,44.5372],[20.2115,44.5387],[20.2112,44.5379],[20.2121,44.536],[20.2114,44.5356],[20.2092,44.5378],[20.2091,44.5385],[20.211,44.54],[20.2129,44.5398],[20.2116,44.5411],[20.2095,44.5404],[20.2091,44.5412],[20.2098,44.542],[20.2111,44.5423],[20.2145,44.5411],[20.2149,44.5417],[20.2136,44.5426],[20.2121,44.5421],[20.2115,44.5426],[20.2121,44.5436],[20.2116,44.5451],[20.214,44.5446],[20.2137,44.5465],[20.2117,44.5466],[20.2111,44.5459],[20.2104,44.5466],[20.2083,44.5463],[20.208,44.5467],[20.2088,44.5474],[20.2081,44.5483],[20.2072,44.5475],[20.2077,44.546],[20.2067,44.5453],[20.2049,44.5479],[20.2055,44.5496],[20.2039,44.5497],[20.2037,44.5502],[20.2044,44.5513],[20.2068,44.5517],[20.2081,44.5517],[20.209,44.5504],[20.2099,44.5508],[20.2083,44.552],[20.2067,44.5521],[20.2059,44.5535],[20.2074,44.5541],[20.2055,44.5547],[20.2067,44.5552],[20.209,44.5544],[20.207,44.5569],[20.2081,44.5584],[20.2093,44.5581],[20.21,44.5591],[20.2117,44.5588],[20.2116,44.5599],[20.2126,44.5602],[20.2104,44.5607],[20.2078,44.56],[20.2077,44.5606],[20.2089,44.5619],[20.2082,44.5629],[20.2086,44.5641],[20.2051,44.5643],[20.2048,44.5652],[20.203,44.5658],[20.2033,44.5667],[20.2025,44.5661],[20.2012,44.5664],[20.201,44.5673],[20.2019,44.5679],[20.2008,44.5686],[20.1976,44.5681],[20.1968,44.5666],[20.1948,44.5668],[20.1951,44.5651],[20.1939,44.5654],[20.1944,44.5646],[20.1918,44.5655],[20.1908,44.5652],[20.1903,44.5658],[20.1885,44.5655],[20.1882,44.5643],[20.1896,44.5637],[20.1909,44.5604],[20.1896,44.5588],[20.1901,44.5581],[20.1888,44.5558],[20.189,44.5532],[20.1902,44.5524],[20.1903,44.5508],[20.1893,44.5486],[20.1906,44.5475],[20.1896,44.5441],[20.1881,44.5429],[20.1856,44.5423],[20.1838,44.5396],[20.1801,44.5385],[20.1764,44.5341],[20.1746,44.5337],[20.1746,44.5332],[20.1732,44.5327],[20.1725,44.5312],[20.1678,44.5285],[20.1667,44.526],[20.1678,44.5242],[20.1637,44.5241],[20.1598,44.5225],[20.1594,44.5203],[20.1546,44.5181],[20.1535,44.5164],[20.154,44.5133],[20.1526,44.5123],[20.1512,44.5125],[20.149,44.5116],[20.1481,44.5102],[20.1413,44.5144],[20.1376,44.5177],[20.1378,44.519],[20.136,44.5235],[20.1337,44.5253],[20.1302,44.5301],[20.1276,44.532],[20.1272,44.5317],[20.1256,44.5337],[20.1217,44.5363],[20.1226,44.5374],[20.1202,44.5392],[20.1196,44.5388],[20.1182,44.5399],[20.1205,44.5414],[20.1194,44.5456],[20.1139,44.5475],[20.1131,44.5457],[20.1144,44.5452],[20.1125,44.5431],[20.1102,44.5442],[20.1107,44.5456],[20.1104,44.5476],[20.108,44.547],[20.1005,44.5476],[20.0991,44.5457],[20.098,44.5457],[20.0991,44.5475],[20.0967,44.5467],[20.0962,44.5468],[20.096,44.5476],[20.0944,44.5476],[20.0941,44.5501],[20.0929,44.5495],[20.0935,44.5468],[20.082,44.546],[20.082,44.544],[20.08,44.5418],[20.0786,44.5369],[20.0804,44.536],[20.0758,44.5292],[20.075,44.5296],[20.0741,44.5289],[20.0749,44.528],[20.0642,44.5228],[20.0621,44.5211],[20.0563,44.5241],[20.0527,44.5251],[20.0532,44.5268],[20.0514,44.5272],[20.0493,44.5266],[20.0453,44.5291],[20.0393,44.5301],[20.0393,44.5309],[20.0369,44.5315],[20.0359,44.5321],[20.0353,44.5342],[20.0305,44.5353],[20.0297,44.5362],[20.0322,44.5389],[20.0319,44.5397],[20.0287,44.5407],[20.0274,44.539],[20.0262,44.5393],[20.0254,44.5375],[20.0212,44.5394],[20.0198,44.5381],[20.0181,44.5392],[20.0164,44.5364],[20.0187,44.5363],[20.0188,44.533],[20.0112,44.5334],[20.0131,44.5367],[20.0083,44.543],[20.0018,44.547],[20.0003,44.5463],[19.9956,44.55],[19.9932,44.5502],[19.9934,44.5511],[19.995,44.5509],[19.9949,44.5524],[19.9926,44.5531],[19.9933,44.5541],[19.9883,44.559],[19.9879,44.5636],[19.9887,44.5691],[19.9913,44.5748],[19.995,44.5781],[19.9925,44.5833],[19.9899,44.5869],[19.9904,44.5872],[19.9909,44.5863],[19.9917,44.5869],[19.9919,44.5859],[19.9932,44.5857],[19.9943,44.5867],[19.9939,44.5873],[19.9962,44.5882],[19.9954,44.5889],[19.9968,44.5884],[19.9969,44.589],[19.9978,44.5888],[19.9975,44.5895],[19.9984,44.5894],[19.9983,44.5902],[19.9994,44.5899],[19.9992,44.5907],[20.0001,44.5902],[19.9993,44.592],[20.0002,44.5921],[19.9986,44.5926],[19.9993,44.5935],[19.9981,44.5934],[19.9974,44.5943],[19.9979,44.5948],[19.9964,44.5945],[19.9963,44.5955],[19.9958,44.5957],[19.9967,44.5964],[19.9963,44.5966],[19.9968,44.5973],[19.9956,44.5971],[19.9961,44.598],[19.9942,44.5981],[19.9944,44.5986],[19.993,44.5992],[19.9924,44.6002],[19.9928,44.6004],[19.9912,44.601],[19.9918,44.6013],[19.9908,44.6019],[19.9914,44.6027],[19.9911,44.6033],[19.9895,44.6028],[19.9875,44.6033],[19.9884,44.6044],[19.9871,44.6045],[19.9876,44.6053],[19.9864,44.6062],[19.9868,44.6068],[19.9856,44.6078],[19.9859,44.6088],[19.9853,44.6094],[19.983,44.6092],[19.9834,44.6099],[19.9825,44.6098],[19.9804,44.6115],[19.9797,44.6113],[19.9798,44.6124],[19.9765,44.6127],[19.9769,44.6139],[19.9758,44.6138],[19.9762,44.6149],[19.9758,44.616],[19.9765,44.6163],[19.9755,44.6166],[19.9756,44.6173],[19.9777,44.6177],[19.9753,44.6189],[19.977,44.6196],[19.9769,44.6203],[19.9775,44.6203],[19.9769,44.6209],[19.9779,44.6214],[19.9772,44.6245],[19.9793,44.6242],[19.9791,44.6251],[19.9774,44.6264],[19.9798,44.6262],[19.9794,44.6273],[19.9788,44.6274],[19.9809,44.6273],[19.9805,44.6287],[19.9838,44.6289],[19.9845,44.6279],[19.9858,44.6283],[19.9853,44.6292],[19.9859,44.63],[19.9839,44.6298],[19.9847,44.6306],[19.9859,44.6305],[19.9863,44.6312],[19.9844,44.6316],[19.9848,44.6327],[19.983,44.6319],[19.9827,44.6325],[19.986,44.6334],[19.9851,44.6351],[19.9843,44.635],[19.9849,44.6355],[19.9886,44.6359],[19.9875,44.6371],[19.9853,44.6381],[19.9883,44.6385],[19.9876,44.6407],[19.9858,44.6423]]]]}},{"type":"Feature","id":"opstina-belgrade-15","properties":{"name":"Sopot","province":"Beograd","department":"Grad Beograd","type":"Opština","country":"Serbia","iso":"RS"},"geometry":{"type":"MultiPolygon","coordinates":[[[[20.4135,44.4633],[20.4146,44.4635],[20.4147,44.465],[20.414,44.4652],[20.4157,44.4674],[20.4152,44.4716],[20.4155,44.4729],[20.4171,44.4738],[20.4185,44.4844],[20.423,44.4907],[20.423,44.4926],[20.4222,44.4943],[20.4251,44.4963],[20.4266,44.4961],[20.4299,44.5003],[20.4306,44.5031],[20.4293,44.5051],[20.4322,44.5039],[20.435,44.5043],[20.4351,44.505],[20.4363,44.5055],[20.4375,44.5051],[20.4378,44.5057],[20.44,44.5055],[20.4399,44.5062],[20.4439,44.507],[20.4442,44.5106],[20.4459,44.5129],[20.4446,44.5135],[20.4449,44.5146],[20.4413,44.5172],[20.4406,44.5167],[20.435,44.5187],[20.4311,44.5215],[20.4295,44.5209],[20.4286,44.5214],[20.4281,44.5239],[20.4251,44.5267],[20.4265,44.5278],[20.4283,44.5307],[20.4303,44.5321],[20.4279,44.5332],[20.4298,44.5347],[20.4308,44.534],[20.4335,44.5371],[20.435,44.5369],[20.437,44.5389],[20.4364,44.5392],[20.4374,44.5408],[20.4398,44.5405],[20.4429,44.5429],[20.4484,44.5453],[20.4499,44.547],[20.4501,44.5495],[20.4514,44.5508],[20.455,44.5522],[20.4599,44.5553],[20.4698,44.5587],[20.4785,44.5639],[20.4817,44.5671],[20.4862,44.5683],[20.4901,44.5669],[20.4931,44.5669],[20.4966,44.5682],[20.499,44.5714],[20.4988,44.5721],[20.4972,44.5723],[20.4962,44.5742],[20.4943,44.5744],[20.494,44.5756],[20.4977,44.5763],[20.4982,44.5753],[20.5005,44.5754],[20.5051,44.5788],[20.5085,44.5777],[20.5118,44.5789],[20.5136,44.5787],[20.5152,44.5809],[20.5192,44.5825],[20.5202,44.5852],[20.5226,44.5852],[20.5283,44.5879],[20.5392,44.5888],[20.5424,44.5879],[20.5453,44.5879],[20.5492,44.589],[20.5511,44.5911],[20.5569,44.5933],[20.5584,44.5956],[20.5634,44.5987],[20.5573,44.6054],[20.5567,44.6104],[20.5576,44.613],[20.5591,44.6143],[20.5633,44.6134],[20.5686,44.6114],[20.5721,44.6118],[20.5785,44.6104],[20.5824,44.6118],[20.5861,44.6122],[20.593,44.615],[20.5965,44.614],[20.6005,44.6158],[20.6066,44.617],[20.6078,44.6167],[20.6113,44.6115],[20.6246,44.6093],[20.626,44.6096],[20.6271,44.6088],[20.6266,44.6087],[20.6338,44.604],[20.6355,44.6013],[20.6369,44.6012],[20.6372,44.6023],[20.6388,44.6022],[20.6382,44.5997],[20.6372,44.5988],[20.6381,44.5955],[20.6392,44.5954],[20.6392,44.5941],[20.6409,44.5943],[20.6412,44.5949],[20.6439,44.5948],[20.6467,44.593],[20.6463,44.5918],[20.6473,44.5916],[20.6471,44.5911],[20.6479,44.5908],[20.6494,44.592],[20.6501,44.5916],[20.6552,44.5846],[20.6629,44.5804],[20.6649,44.5778],[20.6715,44.5732],[20.6719,44.5716],[20.6709,44.5683],[20.6716,44.5678],[20.6715,44.5662],[20.6707,44.5651],[20.6719,44.5643],[20.6722,44.5631],[20.6729,44.5631],[20.673,44.5613],[20.6725,44.5603],[20.671,44.5604],[20.6707,44.5597],[20.6699,44.5597],[20.6699,44.5569],[20.6689,44.557],[20.6662,44.5542],[20.6647,44.5513],[20.6629,44.5495],[20.6597,44.5477],[20.6582,44.5448],[20.658,44.5388],[20.661,44.534],[20.6582,44.5329],[20.6538,44.5294],[20.6448,44.5263],[20.6401,44.5236],[20.6406,44.5219],[20.6422,44.5201],[20.6416,44.5185],[20.6436,44.5172],[20.6452,44.5146],[20.643,44.5134],[20.6421,44.5143],[20.634,44.5103],[20.6332,44.5116],[20.6313,44.512],[20.6282,44.5143],[20.6269,44.5128],[20.6279,44.5126],[20.6288,44.5112],[20.632,44.5088],[20.6301,44.5076],[20.634,44.5047],[20.6351,44.5028],[20.6409,44.4991],[20.6439,44.494],[20.6422,44.4938],[20.6423,44.493],[20.6393,44.493],[20.6353,44.4914],[20.6266,44.4894],[20.6231,44.487],[20.6189,44.4861],[20.6177,44.4852],[20.6186,44.4847],[20.6171,44.4835],[20.6083,44.48],[20.6051,44.4777],[20.6005,44.4718],[20.5971,44.4705],[20.5939,44.4678],[20.5931,44.466],[20.5934,44.4637],[20.5926,44.4632],[20.5903,44.4641],[20.5855,44.4642],[20.5777,44.4714],[20.5711,44.4672],[20.5664,44.4653],[20.567,44.4614],[20.5656,44.4595],[20.5654,44.4573],[20.5639,44.4539],[20.5597,44.4512],[20.5578,44.4488],[20.5536,44.4473],[20.5508,44.4473],[20.5473,44.4461],[20.5466,44.4455],[20.5465,44.4438],[20.5443,44.4412],[20.5487,44.425],[20.55,44.4235],[20.5497,44.4203],[20.5477,44.4201],[20.5475,44.417],[20.5448,44.4172],[20.5424,44.4187],[20.5389,44.4185],[20.5286,44.4217],[20.5235,44.421],[20.5214,44.4218],[20.52,44.4232],[20.5159,44.4242],[20.5159,44.4238],[20.5138,44.4232],[20.5134,44.4228],[20.514,44.4223],[20.5128,44.4221],[20.5116,44.4209],[20.5082,44.422],[20.5062,44.4188],[20.5031,44.42],[20.503,44.4208],[20.5005,44.4215],[20.4987,44.4204],[20.4958,44.4202],[20.4916,44.4265],[20.4869,44.4258],[20.482,44.434],[20.478,44.4337],[20.4783,44.4346],[20.4778,44.435],[20.4749,44.4348],[20.4735,44.4372],[20.4684,44.4391],[20.4649,44.4436],[20.4637,44.4433],[20.4641,44.4424],[20.4612,44.4421],[20.454,44.4421],[20.4516,44.4429],[20.4466,44.4396],[20.4458,44.4385],[20.4444,44.4381],[20.4437,44.4398],[20.4438,44.4425],[20.4414,44.4428],[20.4403,44.4441],[20.4309,44.4468],[20.431,44.4473],[20.4295,44.4476],[20.4293,44.4486],[20.4274,44.4475],[20.4257,44.4481],[20.4142,44.4549],[20.4147,44.46],[20.4135,44.4633]]]]}},{"type":"Feature","id":"opstina-belgrade-16","properties":{"name":"Mladenovac","province":"Beograd","department":"Grad Beograd","type":"Opština","country":"Serbia","iso":"RS"},"geometry":{"type":"MultiPolygon","coordinates":[[[[20.5475,44.417],[20.5477,44.4201],[20.5497,44.4203],[20.55,44.4235],[20.5487,44.425],[20.5443,44.4412],[20.5465,44.4438],[20.5466,44.4455],[20.5473,44.4461],[20.5508,44.4473],[20.5536,44.4473],[20.5578,44.4488],[20.5597,44.4512],[20.5639,44.4539],[20.5654,44.4573],[20.5656,44.4595],[20.567,44.4614],[20.5664,44.4653],[20.5711,44.4672],[20.5777,44.4714],[20.5855,44.4642],[20.5903,44.4641],[20.5926,44.4632],[20.5933,44.4636],[20.5932,44.466],[20.594,44.4678],[20.597,44.4704],[20.6009,44.472],[20.6051,44.4777],[20.6083,44.48],[20.6158,44.4828],[20.6186,44.4847],[20.6177,44.4852],[20.6189,44.4861],[20.6231,44.4869],[20.6264,44.4893],[20.6353,44.4914],[20.6393,44.493],[20.6423,44.493],[20.6422,44.4938],[20.6439,44.494],[20.6409,44.4991],[20.6351,44.5028],[20.634,44.5047],[20.6301,44.5076],[20.632,44.5088],[20.6288,44.5112],[20.6279,44.5126],[20.6269,44.5128],[20.6282,44.5143],[20.6313,44.512],[20.6332,44.5116],[20.634,44.5103],[20.6421,44.5143],[20.643,44.5134],[20.6452,44.5146],[20.6436,44.5172],[20.6416,44.5185],[20.6422,44.5201],[20.6406,44.5219],[20.6401,44.5236],[20.6448,44.5263],[20.6538,44.5294],[20.6582,44.5329],[20.661,44.534],[20.658,44.5388],[20.6584,44.5456],[20.66,44.5479],[20.6626,44.5493],[20.6646,44.5513],[20.6662,44.5542],[20.6689,44.557],[20.6699,44.5569],[20.6699,44.5597],[20.6707,44.5597],[20.671,44.5604],[20.6725,44.5603],[20.6729,44.5631],[20.6722,44.5631],[20.6719,44.5643],[20.6707,44.5651],[20.6715,44.5662],[20.6715,44.5679],[20.6744,44.568],[20.676,44.5696],[20.6772,44.5691],[20.6779,44.5695],[20.6786,44.569],[20.6791,44.5695],[20.6835,44.5694],[20.686,44.5702],[20.6864,44.5692],[20.6871,44.5691],[20.687,44.57],[20.6892,44.5676],[20.6904,44.5671],[20.6909,44.5655],[20.6931,44.5648],[20.6954,44.5625],[20.6969,44.563],[20.6977,44.562],[20.7,44.5622],[20.7039,44.5611],[20.7114,44.5576],[20.711,44.5567],[20.712,44.5544],[20.7108,44.5521],[20.7114,44.5496],[20.7141,44.5457],[20.7157,44.5417],[20.7168,44.5408],[20.7167,44.5425],[20.7177,44.5428],[20.7183,44.5444],[20.7226,44.5474],[20.7226,44.5487],[20.7253,44.5501],[20.7247,44.5527],[20.7254,44.5534],[20.7238,44.5533],[20.724,44.5547],[20.7233,44.5564],[20.7244,44.5567],[20.724,44.5578],[20.7273,44.5587],[20.7296,44.5555],[20.7325,44.5541],[20.7321,44.5531],[20.7349,44.5519],[20.7364,44.553],[20.7366,44.554],[20.7385,44.5538],[20.7386,44.5526],[20.7399,44.552],[20.7402,44.5528],[20.741,44.5528],[20.7427,44.5514],[20.7462,44.5535],[20.7472,44.5529],[20.7485,44.5514],[20.7469,44.5509],[20.7452,44.5519],[20.7446,44.5515],[20.7458,44.5503],[20.7455,44.5494],[20.7464,44.5488],[20.7451,44.5472],[20.7475,44.5433],[20.7497,44.5437],[20.7502,44.5417],[20.7516,44.5417],[20.7524,44.5436],[20.7533,44.544],[20.7548,44.5424],[20.7566,44.543],[20.7584,44.5421],[20.7639,44.5439],[20.7639,44.543],[20.7661,44.5428],[20.7694,44.5403],[20.7669,44.5383],[20.7665,44.5373],[20.7688,44.534],[20.7699,44.5266],[20.772,44.523],[20.771,44.5208],[20.7731,44.52],[20.774,44.5215],[20.7771,44.5214],[20.7777,44.5219],[20.7824,44.5207],[20.7817,44.5193],[20.7846,44.5201],[20.7849,44.5193],[20.7868,44.5183],[20.7899,44.5179],[20.7942,44.5164],[20.796,44.5161],[20.7973,44.5174],[20.8037,44.5152],[20.8066,44.5159],[20.8072,44.5151],[20.8061,44.5146],[20.806,44.5127],[20.8049,44.5114],[20.8081,44.5081],[20.8064,44.5075],[20.8073,44.5053],[20.8082,44.505],[20.8066,44.5038],[20.8075,44.5029],[20.8083,44.5035],[20.8088,44.5032],[20.8066,44.5019],[20.8092,44.4999],[20.8144,44.498],[20.8151,44.4972],[20.8163,44.4981],[20.8174,44.4969],[20.8171,44.4962],[20.8202,44.4967],[20.8214,44.4945],[20.8229,44.4948],[20.8265,44.4937],[20.828,44.4921],[20.8267,44.4916],[20.83,44.4896],[20.8324,44.4872],[20.8338,44.4878],[20.8347,44.4868],[20.8354,44.4873],[20.8347,44.4865],[20.8356,44.4858],[20.8366,44.483],[20.8378,44.4835],[20.8386,44.4823],[20.8375,44.4813],[20.8381,44.4799],[20.8357,44.4798],[20.8368,44.4758],[20.8408,44.4761],[20.8423,44.4746],[20.8443,44.4755],[20.8469,44.4733],[20.8508,44.4682],[20.8505,44.4661],[20.8538,44.4651],[20.8518,44.4596],[20.8496,44.4565],[20.8487,44.4527],[20.8444,44.4529],[20.8436,44.4503],[20.8424,44.449],[20.8459,44.4466],[20.8453,44.4457],[20.8435,44.4465],[20.8429,44.4456],[20.8408,44.4466],[20.84,44.446],[20.8408,44.4454],[20.8393,44.4445],[20.8414,44.4428],[20.8354,44.4396],[20.8317,44.4386],[20.8247,44.4395],[20.8239,44.4403],[20.8247,44.4405],[20.8248,44.4415],[20.8218,44.4419],[20.8216,44.4406],[20.82,44.4409],[20.8183,44.4399],[20.8163,44.4411],[20.8165,44.4416],[20.8158,44.4419],[20.8162,44.4423],[20.815,44.4425],[20.8156,44.4431],[20.8149,44.4432],[20.8147,44.444],[20.813,44.4445],[20.812,44.444],[20.8116,44.4449],[20.8105,44.4454],[20.8097,44.4451],[20.8099,44.4455],[20.8072,44.445],[20.8051,44.4453],[20.8049,44.446],[20.8048,44.4455],[20.8043,44.4459],[20.8031,44.4455],[20.803,44.4465],[20.8014,44.4466],[20.8013,44.4472],[20.8003,44.4465],[20.8001,44.4479],[20.7992,44.448],[20.7994,44.4492],[20.7929,44.4506],[20.7921,44.4498],[20.7918,44.4474],[20.7905,44.4471],[20.7902,44.4488],[20.7884,44.4493],[20.7875,44.4485],[20.7864,44.4488],[20.7841,44.4478],[20.782,44.4444],[20.7754,44.4435],[20.7755,44.4423],[20.7796,44.4425],[20.7794,44.4404],[20.7731,44.4409],[20.7726,44.4417],[20.7701,44.4406],[20.7727,44.4393],[20.7707,44.4374],[20.767,44.4408],[20.7642,44.4407],[20.7672,44.4381],[20.7688,44.435],[20.7684,44.4341],[20.7696,44.4317],[20.7654,44.4312],[20.7656,44.4304],[20.7685,44.4309],[20.7685,44.4299],[20.7693,44.4301],[20.7702,44.4285],[20.7677,44.4278],[20.767,44.4294],[20.7661,44.429],[20.7674,44.427],[20.7659,44.4263],[20.7637,44.4211],[20.7617,44.4156],[20.7618,44.4136],[20.7604,44.4136],[20.7601,44.4129],[20.7585,44.413],[20.7588,44.4122],[20.7597,44.412],[20.758,44.4085],[20.7561,44.4083],[20.7551,44.4035],[20.7535,44.4036],[20.7539,44.4008],[20.7493,44.3994],[20.7542,44.3979],[20.7563,44.3966],[20.7582,44.3932],[20.7576,44.3926],[20.7587,44.3921],[20.7609,44.3871],[20.7649,44.385],[20.7701,44.3845],[20.7706,44.3766],[20.7715,44.3753],[20.7754,44.3753],[20.7805,44.3738],[20.785,44.374],[20.7861,44.3734],[20.7875,44.3712],[20.789,44.3708],[20.7946,44.3717],[20.7993,44.3752],[20.802,44.3756],[20.8026,44.3751],[20.801,44.3722],[20.7992,44.3721],[20.7991,44.3701],[20.798,44.3693],[20.8004,44.3677],[20.8004,44.367],[20.7988,44.3655],[20.7948,44.3672],[20.7934,44.3652],[20.7924,44.3657],[20.7897,44.3636],[20.788,44.3643],[20.7852,44.3642],[20.7841,44.3668],[20.7822,44.3661],[20.7819,44.364],[20.7796,44.3609],[20.7815,44.3599],[20.7856,44.3594],[20.7874,44.3587],[20.7874,44.358],[20.7843,44.3579],[20.7837,44.357],[20.7811,44.3565],[20.7796,44.3551],[20.7784,44.3563],[20.7789,44.3532],[20.7749,44.3532],[20.7735,44.3511],[20.7762,44.35],[20.7775,44.3511],[20.7782,44.3507],[20.7778,44.3502],[20.7798,44.3494],[20.7802,44.3499],[20.7833,44.3486],[20.7845,44.3461],[20.7857,44.3457],[20.7861,44.3448],[20.7848,44.345],[20.7858,44.3444],[20.7848,44.3446],[20.7842,44.3438],[20.7836,44.3447],[20.7831,44.3437],[20.7842,44.3434],[20.7838,44.343],[20.7886,44.3386],[20.7887,44.3373],[20.7879,44.3362],[20.7859,44.336],[20.7854,44.3354],[20.7859,44.3333],[20.7874,44.3333],[20.7877,44.3312],[20.7866,44.3294],[20.786,44.3296],[20.7846,44.328],[20.7847,44.3272],[20.7822,44.3262],[20.7817,44.3252],[20.7798,44.3254],[20.7803,44.3265],[20.7774,44.3271],[20.7776,44.3283],[20.7769,44.3286],[20.7764,44.3271],[20.7738,44.3269],[20.7696,44.3282],[20.7701,44.3294],[20.7681,44.3299],[20.7656,44.3315],[20.7657,44.3321],[20.764,44.3327],[20.7625,44.3338],[20.7629,44.3344],[20.7624,44.3351],[20.7616,44.3341],[20.7609,44.3352],[20.7601,44.3345],[20.7591,44.3347],[20.7546,44.3403],[20.7527,44.344],[20.7519,44.3435],[20.7489,44.3462],[20.7484,44.3458],[20.744,44.3479],[20.744,44.3492],[20.7392,44.3487],[20.7353,44.3464],[20.7308,44.347],[20.7296,44.3465],[20.722,44.3482],[20.7202,44.3479],[20.7174,44.3485],[20.717,44.3488],[20.7231,44.3584],[20.7214,44.359],[20.7211,44.3583],[20.717,44.3604],[20.7154,44.36],[20.7143,44.3589],[20.7133,44.3592],[20.7115,44.3576],[20.7094,44.3594],[20.7084,44.3591],[20.7078,44.3586],[20.7079,44.3569],[20.707,44.3556],[20.7025,44.3567],[20.7015,44.3596],[20.6998,44.3605],[20.6971,44.3579],[20.6899,44.357],[20.6889,44.358],[20.6789,44.3536],[20.6736,44.3525],[20.6679,44.3499],[20.667,44.3508],[20.6638,44.3505],[20.6633,44.3518],[20.6625,44.3518],[20.6599,44.3502],[20.6582,44.3527],[20.6555,44.3522],[20.6555,44.3537],[20.66,44.3586],[20.6576,44.3609],[20.6568,44.3624],[20.6503,44.3626],[20.6487,44.3654],[20.6453,44.364],[20.6463,44.3613],[20.648,44.362],[20.6482,44.3616],[20.645,44.3594],[20.6443,44.3601],[20.6455,44.361],[20.6444,44.3649],[20.6425,44.3649],[20.643,44.3666],[20.6417,44.3689],[20.6401,44.3685],[20.6399,44.3689],[20.6392,44.3705],[20.6393,44.3735],[20.635,44.3741],[20.6356,44.3775],[20.6378,44.3772],[20.6383,44.3797],[20.6347,44.3807],[20.6362,44.3834],[20.636,44.3868],[20.6339,44.3862],[20.6321,44.387],[20.6327,44.3901],[20.6353,44.3911],[20.6354,44.3917],[20.6346,44.3923],[20.6346,44.3947],[20.6334,44.3958],[20.6333,44.3975],[20.629,44.3978],[20.6252,44.4005],[20.6173,44.4008],[20.6165,44.3953],[20.6092,44.3946],[20.604,44.3926],[20.6002,44.3925],[20.5893,44.3884],[20.5858,44.3881],[20.5818,44.3887],[20.5762,44.3872],[20.5712,44.3867],[20.5651,44.3839],[20.5618,44.3812],[20.5594,44.3806],[20.5562,44.3778],[20.5515,44.379],[20.5498,44.3807],[20.549,44.3835],[20.549,44.3871],[20.5467,44.3894],[20.5462,44.3916],[20.5475,44.3938],[20.5506,44.3967],[20.553,44.3979],[20.5542,44.4],[20.5532,44.4023],[20.5543,44.4031],[20.5534,44.4031],[20.5532,44.4044],[20.5523,44.4051],[20.5533,44.4058],[20.553,44.4073],[20.5518,44.4087],[20.5472,44.4103],[20.5472,44.4129],[20.5488,44.4164],[20.5475,44.417]]]]}},{"type":"Feature","id":"opstina-belgrade-17","properties":{"name":"Lazarevac","province":"Beograd","department":"Grad Beograd","type":"Opština","country":"Serbia","iso":"RS"},"geometry":{"type":"MultiPolygon","coordinates":[[[[20.1913,44.3472],[20.1921,44.3486],[20.1945,44.3496],[20.2064,44.3509],[20.2122,44.3522],[20.2286,44.3511],[20.2317,44.3524],[20.2277,44.3551],[20.2235,44.3569],[20.2224,44.3594],[20.2178,44.3618],[20.2171,44.3641],[20.2165,44.364],[20.2157,44.3655],[20.2146,44.3653],[20.2129,44.3692],[20.2171,44.3697],[20.2156,44.3718],[20.2134,44.3736],[20.2124,44.3731],[20.2103,44.3736],[20.2069,44.3758],[20.2075,44.3766],[20.2067,44.3772],[20.2066,44.3781],[20.2074,44.3784],[20.2088,44.3777],[20.2107,44.3809],[20.208,44.3826],[20.2078,44.3851],[20.2084,44.3863],[20.2123,44.3846],[20.2148,44.3864],[20.2145,44.3872],[20.2127,44.3871],[20.2097,44.3881],[20.2109,44.3902],[20.2129,44.3902],[20.2136,44.3891],[20.2169,44.3888],[20.2169,44.3872],[20.2178,44.3866],[20.2195,44.387],[20.2194,44.3877],[20.2214,44.3876],[20.2195,44.3889],[20.2209,44.3902],[20.2203,44.3915],[20.2182,44.3921],[20.2194,44.3944],[20.216,44.3953],[20.2164,44.398],[20.2151,44.3982],[20.2135,44.3974],[20.213,44.3959],[20.212,44.3958],[20.2111,44.3963],[20.2116,44.3983],[20.211,44.3994],[20.2086,44.4001],[20.2103,44.4016],[20.213,44.4022],[20.2128,44.4034],[20.2133,44.4038],[20.2178,44.4032],[20.2188,44.4024],[20.2204,44.4035],[20.2207,44.4055],[20.2224,44.4063],[20.2232,44.4076],[20.2187,44.4092],[20.2187,44.4103],[20.2194,44.4106],[20.221,44.4103],[20.2217,44.4108],[20.2211,44.4116],[20.2189,44.412],[20.218,44.4135],[20.2203,44.4136],[20.2205,44.4154],[20.2221,44.417],[20.2239,44.4173],[20.2253,44.4195],[20.2275,44.4199],[20.2281,44.4214],[20.2288,44.4215],[20.2307,44.4198],[20.2325,44.4198],[20.233,44.4209],[20.2356,44.4214],[20.2364,44.4226],[20.2404,44.4241],[20.2402,44.4257],[20.2432,44.4241],[20.2448,44.4244],[20.2449,44.4255],[20.2426,44.4262],[20.2416,44.4289],[20.2438,44.4295],[20.2451,44.4288],[20.247,44.4292],[20.246,44.4325],[20.2433,44.4333],[20.245,44.4357],[20.2438,44.4371],[20.2419,44.4373],[20.2423,44.4389],[20.2442,44.4395],[20.2446,44.4414],[20.2458,44.4424],[20.2482,44.4426],[20.2482,44.4431],[20.2462,44.4455],[20.2439,44.4445],[20.2427,44.4456],[20.2414,44.4453],[20.2415,44.4463],[20.2452,44.4464],[20.2442,44.4489],[20.2406,44.4483],[20.2399,44.4478],[20.2398,44.4465],[20.2378,44.4462],[20.238,44.448],[20.2362,44.4487],[20.2379,44.4514],[20.2355,44.4542],[20.2368,44.4562],[20.2337,44.4566],[20.2325,44.4573],[20.2362,44.4587],[20.2363,44.4575],[20.238,44.4559],[20.2395,44.4584],[20.2409,44.4575],[20.2418,44.4585],[20.2384,44.4614],[20.2376,44.4612],[20.2373,44.4597],[20.235,44.4602],[20.2346,44.4593],[20.2339,44.4594],[20.2328,44.4616],[20.2341,44.4633],[20.2336,44.464],[20.234,44.4649],[20.2369,44.4655],[20.2378,44.4668],[20.2404,44.4658],[20.2409,44.467],[20.2398,44.4684],[20.2402,44.4686],[20.2454,44.4679],[20.2455,44.4673],[20.2442,44.4668],[20.2457,44.4666],[20.2478,44.4691],[20.2451,44.4705],[20.2454,44.4712],[20.2469,44.4711],[20.2468,44.4716],[20.2417,44.4732],[20.2408,44.4738],[20.2402,44.4757],[20.2389,44.4762],[20.2398,44.4767],[20.2418,44.4761],[20.244,44.4775],[20.2428,44.4787],[20.2408,44.479],[20.2411,44.4797],[20.2427,44.4797],[20.2449,44.4785],[20.2453,44.4789],[20.243,44.4806],[20.244,44.4814],[20.2437,44.4819],[20.2444,44.4828],[20.2425,44.4823],[20.2427,44.4815],[20.2415,44.4829],[20.2431,44.4857],[20.245,44.4849],[20.2466,44.487],[20.2438,44.4861],[20.2428,44.4875],[20.2411,44.4873],[20.2407,44.488],[20.2434,44.4899],[20.2431,44.491],[20.2451,44.4906],[20.2456,44.4934],[20.243,44.4957],[20.2414,44.4957],[20.2416,44.4945],[20.2403,44.4945],[20.2377,44.4958],[20.2362,44.4975],[20.2379,44.4984],[20.2396,44.4982],[20.2404,44.5001],[20.2405,44.5007],[20.2393,44.5014],[20.2409,44.5019],[20.241,44.5029],[20.2403,44.5033],[20.2384,44.5027],[20.2394,44.5041],[20.2389,44.5045],[20.2495,44.5077],[20.2515,44.5076],[20.2529,44.5124],[20.257,44.5171],[20.2579,44.5192],[20.2597,44.5201],[20.2718,44.5224],[20.271,44.5267],[20.2727,44.5269],[20.276,44.5245],[20.2789,44.5245],[20.2793,44.5277],[20.2772,44.5269],[20.2762,44.5278],[20.277,44.5289],[20.2788,44.5292],[20.2802,44.5309],[20.2761,44.5326],[20.274,44.5309],[20.2733,44.531],[20.2725,44.5328],[20.2735,44.5334],[20.273,44.5337],[20.2653,44.536],[20.2646,44.5374],[20.2658,44.5379],[20.2653,44.5387],[20.2663,44.54],[20.2654,44.5404],[20.2636,44.5395],[20.2606,44.5416],[20.2601,44.5429],[20.2619,44.5461],[20.2601,44.5512],[20.2629,44.5552],[20.2626,44.5566],[20.2634,44.5585],[20.2686,44.5573],[20.2702,44.556],[20.2746,44.5563],[20.2781,44.5574],[20.2825,44.5598],[20.2876,44.5605],[20.2927,44.5627],[20.3018,44.5645],[20.3018,44.5623],[20.2982,44.5571],[20.3001,44.5526],[20.3007,44.5446],[20.2981,44.5334],[20.2966,44.5307],[20.2937,44.528],[20.2932,44.5241],[20.2939,44.528],[20.2969,44.5307],[20.2988,44.5354],[20.3056,44.5281],[20.309,44.5213],[20.3057,44.5282],[20.2988,44.5355],[20.3004,44.5429],[20.303,44.5423],[20.3085,44.5386],[20.315,44.5377],[20.3161,44.537],[20.3203,44.5371],[20.3247,44.5359],[20.3288,44.536],[20.3282,44.534],[20.331,44.5338],[20.3315,44.5312],[20.3346,44.5315],[20.3398,44.5277],[20.3424,44.5272],[20.344,44.524],[20.3468,44.5208],[20.3461,44.5211],[20.3452,44.5205],[20.3479,44.5187],[20.3505,44.5148],[20.3501,44.5146],[20.3524,44.5135],[20.3528,44.5117],[20.3556,44.5099],[20.3554,44.5087],[20.3528,44.5073],[20.3531,44.5063],[20.3508,44.5055],[20.3501,44.5059],[20.3496,44.5053],[20.3486,44.5054],[20.3484,44.5041],[20.3469,44.5042],[20.3469,44.503],[20.3478,44.5028],[20.3456,44.5029],[20.3458,44.5016],[20.3451,44.5009],[20.3453,44.5002],[20.3406,44.5004],[20.3391,44.4983],[20.3372,44.4979],[20.3376,44.4967],[20.3359,44.4973],[20.3343,44.497],[20.3343,44.4963],[20.3333,44.4964],[20.3335,44.4946],[20.3322,44.4945],[20.3317,44.4934],[20.33,44.4937],[20.3269,44.4911],[20.3273,44.4901],[20.3268,44.4897],[20.3274,44.4894],[20.3265,44.488],[20.3252,44.4876],[20.326,44.4869],[20.3261,44.4862],[20.3255,44.4857],[20.3233,44.4855],[20.3225,44.486],[20.3215,44.4849],[20.3189,44.4851],[20.3215,44.4849],[20.3224,44.4859],[20.3252,44.4855],[20.3262,44.4862],[20.3252,44.4876],[20.3266,44.488],[20.3275,44.4894],[20.3268,44.4897],[20.3274,44.4901],[20.3269,44.4911],[20.33,44.4936],[20.3317,44.4933],[20.3321,44.4944],[20.3335,44.4946],[20.3335,44.4964],[20.3344,44.4962],[20.3344,44.4969],[20.3358,44.4972],[20.3376,44.4967],[20.3373,44.498],[20.3392,44.4983],[20.3395,44.4989],[20.3411,44.4984],[20.343,44.4958],[20.3445,44.4963],[20.3457,44.4955],[20.3474,44.4937],[20.3475,44.4921],[20.3492,44.4926],[20.3496,44.4895],[20.3509,44.4868],[20.3553,44.4821],[20.3535,44.4778],[20.3543,44.477],[20.3534,44.4766],[20.3548,44.4751],[20.3516,44.4725],[20.355,44.4752],[20.3561,44.4745],[20.3595,44.4754],[20.359,44.4765],[20.3601,44.4771],[20.3644,44.4738],[20.3724,44.4724],[20.3699,44.4693],[20.37,44.4675],[20.3677,44.4646],[20.367,44.4615],[20.361,44.4553],[20.3588,44.4514],[20.3611,44.4552],[20.3662,44.4601],[20.3679,44.4648],[20.3701,44.4675],[20.3705,44.4699],[20.3727,44.4725],[20.3738,44.4724],[20.3755,44.4721],[20.3797,44.4695],[20.3894,44.4673],[20.3999,44.4673],[20.4041,44.4648],[20.4105,44.4664],[20.4147,44.465],[20.4146,44.4635],[20.4134,44.4632],[20.4142,44.462],[20.4141,44.4603],[20.4116,44.4585],[20.4044,44.4561],[20.4042,44.4503],[20.4045,44.4561],[20.4118,44.4585],[20.4145,44.4603],[20.4142,44.4549],[20.4229,44.4495],[20.4274,44.4475],[20.4293,44.4486],[20.4295,44.4476],[20.431,44.4473],[20.4309,44.4468],[20.4403,44.4441],[20.4414,44.4428],[20.444,44.4422],[20.4437,44.4398],[20.4444,44.4381],[20.439,44.4293],[20.4383,44.4294],[20.438,44.4283],[20.4361,44.4271],[20.4365,44.4263],[20.4349,44.4265],[20.433,44.4244],[20.4274,44.4266],[20.4265,44.4262],[20.4255,44.427],[20.4249,44.4264],[20.426,44.4257],[20.4245,44.424],[20.4228,44.4246],[20.4203,44.424],[20.4181,44.4216],[20.4157,44.4212],[20.4134,44.4167],[20.4147,44.4164],[20.4141,44.4152],[20.4153,44.415],[20.4147,44.4137],[20.4168,44.4135],[20.4165,44.4124],[20.4174,44.4128],[20.4197,44.4118],[20.4197,44.4106],[20.4207,44.4116],[20.4214,44.4113],[20.4202,44.4074],[20.4206,44.4068],[20.4197,44.4054],[20.4212,44.4042],[20.4208,44.401],[20.4253,44.399],[20.428,44.3964],[20.4313,44.3943],[20.434,44.394],[20.4364,44.3926],[20.439,44.3927],[20.4432,44.3916],[20.4451,44.3919],[20.443,44.3882],[20.4462,44.3877],[20.4491,44.3846],[20.4522,44.3835],[20.4561,44.3807],[20.4502,44.3801],[20.4437,44.3784],[20.436,44.3742],[20.4331,44.3713],[20.4328,44.3691],[20.4293,44.3663],[20.4288,44.3645],[20.4272,44.3634],[20.4257,44.3635],[20.4261,44.3625],[20.4256,44.3603],[20.4239,44.3586],[20.4211,44.3579],[20.4191,44.3537],[20.4202,44.3534],[20.4204,44.3524],[20.4184,44.3522],[20.4183,44.35],[20.4148,44.3505],[20.4149,44.348],[20.4142,44.3471],[20.4151,44.346],[20.4164,44.3461],[20.4134,44.342],[20.4123,44.3415],[20.412,44.3394],[20.4128,44.3391],[20.4129,44.3372],[20.4089,44.3334],[20.4089,44.3315],[20.4072,44.3285],[20.4073,44.3245],[20.4052,44.3213],[20.4046,44.3185],[20.3999,44.3128],[20.3988,44.3136],[20.3989,44.3146],[20.3971,44.3149],[20.3942,44.3176],[20.392,44.3181],[20.39,44.3179],[20.3892,44.3148],[20.3894,44.3138],[20.3857,44.3124],[20.3834,44.3124],[20.3825,44.3113],[20.3801,44.3127],[20.3816,44.3146],[20.3824,44.3176],[20.3832,44.3184],[20.3823,44.3176],[20.3816,44.3147],[20.3801,44.3128],[20.3792,44.3128],[20.3786,44.3137],[20.3773,44.3134],[20.3761,44.3103],[20.3739,44.31],[20.3735,44.3109],[20.3726,44.3108],[20.368,44.3082],[20.3662,44.3092],[20.3654,44.3084],[20.3666,44.3069],[20.3673,44.3039],[20.3686,44.3029],[20.3679,44.3017],[20.3682,44.2992],[20.3644,44.2977],[20.3613,44.298],[20.3603,44.2938],[20.3608,44.2929],[20.3599,44.2919],[20.3558,44.2921],[20.353,44.2882],[20.3518,44.2874],[20.3492,44.2882],[20.3477,44.288],[20.3478,44.2853],[20.3443,44.2845],[20.3447,44.2832],[20.3439,44.282],[20.3426,44.282],[20.3425,44.2806],[20.3401,44.2795],[20.3358,44.2788],[20.3334,44.2776],[20.3325,44.2771],[20.3315,44.2751],[20.3299,44.2741],[20.3258,44.2751],[20.3217,44.2743],[20.3171,44.2764],[20.3134,44.2752],[20.3117,44.2753],[20.3094,44.2779],[20.3096,44.2822],[20.3077,44.2825],[20.3063,44.2849],[20.3049,44.285],[20.3002,44.2874],[20.3048,44.2849],[20.3062,44.2848],[20.3078,44.2823],[20.3094,44.2821],[20.3098,44.2812],[20.3095,44.28],[20.3072,44.2806],[20.305,44.2787],[20.3046,44.277],[20.3024,44.2753],[20.3012,44.2724],[20.3016,44.2708],[20.3005,44.2693],[20.3009,44.2654],[20.3004,44.2648],[20.301,44.263],[20.2983,44.2629],[20.291,44.2648],[20.2879,44.2669],[20.2854,44.2669],[20.2822,44.2682],[20.2801,44.2679],[20.2801,44.2687],[20.2794,44.269],[20.2778,44.2682],[20.2791,44.2701],[20.2775,44.271],[20.2764,44.2704],[20.2759,44.2713],[20.2739,44.2719],[20.2747,44.2728],[20.2765,44.2731],[20.2789,44.2724],[20.2773,44.2743],[20.2785,44.2748],[20.2784,44.2757],[20.2796,44.2756],[20.278,44.2778],[20.2789,44.2785],[20.2732,44.2779],[20.2729,44.2773],[20.271,44.2767],[20.2643,44.2773],[20.2636,44.2777],[20.2651,44.2787],[20.2683,44.2792],[20.2664,44.28],[20.2652,44.2794],[20.2639,44.2809],[20.2594,44.2812],[20.2581,44.2824],[20.2595,44.2827],[20.2587,44.2852],[20.2596,44.2864],[20.2591,44.2868],[20.2594,44.2889],[20.2565,44.288],[20.2571,44.2868],[20.2564,44.2859],[20.2527,44.2872],[20.2506,44.287],[20.2507,44.2879],[20.2499,44.2884],[20.2509,44.2886],[20.2506,44.2893],[20.2489,44.2904],[20.2504,44.2915],[20.2523,44.2902],[20.2527,44.291],[20.2538,44.2914],[20.2518,44.2925],[20.2515,44.2935],[20.2503,44.2934],[20.2505,44.2947],[20.2465,44.2953],[20.2455,44.2936],[20.2429,44.2933],[20.2395,44.2967],[20.2377,44.2967],[20.2377,44.2976],[20.2386,44.2981],[20.2384,44.2994],[20.2375,44.2999],[20.2393,44.3003],[20.2397,44.2988],[20.2404,44.2987],[20.2411,44.3001],[20.2407,44.3023],[20.2395,44.3027],[20.2369,44.3016],[20.2356,44.3028],[20.2362,44.3035],[20.2356,44.3041],[20.2328,44.3012],[20.2327,44.3033],[20.2298,44.3039],[20.2317,44.305],[20.2322,44.3064],[20.23,44.3067],[20.2294,44.3083],[20.2268,44.3074],[20.2262,44.3086],[20.2237,44.3101],[20.2289,44.3112],[20.228,44.3133],[20.2263,44.3133],[20.2262,44.314],[20.2279,44.3148],[20.2266,44.3166],[20.2261,44.3167],[20.2254,44.3153],[20.2253,44.3164],[20.2247,44.3167],[20.2234,44.3167],[20.2216,44.3157],[20.2201,44.3162],[20.2212,44.3167],[20.221,44.3171],[20.2184,44.3173],[20.2168,44.317],[20.2174,44.3161],[20.216,44.3159],[20.2154,44.3174],[20.2132,44.3175],[20.215,44.3186],[20.2137,44.3215],[20.2122,44.3215],[20.2111,44.3226],[20.2106,44.3217],[20.2102,44.3238],[20.2079,44.3243],[20.2086,44.325],[20.2095,44.3246],[20.2103,44.3251],[20.2128,44.3247],[20.214,44.3236],[20.2152,44.3243],[20.2181,44.324],[20.2157,44.324],[20.2158,44.3255],[20.2138,44.3255],[20.2128,44.3269],[20.2099,44.3287],[20.2111,44.3293],[20.2118,44.3284],[20.2145,44.3285],[20.2154,44.3295],[20.2151,44.3304],[20.2122,44.3299],[20.2119,44.3303],[20.2127,44.331],[20.2106,44.3319],[20.2126,44.3346],[20.2126,44.3355],[20.2113,44.336],[20.21,44.335],[20.2088,44.3363],[20.2067,44.334],[20.2073,44.3327],[20.2067,44.3319],[20.2031,44.3306],[20.2029,44.3331],[20.2005,44.3337],[20.199,44.3352],[20.1969,44.3354],[20.2017,44.3402],[20.1994,44.3407],[20.2005,44.3413],[20.1997,44.3418],[20.1992,44.3434],[20.1987,44.3427],[20.1972,44.3431],[20.1963,44.3416],[20.1966,44.341],[20.1948,44.3412],[20.1945,44.3434],[20.1917,44.3434],[20.1928,44.3458],[20.1913,44.3472]]]]}}]}