{"type":"FeatureCollection","features":[{"type":"Feature","id":"bezirk-berlin-01","properties":{"name":"Mitte","province":"Berlin","department":"Berlin","type":"Bezirk","country":"Alemania","iso":"DE"},"geometry":{"type":"Polygon","coordinates":[[[13.3732,52.5038],[13.375,52.5034],[13.3776,52.508],[13.3789,52.5069],[13.3992,52.5081],[13.4002,52.5094],[13.4044,52.5078],[13.4053,52.5082],[13.408,52.5062],[13.41,52.5069],[13.4115,52.5049],[13.4141,52.504],[13.4149,52.5049],[13.4176,52.5042],[13.4194,52.5057],[13.4232,52.505],[13.4272,52.5057],[13.4294,52.5086],[13.4228,52.5122],[13.4268,52.518],[13.4259,52.5184],[13.4265,52.5192],[13.4285,52.5196],[13.4292,52.5212],[13.4256,52.5228],[13.4265,52.5233],[13.4154,52.5275],[13.4056,52.5297],[13.4064,52.5324],[13.4084,52.5344],[13.4075,52.5347],[13.4047,52.5402],[13.4035,52.5402],[13.3989,52.5509],[13.3969,52.5507],[13.3981,52.5529],[13.3959,52.5617],[13.3887,52.5677],[13.3842,52.5677],[13.3786,52.5661],[13.3771,52.5607],[13.3709,52.5605],[13.3656,52.5581],[13.3646,52.5612],[13.3601,52.5605],[13.3597,52.5619],[13.3491,52.5619],[13.3371,52.5644],[13.3318,52.5617],[13.3268,52.5624],[13.3247,52.5607],[13.3097,52.5577],[13.3015,52.5488],[13.3179,52.5482],[13.3273,52.5414],[13.3272,52.5397],[13.3291,52.5382],[13.3114,52.5356],[13.313,52.5319],[13.3175,52.5324],[13.3167,52.5309],[13.3134,52.5302],[13.3167,52.5209],[13.3178,52.5204],[13.3188,52.5211],[13.3189,52.523],[13.3205,52.5243],[13.3256,52.5243],[13.3292,52.5219],[13.3298,52.5179],[13.332,52.5168],[13.3342,52.5168],[13.3361,52.5144],[13.3359,52.5133],[13.3306,52.5128],[13.334,52.5117],[13.33,52.5101],[13.3346,52.5088],[13.334,52.5066],[13.3625,52.4997],[13.3694,52.4987],[13.3732,52.5038]]]}},{"type":"Feature","id":"bezirk-berlin-02","properties":{"name":"Friedrichshain-Kreuzberg","province":"Berlin","department":"Berlin","type":"Bezirk","country":"Alemania","iso":"DE"},"geometry":{"type":"Polygon","coordinates":[[[13.4447,52.4942],[13.4478,52.4948],[13.4515,52.4973],[13.4541,52.4976],[13.4632,52.4954],[13.464,52.495],[13.4632,52.4942],[13.4642,52.4937],[13.4754,52.4903],[13.4777,52.4888],[13.4786,52.487],[13.4794,52.4879],[13.4817,52.4876],[13.483,52.486],[13.4867,52.4876],[13.4907,52.4874],[13.4915,52.4883],[13.4841,52.4917],[13.4731,52.499],[13.4686,52.4997],[13.4712,52.5051],[13.4763,52.5104],[13.4754,52.5134],[13.4759,52.5149],[13.4777,52.5147],[13.4765,52.5152],[13.4742,52.5191],[13.4721,52.5207],[13.4627,52.5199],[13.4553,52.5213],[13.456,52.5223],[13.4522,52.5278],[13.4472,52.5264],[13.4423,52.531],[13.4387,52.5287],[13.4375,52.5296],[13.4236,52.5279],[13.4198,52.5255],[13.4265,52.5233],[13.4256,52.5228],[13.4292,52.5212],[13.4285,52.5196],[13.4265,52.5192],[13.4259,52.5184],[13.4268,52.518],[13.4228,52.5122],[13.4294,52.5086],[13.4272,52.5057],[13.4232,52.505],[13.4194,52.5057],[13.4176,52.5042],[13.4149,52.5049],[13.4141,52.504],[13.4115,52.5049],[13.41,52.5069],[13.408,52.5062],[13.4053,52.5082],[13.4044,52.5078],[13.4002,52.5094],[13.3992,52.5081],[13.3789,52.5069],[13.3776,52.508],[13.375,52.5034],[13.3736,52.5042],[13.3695,52.4989],[13.3687,52.4974],[13.3683,52.4933],[13.3764,52.4914],[13.3754,52.4894],[13.3735,52.488],[13.3742,52.4877],[13.374,52.4852],[13.3715,52.485],[13.3862,52.4849],[13.3863,52.4858],[13.3943,52.4858],[13.3943,52.484],[13.4064,52.4828],[13.4069,52.4855],[13.4085,52.4872],[13.4079,52.4889],[13.4237,52.4864],[13.4254,52.4881],[13.4204,52.4959],[13.4393,52.4896],[13.4447,52.4942]]]}},{"type":"Feature","id":"bezirk-berlin-03","properties":{"name":"Pankow","province":"Berlin","department":"Berlin","type":"Bezirk","country":"Alemania","iso":"DE"},"geometry":{"type":"Polygon","coordinates":[[[13.4423,52.531],[13.4472,52.5264],[13.4522,52.5278],[13.456,52.5223],[13.4553,52.5213],[13.4627,52.5199],[13.4721,52.5207],[13.4686,52.5233],[13.4591,52.5258],[13.4562,52.5283],[13.4604,52.5293],[13.4634,52.5326],[13.4687,52.5347],[13.4664,52.5367],[13.4673,52.5385],[13.4698,52.5405],[13.467,52.5481],[13.4796,52.5475],[13.4805,52.5481],[13.4793,52.5493],[13.4797,52.5496],[13.4823,52.5497],[13.486,52.5524],[13.4944,52.5508],[13.4957,52.5541],[13.4948,52.5562],[13.4909,52.5601],[13.4854,52.5616],[13.4861,52.5642],[13.4837,52.5644],[13.4842,52.566],[13.4836,52.5661],[13.4876,52.5692],[13.4826,52.5717],[13.4828,52.5726],[13.4795,52.5727],[13.48,52.5777],[13.4805,52.5777],[13.4797,52.5801],[13.4801,52.5824],[13.4805,52.5835],[13.4836,52.5841],[13.486,52.588],[13.4884,52.5898],[13.5052,52.5965],[13.499,52.6052],[13.4967,52.605],[13.4985,52.6108],[13.5034,52.6191],[13.5054,52.6197],[13.5048,52.6197],[13.5055,52.62],[13.5059,52.6258],[13.5178,52.6296],[13.5224,52.6408],[13.523,52.645],[13.5204,52.6449],[13.5193,52.647],[13.5128,52.6454],[13.5047,52.6496],[13.4908,52.6548],[13.4854,52.6594],[13.4884,52.6708],[13.4758,52.6666],[13.4745,52.6682],[13.4765,52.6714],[13.4801,52.6749],[13.4795,52.6755],[13.4772,52.6739],[13.4755,52.675],[13.4659,52.6671],[13.4595,52.669],[13.4508,52.6627],[13.4539,52.6619],[13.4624,52.6575],[13.4735,52.6565],[13.4743,52.6557],[13.4737,52.6539],[13.4699,52.6519],[13.4657,52.6512],[13.4597,52.6481],[13.4521,52.6487],[13.4521,52.6497],[13.4479,52.65],[13.4408,52.6493],[13.4398,52.6453],[13.434,52.6443],[13.4334,52.6415],[13.4343,52.638],[13.4328,52.6374],[13.4276,52.6375],[13.4244,52.6355],[13.4167,52.6394],[13.4143,52.6412],[13.4147,52.6424],[13.4123,52.6435],[13.4079,52.6427],[13.3979,52.6483],[13.3964,52.6474],[13.3945,52.6475],[13.3919,52.6447],[13.3923,52.6437],[13.3915,52.6436],[13.3922,52.6433],[13.3913,52.6435],[13.3901,52.6424],[13.3904,52.6415],[13.3897,52.6412],[13.3906,52.6399],[13.3896,52.6394],[13.3892,52.6376],[13.385,52.6363],[13.3818,52.6364],[13.3829,52.6352],[13.3794,52.6339],[13.3787,52.6344],[13.3758,52.6316],[13.377,52.6298],[13.3767,52.6289],[13.3758,52.629],[13.3764,52.6284],[13.3708,52.6274],[13.3685,52.6256],[13.3669,52.6258],[13.3743,52.6158],[13.3763,52.6111],[13.3762,52.6077],[13.3708,52.5998],[13.3606,52.5912],[13.3476,52.5901],[13.3752,52.5757],[13.3797,52.5725],[13.383,52.5723],[13.3883,52.5695],[13.3878,52.5691],[13.3893,52.5682],[13.3884,52.5677],[13.3889,52.567],[13.3945,52.5634],[13.3962,52.5612],[13.3971,52.5583],[13.3981,52.5529],[13.3969,52.5507],[13.3989,52.5509],[13.4035,52.5402],[13.4047,52.5402],[13.4075,52.5347],[13.4084,52.5344],[13.4064,52.5324],[13.4056,52.5297],[13.4154,52.5275],[13.4198,52.5255],[13.4236,52.5279],[13.4375,52.5296],[13.4387,52.5287],[13.4423,52.531]]]}},{"type":"Feature","id":"bezirk-berlin-04","properties":{"name":"Charlottenburg-Wilmersdorf","province":"Berlin","department":"Berlin","type":"Bezirk","country":"Alemania","iso":"DE"},"geometry":{"type":"Polygon","coordinates":[[[13.3075,52.4679],[13.3106,52.4669],[13.32,52.467],[13.3204,52.4775],[13.3329,52.4774],[13.3371,52.4781],[13.3373,52.4959],[13.339,52.4994],[13.337,52.5007],[13.3414,52.5049],[13.334,52.5066],[13.3346,52.5088],[13.33,52.5101],[13.334,52.5117],[13.3306,52.5128],[13.3359,52.5133],[13.3361,52.5144],[13.3342,52.5168],[13.332,52.5168],[13.3298,52.5179],[13.3291,52.519],[13.3294,52.5216],[13.3269,52.5237],[13.3239,52.5247],[13.3208,52.5244],[13.319,52.5232],[13.3188,52.5211],[13.3178,52.5204],[13.3167,52.5209],[13.3134,52.5302],[13.3167,52.5309],[13.3175,52.5324],[13.313,52.5319],[13.3114,52.5356],[13.3291,52.5382],[13.3272,52.5397],[13.3273,52.5414],[13.3179,52.5482],[13.2703,52.5493],[13.27,52.5486],[13.2734,52.5429],[13.2723,52.5388],[13.2752,52.5377],[13.2763,52.5356],[13.2823,52.5341],[13.2808,52.5301],[13.2548,52.5271],[13.25,52.5272],[13.2467,52.5283],[13.2475,52.5243],[13.24,52.5261],[13.2274,52.5256],[13.222,52.5262],[13.2194,52.5214],[13.2198,52.5161],[13.221,52.5136],[13.2195,52.514],[13.2185,52.5134],[13.215,52.5095],[13.2156,52.5092],[13.2119,52.5093],[13.2088,52.505],[13.2097,52.5029],[13.1991,52.4999],[13.1952,52.4997],[13.1899,52.4975],[13.1896,52.4929],[13.1866,52.4893],[13.1872,52.4871],[13.1898,52.4843],[13.1902,52.4826],[13.1872,52.4787],[13.1882,52.4718],[13.1966,52.4713],[13.1977,52.4704],[13.1978,52.4694],[13.1991,52.4687],[13.2035,52.4705],[13.2115,52.4694],[13.2315,52.4708],[13.2519,52.4668],[13.2591,52.4665],[13.2616,52.4678],[13.2641,52.467],[13.2809,52.4688],[13.2891,52.4705],[13.3063,52.4674],[13.3075,52.4679]]]}},{"type":"Feature","id":"bezirk-berlin-05","properties":{"name":"Spandau","province":"Berlin","department":"Berlin","type":"Bezirk","country":"Alemania","iso":"DE"},"geometry":{"type":"Polygon","coordinates":[[[13.2157,52.5094],[13.215,52.5095],[13.2164,52.5116],[13.2185,52.5134],[13.2195,52.514],[13.221,52.5136],[13.2198,52.5161],[13.2194,52.5214],[13.222,52.5262],[13.2274,52.5256],[13.24,52.5261],[13.2475,52.5243],[13.2467,52.5283],[13.25,52.5272],[13.2548,52.5271],[13.2808,52.5301],[13.2823,52.5341],[13.2763,52.5356],[13.2752,52.5377],[13.2723,52.5388],[13.2734,52.5429],[13.27,52.5486],[13.2703,52.5493],[13.2575,52.5496],[13.253,52.5504],[13.2307,52.5614],[13.2279,52.5636],[13.2286,52.5662],[13.2253,52.5712],[13.2252,52.5729],[13.2189,52.5772],[13.218,52.5785],[13.218,52.5817],[13.2152,52.5839],[13.2174,52.5875],[13.2073,52.5884],[13.2067,52.5866],[13.2054,52.5868],[13.2003,52.5888],[13.1918,52.5902],[13.1834,52.5937],[13.1679,52.597],[13.1645,52.5988],[13.1571,52.5976],[13.1492,52.5918],[13.1435,52.5897],[13.1384,52.5889],[13.1355,52.5874],[13.129,52.5873],[13.1284,52.586],[13.1294,52.5859],[13.128,52.5831],[13.1303,52.583],[13.1325,52.5796],[13.1392,52.5804],[13.1496,52.5834],[13.1512,52.5822],[13.1532,52.5789],[13.1535,52.5733],[13.1499,52.5668],[13.1475,52.5644],[13.1471,52.5614],[13.1458,52.5606],[13.1473,52.5559],[13.1456,52.5527],[13.1432,52.5521],[13.1363,52.5527],[13.1305,52.556],[13.125,52.5438],[13.1256,52.5435],[13.1233,52.5371],[13.1195,52.5304],[13.1174,52.5171],[13.1432,52.5197],[13.1456,52.5175],[13.1688,52.5092],[13.15,52.4966],[13.1283,52.4798],[13.1263,52.4787],[13.1177,52.4773],[13.1172,52.4733],[13.1138,52.4698],[13.114,52.4686],[13.1119,52.4675],[13.1106,52.4657],[13.1114,52.4637],[13.1105,52.46],[13.1124,52.459],[13.1127,52.4577],[13.1118,52.454],[13.1093,52.4506],[13.1154,52.4457],[13.119,52.444],[13.12,52.4415],[13.1231,52.4396],[13.1241,52.4407],[13.1317,52.4411],[13.1333,52.4421],[13.1485,52.4433],[13.1545,52.4466],[13.1617,52.4521],[13.1708,52.4561],[13.1774,52.4559],[13.1853,52.4626],[13.1866,52.4665],[13.1883,52.474],[13.1872,52.4787],[13.1902,52.4826],[13.1898,52.4843],[13.1872,52.4871],[13.1866,52.4893],[13.1896,52.4929],[13.1899,52.4975],[13.1952,52.4997],[13.1991,52.4999],[13.2097,52.5029],[13.2088,52.505],[13.211,52.5085],[13.2119,52.5093],[13.2157,52.5094]]]}},{"type":"Feature","id":"bezirk-berlin-06","properties":{"name":"Steglitz-Zehlendorf","province":"Berlin","department":"Berlin","type":"Bezirk","country":"Alemania","iso":"DE"},"geometry":{"type":"Polygon","coordinates":[[[13.2691,52.4042],[13.2758,52.4052],[13.2967,52.4163],[13.297,52.415],[13.2959,52.4145],[13.3121,52.3991],[13.3186,52.4024],[13.3432,52.4117],[13.3427,52.4142],[13.3634,52.4215],[13.3679,52.4276],[13.3716,52.4291],[13.3561,52.4556],[13.3542,52.4557],[13.353,52.4571],[13.3491,52.4568],[13.349,52.4588],[13.3476,52.459],[13.345,52.4617],[13.3389,52.4656],[13.3388,52.4666],[13.3362,52.4674],[13.3349,52.4662],[13.3307,52.4652],[13.3294,52.4656],[13.3282,52.4643],[13.321,52.467],[13.3106,52.4669],[13.3091,52.4677],[13.3063,52.4674],[13.2891,52.4705],[13.2809,52.4688],[13.2641,52.467],[13.2616,52.4678],[13.2591,52.4665],[13.2519,52.4668],[13.2315,52.4708],[13.2115,52.4694],[13.2035,52.4705],[13.1991,52.4687],[13.1978,52.4694],[13.1977,52.4704],[13.1966,52.4713],[13.1882,52.4718],[13.1853,52.4626],[13.1774,52.4559],[13.1708,52.4561],[13.1617,52.4521],[13.1545,52.4466],[13.1485,52.4433],[13.1241,52.4407],[13.1222,52.4379],[13.1172,52.4362],[13.1139,52.433],[13.1121,52.4323],[13.1128,52.4292],[13.1054,52.4253],[13.1046,52.424],[13.0993,52.4253],[13.0958,52.422],[13.0884,52.4196],[13.0908,52.4116],[13.0974,52.4094],[13.099,52.4109],[13.0964,52.4131],[13.1009,52.4138],[13.101,52.4105],[13.1059,52.4095],[13.1071,52.41],[13.1071,52.4132],[13.1096,52.4129],[13.1101,52.4113],[13.1115,52.4114],[13.1118,52.4105],[13.1104,52.4104],[13.1106,52.4094],[13.1069,52.4095],[13.1064,52.4087],[13.1094,52.4081],[13.1083,52.4073],[13.1118,52.404],[13.1178,52.4021],[13.1248,52.3969],[13.1274,52.3966],[13.1335,52.3994],[13.1381,52.3979],[13.1351,52.3974],[13.1357,52.3962],[13.1389,52.396],[13.1301,52.3905],[13.1311,52.3918],[13.1273,52.3916],[13.1267,52.3896],[13.1313,52.3872],[13.1332,52.3873],[13.134,52.3887],[13.1304,52.3904],[13.1347,52.3935],[13.1418,52.3971],[13.1432,52.3972],[13.1439,52.3961],[13.1457,52.3955],[13.1588,52.3939],[13.1688,52.3944],[13.1717,52.3956],[13.1712,52.3978],[13.1578,52.3963],[13.1594,52.3999],[13.1592,52.4028],[13.1972,52.4155],[13.2096,52.4167],[13.2251,52.4211],[13.2331,52.4204],[13.246,52.4212],[13.2491,52.4117],[13.2488,52.4084],[13.2498,52.405],[13.2577,52.4064],[13.2691,52.4042]]]}},{"type":"Feature","id":"bezirk-berlin-07","properties":{"name":"Tempelhof-Schöneberg","province":"Berlin","department":"Berlin","type":"Bezirk","country":"Alemania","iso":"DE"},"geometry":{"type":"Polygon","coordinates":[[[13.418,52.3762],[13.4208,52.3761],[13.4275,52.3858],[13.4184,52.4071],[13.4188,52.41],[13.4197,52.4105],[13.4107,52.4133],[13.4025,52.4127],[13.3995,52.418],[13.4048,52.42],[13.4055,52.4218],[13.4026,52.4222],[13.4061,52.4271],[13.4168,52.4522],[13.4177,52.4522],[13.4212,52.4568],[13.4265,52.4567],[13.4206,52.4593],[13.4214,52.4606],[13.4232,52.4604],[13.423,52.4613],[13.422,52.4615],[13.4216,52.4658],[13.4169,52.4654],[13.4135,52.4787],[13.4109,52.4777],[13.4066,52.4782],[13.4064,52.4828],[13.3943,52.484],[13.3943,52.4858],[13.3863,52.4858],[13.3862,52.4849],[13.3715,52.485],[13.374,52.4852],[13.3742,52.4877],[13.3735,52.488],[13.3754,52.4894],[13.3764,52.4914],[13.3683,52.4933],[13.3687,52.4974],[13.3697,52.4988],[13.3625,52.4997],[13.3415,52.505],[13.337,52.5007],[13.339,52.4994],[13.3373,52.4959],[13.3371,52.4781],[13.3329,52.4774],[13.3204,52.4775],[13.32,52.467],[13.3282,52.4643],[13.3294,52.4656],[13.3307,52.4652],[13.3349,52.4662],[13.3362,52.4674],[13.3388,52.4666],[13.3389,52.4656],[13.345,52.4617],[13.3476,52.459],[13.349,52.4588],[13.3491,52.4568],[13.353,52.4571],[13.3542,52.4557],[13.3561,52.4556],[13.3716,52.4291],[13.3679,52.4276],[13.3634,52.4215],[13.3427,52.4142],[13.343,52.4077],[13.3594,52.3985],[13.372,52.3938],[13.3704,52.3884],[13.3873,52.3886],[13.3884,52.3779],[13.418,52.3762]]]}},{"type":"Feature","id":"bezirk-berlin-08","properties":{"name":"Neukölln","province":"Berlin","department":"Berlin","type":"Bezirk","country":"Alemania","iso":"DE"},"geometry":{"type":"Polygon","coordinates":[[[13.4609,52.4208],[13.4635,52.4211],[13.468,52.42],[13.4776,52.4033],[13.4798,52.3959],[13.516,52.4018],[13.517,52.4028],[13.5166,52.4033],[13.5218,52.4074],[13.5241,52.4136],[13.5223,52.4144],[13.523,52.4155],[13.5221,52.4184],[13.5184,52.4229],[13.5205,52.4265],[13.5122,52.4275],[13.5065,52.4293],[13.4662,52.4488],[13.4627,52.4512],[13.457,52.4592],[13.475,52.4588],[13.4758,52.4609],[13.4785,52.464],[13.4785,52.4649],[13.4699,52.4731],[13.4706,52.4769],[13.4581,52.4858],[13.4561,52.4843],[13.4468,52.489],[13.4444,52.4875],[13.4397,52.4899],[13.4204,52.4959],[13.4254,52.4881],[13.4237,52.4864],[13.4077,52.4888],[13.4085,52.4872],[13.4068,52.4853],[13.4061,52.481],[13.4066,52.4782],[13.4109,52.4777],[13.4135,52.4787],[13.4169,52.4654],[13.4216,52.4658],[13.422,52.4615],[13.423,52.4613],[13.4232,52.4604],[13.4214,52.4606],[13.4206,52.4593],[13.4265,52.4567],[13.4212,52.4568],[13.4177,52.4522],[13.4168,52.4522],[13.4061,52.4271],[13.4026,52.4222],[13.4055,52.4218],[13.4048,52.42],[13.3995,52.418],[13.4025,52.4127],[13.4107,52.4133],[13.4196,52.4102],[13.4208,52.4103],[13.4319,52.4125],[13.4609,52.4208]]]}},{"type":"Feature","id":"bezirk-berlin-09","properties":{"name":"Treptow-Köpenick","province":"Berlin","department":"Berlin","type":"Bezirk","country":"Alemania","iso":"DE"},"geometry":{"type":"Polygon","coordinates":[[[13.6575,52.3519],[13.662,52.3542],[13.663,52.3569],[13.6642,52.3578],[13.6662,52.3581],[13.6657,52.3596],[13.6667,52.3624],[13.6712,52.3665],[13.6792,52.3694],[13.6821,52.3696],[13.6872,52.3673],[13.69,52.3679],[13.6922,52.3672],[13.6913,52.3678],[13.6931,52.368],[13.6928,52.3691],[13.6987,52.3742],[13.7006,52.3772],[13.6972,52.3774],[13.6988,52.3815],[13.6952,52.381],[13.6897,52.3832],[13.6879,52.3829],[13.6862,52.3839],[13.6868,52.3853],[13.6876,52.3852],[13.688,52.3861],[13.6893,52.3852],[13.6909,52.3856],[13.6975,52.3899],[13.6983,52.3917],[13.699,52.3919],[13.6988,52.3906],[13.7002,52.3911],[13.7019,52.393],[13.7086,52.3953],[13.7158,52.3997],[13.7228,52.3982],[13.7275,52.4002],[13.7311,52.4],[13.7343,52.4021],[13.7354,52.406],[13.7387,52.4072],[13.7369,52.4097],[13.7341,52.4108],[13.7298,52.4164],[13.7314,52.4192],[13.731,52.4205],[13.7377,52.4267],[13.7413,52.4268],[13.7417,52.4282],[13.7389,52.4289],[13.7401,52.4325],[13.7301,52.4339],[13.7228,52.4371],[13.7313,52.4338],[13.7429,52.4329],[13.7441,52.4381],[13.7505,52.4415],[13.7563,52.4416],[13.7545,52.4367],[13.76,52.4362],[13.7609,52.4379],[13.7553,52.4384],[13.7571,52.443],[13.7544,52.4433],[13.7564,52.4462],[13.7554,52.446],[13.7533,52.4477],[13.7492,52.4487],[13.7291,52.4508],[13.7206,52.4568],[13.716,52.4629],[13.7114,52.4633],[13.7013,52.4682],[13.6991,52.4683],[13.7021,52.4644],[13.7034,52.4601],[13.7053,52.4599],[13.7053,52.4556],[13.7046,52.4548],[13.6983,52.4552],[13.6987,52.4565],[13.6976,52.4604],[13.6954,52.4642],[13.6828,52.4661],[13.6787,52.4692],[13.6672,52.4743],[13.6626,52.4738],[13.6483,52.4787],[13.6432,52.4792],[13.6282,52.4735],[13.6254,52.4737],[13.6247,52.469],[13.6252,52.4687],[13.6229,52.4688],[13.6234,52.4667],[13.6228,52.4665],[13.6214,52.4666],[13.622,52.468],[13.621,52.4685],[13.6212,52.4705],[13.6171,52.4712],[13.6151,52.4697],[13.6082,52.4711],[13.6084,52.4729],[13.6031,52.4728],[13.5863,52.4811],[13.5819,52.48],[13.5797,52.481],[13.5751,52.4795],[13.5739,52.4765],[13.5656,52.4736],[13.548,52.4739],[13.5485,52.4733],[13.5421,52.474],[13.5399,52.475],[13.5308,52.4679],[13.5217,52.4751],[13.5205,52.474],[13.5147,52.4757],[13.5079,52.4749],[13.5043,52.4781],[13.5019,52.4826],[13.4942,52.4831],[13.4927,52.4858],[13.4899,52.4876],[13.4867,52.4876],[13.483,52.486],[13.4817,52.4876],[13.4794,52.4879],[13.4786,52.487],[13.4777,52.4888],[13.4754,52.4903],[13.4642,52.4937],[13.4632,52.4942],[13.4639,52.4951],[13.4595,52.4965],[13.4515,52.4973],[13.4478,52.4948],[13.4445,52.4941],[13.4397,52.4904],[13.4444,52.4875],[13.4468,52.489],[13.4561,52.4843],[13.4583,52.4857],[13.4706,52.4769],[13.4699,52.4731],[13.4784,52.4651],[13.4785,52.464],[13.4758,52.4609],[13.475,52.4588],[13.457,52.4592],[13.4637,52.4504],[13.5065,52.4293],[13.5122,52.4275],[13.5204,52.4266],[13.5184,52.4229],[13.5221,52.4184],[13.523,52.4155],[13.5223,52.4144],[13.5241,52.4136],[13.5218,52.4074],[13.5166,52.4033],[13.517,52.4028],[13.516,52.4018],[13.5218,52.4006],[13.5297,52.3973],[13.5384,52.4006],[13.5372,52.398],[13.5363,52.3978],[13.5367,52.3972],[13.5352,52.3935],[13.5348,52.3908],[13.5355,52.389],[13.5642,52.3881],[13.5927,52.3938],[13.5942,52.3924],[13.5937,52.39],[13.5952,52.3887],[13.595,52.3872],[13.5961,52.386],[13.5994,52.3854],[13.6064,52.3792],[13.6055,52.378],[13.6068,52.376],[13.6058,52.3736],[13.6285,52.3814],[13.6332,52.3762],[13.6427,52.3775],[13.6428,52.3726],[13.6421,52.3708],[13.6468,52.3702],[13.6472,52.367],[13.6461,52.3653],[13.6411,52.3631],[13.6391,52.361],[13.6381,52.3571],[13.6378,52.3482],[13.6367,52.3481],[13.6363,52.3468],[13.6371,52.3448],[13.6428,52.3399],[13.6445,52.3399],[13.6455,52.3388],[13.6477,52.3382],[13.6517,52.3395],[13.6511,52.3426],[13.6561,52.3478],[13.6575,52.3519]]]}},{"type":"Feature","id":"bezirk-berlin-10","properties":{"name":"Marzahn-Hellersdorf","province":"Berlin","department":"Berlin","type":"Bezirk","country":"Alemania","iso":"DE"},"geometry":{"type":"Polygon","coordinates":[[[13.5866,52.481],[13.6031,52.4728],[13.6084,52.4729],[13.6082,52.4711],[13.6113,52.4705],[13.6165,52.4748],[13.6135,52.4756],[13.6149,52.4807],[13.6297,52.493],[13.624,52.4942],[13.6263,52.4981],[13.6294,52.5066],[13.6329,52.5114],[13.6357,52.5141],[13.6425,52.5186],[13.6585,52.526],[13.6569,52.5298],[13.6257,52.5302],[13.6248,52.5336],[13.6257,52.534],[13.6248,52.5381],[13.6339,52.5377],[13.6377,52.5409],[13.6374,52.5423],[13.6188,52.5442],[13.5864,52.5498],[13.5878,52.5534],[13.5876,52.5556],[13.5844,52.5598],[13.583,52.5685],[13.5815,52.5711],[13.5779,52.5711],[13.577,52.5729],[13.575,52.5738],[13.5686,52.5731],[13.5677,52.5745],[13.5665,52.5729],[13.5643,52.5722],[13.5456,52.5678],[13.5412,52.566],[13.5339,52.5604],[13.5253,52.5553],[13.5323,52.5393],[13.523,52.5363],[13.5167,52.5357],[13.5187,52.5326],[13.5194,52.5242],[13.5185,52.5139],[13.534,52.5136],[13.5373,52.5121],[13.5379,52.5099],[13.5362,52.51],[13.5363,52.5064],[13.5352,52.5055],[13.5395,52.4985],[13.5421,52.4982],[13.5441,52.4962],[13.5448,52.4932],[13.5502,52.4853],[13.5479,52.4825],[13.5479,52.4798],[13.5509,52.477],[13.5521,52.4737],[13.5666,52.4737],[13.5739,52.4765],[13.5751,52.4795],[13.5797,52.481],[13.5819,52.48],[13.5866,52.481]]]}},{"type":"Feature","id":"bezirk-berlin-11","properties":{"name":"Lichtenberg","province":"Berlin","department":"Berlin","type":"Bezirk","country":"Alemania","iso":"DE"},"geometry":{"type":"Polygon","coordinates":[[[13.5019,52.4826],[13.5043,52.4781],[13.5079,52.4749],[13.5147,52.4757],[13.5205,52.474],[13.5217,52.4751],[13.5308,52.4679],[13.5399,52.475],[13.5448,52.4737],[13.5526,52.4736],[13.5509,52.477],[13.5479,52.4798],[13.5479,52.4825],[13.5502,52.4853],[13.5448,52.4932],[13.5441,52.4962],[13.5421,52.4982],[13.5395,52.4985],[13.5352,52.5055],[13.5363,52.5064],[13.5362,52.51],[13.5379,52.5099],[13.5373,52.5121],[13.534,52.5136],[13.5185,52.5139],[13.5194,52.5242],[13.5187,52.5326],[13.5167,52.5357],[13.523,52.5363],[13.5323,52.5393],[13.5253,52.5553],[13.5339,52.5604],[13.5412,52.566],[13.5456,52.5678],[13.5665,52.5729],[13.5677,52.5745],[13.5645,52.5782],[13.5555,52.5842],[13.5472,52.588],[13.5276,52.5922],[13.5229,52.5927],[13.5082,52.5922],[13.5052,52.5965],[13.4884,52.5898],[13.486,52.588],[13.4836,52.5841],[13.4805,52.5835],[13.4797,52.5801],[13.4805,52.5777],[13.48,52.5777],[13.4795,52.5727],[13.4828,52.5726],[13.4826,52.5717],[13.4876,52.5692],[13.4836,52.5661],[13.4842,52.566],[13.4837,52.5644],[13.4861,52.5642],[13.4854,52.5616],[13.4917,52.5594],[13.4952,52.5557],[13.4955,52.5531],[13.4944,52.5508],[13.486,52.5524],[13.4823,52.5497],[13.4797,52.5496],[13.4793,52.5493],[13.4805,52.5481],[13.4796,52.5475],[13.4674,52.5483],[13.4698,52.5405],[13.4673,52.5385],[13.4664,52.5367],[13.4687,52.5347],[13.4634,52.5326],[13.4604,52.5293],[13.4562,52.5283],[13.4598,52.5254],[13.4698,52.5227],[13.4742,52.5191],[13.4765,52.5152],[13.4777,52.5147],[13.4759,52.5149],[13.4754,52.5134],[13.4763,52.5104],[13.4712,52.5051],[13.4686,52.4997],[13.4731,52.499],[13.4841,52.4917],[13.4915,52.4883],[13.4907,52.4874],[13.4927,52.4858],[13.4942,52.4831],[13.5019,52.4826]]]}},{"type":"Feature","id":"bezirk-berlin-12","properties":{"name":"Reinickendorf","province":"Berlin","department":"Berlin","type":"Bezirk","country":"Alemania","iso":"DE"},"geometry":{"type":"Polygon","coordinates":[[[13.3215,52.5603],[13.3254,52.561],[13.3268,52.5624],[13.3318,52.5617],[13.3371,52.5644],[13.3491,52.5619],[13.3597,52.5619],[13.3601,52.5605],[13.3646,52.5612],[13.3651,52.5581],[13.3667,52.5582],[13.3709,52.5605],[13.3771,52.5607],[13.3786,52.5661],[13.3846,52.5677],[13.3879,52.5673],[13.3893,52.5682],[13.383,52.5723],[13.3797,52.5725],[13.3752,52.5757],[13.3476,52.5901],[13.3606,52.5912],[13.3705,52.5994],[13.3762,52.6077],[13.3756,52.6134],[13.3671,52.6254],[13.3637,52.6251],[13.3577,52.623],[13.3547,52.6236],[13.3515,52.6227],[13.3511,52.6239],[13.3387,52.6233],[13.3367,52.6227],[13.3293,52.6253],[13.313,52.6282],[13.3026,52.6272],[13.3103,52.63],[13.3097,52.6301],[13.3097,52.6322],[13.3058,52.6373],[13.307,52.6375],[13.3063,52.6396],[13.3082,52.6402],[13.3092,52.6438],[13.3084,52.6438],[13.3004,52.6534],[13.31,52.6574],[13.3071,52.6596],[13.2936,52.6593],[13.2828,52.6607],[13.2819,52.6527],[13.2851,52.6526],[13.2838,52.6411],[13.2696,52.6397],[13.2622,52.6407],[13.2624,52.6391],[13.2652,52.6345],[13.2643,52.6268],[13.2603,52.6277],[13.2461,52.6273],[13.2424,52.6283],[13.2304,52.6274],[13.2251,52.6284],[13.2205,52.6283],[13.2197,52.6244],[13.2167,52.6201],[13.2148,52.6193],[13.2069,52.6091],[13.2016,52.6065],[13.2023,52.6042],[13.2084,52.5988],[13.2188,52.5924],[13.2192,52.5914],[13.2152,52.5839],[13.218,52.5817],[13.218,52.5785],[13.2189,52.5772],[13.2252,52.5729],[13.2253,52.5712],[13.2286,52.5662],[13.2281,52.5634],[13.233,52.5601],[13.2517,52.5509],[13.2587,52.5495],[13.3015,52.5488],[13.3097,52.5577],[13.3215,52.5603]]]}}]}