{"type":"FeatureCollection","features":[{"type":"Feature","id":"stadtteil-bern-1","properties":{"name":"Innere Stadt","province":"Bern","department":"Kanton Bern","type":"Stadtteil","country":"Suiza","iso":"CH"},"geometry":{"type":"MultiPolygon","coordinates":[[[[7.4386,46.9484],[7.4379,46.9504],[7.44,46.951],[7.4407,46.9524],[7.4441,46.9542],[7.4463,46.9527],[7.4498,46.9514],[7.4581,46.9515],[7.4595,46.9502],[7.4592,46.9483],[7.4553,46.9467],[7.4457,46.9476],[7.4423,46.9472],[7.4414,46.946],[7.4403,46.9474],[7.4382,46.9469],[7.4386,46.9484]]]]}},{"type":"Feature","id":"stadtteil-bern-2","properties":{"name":"Länggasse-Felsenau","province":"Bern","department":"Kanton Bern","type":"Stadtteil","country":"Suiza","iso":"CH"},"geometry":{"type":"MultiPolygon","coordinates":[[[[7.3897,46.9602],[7.385,46.9645],[7.3871,46.9662],[7.3857,46.9677],[7.3947,46.9683],[7.401,46.9705],[7.4092,46.97],[7.4169,46.9724],[7.4223,46.9729],[7.4291,46.9751],[7.4337,46.974],[7.4363,46.9698],[7.4388,46.9698],[7.4403,46.9714],[7.4405,46.9758],[7.4422,46.9781],[7.4442,46.9781],[7.4466,46.9761],[7.4493,46.977],[7.45,46.9783],[7.4496,46.9796],[7.4487,46.9803],[7.445,46.9794],[7.4425,46.9804],[7.4422,46.9811],[7.4476,46.9857],[7.4494,46.9906],[7.4516,46.9915],[7.4532,46.991],[7.4537,46.9849],[7.456,46.9788],[7.4664,46.9775],[7.468,46.9768],[7.4674,46.9754],[7.4622,46.9716],[7.4588,46.9712],[7.4534,46.9726],[7.4503,46.9718],[7.4489,46.9708],[7.4447,46.9653],[7.4421,46.9582],[7.4423,46.9562],[7.4441,46.9542],[7.4407,46.9524],[7.44,46.951],[7.4379,46.9504],[7.4383,46.9495],[7.4344,46.9488],[7.4314,46.949],[7.4209,46.9541],[7.4154,46.9519],[7.4101,46.9508],[7.4014,46.951],[7.3965,46.9538],[7.3932,46.9529],[7.3916,46.9546],[7.391,46.958],[7.3897,46.9602]]]]}},{"type":"Feature","id":"stadtteil-bern-3","properties":{"name":"Mattenhof-Weissenbühl","province":"Bern","department":"Kanton Bern","type":"Stadtteil","country":"Suiza","iso":"CH"},"geometry":{"type":"MultiPolygon","coordinates":[[[[7.4386,46.9484],[7.4382,46.9469],[7.4403,46.9474],[7.4414,46.946],[7.4423,46.9472],[7.4489,46.9475],[7.4491,46.9471],[7.4468,46.9459],[7.4455,46.9377],[7.4462,46.9363],[7.4483,46.9349],[7.4534,46.9343],[7.4529,46.9334],[7.4498,46.9332],[7.4486,46.9318],[7.438,46.9361],[7.4364,46.9363],[7.4348,46.9344],[7.4386,46.9321],[7.433,46.9327],[7.4259,46.936],[7.4253,46.9351],[7.4227,46.9359],[7.4222,46.9355],[7.4186,46.9377],[7.4156,46.9381],[7.4144,46.9339],[7.4148,46.9329],[7.408,46.9317],[7.4082,46.9278],[7.409,46.9269],[7.4031,46.9255],[7.4018,46.9241],[7.4024,46.9225],[7.397,46.9267],[7.3943,46.9277],[7.3885,46.9318],[7.3902,46.9327],[7.3929,46.933],[7.3925,46.9337],[7.3961,46.9349],[7.3994,46.9382],[7.4039,46.94],[7.4037,46.9404],[7.4063,46.9418],[7.4074,46.9432],[7.4054,46.9433],[7.4047,46.9441],[7.4082,46.9468],[7.4082,46.9476],[7.4075,46.9477],[7.4074,46.9489],[7.408,46.9489],[7.4078,46.9508],[7.4152,46.9518],[7.4209,46.9541],[7.4314,46.949],[7.4344,46.9488],[7.4383,46.9495],[7.4386,46.9484]]]]}},{"type":"Feature","id":"stadtteil-bern-4","properties":{"name":"Kirchenfeld-Schosshalde","province":"Bern","department":"Kanton Bern","type":"Stadtteil","country":"Suiza","iso":"CH"},"geometry":{"type":"MultiPolygon","coordinates":[[[[7.4912,46.9394],[7.4905,46.9382],[7.4867,46.9385],[7.4869,46.938],[7.4801,46.9388],[7.4776,46.9383],[7.4791,46.9376],[7.4757,46.9352],[7.4763,46.9343],[7.4747,46.934],[7.4749,46.9332],[7.4701,46.9306],[7.4722,46.9271],[7.4717,46.9268],[7.4634,46.9325],[7.461,46.9357],[7.4579,46.9361],[7.4526,46.9342],[7.4491,46.9347],[7.4462,46.9363],[7.4453,46.9388],[7.4474,46.9466],[7.4493,46.9471],[7.456,46.9468],[7.4592,46.9483],[7.4594,46.9507],[7.4602,46.9508],[7.4605,46.9498],[7.4614,46.9499],[7.4598,46.9539],[7.472,46.9699],[7.4747,46.9708],[7.4777,46.971],[7.4791,46.9725],[7.4816,46.9729],[7.4849,46.9721],[7.4862,46.9693],[7.4871,46.9692],[7.4866,46.9681],[7.4873,46.9678],[7.4865,46.9665],[7.4868,46.966],[7.4794,46.9642],[7.4812,46.962],[7.4804,46.9617],[7.4799,46.9601],[7.4807,46.9579],[7.4795,46.957],[7.4779,46.9568],[7.4779,46.9561],[7.4782,46.9554],[7.482,46.9539],[7.485,46.9513],[7.4843,46.949],[7.4849,46.9489],[7.4844,46.9465],[7.4859,46.9459],[7.4862,46.9464],[7.4892,46.945],[7.4917,46.9432],[7.4924,46.9439],[7.4965,46.9409],[7.4945,46.939],[7.4918,46.9401],[7.4912,46.9394]]]]}},{"type":"Feature","id":"stadtteil-bern-5","properties":{"name":"Breitenrain-Lorraine","province":"Bern","department":"Kanton Bern","type":"Stadtteil","country":"Suiza","iso":"CH"},"geometry":{"type":"MultiPolygon","coordinates":[[[[7.4604,46.9502],[7.4603,46.9507],[7.4581,46.9515],[7.4513,46.9512],[7.447,46.9523],[7.443,46.9551],[7.442,46.9568],[7.4421,46.9582],[7.4447,46.9653],[7.4494,46.9713],[7.4534,46.9726],[7.4606,46.9712],[7.4642,46.9727],[7.4674,46.9754],[7.468,46.9768],[7.469,46.9772],[7.4717,46.9713],[7.4712,46.9687],[7.4599,46.954],[7.4615,46.9502],[7.4611,46.9497],[7.4604,46.9502]]]]}},{"type":"Feature","id":"stadtteil-bern-6","properties":{"name":"Bümpliz-Oberbottigen","province":"Bern","department":"Kanton Bern","type":"Stadtteil","country":"Suiza","iso":"CH"},"geometry":{"type":"MultiPolygon","coordinates":[[[[7.3897,46.9602],[7.391,46.958],[7.3916,46.9546],[7.3932,46.9529],[7.3965,46.9538],[7.4014,46.951],[7.4078,46.9506],[7.408,46.9489],[7.4074,46.9489],[7.4075,46.9477],[7.4082,46.9476],[7.4082,46.9468],[7.4047,46.9441],[7.4054,46.9433],[7.4074,46.9432],[7.4052,46.941],[7.3994,46.9382],[7.3964,46.9351],[7.3925,46.9337],[7.3929,46.933],[7.3893,46.9323],[7.3833,46.9286],[7.381,46.9312],[7.3817,46.9317],[7.3818,46.9337],[7.3792,46.9339],[7.3789,46.933],[7.3758,46.9328],[7.3758,46.934],[7.3709,46.9331],[7.369,46.9337],[7.3684,46.9331],[7.3692,46.9317],[7.3662,46.9305],[7.3613,46.9299],[7.3615,46.9285],[7.3549,46.9281],[7.3549,46.9273],[7.3489,46.9266],[7.3397,46.9259],[7.3403,46.921],[7.3284,46.9204],[7.3279,46.9249],[7.3253,46.9265],[7.3207,46.9265],[7.3152,46.9246],[7.3092,46.9236],[7.2959,46.9242],[7.2952,46.925],[7.2992,46.9288],[7.3027,46.9298],[7.3071,46.9323],[7.307,46.9334],[7.3062,46.9343],[7.3069,46.9345],[7.3054,46.9368],[7.3055,46.9396],[7.3073,46.9405],[7.3078,46.9417],[7.3098,46.9425],[7.3159,46.9438],[7.3256,46.9446],[7.3271,46.9465],[7.3294,46.9477],[7.3423,46.9474],[7.3424,46.9485],[7.3448,46.9487],[7.3444,46.9501],[7.3476,46.9508],[7.3478,46.9494],[7.3483,46.9496],[7.3486,46.949],[7.3523,46.9499],[7.3515,46.9515],[7.3534,46.9519],[7.354,46.9532],[7.3591,46.9525],[7.3591,46.953],[7.3694,46.9579],[7.3714,46.9603],[7.3708,46.9606],[7.3724,46.9621],[7.376,46.9612],[7.3795,46.9628],[7.3816,46.9668],[7.3842,46.9676],[7.3857,46.9677],[7.3871,46.9664],[7.385,46.9645],[7.3897,46.9602]]]]}}]}