{"type":"FeatureCollection","features":[{"type":"Feature","id":"3","properties":{"name":"Santa Fe","province":"Bogota","department":"Distrito Capital","type":"Localidad","country":"Colombia","iso":"CO"},"geometry":{"type":"Polygon","coordinates":[[[-74.0686,4.6279],[-74.0684,4.6288],[-74.0652,4.6251],[-74.0624,4.6253],[-74.0494,4.6216],[-74.0475,4.6162],[-74.0436,4.6126],[-74.0397,4.613],[-74.0359,4.6175],[-74.0349,4.6166],[-74.0315,4.6171],[-74.0324,4.6155],[-74.0281,4.6179],[-74.0216,4.6138],[-74.0179,4.6145],[-74.0132,4.6186],[-74.0078,4.6156],[-74.0037,4.6165],[-73.9945,4.6142],[-73.9945,4.6096],[-73.9966,4.6063],[-73.9939,4.6024],[-73.9937,4.6005],[-73.995,4.5974],[-73.9992,4.5926],[-74.0011,4.5917],[-74.0028,4.5922],[-74.0016,4.5892],[-74.0037,4.5871],[-74.0046,4.5809],[-74.0061,4.5786],[-74.0044,4.5738],[-74.0054,4.5678],[-74.0068,4.5655],[-74.0066,4.5595],[-74.0181,4.5603],[-74.021,4.5593],[-74.0224,4.5562],[-74.024,4.5558],[-74.0277,4.5583],[-74.029,4.5583],[-74.0293,4.562],[-74.031,4.5634],[-74.0325,4.5675],[-74.0317,4.5706],[-74.0337,4.5725],[-74.0361,4.5712],[-74.037,4.5722],[-74.0436,4.5719],[-74.0465,4.5735],[-74.0489,4.5735],[-74.0539,4.5757],[-74.0564,4.578],[-74.0607,4.5793],[-74.0662,4.5836],[-74.0676,4.5822],[-74.0669,4.5813],[-74.0694,4.5794],[-74.07,4.577],[-74.0705,4.5778],[-74.0716,4.5765],[-74.0721,4.5777],[-74.074,4.5763],[-74.0755,4.5773],[-74.0754,4.5786],[-74.0772,4.5795],[-74.0808,4.5858],[-74.089,4.5918],[-74.0761,4.6091],[-74.0699,4.6211],[-74.0686,4.6279]],[[-74.0662,4.6032],[-74.0686,4.6011],[-74.0711,4.6006],[-74.0767,4.6021],[-74.0814,4.5946],[-74.0806,4.5917],[-74.0728,4.589],[-74.0706,4.5915],[-74.0683,4.5899],[-74.0683,4.5936],[-74.0664,4.5973],[-74.0647,4.5974],[-74.065,4.5991],[-74.0593,4.6014],[-74.0623,4.6033],[-74.0662,4.6032]]]}},{"type":"Feature","id":"16","properties":{"name":"Puente Aranda","province":"Bogota","department":"Distrito Capital","type":"Localidad","country":"Colombia","iso":"CO"},"geometry":{"type":"Polygon","coordinates":[[[-74.1183,4.6374],[-74.1104,4.6451],[-74.0915,4.6257],[-74.0832,4.6247],[-74.0991,4.605],[-74.1071,4.5982],[-74.1221,4.5936],[-74.1308,4.5934],[-74.1378,4.5949],[-74.1293,4.6089],[-74.1245,4.6239],[-74.1183,4.6374]]]}},{"type":"Feature","id":"19","properties":{"name":"Ciudad Bolivar","province":"Bogota","department":"Distrito Capital","type":"Localidad","country":"Colombia","iso":"CO"},"geometry":{"type":"Polygon","coordinates":[[[-74.1522,4.5998],[-74.1497,4.5957],[-74.1518,4.5964],[-74.1542,4.5929],[-74.1533,4.5922],[-74.1521,4.593],[-74.1514,4.5914],[-74.1543,4.5913],[-74.1565,4.59],[-74.157,4.5887],[-74.1533,4.5879],[-74.1531,4.5864],[-74.1518,4.5874],[-74.1526,4.5887],[-74.1514,4.589],[-74.1505,4.588],[-74.1522,4.5854],[-74.1506,4.5845],[-74.1511,4.5826],[-74.1484,4.5833],[-74.1472,4.5819],[-74.1493,4.5815],[-74.15,4.5783],[-74.1487,4.5765],[-74.1484,4.5781],[-74.1471,4.5765],[-74.1474,4.5737],[-74.1465,4.5748],[-74.1448,4.573],[-74.1426,4.5773],[-74.141,4.5761],[-74.1432,4.5726],[-74.1418,4.5717],[-74.1419,4.5706],[-74.1405,4.5705],[-74.1405,4.5693],[-74.1417,4.5688],[-74.1405,4.5683],[-74.1404,4.565],[-74.1339,4.5607],[-74.134,4.5575],[-74.1353,4.5571],[-74.1332,4.5562],[-74.1339,4.5552],[-74.132,4.5526],[-74.1322,4.5499],[-74.1271,4.5496],[-74.1254,4.5475],[-74.1263,4.5461],[-74.1269,4.5472],[-74.13,4.5462],[-74.1249,4.5442],[-74.125,4.5394],[-74.1231,4.5323],[-74.1232,4.5275],[-74.1248,4.5276],[-74.1255,4.526],[-74.129,4.5244],[-74.1256,4.5202],[-74.1258,4.5156],[-74.1273,4.5107],[-74.1267,4.5062],[-74.1285,4.5046],[-74.1268,4.5013],[-74.1256,4.5018],[-74.1227,4.4997],[-74.1213,4.493],[-74.1231,4.4915],[-74.1204,4.4909],[-74.1217,4.4882],[-74.1218,4.4842],[-74.1245,4.4791],[-74.127,4.4776],[-74.1284,4.4753],[-74.1303,4.4764],[-74.1368,4.4662],[-74.1383,4.4658],[-74.1376,4.4638],[-74.1395,4.458],[-74.1442,4.4483],[-74.1445,4.4441],[-74.1426,4.434],[-74.1439,4.433],[-74.1434,4.4308],[-74.1448,4.4217],[-74.1437,4.42],[-74.1447,4.4188],[-74.145,4.4151],[-74.1433,4.4083],[-74.1443,4.4026],[-74.1429,4.3952],[-74.1411,4.3921],[-74.1424,4.3905],[-74.1427,4.3878],[-74.1461,4.388],[-74.1476,4.3869],[-74.1493,4.3878],[-74.1512,4.3872],[-74.1586,4.3902],[-74.1608,4.3892],[-74.1627,4.3896],[-74.1678,4.3852],[-74.1773,4.3886],[-74.1802,4.3839],[-74.1815,4.3837],[-74.1843,4.385],[-74.1951,4.3871],[-74.203,4.3861],[-74.2109,4.3869],[-74.213,4.3962],[-74.2104,4.3991],[-74.2078,4.4053],[-74.2082,4.4079],[-74.2041,4.4144],[-74.2034,4.4194],[-74.2006,4.422],[-74.1988,4.4264],[-74.1942,4.4268],[-74.1947,4.4348],[-74.1909,4.4427],[-74.1905,4.4472],[-74.1874,4.4501],[-74.1862,4.4527],[-74.1869,4.4545],[-74.1865,4.4585],[-74.1831,4.4668],[-74.1836,4.4729],[-74.1822,4.4757],[-74.1826,4.48],[-74.178,4.4864],[-74.1793,4.4903],[-74.1788,4.4965],[-74.1815,4.5041],[-74.1734,4.5078],[-74.1762,4.5125],[-74.1792,4.513],[-74.1815,4.5122],[-74.1822,4.513],[-74.1837,4.5215],[-74.1832,4.5275],[-74.1881,4.5328],[-74.184,4.5357],[-74.1774,4.5374],[-74.1732,4.5411],[-74.1741,4.5437],[-74.1764,4.5458],[-74.1741,4.549],[-74.1738,4.5516],[-74.174,4.5526],[-74.1771,4.5539],[-74.1764,4.5605],[-74.1778,4.5638],[-74.1785,4.5702],[-74.1754,4.5718],[-74.175,4.575],[-74.1777,4.5776],[-74.1796,4.5776],[-74.1809,4.5879],[-74.1838,4.5964],[-74.1787,4.597],[-74.1633,4.5957],[-74.1522,4.5998]]]}},{"type":"Feature","id":"12","properties":{"name":"Barrios Unidos","province":"Bogota","department":"Distrito Capital","type":"Localidad","country":"Colombia","iso":"CO"},"geometry":{"type":"Polygon","coordinates":[[[-74.0572,4.6868],[-74.0625,4.6557],[-74.0646,4.6496],[-74.0822,4.6528],[-74.0848,4.6542],[-74.0937,4.6661],[-74.0852,4.6789],[-74.0739,4.6881],[-74.0712,4.6894],[-74.0666,4.6894],[-74.0572,4.6868]]]}},{"type":"Feature","id":"11","properties":{"name":"Suba","province":"Bogota","department":"Distrito Capital","type":"Localidad","country":"Colombia","iso":"CO"},"geometry":{"type":"Polygon","coordinates":[[[-74.0425,4.8307],[-74.0408,4.8265],[-74.0345,4.8255],[-74.0572,4.6868],[-74.0691,4.6897],[-74.0727,4.6888],[-74.0773,4.6854],[-74.0809,4.6931],[-74.0847,4.6944],[-74.0859,4.6973],[-74.0884,4.6985],[-74.088,4.7057],[-74.0897,4.707],[-74.0909,4.7105],[-74.0934,4.7114],[-74.0935,4.7132],[-74.0967,4.7174],[-74.0998,4.718],[-74.1005,4.7214],[-74.104,4.7238],[-74.1041,4.7258],[-74.1066,4.7259],[-74.1087,4.7274],[-74.114,4.7321],[-74.1146,4.7347],[-74.1196,4.7368],[-74.1207,4.7394],[-74.1261,4.74],[-74.1274,4.7388],[-74.1274,4.7373],[-74.1288,4.7373],[-74.1297,4.739],[-74.1317,4.7397],[-74.1319,4.7411],[-74.1301,4.7459],[-74.1256,4.7471],[-74.1259,4.7493],[-74.1276,4.7493],[-74.1273,4.7506],[-74.1243,4.75],[-74.1227,4.7473],[-74.1252,4.754],[-74.1204,4.7542],[-74.1212,4.7598],[-74.1201,4.7612],[-74.1168,4.7618],[-74.1155,4.7672],[-74.1157,4.768],[-74.1183,4.7668],[-74.1147,4.7706],[-74.1143,4.772],[-74.1166,4.772],[-74.1151,4.7737],[-74.1139,4.7781],[-74.1147,4.7786],[-74.1172,4.7775],[-74.1143,4.7801],[-74.1147,4.7809],[-74.1172,4.7807],[-74.1144,4.7822],[-74.1148,4.7856],[-74.1123,4.7845],[-74.1123,4.7856],[-74.1144,4.7869],[-74.1129,4.7902],[-74.11,4.7903],[-74.1124,4.7894],[-74.1116,4.7872],[-74.108,4.7888],[-74.1076,4.792],[-74.1052,4.7969],[-74.1032,4.7974],[-74.1039,4.795],[-74.1028,4.7952],[-74.1007,4.7991],[-74.0961,4.7992],[-74.0959,4.7956],[-74.0935,4.7909],[-74.0872,4.7962],[-74.0916,4.7967],[-74.0886,4.7982],[-74.089,4.8014],[-74.0871,4.8017],[-74.0885,4.8033],[-74.0799,4.8085],[-74.08,4.81],[-74.0847,4.8121],[-74.0849,4.813],[-74.0829,4.8136],[-74.0832,4.8143],[-74.0871,4.816],[-74.0866,4.821],[-74.0834,4.8221],[-74.082,4.8164],[-74.079,4.8211],[-74.0802,4.825],[-74.0866,4.8322],[-74.0756,4.8368],[-74.0736,4.8362],[-74.0717,4.8342],[-74.0706,4.8283],[-74.067,4.8281],[-74.0674,4.8327],[-74.0658,4.8355],[-74.0649,4.8345],[-74.0645,4.8302],[-74.0641,4.8339],[-74.0628,4.8355],[-74.0627,4.8322],[-74.0607,4.8274],[-74.0602,4.8286],[-74.056,4.8289],[-74.0533,4.8331],[-74.0503,4.8305],[-74.049,4.8306],[-74.05,4.8352],[-74.0476,4.8306],[-74.0455,4.8305],[-74.0443,4.833],[-74.0425,4.8307]]]}},{"type":"Feature","id":"15","properties":{"name":"Antonio Nariño","province":"Bogota","department":"Distrito Capital","type":"Localidad","country":"Colombia","iso":"CO"},"geometry":{"type":"Polygon","coordinates":[[[-74.1308,4.5934],[-74.1209,4.5938],[-74.1071,4.5982],[-74.1032,4.5947],[-74.0991,4.5949],[-74.0907,4.5925],[-74.0849,4.5893],[-74.0946,4.5758],[-74.1027,4.5814],[-74.1089,4.5892],[-74.1169,4.5884],[-74.1245,4.59],[-74.1308,4.5934]]]}},{"type":"Feature","id":"17","properties":{"name":"Candelaria","province":"Bogota","department":"Distrito Capital","type":"Localidad","country":"Colombia","iso":"CO"},"geometry":{"type":"Polygon","coordinates":[[[-74.0662,4.6032],[-74.0623,4.6033],[-74.0593,4.6014],[-74.065,4.5991],[-74.0647,4.5974],[-74.0664,4.5973],[-74.0683,4.5936],[-74.0683,4.5899],[-74.0706,4.5915],[-74.0728,4.589],[-74.0806,4.5917],[-74.0814,4.5946],[-74.0767,4.6021],[-74.0711,4.6006],[-74.0686,4.6011],[-74.0662,4.6032]]]}},{"type":"Feature","id":"10","properties":{"name":"Engativa","province":"Bogota","department":"Distrito Capital","type":"Localidad","country":"Colombia","iso":"CO"},"geometry":{"type":"Polygon","coordinates":[[[-74.1274,4.7373],[-74.1274,4.7388],[-74.1261,4.74],[-74.1207,4.7394],[-74.1196,4.7368],[-74.1146,4.7347],[-74.114,4.7321],[-74.1087,4.7274],[-74.1066,4.7259],[-74.1041,4.7258],[-74.104,4.7238],[-74.1005,4.7214],[-74.0998,4.718],[-74.0967,4.7174],[-74.0935,4.7132],[-74.0934,4.7114],[-74.0909,4.7105],[-74.0897,4.707],[-74.088,4.7057],[-74.0884,4.6985],[-74.0859,4.6973],[-74.0847,4.6944],[-74.0809,4.6931],[-74.0773,4.6854],[-74.0852,4.6789],[-74.0894,4.6717],[-74.1034,4.6535],[-74.1209,4.681],[-74.1247,4.6848],[-74.1184,4.6887],[-74.1204,4.6922],[-74.1548,4.7176],[-74.156,4.7182],[-74.1563,4.7172],[-74.1603,4.7202],[-74.1601,4.7233],[-74.1579,4.7255],[-74.1569,4.7255],[-74.1575,4.7242],[-74.1565,4.7235],[-74.1511,4.7227],[-74.1486,4.7259],[-74.1374,4.7307],[-74.1356,4.7283],[-74.1306,4.7309],[-74.1295,4.7303],[-74.1286,4.7267],[-74.126,4.7297],[-74.1282,4.734],[-74.1283,4.736],[-74.1267,4.7367],[-74.1274,4.7373]]]}},{"type":"Feature","id":"9","properties":{"name":"Fontibon","province":"Bogota","department":"Distrito Capital","type":"Localidad","country":"Colombia","iso":"CO"},"geometry":{"type":"Polygon","coordinates":[[[-74.1555,4.718],[-74.1204,4.6922],[-74.1184,4.6887],[-74.1247,4.6848],[-74.1209,4.681],[-74.1034,4.6535],[-74.1078,4.6479],[-74.1183,4.6374],[-74.1238,4.6409],[-74.1257,4.6452],[-74.1292,4.6485],[-74.1323,4.6489],[-74.1371,4.6588],[-74.1397,4.6606],[-74.1409,4.6628],[-74.1448,4.6612],[-74.1511,4.6642],[-74.1546,4.6643],[-74.1571,4.6615],[-74.1585,4.6636],[-74.1611,4.6647],[-74.1607,4.6671],[-74.1702,4.6693],[-74.1706,4.6707],[-74.1693,4.6721],[-74.1661,4.6733],[-74.1645,4.6711],[-74.1624,4.6753],[-74.1573,4.6778],[-74.1571,4.6798],[-74.1593,4.6828],[-74.1622,4.681],[-74.1602,4.6783],[-74.1646,4.6757],[-74.1653,4.6758],[-74.1659,4.6782],[-74.1695,4.6754],[-74.171,4.6772],[-74.1715,4.6743],[-74.175,4.6768],[-74.1737,4.6826],[-74.1676,4.688],[-74.1701,4.6899],[-74.1724,4.6944],[-74.1724,4.6961],[-74.1696,4.6988],[-74.1692,4.7009],[-74.1745,4.7006],[-74.1768,4.7018],[-74.177,4.7028],[-74.1712,4.7046],[-74.1678,4.7045],[-74.1619,4.7059],[-74.1622,4.7073],[-74.1604,4.7082],[-74.1561,4.708],[-74.1548,4.7105],[-74.1555,4.718]]]}},{"type":"Feature","id":"4","properties":{"name":"San Cristobal","province":"Bogota","department":"Distrito Capital","type":"Localidad","country":"Colombia","iso":"CO"},"geometry":{"type":"Polygon","coordinates":[[[-74.0656,4.5835],[-74.0607,4.5793],[-74.0564,4.578],[-74.0539,4.5757],[-74.0489,4.5735],[-74.0465,4.5735],[-74.0436,4.5719],[-74.037,4.5722],[-74.0361,4.5712],[-74.0341,4.5726],[-74.0317,4.5706],[-74.0325,4.5676],[-74.031,4.5634],[-74.0292,4.5616],[-74.0299,4.5551],[-74.0287,4.5528],[-74.0288,4.5501],[-74.0316,4.5442],[-74.0316,4.54],[-74.0356,4.5356],[-74.0387,4.5273],[-74.042,4.5161],[-74.0423,4.511],[-74.0433,4.5101],[-74.0506,4.5114],[-74.056,4.5083],[-74.0614,4.5118],[-74.0641,4.5104],[-74.0647,4.5111],[-74.0685,4.51],[-74.0689,4.5119],[-74.0705,4.5116],[-74.0703,4.5137],[-74.0719,4.516],[-74.0718,4.5196],[-74.0707,4.5229],[-74.0696,4.5236],[-74.07,4.5246],[-74.0686,4.5286],[-74.0701,4.5296],[-74.0738,4.5293],[-74.0742,4.5284],[-74.0787,4.527],[-74.0765,4.5318],[-74.0777,4.5324],[-74.0793,4.5301],[-74.0797,4.5321],[-74.0805,4.5303],[-74.0817,4.5302],[-74.0799,4.5276],[-74.0802,4.5265],[-74.0828,4.5278],[-74.0843,4.5244],[-74.0872,4.5222],[-74.0878,4.5206],[-74.0819,4.5178],[-74.0911,4.5197],[-74.0896,4.5171],[-74.0949,4.5173],[-74.0941,4.5178],[-74.0934,4.5234],[-74.0944,4.5254],[-74.0958,4.538],[-74.097,4.5399],[-74.0978,4.5387],[-74.0983,4.5394],[-74.0988,4.5404],[-74.0978,4.5414],[-74.0998,4.5445],[-74.1032,4.5469],[-74.1018,4.5559],[-74.1063,4.5639],[-74.1043,4.5649],[-74.0946,4.5758],[-74.0849,4.5893],[-74.0808,4.5858],[-74.0772,4.5795],[-74.0754,4.5786],[-74.0755,4.5773],[-74.074,4.5763],[-74.0721,4.5777],[-74.0716,4.5765],[-74.0705,4.5778],[-74.07,4.577],[-74.0688,4.5802],[-74.0669,4.5813],[-74.0676,4.5822],[-74.0656,4.5835]]]}},{"type":"Feature","id":"13","properties":{"name":"Teusaquillo","province":"Bogota","department":"Distrito Capital","type":"Localidad","country":"Colombia","iso":"CO"},"geometry":{"type":"Polygon","coordinates":[[[-74.0937,4.6661],[-74.0836,4.6533],[-74.0646,4.6496],[-74.0697,4.6216],[-74.0728,4.6154],[-74.0788,4.6239],[-74.0915,4.6257],[-74.1104,4.6451],[-74.0937,4.6661]]]}},{"type":"Feature","id":"1","properties":{"name":"Usaquen","province":"Bogota","department":"Distrito Capital","type":"Localidad","country":"Colombia","iso":"CO"},"geometry":{"type":"Polygon","coordinates":[[[-74.0572,4.6868],[-74.0345,4.8255],[-74.0336,4.8258],[-74.0298,4.8232],[-74.0257,4.8231],[-74.0237,4.8219],[-74.0215,4.8227],[-74.016,4.8211],[-74.0056,4.8217],[-74.0037,4.8186],[-74.0045,4.8106],[-73.999,4.8046],[-74.0002,4.8024],[-74.0041,4.8002],[-74.0053,4.7985],[-74.0083,4.7968],[-74.0126,4.7975],[-74.014,4.7953],[-74.0159,4.7878],[-74.0155,4.7758],[-74.0191,4.7679],[-74.0191,4.7639],[-74.009,4.7545],[-74.0096,4.7496],[-74.0074,4.7419],[-74.0083,4.7409],[-74.0075,4.7385],[-74.0084,4.7205],[-74.007,4.7164],[-74.0098,4.7152],[-74.0128,4.7005],[-74.0143,4.6973],[-74.0136,4.6953],[-74.0111,4.6935],[-74.0122,4.6914],[-74.011,4.6878],[-74.0112,4.6839],[-74.0043,4.6796],[-74.0025,4.6758],[-74.0034,4.6713],[-74.0064,4.6685],[-74.008,4.6652],[-74.0109,4.6636],[-74.012,4.6661],[-74.0145,4.6665],[-74.0131,4.6683],[-74.0136,4.6695],[-74.0162,4.6706],[-74.019,4.6738],[-74.0239,4.6758],[-74.0305,4.6756],[-74.0314,4.6773],[-74.0484,4.685],[-74.0572,4.6868]]]}},{"type":"Feature","id":"2","properties":{"name":"Chapinero","province":"Bogota","department":"Distrito Capital","type":"Localidad","country":"Colombia","iso":"CO"},"geometry":{"type":"Polygon","coordinates":[[[-74.0572,4.6868],[-74.0484,4.685],[-74.0314,4.6773],[-74.0305,4.6756],[-74.0239,4.6758],[-74.0217,4.675],[-74.0137,4.6696],[-74.0131,4.6683],[-74.0145,4.6665],[-74.012,4.6661],[-74.0109,4.6636],[-74.0142,4.6639],[-74.0165,4.6621],[-74.0195,4.6614],[-74.0247,4.6621],[-74.0256,4.6566],[-74.029,4.6536],[-74.028,4.6489],[-74.0315,4.645],[-74.0287,4.643],[-74.0219,4.6425],[-74.0154,4.6395],[-74.0093,4.6388],[-74.0104,4.6304],[-74.0093,4.6299],[-74.0098,4.6267],[-74.0073,4.6255],[-74.0037,4.6271],[-73.9994,4.6269],[-73.993,4.63],[-73.987,4.6305],[-73.987,4.6275],[-73.992,4.6215],[-73.9912,4.6179],[-73.9921,4.6163],[-73.9945,4.6142],[-74.0037,4.6165],[-74.0077,4.6156],[-74.0134,4.6186],[-74.0179,4.6145],[-74.0218,4.6138],[-74.0281,4.6179],[-74.0324,4.6155],[-74.0315,4.6171],[-74.0349,4.6166],[-74.0359,4.6175],[-74.0397,4.613],[-74.0433,4.6125],[-74.0475,4.6162],[-74.0494,4.6216],[-74.0624,4.6253],[-74.0651,4.625],[-74.0675,4.6274],[-74.0684,4.6288],[-74.0641,4.6524],[-74.0625,4.6557],[-74.0572,4.6868]]]}},{"type":"Feature","id":"5","properties":{"name":"Usme","province":"Bogota","department":"Distrito Capital","type":"Localidad","country":"Colombia","iso":"CO"},"geometry":{"type":"Polygon","coordinates":[[[-74.1261,4.5448],[-74.1239,4.5445],[-74.1211,4.5454],[-74.1163,4.5406],[-74.1126,4.5404],[-74.1124,4.5417],[-74.1088,4.5394],[-74.1066,4.5395],[-74.1029,4.5365],[-74.1001,4.5369],[-74.0981,4.5349],[-74.1037,4.5455],[-74.1023,4.546],[-74.1005,4.5452],[-74.0978,4.5414],[-74.0988,4.5404],[-74.0983,4.5394],[-74.0978,4.5387],[-74.097,4.5399],[-74.0958,4.538],[-74.0944,4.5254],[-74.0934,4.5234],[-74.0945,4.5169],[-74.0896,4.5171],[-74.0911,4.5197],[-74.0819,4.5178],[-74.0878,4.5206],[-74.0872,4.5222],[-74.0843,4.5244],[-74.0828,4.5278],[-74.0802,4.5265],[-74.0799,4.5276],[-74.0819,4.5296],[-74.0799,4.5309],[-74.0797,4.5321],[-74.0793,4.53],[-74.0784,4.5323],[-74.0765,4.5319],[-74.0787,4.527],[-74.0742,4.5284],[-74.0739,4.5293],[-74.0697,4.5294],[-74.0686,4.528],[-74.0719,4.5183],[-74.0719,4.5152],[-74.0704,4.5138],[-74.0705,4.5116],[-74.0689,4.5119],[-74.0684,4.51],[-74.0647,4.5111],[-74.0641,4.5104],[-74.0614,4.5118],[-74.056,4.5083],[-74.0595,4.4986],[-74.0592,4.4971],[-74.0616,4.4939],[-74.0615,4.4918],[-74.0651,4.4865],[-74.0689,4.4869],[-74.0753,4.4846],[-74.0761,4.4736],[-74.0751,4.4694],[-74.077,4.4659],[-74.0769,4.4618],[-74.0782,4.4609],[-74.0781,4.4619],[-74.0796,4.4617],[-74.0814,4.4582],[-74.0846,4.4567],[-74.0901,4.4591],[-74.0932,4.456],[-74.1033,4.4523],[-74.105,4.4504],[-74.1058,4.4464],[-74.1091,4.4432],[-74.1102,4.4384],[-74.112,4.4353],[-74.1131,4.4307],[-74.1131,4.4161],[-74.1144,4.4132],[-74.1132,4.4096],[-74.1147,4.4061],[-74.1147,4.3977],[-74.1131,4.3943],[-74.1138,4.3865],[-74.1112,4.3859],[-74.1051,4.3786],[-74.1029,4.3778],[-74.0991,4.3788],[-74.0983,4.377],[-74.0987,4.3742],[-74.0953,4.3699],[-74.0944,4.3642],[-74.0952,4.361],[-74.0978,4.3574],[-74.0971,4.3544],[-74.0986,4.3501],[-74.0986,4.3459],[-74.1024,4.339],[-74.1053,4.3368],[-74.1043,4.3328],[-74.107,4.325],[-74.111,4.3238],[-74.112,4.3203],[-74.1143,4.3181],[-74.1148,4.3133],[-74.1191,4.3114],[-74.1244,4.3067],[-74.1324,4.3061],[-74.1375,4.3042],[-74.1445,4.2988],[-74.1605,4.2837],[-74.1699,4.2823],[-74.1854,4.2819],[-74.1882,4.2829],[-74.1907,4.2866],[-74.195,4.2901],[-74.202,4.2828],[-74.2049,4.2761],[-74.2058,4.2697],[-74.2122,4.2735],[-74.2162,4.2731],[-74.2167,4.2768],[-74.2211,4.2822],[-74.2161,4.2868],[-74.2143,4.304],[-74.2161,4.318],[-74.2185,4.3273],[-74.218,4.3352],[-74.2198,4.3402],[-74.2207,4.3536],[-74.2202,4.3588],[-74.2211,4.3646],[-74.2172,4.367],[-74.2122,4.3743],[-74.2142,4.3764],[-74.2108,4.3821],[-74.2109,4.3869],[-74.203,4.3861],[-74.1951,4.3871],[-74.1843,4.385],[-74.1815,4.3837],[-74.1802,4.3839],[-74.1798,4.3858],[-74.1767,4.3886],[-74.1678,4.3852],[-74.1627,4.3896],[-74.1608,4.3892],[-74.1586,4.3902],[-74.1512,4.3872],[-74.1427,4.3878],[-74.1424,4.3905],[-74.1411,4.3921],[-74.1429,4.3952],[-74.1443,4.4026],[-74.1433,4.4083],[-74.145,4.4151],[-74.1447,4.4188],[-74.1437,4.42],[-74.1448,4.4217],[-74.1434,4.4308],[-74.1439,4.433],[-74.1426,4.434],[-74.1445,4.4441],[-74.1442,4.4483],[-74.1395,4.458],[-74.1376,4.4638],[-74.1383,4.4658],[-74.1368,4.4662],[-74.1303,4.4764],[-74.1284,4.4753],[-74.127,4.4776],[-74.1245,4.4791],[-74.1218,4.4842],[-74.1217,4.4882],[-74.1204,4.4908],[-74.1231,4.4915],[-74.1213,4.493],[-74.1227,4.4997],[-74.1256,4.5018],[-74.1268,4.5013],[-74.1285,4.5045],[-74.1267,4.5062],[-74.1273,4.5107],[-74.1258,4.5156],[-74.1256,4.5202],[-74.129,4.5244],[-74.1255,4.526],[-74.1248,4.5276],[-74.1232,4.5275],[-74.1231,4.5292],[-74.125,4.5394],[-74.1249,4.5441],[-74.1261,4.5448]]]}},{"type":"Feature","id":"20","properties":{"name":"Sumapaz","province":"Bogota","department":"Distrito Capital","type":"Localidad","country":"Colombia","iso":"CO"},"geometry":{"type":"Polygon","coordinates":[[[-74.143,4.3001],[-74.1375,4.3042],[-74.1339,4.3058],[-74.1244,4.3067],[-74.1273,4.3044],[-74.1339,4.2882],[-74.1418,4.2787],[-74.1438,4.2694],[-74.1526,4.2547],[-74.151,4.2503],[-74.1455,4.245],[-74.1453,4.2404],[-74.1427,4.2337],[-74.1361,4.2287],[-74.1379,4.2245],[-74.1382,4.2199],[-74.1393,4.2175],[-74.1385,4.2165],[-74.1389,4.2148],[-74.1364,4.2108],[-74.137,4.2091],[-74.1359,4.2053],[-74.1354,4.2045],[-74.1335,4.2047],[-74.1333,4.2019],[-74.131,4.1977],[-74.1279,4.1957],[-74.1261,4.1963],[-74.1245,4.1954],[-74.1258,4.1871],[-74.1234,4.1841],[-74.1235,4.1823],[-74.1215,4.1805],[-74.1157,4.1826],[-74.111,4.1821],[-74.1105,4.1813],[-74.1112,4.1786],[-74.1098,4.1752],[-74.1092,4.1695],[-74.1127,4.1643],[-74.1124,4.1615],[-74.1148,4.1566],[-74.1152,4.1482],[-74.1141,4.1427],[-74.1148,4.1411],[-74.1169,4.1405],[-74.1176,4.1354],[-74.1088,4.132],[-74.1034,4.1282],[-74.1021,4.1255],[-74.1008,4.1255],[-74.1008,4.1242],[-74.0977,4.1227],[-74.0897,4.1226],[-74.0897,4.1218],[-74.0918,4.1212],[-74.0918,4.1198],[-74.0948,4.1188],[-74.0948,4.1175],[-74.096,4.1169],[-74.0981,4.1128],[-74.0984,4.1094],[-74.1003,4.1064],[-74.1067,4.1042],[-74.1067,4.1029],[-74.1182,4.1003],[-74.1191,4.098],[-74.1278,4.0945],[-74.1278,4.0932],[-74.1292,4.0932],[-74.1328,4.0793],[-74.1292,4.0729],[-74.1279,4.0729],[-74.1275,4.0692],[-74.1261,4.0692],[-74.1247,4.0571],[-74.1253,4.0546],[-74.1264,4.0546],[-74.1262,4.0517],[-74.1281,4.0453],[-74.1328,4.0353],[-74.135,4.0322],[-74.1375,4.0309],[-74.1379,4.0274],[-74.1431,4.0207],[-74.1464,4.0192],[-74.1478,4.0117],[-74.149,4.0103],[-74.1503,4.0048],[-74.1527,4.0066],[-74.153,4.0121],[-74.1541,4.0137],[-74.1573,4.0153],[-74.1589,4.0177],[-74.1692,4.0153],[-74.1755,4.016],[-74.1829,4.0083],[-74.1906,4.0121],[-74.1948,4.0158],[-74.1978,4.0154],[-74.2012,4.0135],[-74.2048,4.0142],[-74.2097,4.0115],[-74.2125,4.0132],[-74.2138,4.013],[-74.2175,4.0103],[-74.2178,4.0075],[-74.2295,3.9938],[-74.2305,3.9881],[-74.2332,3.982],[-74.2332,3.9782],[-74.2377,3.9732],[-74.2442,3.9554],[-74.2464,3.9524],[-74.2512,3.9497],[-74.2586,3.9496],[-74.2601,3.9487],[-74.2539,3.947],[-74.253,3.9455],[-74.2577,3.9427],[-74.2561,3.9315],[-74.2565,3.9287],[-74.2648,3.9294],[-74.2733,3.9253],[-74.2761,3.9106],[-74.2866,3.8938],[-74.2896,3.8916],[-74.293,3.8868],[-74.2962,3.8845],[-74.2979,3.8811],[-74.3008,3.8832],[-74.3035,3.8833],[-74.3068,3.8851],[-74.3087,3.8884],[-74.3097,3.8885],[-74.3163,3.8803],[-74.3156,3.8765],[-74.3136,3.8741],[-74.3135,3.8713],[-74.3146,3.8696],[-74.3133,3.864],[-74.3092,3.8597],[-74.3051,3.8512],[-74.3081,3.8417],[-74.2997,3.8391],[-74.295,3.8306],[-74.2967,3.8204],[-74.299,3.8186],[-74.3073,3.8191],[-74.3183,3.8153],[-74.319,3.8237],[-74.32,3.8254],[-74.3216,3.8262],[-74.3242,3.8259],[-74.3283,3.828],[-74.3298,3.8235],[-74.3334,3.8223],[-74.3346,3.8188],[-74.3363,3.8179],[-74.3373,3.8144],[-74.3398,3.8118],[-74.3439,3.8139],[-74.3497,3.8093],[-74.3552,3.8083],[-74.3536,3.8061],[-74.3539,3.8007],[-74.3588,3.798],[-74.3633,3.7919],[-74.3647,3.7883],[-74.3664,3.788],[-74.3689,3.7895],[-74.3731,3.7873],[-74.3759,3.7824],[-74.3752,3.7789],[-74.3766,3.7756],[-74.3808,3.7772],[-74.3928,3.7708],[-74.3864,3.7617],[-74.3858,3.7544],[-74.3892,3.7513],[-74.3937,3.7546],[-74.3978,3.7528],[-74.3971,3.7455],[-74.3994,3.7427],[-74.4008,3.7383],[-74.4053,3.7382],[-74.4081,3.7407],[-74.416,3.7423],[-74.4233,3.7427],[-74.4274,3.7388],[-74.4354,3.7336],[-74.4373,3.731],[-74.4428,3.7355],[-74.4446,3.736],[-74.4463,3.7382],[-74.4489,3.7441],[-74.4496,3.7505],[-74.4435,3.7582],[-74.4399,3.7586],[-74.4375,3.7624],[-74.433,3.7652],[-74.4332,3.7725],[-74.4317,3.7759],[-74.432,3.7793],[-74.4327,3.7798],[-74.4301,3.7856],[-74.4268,3.7864],[-74.4252,3.7854],[-74.4238,3.7866],[-74.4205,3.7932],[-74.4172,3.7946],[-74.4134,3.7997],[-74.4143,3.8013],[-74.413,3.8047],[-74.4071,3.8105],[-74.4029,3.8181],[-74.3962,3.8247],[-74.3926,3.8411],[-74.3911,3.8423],[-74.3912,3.846],[-74.3899,3.8492],[-74.3904,3.851],[-74.3869,3.8564],[-74.3874,3.8587],[-74.386,3.8622],[-74.3874,3.8643],[-74.386,3.8687],[-74.3836,3.8695],[-74.3828,3.8729],[-74.3796,3.8737],[-74.3772,3.8765],[-74.3754,3.8767],[-74.3734,3.8798],[-74.368,3.8956],[-74.364,3.9018],[-74.363,3.9063],[-74.3635,3.9079],[-74.3614,3.9096],[-74.3598,3.914],[-74.3608,3.9177],[-74.3589,3.9219],[-74.3569,3.9347],[-74.3549,3.941],[-74.3548,3.9438],[-74.3567,3.947],[-74.3559,3.9522],[-74.357,3.9612],[-74.3561,3.9613],[-74.3556,3.9639],[-74.3567,3.9703],[-74.3636,3.9805],[-74.3697,3.9826],[-74.3745,3.9868],[-74.3711,3.9907],[-74.3704,3.9952],[-74.3668,4.0024],[-74.3641,4.0049],[-74.3629,4.0095],[-74.363,4.0197],[-74.3641,4.0212],[-74.3636,4.024],[-74.3651,4.0295],[-74.3648,4.0331],[-74.3666,4.0362],[-74.3643,4.0413],[-74.3643,4.0434],[-74.3616,4.0482],[-74.3553,4.052],[-74.3511,4.0577],[-74.3505,4.0613],[-74.3516,4.0675],[-74.3501,4.0718],[-74.3509,4.0752],[-74.3478,4.0811],[-74.3479,4.0829],[-74.3465,4.0841],[-74.3468,4.0861],[-74.3452,4.0884],[-74.345,4.0942],[-74.342,4.0989],[-74.343,4.1014],[-74.3396,4.1033],[-74.3395,4.1051],[-74.3354,4.11],[-74.3351,4.1137],[-74.333,4.1154],[-74.3308,4.1196],[-74.3307,4.1233],[-74.3296,4.1257],[-74.3306,4.1301],[-74.3292,4.1307],[-74.3272,4.1288],[-74.3192,4.1257],[-74.3119,4.1169],[-74.3087,4.1148],[-74.3063,4.1109],[-74.3007,4.1073],[-74.2999,4.1056],[-74.2907,4.1032],[-74.2802,4.1021],[-74.2734,4.0991],[-74.2689,4.0941],[-74.2639,4.0912],[-74.2601,4.0908],[-74.2585,4.0917],[-74.2519,4.1021],[-74.2465,4.1022],[-74.2452,4.1056],[-74.2464,4.1142],[-74.2429,4.1337],[-74.2456,4.1409],[-74.243,4.1526],[-74.2429,4.1628],[-74.2401,4.1727],[-74.2412,4.181],[-74.2402,4.1865],[-74.2447,4.1893],[-74.2445,4.1949],[-74.2425,4.1979],[-74.2392,4.1962],[-74.2374,4.1965],[-74.2367,4.2],[-74.235,4.2022],[-74.2315,4.2173],[-74.2281,4.222],[-74.2245,4.2223],[-74.2196,4.2265],[-74.2188,4.2329],[-74.2162,4.237],[-74.2091,4.2413],[-74.2063,4.2419],[-74.2089,4.2466],[-74.205,4.2529],[-74.2068,4.2594],[-74.2064,4.2622],[-74.2076,4.2636],[-74.2055,4.2677],[-74.2049,4.2761],[-74.202,4.2828],[-74.195,4.2901],[-74.1907,4.2866],[-74.1882,4.2829],[-74.1854,4.2819],[-74.1699,4.2823],[-74.1605,4.2837],[-74.143,4.3001]]]}},{"type":"Feature","id":"18","properties":{"name":"Rafael Uribe Uribe","province":"Bogota","department":"Distrito Capital","type":"Localidad","country":"Colombia","iso":"CO"},"geometry":{"type":"Polygon","coordinates":[[[-74.128,4.5925],[-74.1245,4.59],[-74.1169,4.5884],[-74.1089,4.5892],[-74.1027,4.5814],[-74.0946,4.5758],[-74.1043,4.5649],[-74.1063,4.5639],[-74.1018,4.5559],[-74.1032,4.5469],[-74.1023,4.546],[-74.1037,4.5455],[-74.0981,4.5349],[-74.1001,4.5369],[-74.1029,4.5365],[-74.1066,4.5395],[-74.1088,4.5394],[-74.1124,4.5417],[-74.1126,4.5404],[-74.1163,4.5406],[-74.1211,4.5454],[-74.1216,4.5562],[-74.1266,4.5665],[-74.1253,4.5696],[-74.1283,4.5802],[-74.1294,4.5801],[-74.1309,4.5859],[-74.1286,4.5866],[-74.128,4.5925]]]}},{"type":"Feature","id":"6","properties":{"name":"Tunjuelito","province":"Bogota","department":"Distrito Capital","type":"Localidad","country":"Colombia","iso":"CO"},"geometry":{"type":"Polygon","coordinates":[[[-74.1378,4.5949],[-74.1283,4.5927],[-74.1286,4.5866],[-74.1309,4.5859],[-74.1294,4.5801],[-74.1283,4.5802],[-74.1253,4.5696],[-74.1266,4.5665],[-74.1214,4.5553],[-74.1211,4.5454],[-74.1239,4.5445],[-74.13,4.546],[-74.1269,4.5472],[-74.1263,4.5461],[-74.1254,4.5476],[-74.1275,4.5497],[-74.132,4.5496],[-74.132,4.5526],[-74.1339,4.5552],[-74.1332,4.5562],[-74.1353,4.5571],[-74.134,4.5575],[-74.1339,4.5607],[-74.1404,4.565],[-74.1405,4.5683],[-74.1417,4.5688],[-74.1405,4.5693],[-74.1405,4.5705],[-74.142,4.5708],[-74.1418,4.5717],[-74.1432,4.5728],[-74.141,4.5761],[-74.1426,4.5773],[-74.1448,4.573],[-74.1465,4.5748],[-74.1474,4.5737],[-74.1471,4.5765],[-74.1484,4.5781],[-74.1487,4.5765],[-74.15,4.5783],[-74.1493,4.5815],[-74.1472,4.5819],[-74.1484,4.5833],[-74.1511,4.5826],[-74.1506,4.5845],[-74.1522,4.5854],[-74.1505,4.588],[-74.1514,4.589],[-74.1526,4.5887],[-74.1518,4.5874],[-74.1531,4.5864],[-74.1533,4.5879],[-74.157,4.5887],[-74.1565,4.59],[-74.1543,4.5913],[-74.1514,4.5914],[-74.1521,4.593],[-74.1533,4.5922],[-74.1542,4.5929],[-74.1523,4.5957],[-74.1378,4.5949]]]}},{"type":"Feature","id":"14","properties":{"name":"Los Martires","province":"Bogota","department":"Distrito Capital","type":"Localidad","country":"Colombia","iso":"CO"},"geometry":{"type":"Polygon","coordinates":[[[-74.0728,4.6154],[-74.0767,4.6081],[-74.089,4.5918],[-74.0991,4.5949],[-74.1032,4.5947],[-74.1071,4.5982],[-74.0991,4.605],[-74.0832,4.6247],[-74.0788,4.6239],[-74.0728,4.6154]]]}},{"type":"Feature","id":"8","properties":{"name":"Kennedy","province":"Bogota","department":"Distrito Capital","type":"Localidad","country":"Colombia","iso":"CO"},"geometry":{"type":"Polygon","coordinates":[[[-74.1586,4.6627],[-74.1571,4.6615],[-74.1546,4.6643],[-74.1514,4.6642],[-74.1448,4.6612],[-74.1409,4.6628],[-74.1397,4.6606],[-74.1371,4.6588],[-74.1323,4.6489],[-74.1292,4.6485],[-74.1257,4.6452],[-74.1238,4.6409],[-74.1183,4.6374],[-74.1245,4.6239],[-74.1293,4.6089],[-74.1378,4.5949],[-74.1523,4.5957],[-74.1513,4.5966],[-74.1497,4.5958],[-74.152,4.5987],[-74.1522,4.6007],[-74.1591,4.6053],[-74.1627,4.6063],[-74.1686,4.6042],[-74.1701,4.6006],[-74.174,4.6002],[-74.1745,4.6014],[-74.1729,4.6032],[-74.1755,4.6034],[-74.176,4.6012],[-74.1776,4.601],[-74.1777,4.6021],[-74.1761,4.6036],[-74.1766,4.6053],[-74.1787,4.6055],[-74.1774,4.6064],[-74.1773,4.6098],[-74.1819,4.6143],[-74.1801,4.6149],[-74.1795,4.6164],[-74.1801,4.617],[-74.182,4.6147],[-74.183,4.6154],[-74.1828,4.6171],[-74.1851,4.6157],[-74.1852,4.6189],[-74.1801,4.6185],[-74.1766,4.624],[-74.1778,4.6297],[-74.1857,4.647],[-74.1822,4.6492],[-74.1801,4.6526],[-74.1766,4.6548],[-74.1749,4.6547],[-74.1723,4.6571],[-74.1677,4.6564],[-74.1662,4.6599],[-74.164,4.6586],[-74.1623,4.6634],[-74.1586,4.6627]]]}},{"type":"Feature","id":"7","properties":{"name":"Bosa","province":"Bogota","department":"Distrito Capital","type":"Localidad","country":"Colombia","iso":"CO"},"geometry":{"type":"Polygon","coordinates":[[[-74.1857,4.647],[-74.1778,4.6297],[-74.1766,4.624],[-74.1801,4.6185],[-74.1852,4.6189],[-74.185,4.6157],[-74.1828,4.6171],[-74.183,4.6154],[-74.182,4.6147],[-74.1801,4.617],[-74.1795,4.6164],[-74.1801,4.6149],[-74.1819,4.6143],[-74.1773,4.6096],[-74.1774,4.6064],[-74.1787,4.6055],[-74.1766,4.6053],[-74.1761,4.6036],[-74.1778,4.6011],[-74.176,4.6012],[-74.1755,4.6034],[-74.1729,4.6032],[-74.1745,4.6014],[-74.174,4.6002],[-74.1701,4.6006],[-74.1686,4.6042],[-74.1631,4.6063],[-74.157,4.6041],[-74.1525,4.6009],[-74.1522,4.5998],[-74.1607,4.5962],[-74.1656,4.5957],[-74.1787,4.597],[-74.1839,4.5964],[-74.2041,4.6008],[-74.2043,4.5994],[-74.2171,4.6159],[-74.2183,4.6162],[-74.2184,4.6179],[-74.2197,4.6175],[-74.2201,4.6189],[-74.2217,4.6189],[-74.2208,4.62],[-74.2224,4.6211],[-74.2213,4.6212],[-74.2207,4.6231],[-74.2231,4.6243],[-74.2236,4.6255],[-74.2224,4.6291],[-74.2209,4.6302],[-74.2163,4.6297],[-74.2158,4.6313],[-74.2175,4.6351],[-74.2147,4.6373],[-74.2158,4.64],[-74.22,4.6417],[-74.2213,4.6441],[-74.2156,4.6443],[-74.2135,4.6404],[-74.207,4.6406],[-74.2055,4.6423],[-74.2068,4.6466],[-74.2009,4.6438],[-74.2029,4.6465],[-74.2008,4.6487],[-74.1969,4.6505],[-74.1936,4.6551],[-74.1868,4.6515],[-74.1837,4.6527],[-74.1857,4.647]]]}}]}