{"type":"FeatureCollection","features":[{"type":"Feature","id":"01-gama","properties":{"name":"Gama","province":"Distrito Federal","department":"Distrito Federal","type":"Região Administrativa","country":"Brasil","iso":"BR"},"geometry":{"type":"Polygon","coordinates":[[[-48.0484,-16.0498],[-48.2778,-16.0496],[-48.2774,-16.049],[-48.2787,-16.0446],[-48.2774,-16.0441],[-48.2786,-16.0419],[-48.2769,-16.0408],[-48.2772,-16.0394],[-48.2759,-16.0371],[-48.2734,-16.0357],[-48.2742,-16.0344],[-48.2719,-16.0318],[-48.273,-16.0307],[-48.2714,-16.0273],[-48.272,-16.0254],[-48.2712,-16.0252],[-48.2724,-16.0238],[-48.27,-16.0222],[-48.2706,-16.0197],[-48.27,-16.0184],[-48.2701,-16.0166],[-48.2702,-16.0176],[-48.2724,-16.0134],[-48.2715,-16.0099],[-48.2722,-16.0087],[-48.2711,-16.0081],[-48.2692,-16.003],[-48.2676,-16.0012],[-48.2662,-16.0012],[-48.2653,-15.9969],[-48.2626,-15.9949],[-48.2639,-15.9923],[-48.2616,-15.9898],[-48.2629,-15.9889],[-48.2617,-15.9854],[-48.2595,-15.9846],[-48.2581,-15.9831],[-48.259,-15.9824],[-48.2587,-15.9804],[-48.2602,-15.9799],[-48.2604,-15.9787],[-48.2539,-15.9772],[-48.2539,-15.9761],[-48.2473,-15.9755],[-48.2457,-15.9731],[-48.246,-15.9723],[-48.2433,-15.973],[-48.2403,-15.972],[-48.2402,-15.9709],[-48.2382,-15.9725],[-48.2358,-15.9718],[-48.2326,-15.972],[-48.2293,-15.9705],[-48.2264,-15.9714],[-48.2213,-15.9705],[-48.2087,-15.9651],[-48.2023,-15.9635],[-48.1985,-15.9639],[-48.1956,-15.9627],[-48.1931,-15.9638],[-48.1869,-15.9535],[-48.1872,-15.946],[-48.1763,-15.9463],[-48.1733,-15.9471],[-48.1722,-15.9464],[-48.1641,-15.9469],[-48.1569,-15.9371],[-48.1543,-15.9364],[-48.1534,-15.9379],[-48.1534,-15.9457],[-48.152,-15.9464],[-48.1448,-15.9425],[-48.1342,-15.945],[-48.122,-15.9555],[-48.1124,-15.9515],[-48.0969,-15.9335],[-48.0915,-15.9345],[-48.0837,-15.9411],[-48.0795,-15.939],[-48.0758,-15.9394],[-48.0525,-15.9531],[-48.0478,-15.953],[-48.0428,-15.9511],[-48.0386,-15.9461],[-48.0378,-15.9461],[-48.0162,-15.9716],[-48.0099,-15.9764],[-48.0047,-15.9782],[-48.0073,-15.9868],[-48.0101,-15.9908],[-48.0111,-15.9956],[-48.0121,-15.9974],[-48.0282,-16.0098],[-48.0325,-16.0142],[-48.0394,-16.0197],[-48.0437,-16.0195],[-48.0457,-16.0205],[-48.0482,-16.027],[-48.0493,-16.0276],[-48.0498,-16.0301],[-48.0541,-16.0369],[-48.054,-16.0374],[-48.0518,-16.0362],[-48.0489,-16.0361],[-48.0432,-16.0426],[-48.0484,-16.0498]]]}},{"type":"Feature","id":"02-brazlandia","properties":{"name":"Brazlândia","province":"Distrito Federal","department":"Distrito Federal","type":"Região Administrativa","country":"Brasil","iso":"BR"},"geometry":{"type":"Polygon","coordinates":[[[-48.0176,-15.5817],[-48.0177,-15.5828],[-48.0274,-15.5912],[-48.0452,-15.6124],[-48.0486,-15.6146],[-48.067,-15.6227],[-48.0721,-15.6259],[-48.0753,-15.6295],[-48.09,-15.6771],[-48.0867,-15.7225],[-48.0847,-15.7288],[-48.0894,-15.7323],[-48.091,-15.7327],[-48.1286,-15.7287],[-48.14,-15.7312],[-48.19,-15.7307],[-48.1921,-15.7297],[-48.1938,-15.7278],[-48.1985,-15.7122],[-48.2007,-15.7112],[-48.2165,-15.7101],[-48.2179,-15.711],[-48.2412,-15.7104],[-48.24,-15.71],[-48.2395,-15.6958],[-48.2408,-15.6911],[-48.2396,-15.6802],[-48.2341,-15.6661],[-48.2351,-15.6605],[-48.2342,-15.6572],[-48.2365,-15.651],[-48.2342,-15.6424],[-48.2304,-15.6381],[-48.2289,-15.634],[-48.2262,-15.6318],[-48.2245,-15.629],[-48.2212,-15.6272],[-48.2183,-15.6229],[-48.2172,-15.6223],[-48.2048,-15.6237],[-48.2032,-15.6228],[-48.2001,-15.6229],[-48.1998,-15.6217],[-48.2,-15.5023],[-48.0349,-15.5023],[-48.0342,-15.5047],[-48.0396,-15.5165],[-48.0394,-15.5253],[-48.0354,-15.5314],[-48.0327,-15.5308],[-48.0318,-15.5314],[-48.0418,-15.5413],[-48.0435,-15.5443],[-48.0439,-15.5476],[-48.0423,-15.5503],[-48.036,-15.5543],[-48.0344,-15.5561],[-48.0337,-15.5592],[-48.0356,-15.5637],[-48.035,-15.5657],[-48.0245,-15.5735],[-48.0176,-15.5817]]]}},{"type":"Feature","id":"03-sobradinho","properties":{"name":"Sobradinho","province":"Distrito Federal","department":"Distrito Federal","type":"Região Administrativa","country":"Brasil","iso":"BR"},"geometry":{"type":"Polygon","coordinates":[[[-47.8572,-15.6883],[-47.8579,-15.6892],[-47.8515,-15.6925],[-47.8381,-15.6928],[-47.8348,-15.6938],[-47.7932,-15.7222],[-47.7892,-15.727],[-47.7811,-15.7242],[-47.7768,-15.7243],[-47.7726,-15.7233],[-47.7618,-15.7134],[-47.7613,-15.7145],[-47.7512,-15.7201],[-47.7477,-15.7239],[-47.7443,-15.7244],[-47.743,-15.727],[-47.7418,-15.7275],[-47.738,-15.7277],[-47.7332,-15.7262],[-47.7307,-15.7268],[-47.7296,-15.7279],[-47.7216,-15.7265],[-47.7194,-15.7252],[-47.7179,-15.7269],[-47.714,-15.728],[-47.7101,-15.7264],[-47.7093,-15.7274],[-47.7051,-15.727],[-47.704,-15.7262],[-47.7032,-15.7263],[-47.7027,-15.7281],[-47.7013,-15.7283],[-47.7009,-15.7274],[-47.6929,-15.7259],[-47.6894,-15.7269],[-47.6849,-15.7309],[-47.6817,-15.7321],[-47.6805,-15.7337],[-47.6789,-15.7338],[-47.6784,-15.7326],[-47.6748,-15.7314],[-47.6755,-15.7304],[-47.6737,-15.7294],[-47.6746,-15.7276],[-47.6764,-15.7277],[-47.6756,-15.7269],[-47.6766,-15.726],[-47.6762,-15.7238],[-47.6745,-15.723],[-47.6755,-15.7221],[-47.6766,-15.7227],[-47.6767,-15.7215],[-47.6752,-15.7205],[-47.6762,-15.7194],[-47.6758,-15.7175],[-47.6741,-15.7174],[-47.6739,-15.7166],[-47.6757,-15.7149],[-47.6758,-15.713],[-47.673,-15.7105],[-47.6742,-15.709],[-47.6746,-15.71],[-47.6748,-15.7089],[-47.6766,-15.7071],[-47.6778,-15.7074],[-47.6842,-15.7038],[-47.6899,-15.7031],[-47.6975,-15.6996],[-47.7002,-15.6995],[-47.7042,-15.7006],[-47.7095,-15.7004],[-47.7218,-15.6971],[-47.7315,-15.6986],[-47.7468,-15.6863],[-47.747,-15.6805],[-47.746,-15.678],[-47.7406,-15.6743],[-47.7441,-15.6716],[-47.744,-15.6707],[-47.7382,-15.6641],[-47.7531,-15.6396],[-47.7599,-15.6249],[-47.7596,-15.6209],[-47.7606,-15.6175],[-47.7746,-15.6081],[-47.781,-15.6012],[-47.7807,-15.5939],[-47.779,-15.5934],[-47.7731,-15.5938],[-47.7656,-15.5923],[-47.7645,-15.5914],[-47.7647,-15.5904],[-47.7658,-15.5898],[-47.7689,-15.5897],[-47.7696,-15.5854],[-47.7785,-15.5841],[-47.785,-15.586],[-47.7998,-15.5862],[-47.8044,-15.5824],[-47.8072,-15.5825],[-47.8125,-15.5876],[-47.8147,-15.5927],[-47.8168,-15.6034],[-47.8231,-15.6052],[-47.8257,-15.6068],[-47.8199,-15.611],[-47.8159,-15.6204],[-47.8167,-15.6219],[-47.8196,-15.6216],[-47.8233,-15.6234],[-47.8247,-15.6263],[-47.8246,-15.6306],[-47.8231,-15.6351],[-47.8189,-15.6414],[-47.8123,-15.6433],[-47.8118,-15.6441],[-47.8151,-15.6491],[-47.8171,-15.654],[-47.8128,-15.6597],[-47.8124,-15.6628],[-47.8106,-15.6641],[-47.8094,-15.6665],[-47.8279,-15.6784],[-47.8562,-15.688],[-47.8572,-15.6883]]]}},{"type":"Feature","id":"04-planaltina","properties":{"name":"Planaltina","province":"Distrito Federal","department":"Distrito Federal","type":"Região Administrativa","country":"Brasil","iso":"BR"},"geometry":{"type":"Polygon","coordinates":[[[-47.6752,-15.5986],[-47.675,-15.599],[-47.6788,-15.5999],[-47.6825,-15.5982],[-47.6913,-15.6005],[-47.6959,-15.5996],[-47.6961,-15.6019],[-47.6953,-15.6035],[-47.6917,-15.6059],[-47.6913,-15.6071],[-47.706,-15.6156],[-47.6927,-15.6372],[-47.6862,-15.6414],[-47.6847,-15.6414],[-47.685,-15.6422],[-47.695,-15.6476],[-47.6958,-15.6487],[-47.6913,-15.6644],[-47.694,-15.6768],[-47.6928,-15.6792],[-47.6812,-15.6855],[-47.6704,-15.6906],[-47.6551,-15.6965],[-47.6542,-15.6958],[-47.6509,-15.6804],[-47.6459,-15.6754],[-47.6442,-15.6715],[-47.6495,-15.6566],[-47.6508,-15.6478],[-47.633,-15.6469],[-47.5778,-15.6092],[-47.5756,-15.606],[-47.5721,-15.5875],[-47.5736,-15.5866],[-47.6157,-15.5988],[-47.662,-15.5946],[-47.6706,-15.5961],[-47.6752,-15.5986]]]}},{"type":"Feature","id":"05-paranoa","properties":{"name":"Paranoá","province":"Distrito Federal","department":"Distrito Federal","type":"Região Administrativa","country":"Brasil","iso":"BR"},"geometry":{"type":"Polygon","coordinates":[[[-47.7784,-15.7587],[-47.7743,-15.7699],[-47.7787,-15.7909],[-47.78,-15.793],[-47.7827,-15.7938],[-47.7827,-15.7897],[-47.784,-15.7838],[-47.786,-15.782],[-47.7936,-15.781],[-47.7958,-15.7813],[-47.7976,-15.7824],[-47.8011,-15.7866],[-47.8032,-15.7874],[-47.8043,-15.7868],[-47.8051,-15.7845],[-47.8129,-15.773],[-47.8124,-15.769],[-47.8087,-15.7652],[-47.8085,-15.7639],[-47.8119,-15.7598],[-47.8125,-15.7578],[-47.8101,-15.7574],[-47.8067,-15.7589],[-47.7868,-15.7618],[-47.7784,-15.7587]]]}},{"type":"Feature","id":"06-nucleo-bandeirante","properties":{"name":"Núcleo Bandeirante","province":"Distrito Federal","department":"Distrito Federal","type":"Região Administrativa","country":"Brasil","iso":"BR"},"geometry":{"type":"Polygon","coordinates":[[[-47.959,-15.8633],[-47.9573,-15.8645],[-47.9594,-15.8765],[-47.9618,-15.8763],[-47.9624,-15.8784],[-47.9639,-15.879],[-47.964,-15.8806],[-47.9686,-15.8806],[-47.9688,-15.8794],[-47.9707,-15.8794],[-47.9708,-15.8836],[-47.9771,-15.8829],[-47.9788,-15.8808],[-47.9802,-15.8773],[-47.9808,-15.8782],[-47.9874,-15.8775],[-47.9926,-15.8781],[-47.996,-15.8798],[-48.0002,-15.8797],[-48.0001,-15.8773],[-47.9846,-15.8759],[-47.9791,-15.8735],[-47.9771,-15.869],[-47.9775,-15.8647],[-47.975,-15.8666],[-47.9698,-15.8673],[-47.969,-15.8649],[-47.9626,-15.8652],[-47.959,-15.8633]]]}},{"type":"Feature","id":"07-cruzeiro","properties":{"name":"Cruzeiro","province":"Distrito Federal","department":"Distrito Federal","type":"Região Administrativa","country":"Brasil","iso":"BR"},"geometry":{"type":"Polygon","coordinates":[[[-47.9312,-15.7805],[-47.9303,-15.7823],[-47.9336,-15.7921],[-47.9337,-15.7978],[-47.9404,-15.802],[-47.9456,-15.8001],[-47.9383,-15.7788],[-47.9356,-15.7782],[-47.9316,-15.7795],[-47.9312,-15.7805]]]}},{"type":"Feature","id":"08-samambaia","properties":{"name":"Samambaia","province":"Distrito Federal","department":"Distrito Federal","type":"Região Administrativa","country":"Brasil","iso":"BR"},"geometry":{"type":"Polygon","coordinates":[[[-48.0378,-15.8676],[-48.0384,-15.869],[-48.0552,-15.8802],[-48.0602,-15.8822],[-48.1614,-15.913],[-48.1638,-15.9153],[-48.1662,-15.9231],[-48.1668,-15.9234],[-48.1695,-15.9228],[-48.1725,-15.9189],[-48.1741,-15.9181],[-48.1784,-15.919],[-48.1813,-15.9234],[-48.1829,-15.9234],[-48.1869,-15.9199],[-48.189,-15.9196],[-48.2004,-15.9241],[-48.2144,-15.9327],[-48.219,-15.9348],[-48.221,-15.9341],[-48.2228,-15.9358],[-48.2241,-15.934],[-48.2259,-15.9339],[-48.2264,-15.9327],[-48.2292,-15.931],[-48.2342,-15.9345],[-48.2385,-15.9291],[-48.2398,-15.9293],[-48.2429,-15.9319],[-48.2459,-15.9319],[-48.2481,-15.9337],[-48.2499,-15.9335],[-48.2546,-15.9367],[-48.2558,-15.9322],[-48.2576,-15.9323],[-48.2587,-15.9313],[-48.2593,-15.9277],[-48.2583,-15.9249],[-48.2593,-15.9247],[-48.2585,-15.9231],[-48.2595,-15.9219],[-48.2581,-15.9196],[-48.2582,-15.9182],[-48.2538,-15.9168],[-48.2551,-15.9161],[-48.255,-15.9154],[-48.2492,-15.9088],[-48.2411,-15.9048],[-48.2367,-15.9035],[-48.2285,-15.9018],[-48.2245,-15.9024],[-48.2184,-15.8991],[-48.2103,-15.897],[-48.2083,-15.8957],[-48.2067,-15.8937],[-48.2023,-15.8915],[-48.1931,-15.8739],[-48.1848,-15.8666],[-48.1823,-15.8617],[-48.1779,-15.8621],[-48.1773,-15.8584],[-48.169,-15.854],[-48.1626,-15.8527],[-48.1587,-15.8548],[-48.1498,-15.8559],[-48.141,-15.8616],[-48.1353,-15.8642],[-48.131,-15.8646],[-48.1246,-15.8676],[-48.1213,-15.8656],[-48.1205,-15.8668],[-48.1187,-15.8673],[-48.1135,-15.8678],[-48.1108,-15.8669],[-48.1077,-15.8599],[-48.0984,-15.8553],[-48.089,-15.8523],[-48.0765,-15.844],[-48.0756,-15.8444],[-48.0746,-15.8479],[-48.073,-15.8475],[-48.0695,-15.8521],[-48.0677,-15.852],[-48.0645,-15.8571],[-48.0613,-15.8587],[-48.0502,-15.8556],[-48.0497,-15.8573],[-48.0446,-15.8632],[-48.0402,-15.8636],[-48.0378,-15.8676]]]}},{"type":"Feature","id":"09-santa-maria","properties":{"name":"Santa Maria","province":"Distrito Federal","department":"Distrito Federal","type":"Região Administrativa","country":"Brasil","iso":"BR"},"geometry":{"type":"Polygon","coordinates":[[[-48.0478,-16.0497],[-48.043,-16.0428],[-48.0483,-16.0363],[-48.0508,-16.0359],[-48.054,-16.0371],[-48.0508,-16.0309],[-48.0496,-16.0301],[-48.0456,-16.021],[-48.0437,-16.0197],[-48.0391,-16.0197],[-48.0325,-16.0144],[-48.0294,-16.0109],[-48.0123,-15.9978],[-48.0111,-15.9963],[-48.0098,-15.991],[-48.007,-15.9862],[-48.0042,-15.9781],[-47.9993,-15.9785],[-47.9781,-15.9747],[-47.9721,-15.9747],[-47.9653,-15.9761],[-47.941,-15.9844],[-47.9324,-15.9839],[-47.9251,-15.982],[-47.8937,-15.9699],[-47.8921,-15.97],[-47.8916,-15.9711],[-47.8903,-15.9711],[-47.8897,-15.9721],[-47.8892,-15.9745],[-47.8879,-15.9764],[-47.8852,-15.9774],[-47.8836,-15.9819],[-47.8817,-15.9845],[-47.8786,-16.0005],[-47.8759,-16.0079],[-47.874,-16.0109],[-47.8729,-16.0109],[-47.871,-16.0126],[-47.8713,-16.0136],[-47.8751,-16.0154],[-47.8771,-16.0185],[-47.8773,-16.0208],[-47.8726,-16.0317],[-47.8686,-16.0372],[-47.8757,-16.0393],[-47.8789,-16.0416],[-47.8815,-16.0456],[-47.8848,-16.0467],[-47.8881,-16.0498],[-48.0478,-16.0497]]]}},{"type":"Feature","id":"10-sao-sebastiao","properties":{"name":"São Sebastião","province":"Distrito Federal","department":"Distrito Federal","type":"Região Administrativa","country":"Brasil","iso":"BR"},"geometry":{"type":"Polygon","coordinates":[[[-47.6176,-16.0498],[-47.7211,-16.0499],[-47.7226,-16.0439],[-47.7276,-16.0403],[-47.7274,-16.0357],[-47.7317,-16.0302],[-47.734,-16.0319],[-47.7607,-16.0306],[-47.7595,-16.028],[-47.7606,-16.025],[-47.7635,-16.0217],[-47.7645,-16.0191],[-47.7624,-16.0141],[-47.7626,-16.0092],[-47.7659,-16.0068],[-47.7694,-16.0007],[-47.7797,-15.9891],[-47.7783,-15.9861],[-47.7785,-15.9849],[-47.775,-15.983],[-47.773,-15.9834],[-47.769,-15.9813],[-47.7677,-15.9797],[-47.7649,-15.9789],[-47.7646,-15.9775],[-47.7602,-15.9728],[-47.7617,-15.9723],[-47.7646,-15.9693],[-47.7684,-15.9685],[-47.7732,-15.9656],[-47.7749,-15.9657],[-47.7875,-15.962],[-47.7914,-15.9597],[-47.7936,-15.9571],[-47.7933,-15.9554],[-47.7946,-15.9522],[-47.8015,-15.9451],[-47.8034,-15.9419],[-47.805,-15.9413],[-47.8057,-15.9397],[-47.8075,-15.9388],[-47.8046,-15.9313],[-47.8025,-15.9306],[-47.8003,-15.9285],[-47.7957,-15.9268],[-47.7786,-15.923],[-47.7766,-15.9167],[-47.7725,-15.9125],[-47.7758,-15.9133],[-47.7818,-15.9131],[-47.7845,-15.9086],[-47.79,-15.9063],[-47.7904,-15.9039],[-47.7938,-15.9022],[-47.7943,-15.9007],[-47.793,-15.8977],[-47.7945,-15.8968],[-47.7928,-15.8933],[-47.7953,-15.8917],[-47.7937,-15.8904],[-47.7953,-15.8889],[-47.7951,-15.8869],[-47.7965,-15.8856],[-47.7951,-15.8818],[-47.7955,-15.8796],[-47.798,-15.881],[-47.8022,-15.8809],[-47.7968,-15.8757],[-47.7917,-15.8749],[-47.7895,-15.8755],[-47.787,-15.8769],[-47.7848,-15.8794],[-47.7784,-15.882],[-47.7773,-15.8847],[-47.7739,-15.8857],[-47.771,-15.8913],[-47.7682,-15.8935],[-47.7669,-15.8968],[-47.765,-15.898],[-47.7614,-15.903],[-47.7591,-15.9011],[-47.7572,-15.9025],[-47.7543,-15.903],[-47.7514,-15.9016],[-47.7469,-15.9015],[-47.7431,-15.8995],[-47.7421,-15.9003],[-47.742,-15.899],[-47.7403,-15.8985],[-47.7366,-15.8992],[-47.7339,-15.8985],[-47.7283,-15.8935],[-47.7235,-15.891],[-47.7148,-15.8922],[-47.7136,-15.8932],[-47.7127,-15.8925],[-47.7103,-15.894],[-47.7087,-15.8931],[-47.7069,-15.8943],[-47.704,-15.8925],[-47.703,-15.8956],[-47.7013,-15.8943],[-47.7005,-15.895],[-47.7028,-15.8975],[-47.6994,-15.8973],[-47.6991,-15.8983],[-47.6999,-15.9001],[-47.6976,-15.8995],[-47.6976,-15.9018],[-47.6989,-15.9028],[-47.6987,-15.9035],[-47.6965,-15.9036],[-47.6968,-15.9056],[-47.6932,-15.905],[-47.6942,-15.9071],[-47.6927,-15.9071],[-47.6917,-15.906],[-47.6917,-15.9041],[-47.6894,-15.9089],[-47.6884,-15.9084],[-47.6888,-15.9064],[-47.6874,-15.9069],[-47.6869,-15.9092],[-47.6883,-15.9112],[-47.688,-15.9117],[-47.6851,-15.9111],[-47.6849,-15.9098],[-47.6822,-15.9099],[-47.6817,-15.9114],[-47.6803,-15.9117],[-47.6823,-15.9143],[-47.6847,-15.9149],[-47.6833,-15.9153],[-47.6824,-15.9169],[-47.6824,-15.9215],[-47.6815,-15.9215],[-47.6807,-15.9189],[-47.6776,-15.9233],[-47.6753,-15.9243],[-47.677,-15.926],[-47.6775,-15.928],[-47.6764,-15.9303],[-47.6743,-15.9281],[-47.672,-15.9276],[-47.6718,-15.9288],[-47.6702,-15.929],[-47.6711,-15.9308],[-47.6684,-15.9344],[-47.6697,-15.9368],[-47.6686,-15.9379],[-47.6692,-15.9435],[-47.6665,-15.9429],[-47.6667,-15.9438],[-47.6689,-15.9452],[-47.6667,-15.9519],[-47.6649,-15.9532],[-47.664,-15.9526],[-47.6628,-15.9532],[-47.6625,-15.9541],[-47.6599,-15.9544],[-47.6598,-15.9556],[-47.6615,-15.9564],[-47.6622,-15.9587],[-47.6635,-15.959],[-47.6637,-15.9599],[-47.662,-15.9623],[-47.6589,-15.9638],[-47.6537,-15.9688],[-47.6505,-15.9693],[-47.6479,-15.9685],[-47.6428,-15.9635],[-47.6373,-15.9605],[-47.6318,-15.955],[-47.6303,-15.9491],[-47.6288,-15.9471],[-47.6173,-15.9388],[-47.611,-15.9371],[-47.6082,-15.9374],[-47.6069,-15.9385],[-47.5885,-15.9678],[-47.5879,-15.971],[-47.5884,-15.9728],[-47.6142,-16.0136],[-47.6174,-16.0488],[-47.6176,-16.0498]]]}},{"type":"Feature","id":"11-recanto-das-emas","properties":{"name":"Recanto das Emas","province":"Distrito Federal","department":"Distrito Federal","type":"Região Administrativa","country":"Brasil","iso":"BR"},"geometry":{"type":"Polygon","coordinates":[[[-48.0646,-15.8839],[-48.0617,-15.8836],[-48.0598,-15.885],[-48.0425,-15.9384],[-48.0389,-15.945],[-48.04,-15.9481],[-48.0437,-15.9512],[-48.0476,-15.9528],[-48.0537,-15.9527],[-48.0756,-15.9394],[-48.0796,-15.9389],[-48.083,-15.9415],[-48.0943,-15.9322],[-48.0964,-15.9329],[-48.1023,-15.9371],[-48.1041,-15.942],[-48.1124,-15.9513],[-48.1143,-15.951],[-48.1201,-15.9538],[-48.1213,-15.9553],[-48.122,-15.9554],[-48.1222,-15.9532],[-48.1273,-15.9424],[-48.1395,-15.9434],[-48.1444,-15.9421],[-48.1524,-15.9459],[-48.1529,-15.9348],[-48.1544,-15.9344],[-48.1558,-15.9365],[-48.157,-15.9366],[-48.1602,-15.9399],[-48.1644,-15.9467],[-48.1718,-15.9458],[-48.1721,-15.945],[-48.1629,-15.9144],[-48.1601,-15.9129],[-48.0646,-15.8839]]]}},{"type":"Feature","id":"12-lago-sul","properties":{"name":"Lago Sul","province":"Distrito Federal","department":"Distrito Federal","type":"Região Administrativa","country":"Brasil","iso":"BR"},"geometry":{"type":"Polygon","coordinates":[[[-47.786,-15.8021],[-47.7942,-15.8214],[-47.815,-15.8491],[-47.8201,-15.8636],[-47.8213,-15.8637],[-47.8308,-15.8596],[-47.8425,-15.8662],[-47.8449,-15.8631],[-47.8437,-15.8613],[-47.8452,-15.8597],[-47.853,-15.8567],[-47.8551,-15.8583],[-47.8512,-15.8641],[-47.8512,-15.8682],[-47.856,-15.8756],[-47.8597,-15.8774],[-47.8627,-15.8772],[-47.8658,-15.8756],[-47.8687,-15.8755],[-47.8711,-15.8771],[-47.8743,-15.8773],[-47.8761,-15.8756],[-47.8803,-15.8662],[-47.8795,-15.8645],[-47.8798,-15.8622],[-47.8831,-15.8579],[-47.8851,-15.8572],[-47.8888,-15.8573],[-47.8926,-15.8592],[-47.9088,-15.8606],[-47.9106,-15.8595],[-47.9131,-15.8591],[-47.9168,-15.8602],[-47.9246,-15.8606],[-47.9276,-15.8585],[-47.9286,-15.8568],[-47.9278,-15.8551],[-47.9251,-15.8552],[-47.923,-15.8518],[-47.9198,-15.8517],[-47.9145,-15.8484],[-47.903,-15.8441],[-47.898,-15.8406],[-47.8917,-15.8406],[-47.8854,-15.836],[-47.8831,-15.8285],[-47.8813,-15.8288],[-47.8794,-15.8261],[-47.8769,-15.8246],[-47.8727,-15.8242],[-47.8709,-15.8265],[-47.872,-15.8276],[-47.8716,-15.8292],[-47.8704,-15.8299],[-47.8661,-15.8278],[-47.8637,-15.8283],[-47.8576,-15.827],[-47.8549,-15.8278],[-47.8548,-15.8294],[-47.8585,-15.8322],[-47.8664,-15.8413],[-47.8698,-15.8482],[-47.8685,-15.8493],[-47.8683,-15.8509],[-47.8664,-15.8522],[-47.8595,-15.853],[-47.8585,-15.8518],[-47.8591,-15.8513],[-47.8641,-15.8502],[-47.8614,-15.8461],[-47.8582,-15.8443],[-47.8548,-15.8406],[-47.852,-15.8392],[-47.8487,-15.8401],[-47.8442,-15.8389],[-47.8415,-15.8391],[-47.8379,-15.833],[-47.8344,-15.8313],[-47.8317,-15.8308],[-47.8266,-15.8324],[-47.8259,-15.8316],[-47.8275,-15.8297],[-47.8266,-15.8272],[-47.8233,-15.8252],[-47.8214,-15.8221],[-47.8168,-15.8205],[-47.8194,-15.8171],[-47.8182,-15.8101],[-47.8188,-15.8089],[-47.8176,-15.808],[-47.8169,-15.8057],[-47.8133,-15.8061],[-47.8149,-15.8045],[-47.8152,-15.8027],[-47.8122,-15.7973],[-47.8098,-15.7956],[-47.8105,-15.7945],[-47.8093,-15.7932],[-47.8043,-15.7923],[-47.8025,-15.7927],[-47.8034,-15.7944],[-47.8016,-15.7941],[-47.8009,-15.795],[-47.7987,-15.7951],[-47.7985,-15.7973],[-47.7975,-15.7958],[-47.7969,-15.7965],[-47.7959,-15.7959],[-47.7951,-15.7968],[-47.7946,-15.7959],[-47.7896,-15.7957],[-47.7894,-15.7999],[-47.786,-15.8021]]]}},{"type":"Feature","id":"13-lago-norte","properties":{"name":"Lago Norte","province":"Distrito Federal","department":"Distrito Federal","type":"Região Administrativa","country":"Brasil","iso":"BR"},"geometry":{"type":"Polygon","coordinates":[[[-47.894,-15.73],[-47.8986,-15.7155],[-47.8968,-15.7109],[-47.8942,-15.709],[-47.8893,-15.7084],[-47.8817,-15.7114],[-47.874,-15.7175],[-47.8695,-15.7191],[-47.8682,-15.7166],[-47.8696,-15.7112],[-47.8625,-15.7083],[-47.8616,-15.7042],[-47.8632,-15.7025],[-47.8604,-15.6925],[-47.8603,-15.6886],[-47.8591,-15.6886],[-47.851,-15.6928],[-47.838,-15.693],[-47.8343,-15.6943],[-47.7934,-15.7224],[-47.7904,-15.7266],[-47.7844,-15.7424],[-47.7847,-15.7435],[-47.7905,-15.7456],[-47.7915,-15.7477],[-47.7864,-15.7497],[-47.787,-15.752],[-47.7851,-15.7525],[-47.7846,-15.7558],[-47.7863,-15.7576],[-47.7839,-15.7604],[-47.7893,-15.7615],[-47.8075,-15.7586],[-47.8116,-15.7572],[-47.8131,-15.7586],[-47.8089,-15.7631],[-47.8087,-15.7646],[-47.8121,-15.7685],[-47.8133,-15.7716],[-47.811,-15.7766],[-47.8061,-15.7832],[-47.8042,-15.7871],[-47.8013,-15.7868],[-47.7973,-15.7823],[-47.795,-15.7812],[-47.7874,-15.7819],[-47.7893,-15.7906],[-47.7896,-15.7886],[-47.7907,-15.7902],[-47.7943,-15.7907],[-47.7938,-15.7898],[-47.7951,-15.7883],[-47.7981,-15.7905],[-47.7982,-15.7899],[-47.7994,-15.7903],[-47.8066,-15.7875],[-47.8065,-15.7857],[-47.8101,-15.7816],[-47.811,-15.7792],[-47.8174,-15.7741],[-47.8173,-15.7711],[-47.8189,-15.7651],[-47.8181,-15.7643],[-47.8165,-15.7647],[-47.8138,-15.7636],[-47.8192,-15.7601],[-47.8198,-15.7586],[-47.8163,-15.7521],[-47.8176,-15.7515],[-47.8202,-15.7526],[-47.822,-15.7514],[-47.8212,-15.7492],[-47.8241,-15.7456],[-47.8263,-15.7449],[-47.8289,-15.7427],[-47.8302,-15.7438],[-47.8304,-15.743],[-47.8322,-15.7423],[-47.8326,-15.7409],[-47.8357,-15.7419],[-47.8368,-15.7392],[-47.836,-15.7374],[-47.8384,-15.7357],[-47.8386,-15.7345],[-47.8437,-15.7349],[-47.846,-15.7334],[-47.8476,-15.7298],[-47.8514,-15.7283],[-47.852,-15.7294],[-47.8528,-15.7274],[-47.8541,-15.7272],[-47.8577,-15.7243],[-47.8588,-15.7246],[-47.8594,-15.7281],[-47.8556,-15.7311],[-47.8537,-15.7315],[-47.847,-15.7378],[-47.8442,-15.739],[-47.8401,-15.7442],[-47.8339,-15.7464],[-47.8277,-15.7506],[-47.8275,-15.7514],[-47.8297,-15.7546],[-47.8296,-15.7568],[-47.8269,-15.7604],[-47.8281,-15.7629],[-47.8295,-15.7703],[-47.8318,-15.7736],[-47.8338,-15.7732],[-47.835,-15.7717],[-47.8356,-15.7661],[-47.8407,-15.7634],[-47.8425,-15.7609],[-47.8447,-15.76],[-47.8463,-15.7551],[-47.8554,-15.7494],[-47.8628,-15.7473],[-47.8635,-15.7454],[-47.8663,-15.7432],[-47.8722,-15.7412],[-47.8753,-15.7382],[-47.8794,-15.7312],[-47.8852,-15.7289],[-47.894,-15.73]]]}},{"type":"Feature","id":"14-candangolandia","properties":{"name":"Candangolandia","province":"Distrito Federal","department":"Distrito Federal","type":"Região Administrativa","country":"Brasil","iso":"BR"},"geometry":{"type":"Polygon","coordinates":[[[-47.9571,-15.8655],[-47.9541,-15.8484],[-47.95,-15.8456],[-47.9456,-15.8486],[-47.9439,-15.8534],[-47.9469,-15.8542],[-47.9484,-15.8556],[-47.9482,-15.8568],[-47.9501,-15.8579],[-47.9547,-15.8637],[-47.9556,-15.8658],[-47.9571,-15.8655],[-47.9571,-15.8655]]]}},{"type":"Feature","id":"15-aguas-claras","properties":{"name":"Águas Claras","province":"Distrito Federal","department":"Distrito Federal","type":"Região Administrativa","country":"Brasil","iso":"BR"},"geometry":{"type":"Polygon","coordinates":[[[-48.0036,-15.838],[-48.0365,-15.8508],[-48.0455,-15.8343],[-48.0485,-15.8356],[-48.0493,-15.8343],[-48.0483,-15.8318],[-48.0339,-15.8294],[-48.0164,-15.819],[-48.0023,-15.8139],[-47.9998,-15.8149],[-47.9943,-15.8222],[-47.9921,-15.8307],[-47.993,-15.8323],[-47.9952,-15.8338],[-48.0036,-15.838]]]}},{"type":"Feature","id":"16-riacho-fundo-ii","properties":{"name":"Riacho Fundo II","province":"Distrito Federal","department":"Distrito Federal","type":"Região Administrativa","country":"Brasil","iso":"BR"},"geometry":{"type":"Polygon","coordinates":[[[-48.0387,-15.8747],[-48.0398,-15.877],[-48.04,-15.8822],[-48.0352,-15.8853],[-48.034,-15.8875],[-48.027,-15.891],[-48.0228,-15.8974],[-48.0214,-15.8974],[-48.0139,-15.9045],[-48.0097,-15.9063],[-48.0005,-15.9163],[-48.0008,-15.9173],[-47.9997,-15.9182],[-48.0005,-15.9201],[-48.0,-15.9214],[-47.9972,-15.9203],[-47.994,-15.9201],[-47.9839,-15.925],[-47.984,-15.9285],[-47.9848,-15.9294],[-47.9892,-15.9326],[-47.9923,-15.9337],[-47.9942,-15.937],[-47.9967,-15.938],[-47.9969,-15.9397],[-48.0011,-15.9429],[-48.0017,-15.9455],[-48.0004,-15.9475],[-48.0196,-15.9645],[-48.0224,-15.9639],[-48.0378,-15.9457],[-48.0416,-15.9398],[-48.0603,-15.8826],[-48.0551,-15.8809],[-48.0456,-15.8746],[-48.043,-15.8741],[-48.0387,-15.8747]]]}},{"type":"Feature","id":"17-sudoeste","properties":{"name":"Sudoeste","province":"Distrito Federal","department":"Distrito Federal","type":"Região Administrativa","country":"Brasil","iso":"BR"},"geometry":{"type":"Polygon","coordinates":[[[-47.9297,-15.782],[-47.9272,-15.781],[-47.9142,-15.785],[-47.9182,-15.7968],[-47.914,-15.7982],[-47.926,-15.8053],[-47.9356,-15.8088],[-47.94,-15.8024],[-47.9332,-15.7981],[-47.9333,-15.7925],[-47.9297,-15.782]]]}},{"type":"Feature","id":"18-varjao","properties":{"name":"Varjão","province":"Distrito Federal","department":"Distrito Federal","type":"Região Administrativa","country":"Brasil","iso":"BR"},"geometry":{"type":"Polygon","coordinates":[[[-47.8728,-15.7145],[-47.8771,-15.7137],[-47.8787,-15.7113],[-47.8815,-15.7102],[-47.8843,-15.7072],[-47.8823,-15.7066],[-47.8816,-15.7052],[-47.8775,-15.7077],[-47.8731,-15.708],[-47.8721,-15.7094],[-47.8728,-15.7108],[-47.874,-15.7112],[-47.8738,-15.7128],[-47.8721,-15.7135],[-47.873,-15.7144],[-47.8728,-15.7145]]]}},{"type":"Feature","id":"19-park-way","properties":{"name":"Park Way","province":"Distrito Federal","department":"Distrito Federal","type":"Região Administrativa","country":"Brasil","iso":"BR"},"geometry":{"type":"Polygon","coordinates":[[[-47.939,-15.8617],[-47.9365,-15.8652],[-47.937,-15.8679],[-47.9363,-15.8697],[-47.9486,-15.8757],[-47.956,-15.8799],[-47.9564,-15.8811],[-47.952,-15.8844],[-47.9467,-15.8941],[-47.9427,-15.895],[-47.9408,-15.8945],[-47.939,-15.8929],[-47.9369,-15.8925],[-47.9242,-15.8842],[-47.9122,-15.8826],[-47.9096,-15.8814],[-47.907,-15.8815],[-47.9068,-15.8901],[-47.9094,-15.897],[-47.9118,-15.901],[-47.9125,-15.9057],[-47.9138,-15.9082],[-47.9183,-15.9087],[-47.9235,-15.9106],[-47.9243,-15.9122],[-47.9274,-15.913],[-47.9316,-15.9314],[-47.9445,-15.942],[-47.9482,-15.9415],[-47.9525,-15.9438],[-47.9601,-15.9463],[-47.9663,-15.9509],[-47.9748,-15.952],[-47.9816,-15.9514],[-47.9861,-15.9539],[-47.9945,-15.9528],[-47.9954,-15.9519],[-47.9949,-15.9444],[-47.9839,-15.928],[-47.9834,-15.9244],[-47.9821,-15.9225],[-47.9816,-15.9199],[-47.9889,-15.8934],[-47.989,-15.8871],[-47.988,-15.8845],[-47.979,-15.8805],[-47.9763,-15.8833],[-47.971,-15.8836],[-47.9706,-15.8788],[-47.9663,-15.874],[-47.9619,-15.871],[-47.9403,-15.86],[-47.939,-15.8617]]]}},{"type":"Feature","id":"20-scia","properties":{"name":"SCIA","province":"Distrito Federal","department":"Distrito Federal","type":"Região Administrativa","country":"Brasil","iso":"BR"},"geometry":{"type":"Polygon","coordinates":[[[-47.9751,-15.784],[-47.9681,-15.7916],[-47.9682,-15.7927],[-47.9701,-15.7943],[-47.9723,-15.7941],[-47.9827,-15.7889],[-47.989,-15.787],[-47.9968,-15.7851],[-48.0011,-15.7858],[-48.0038,-15.771],[-48.0027,-15.7708],[-48.0017,-15.7718],[-48.0002,-15.7754],[-47.9971,-15.7777],[-47.991,-15.7723],[-47.9888,-15.7716],[-47.9765,-15.7848],[-47.9751,-15.784]]]}},{"type":"Feature","id":"21-sobradinho-ii","properties":{"name":"Sobradinho II","province":"Distrito Federal","department":"Distrito Federal","type":"Região Administrativa","country":"Brasil","iso":"BR"},"geometry":{"type":"Polygon","coordinates":[[[-47.8123,-15.6434],[-47.8121,-15.6449],[-47.8161,-15.65],[-47.8174,-15.6538],[-47.8154,-15.6574],[-47.8145,-15.6575],[-47.8128,-15.6597],[-47.8124,-15.6627],[-47.8094,-15.6659],[-47.8164,-15.67],[-47.8198,-15.6656],[-47.8236,-15.6641],[-47.8388,-15.6614],[-47.8422,-15.6641],[-47.8461,-15.6559],[-47.8461,-15.6475],[-47.8508,-15.6378],[-47.8427,-15.6388],[-47.8317,-15.6366],[-47.8254,-15.6343],[-47.8223,-15.6363],[-47.8205,-15.6411],[-47.8123,-15.6434]]]}},{"type":"Feature","id":"22-jardim-botanico","properties":{"name":"Jardim Botânico","province":"Distrito Federal","department":"Distrito Federal","type":"Região Administrativa","country":"Brasil","iso":"BR"},"geometry":{"type":"Polygon","coordinates":[[[-47.8207,-15.8636],[-47.8309,-15.8596],[-47.8425,-15.8662],[-47.845,-15.8628],[-47.8435,-15.8616],[-47.845,-15.8598],[-47.8536,-15.8567],[-47.8562,-15.8588],[-47.8552,-15.8593],[-47.8531,-15.8645],[-47.8513,-15.8662],[-47.8512,-15.8683],[-47.857,-15.8708],[-47.8562,-15.8732],[-47.8575,-15.874],[-47.8801,-15.8849],[-47.8932,-15.9003],[-47.8934,-15.9009],[-47.8878,-15.9074],[-47.8814,-15.9129],[-47.8817,-15.9167],[-47.8849,-15.918],[-47.8894,-15.9164],[-47.8902,-15.9149],[-47.8951,-15.9152],[-47.8979,-15.9174],[-47.9039,-15.917],[-47.9058,-15.9249],[-47.904,-15.9287],[-47.8991,-15.9354],[-47.8963,-15.9458],[-47.8892,-15.9519],[-47.8873,-15.9576],[-47.8869,-15.9667],[-47.8922,-15.9699],[-47.89,-15.9717],[-47.8877,-15.9763],[-47.8854,-15.977],[-47.8811,-15.9858],[-47.878,-15.9965],[-47.8788,-15.9992],[-47.8756,-16.0078],[-47.874,-16.0107],[-47.8725,-16.011],[-47.8706,-16.0127],[-47.8715,-16.0139],[-47.8747,-16.015],[-47.8771,-16.0186],[-47.8772,-16.0209],[-47.875,-16.0275],[-47.8686,-16.0375],[-47.8756,-16.039],[-47.8823,-16.0463],[-47.885,-16.0468],[-47.8867,-16.0486],[-47.8874,-16.0485],[-47.8879,-16.0499],[-47.7216,-16.0499],[-47.7226,-16.044],[-47.7276,-16.0404],[-47.7274,-16.0357],[-47.7317,-16.0302],[-47.7339,-16.0318],[-47.7607,-16.0305],[-47.7596,-16.028],[-47.7612,-16.0242],[-47.7636,-16.0216],[-47.7646,-16.0193],[-47.7625,-16.0141],[-47.7626,-16.0094],[-47.7659,-16.0068],[-47.7693,-16.001],[-47.7798,-15.9892],[-47.7783,-15.9848],[-47.7752,-15.9831],[-47.7719,-15.9828],[-47.7678,-15.9797],[-47.765,-15.9789],[-47.7647,-15.9776],[-47.7602,-15.9727],[-47.7618,-15.9723],[-47.7646,-15.9694],[-47.7684,-15.9685],[-47.7732,-15.9656],[-47.7748,-15.9657],[-47.7875,-15.962],[-47.7916,-15.9596],[-47.7936,-15.9572],[-47.7941,-15.9528],[-47.7976,-15.9485],[-47.8006,-15.9462],[-47.8034,-15.9419],[-47.805,-15.9413],[-47.8057,-15.9397],[-47.8075,-15.9388],[-47.8046,-15.9313],[-47.8025,-15.9307],[-47.8002,-15.9285],[-47.7957,-15.9268],[-47.7788,-15.9231],[-47.7766,-15.9167],[-47.7725,-15.9125],[-47.7758,-15.9133],[-47.7818,-15.9131],[-47.7845,-15.9086],[-47.7899,-15.9063],[-47.7905,-15.9038],[-47.794,-15.902],[-47.7943,-15.9007],[-47.793,-15.8977],[-47.7945,-15.8968],[-47.7928,-15.8933],[-47.7954,-15.8917],[-47.7937,-15.8904],[-47.7953,-15.889],[-47.7951,-15.8869],[-47.7965,-15.8856],[-47.7951,-15.8817],[-47.7955,-15.8796],[-47.7979,-15.881],[-47.8022,-15.8809],[-47.7968,-15.8757],[-47.7901,-15.8752],[-47.7869,-15.8769],[-47.7849,-15.8794],[-47.7784,-15.882],[-47.7773,-15.8847],[-47.7739,-15.8857],[-47.771,-15.8913],[-47.7685,-15.893],[-47.7668,-15.8969],[-47.7648,-15.8983],[-47.7645,-15.8996],[-47.7615,-15.9031],[-47.7593,-15.9011],[-47.7572,-15.9025],[-47.7543,-15.903],[-47.7513,-15.9016],[-47.7469,-15.9015],[-47.7431,-15.8995],[-47.7421,-15.9003],[-47.742,-15.899],[-47.7403,-15.8985],[-47.7366,-15.8992],[-47.7339,-15.8986],[-47.7301,-15.8959],[-47.7283,-15.8935],[-47.7235,-15.891],[-47.7075,-15.8937],[-47.7069,-15.8916],[-47.7092,-15.8919],[-47.7095,-15.8914],[-47.7083,-15.8894],[-47.71,-15.8883],[-47.7116,-15.8883],[-47.712,-15.8875],[-47.7114,-15.8862],[-47.7093,-15.8856],[-47.7105,-15.884],[-47.7094,-15.8835],[-47.7095,-15.8823],[-47.7078,-15.8804],[-47.7085,-15.8774],[-47.7098,-15.8776],[-47.7101,-15.875],[-47.7109,-15.876],[-47.7126,-15.8755],[-47.7131,-15.8764],[-47.7176,-15.8776],[-47.7232,-15.8749],[-47.7304,-15.874],[-47.7322,-15.8724],[-47.741,-15.8699],[-47.7433,-15.8623],[-47.7467,-15.859],[-47.747,-15.8578],[-47.7453,-15.8537],[-47.7468,-15.852],[-47.7483,-15.8522],[-47.7497,-15.8494],[-47.7558,-15.8433],[-47.7716,-15.8346],[-47.7722,-15.8311],[-47.7708,-15.8268],[-47.773,-15.8249],[-47.773,-15.8221],[-47.7696,-15.8221],[-47.7677,-15.8197],[-47.7816,-15.8158],[-47.7771,-15.8134],[-47.7707,-15.8058],[-47.7739,-15.7967],[-47.7753,-15.796],[-47.7763,-15.7964],[-47.776,-15.7988],[-47.7766,-15.7995],[-47.784,-15.7983],[-47.7945,-15.8219],[-47.7971,-15.8263],[-47.8148,-15.8494],[-47.8195,-15.863],[-47.8207,-15.8636]]]}},{"type":"Feature","id":"23-itapoa","properties":{"name":"Itapoã","province":"Distrito Federal","department":"Distrito Federal","type":"Região Administrativa","country":"Brasil","iso":"BR"},"geometry":{"type":"Polygon","coordinates":[[[-47.7838,-15.7604],[-47.7863,-15.7575],[-47.7855,-15.756],[-47.7846,-15.7559],[-47.7849,-15.7528],[-47.7866,-15.7507],[-47.7863,-15.7495],[-47.7876,-15.7489],[-47.785,-15.746],[-47.784,-15.7431],[-47.7895,-15.7276],[-47.7811,-15.7243],[-47.7738,-15.7241],[-47.7708,-15.7226],[-47.762,-15.714],[-47.7574,-15.7176],[-47.7511,-15.7201],[-47.7426,-15.7276],[-47.7374,-15.7279],[-47.7333,-15.7265],[-47.7293,-15.7283],[-47.7196,-15.7254],[-47.718,-15.7271],[-47.7131,-15.7283],[-47.7039,-15.7263],[-47.7015,-15.7284],[-47.692,-15.7262],[-47.6902,-15.7267],[-47.6801,-15.7338],[-47.6787,-15.7337],[-47.6784,-15.7327],[-47.6789,-15.7339],[-47.677,-15.7319],[-47.6746,-15.7332],[-47.6803,-15.7357],[-47.6886,-15.736],[-47.6932,-15.7378],[-47.7048,-15.7439],[-47.7294,-15.7612],[-47.7331,-15.7628],[-47.7356,-15.7631],[-47.7398,-15.7618],[-47.7561,-15.7522],[-47.7592,-15.7519],[-47.7838,-15.7604]]]}},{"type":"Feature","id":"24-sia","properties":{"name":"SIA","province":"Distrito Federal","department":"Distrito Federal","type":"Região Administrativa","country":"Brasil","iso":"BR"},"geometry":{"type":"Polygon","coordinates":[[[-47.942,-15.787],[-47.9475,-15.8029],[-47.95,-15.818],[-47.9587,-15.8175],[-47.9588,-15.8163],[-47.9673,-15.8149],[-47.967,-15.8131],[-47.969,-15.811],[-47.9684,-15.8073],[-47.97,-15.807],[-47.9699,-15.8058],[-47.9716,-15.8056],[-47.9708,-15.7963],[-47.9583,-15.794],[-47.9461,-15.7874],[-47.9427,-15.7864],[-47.942,-15.787]]]}},{"type":"Feature","id":"25-vicente-pires","properties":{"name":"Vicente Pires","province":"Distrito Federal","department":"Distrito Federal","type":"Região Administrativa","country":"Brasil","iso":"BR"},"geometry":{"type":"Polygon","coordinates":[[[-48.0019,-15.7867],[-47.9985,-15.787],[-47.9973,-15.7897],[-48.001,-15.7999],[-48.001,-15.811],[-48.0023,-15.8131],[-48.0172,-15.8189],[-48.0348,-15.8292],[-48.0485,-15.8314],[-48.0528,-15.8287],[-48.0568,-15.8207],[-48.0584,-15.8101],[-48.0561,-15.7994],[-48.054,-15.7941],[-48.0526,-15.7928],[-48.0513,-15.7919],[-48.0465,-15.7913],[-48.023,-15.7902],[-48.0019,-15.7867]]]}},{"type":"Feature","id":"26-fercal","properties":{"name":"Fercal","province":"Distrito Federal","department":"Distrito Federal","type":"Região Administrativa","country":"Brasil","iso":"BR"},"geometry":{"type":"Polygon","coordinates":[[[-47.8628,-15.587],[-47.8685,-15.5897],[-47.8703,-15.5918],[-47.8737,-15.5927],[-47.8749,-15.5925],[-47.8766,-15.5906],[-47.88,-15.5902],[-47.881,-15.5892],[-47.8847,-15.5901],[-47.8861,-15.5919],[-47.8831,-15.5966],[-47.8841,-15.5994],[-47.8814,-15.6011],[-47.8764,-15.6026],[-47.8738,-15.6051],[-47.8681,-15.6054],[-47.866,-15.6045],[-47.8599,-15.6004],[-47.8597,-15.5978],[-47.8608,-15.5921],[-47.8628,-15.587]]]}},{"type":"Feature","id":"27-agua-quente","properties":{"name":"Água Quente","province":"Distrito Federal","department":"Distrito Federal","type":"Região Administrativa","country":"Brasil","iso":"BR"},"geometry":{"type":"Polygon","coordinates":[[[-48.2471,-15.9419],[-48.2471,-15.9391],[-48.2448,-15.9351],[-48.241,-15.9366],[-48.2345,-15.9352],[-48.2281,-15.9329],[-48.226,-15.9357],[-48.2234,-15.9364],[-48.221,-15.935],[-48.2187,-15.9369],[-48.2201,-15.94],[-48.2181,-15.9425],[-48.2216,-15.9434],[-48.2245,-15.9426],[-48.2257,-15.9432],[-48.226,-15.9446],[-48.2246,-15.9456],[-48.224,-15.9489],[-48.2273,-15.9492],[-48.2318,-15.9515],[-48.2344,-15.9458],[-48.2391,-15.9432],[-48.2403,-15.9434],[-48.2437,-15.9484],[-48.2449,-15.9485],[-48.2455,-15.9446],[-48.2432,-15.9432],[-48.243,-15.9416],[-48.2471,-15.9419]]]}},{"type":"Feature","id":"28-26-de-setembro","properties":{"name":"26 de Setembro","province":"Distrito Federal","department":"Distrito Federal","type":"Região Administrativa","country":"Brasil","iso":"BR"},"geometry":{"type":"Polygon","coordinates":[[[-48.0014,-15.7822],[-48.0044,-15.7828],[-48.0103,-15.7804],[-48.0155,-15.7779],[-48.0154,-15.7759],[-48.0214,-15.7757],[-48.0417,-15.7715],[-48.045,-15.7719],[-48.0449,-15.7631],[-48.0468,-15.7539],[-48.0174,-15.7518],[-48.0041,-15.7552],[-48.0037,-15.7558],[-48.0049,-15.7664],[-48.0014,-15.7822]]]}},{"type":"Feature","id":"29-arniqueiras","properties":{"name":"Arniqueiras","province":"Distrito Federal","department":"Distrito Federal","type":"Região Administrativa","country":"Brasil","iso":"BR"},"geometry":{"type":"Polygon","coordinates":[[[-48.0049,-15.8387],[-48.0035,-15.8386],[-47.9985,-15.8491],[-47.984,-15.8633],[-47.9831,-15.8644],[-47.9832,-15.8658],[-47.9917,-15.8684],[-47.99,-15.875],[-47.9905,-15.8762],[-48.0109,-15.878],[-48.0207,-15.8769],[-48.0209,-15.8755],[-48.0184,-15.8739],[-48.0182,-15.8724],[-48.021,-15.8684],[-48.0223,-15.8689],[-48.0232,-15.8677],[-48.0249,-15.863],[-48.0287,-15.8588],[-48.0309,-15.8543],[-48.0289,-15.8513],[-48.0279,-15.8474],[-48.0049,-15.8387]]]}},{"type":"Feature","id":"30-asa-norte","properties":{"name":"Asa Norte","province":"Distrito Federal","department":"Distrito Federal","type":"Região Administrativa","country":"Brasil","iso":"BR"},"geometry":{"type":"Polygon","coordinates":[[[-47.8874,-15.7831],[-47.874,-15.7832],[-47.8763,-15.766],[-47.8851,-15.7374],[-47.8866,-15.735],[-47.9019,-15.7394],[-47.901,-15.7422],[-47.904,-15.7438],[-47.9015,-15.7521],[-47.9033,-15.7532],[-47.9008,-15.7588],[-47.8995,-15.7593],[-47.8977,-15.7648],[-47.8988,-15.7661],[-47.8975,-15.7706],[-47.8963,-15.7708],[-47.8949,-15.7756],[-47.8944,-15.7828],[-47.8878,-15.7832],[-47.8874,-15.7831]]]}},{"type":"Feature","id":"31-asa-sul","properties":{"name":"Asa Sul","province":"Distrito Federal","department":"Distrito Federal","type":"Região Administrativa","country":"Brasil","iso":"BR"},"geometry":{"type":"Polygon","coordinates":[[[-47.8813,-15.8067],[-47.8941,-15.8198],[-47.9216,-15.8397],[-47.924,-15.8369],[-47.9244,-15.835],[-47.9275,-15.8325],[-47.9333,-15.8252],[-47.9311,-15.8246],[-47.9309,-15.8218],[-47.9284,-15.8212],[-47.9265,-15.8195],[-47.9255,-15.8147],[-47.9225,-15.8138],[-47.9201,-15.8116],[-47.9158,-15.8114],[-47.9149,-15.8082],[-47.9096,-15.8041],[-47.9078,-15.8049],[-47.9059,-15.8041],[-47.8982,-15.7956],[-47.8934,-15.7996],[-47.8813,-15.8067]]]}},{"type":"Feature","id":"35-guara-i","properties":{"name":"Guará I","province":"Distrito Federal","department":"Distrito Federal","type":"Região Administrativa","country":"Brasil","iso":"BR"},"geometry":{"type":"Polygon","coordinates":[[[-47.9722,-15.8105],[-47.9721,-15.8169],[-47.9712,-15.8186],[-47.9731,-15.821],[-47.9902,-15.8283],[-47.993,-15.8179],[-47.9923,-15.8114],[-47.9831,-15.8126],[-47.9782,-15.8123],[-47.9722,-15.8105]]]}},{"type":"Feature","id":"36-guara-ii","properties":{"name":"Guará II","province":"Distrito Federal","department":"Distrito Federal","type":"Região Administrativa","country":"Brasil","iso":"BR"},"geometry":{"type":"Polygon","coordinates":[[[-47.9782,-15.8244],[-47.9766,-15.8247],[-47.9742,-15.828],[-47.9743,-15.835],[-47.9729,-15.8359],[-47.9675,-15.8364],[-47.9669,-15.8372],[-47.9658,-15.8432],[-47.9675,-15.846],[-47.9606,-15.8485],[-47.9613,-15.8533],[-47.963,-15.8533],[-47.9617,-15.8539],[-47.9629,-15.86],[-47.975,-15.8542],[-47.975,-15.8531],[-47.9834,-15.8457],[-47.9859,-15.8463],[-47.9861,-15.8425],[-47.9896,-15.8303],[-47.9865,-15.8282],[-47.9772,-15.8245],[-47.9782,-15.8244]]]}},{"type":"Feature","id":"37-noroeste","properties":{"name":"Noroeste","province":"Distrito Federal","department":"Distrito Federal","type":"Região Administrativa","country":"Brasil","iso":"BR"},"geometry":{"type":"Polygon","coordinates":[[[-47.9071,-15.7718],[-47.9096,-15.7716],[-47.9162,-15.764],[-47.9258,-15.7583],[-47.9263,-15.7559],[-47.9163,-15.7397],[-47.91,-15.7377],[-47.9071,-15.7718]]]}},{"type":"Feature","id":"38-octogonal","properties":{"name":"Octogonal","province":"Distrito Federal","department":"Distrito Federal","type":"Região Administrativa","country":"Brasil","iso":"BR"},"geometry":{"type":"Polygon","coordinates":[[[-47.9368,-15.8083],[-47.9413,-15.802],[-47.9445,-15.8009],[-47.9454,-15.8017],[-47.9467,-15.8059],[-47.9451,-15.8094],[-47.942,-15.8102],[-47.9399,-15.8088],[-47.9379,-15.809],[-47.9368,-15.8083]]]}},{"type":"Feature","id":"39-riacho-fundo-i","properties":{"name":"Riacho Fundo I","province":"Distrito Federal","department":"Distrito Federal","type":"Região Administrativa","country":"Brasil","iso":"BR"},"geometry":{"type":"Polygon","coordinates":[[[-48.0387,-15.8747],[-48.0398,-15.877],[-48.04,-15.8822],[-48.0352,-15.8853],[-48.034,-15.8875],[-48.027,-15.891],[-48.0228,-15.8974],[-48.0214,-15.8974],[-48.0139,-15.9045],[-48.0097,-15.9063],[-48.0005,-15.9163],[-48.0008,-15.9173],[-47.9997,-15.9182],[-48.0005,-15.9201],[-48.0,-15.9214],[-47.9972,-15.9203],[-47.994,-15.9201],[-47.9839,-15.925],[-47.9821,-15.9226],[-47.9819,-15.9201],[-47.984,-15.9139],[-47.9843,-15.9108],[-47.9863,-15.9069],[-47.9858,-15.9053],[-47.9877,-15.9029],[-47.9878,-15.898],[-47.9893,-15.8945],[-47.989,-15.8871],[-47.9879,-15.8844],[-47.9867,-15.8835],[-47.9841,-15.882],[-47.983,-15.8823],[-47.9794,-15.8807],[-47.9802,-15.8773],[-47.9808,-15.8782],[-47.9874,-15.8776],[-47.9925,-15.8782],[-47.9959,-15.8798],[-48.0,-15.88],[-48.0006,-15.8775],[-48.0123,-15.8784],[-48.0387,-15.8747]]]}},{"type":"Feature","id":"40-sol-nascente","properties":{"name":"Sol Nascente","province":"Distrito Federal","department":"Distrito Federal","type":"Região Administrativa","country":"Brasil","iso":"BR"},"geometry":{"type":"Polygon","coordinates":[[[-48.1591,-15.8095],[-48.158,-15.8102],[-48.1561,-15.8097],[-48.1555,-15.8106],[-48.1541,-15.8094],[-48.151,-15.8086],[-48.1461,-15.8086],[-48.141,-15.8103],[-48.1368,-15.8092],[-48.1347,-15.815],[-48.1333,-15.8146],[-48.1326,-15.8162],[-48.1316,-15.8159],[-48.1308,-15.8179],[-48.1317,-15.8185],[-48.1312,-15.8197],[-48.1288,-15.8189],[-48.1268,-15.824],[-48.1257,-15.8238],[-48.1243,-15.8259],[-48.1238,-15.8283],[-48.121,-15.8265],[-48.1193,-15.8289],[-48.1182,-15.8284],[-48.1154,-15.8326],[-48.1164,-15.8342],[-48.1225,-15.8386],[-48.1241,-15.8368],[-48.1304,-15.8411],[-48.1307,-15.8422],[-48.1364,-15.8456],[-48.1465,-15.8469],[-48.1493,-15.8456],[-48.1598,-15.8367],[-48.1634,-15.8309],[-48.1625,-15.8271],[-48.1609,-15.8258],[-48.1619,-15.8243],[-48.1618,-15.822],[-48.1627,-15.8214],[-48.1607,-15.8174],[-48.1618,-15.8123],[-48.1591,-15.8095]]]}},{"type":"Feature","id":"41-taguatinga-norte","properties":{"name":"Taguatinga Norte","province":"Distrito Federal","department":"Distrito Federal","type":"Região Administrativa","country":"Brasil","iso":"BR"},"geometry":{"type":"Polygon","coordinates":[[[-48.088,-15.8355],[-48.0769,-15.8342],[-48.0661,-15.8364],[-48.0507,-15.8318],[-48.0512,-15.8318],[-48.0506,-15.8316],[-48.0513,-15.8303],[-48.0532,-15.8288],[-48.0567,-15.8219],[-48.0586,-15.8142],[-48.0583,-15.8054],[-48.0548,-15.7933],[-48.0562,-15.7929],[-48.0737,-15.7985],[-48.0789,-15.802],[-48.081,-15.8026],[-48.0843,-15.802],[-48.0924,-15.7965],[-48.1077,-15.7905],[-48.1121,-15.7944],[-48.1087,-15.7991],[-48.1075,-15.799],[-48.1013,-15.8054],[-48.0967,-15.8116],[-48.0931,-15.8191],[-48.0926,-15.8212],[-48.0931,-15.8222],[-48.088,-15.8355]]]}},{"type":"Feature","id":"42-taguatinga-sul","properties":{"name":"Taguatinga Sul","province":"Distrito Federal","department":"Distrito Federal","type":"Região Administrativa","country":"Brasil","iso":"BR"},"geometry":{"type":"Polygon","coordinates":[[[-48.093,-15.8386],[-48.093,-15.8379],[-48.0888,-15.8365],[-48.0788,-15.8347],[-48.0655,-15.8365],[-48.0511,-15.8321],[-48.0501,-15.8326],[-48.0487,-15.8357],[-48.0452,-15.8344],[-48.0371,-15.8502],[-48.0332,-15.8492],[-48.0292,-15.8584],[-48.0301,-15.8594],[-48.0256,-15.8679],[-48.0306,-15.8707],[-48.0284,-15.8754],[-48.0432,-15.8733],[-48.0425,-15.8718],[-48.0376,-15.8684],[-48.0398,-15.8637],[-48.0451,-15.8627],[-48.0506,-15.8554],[-48.0609,-15.8587],[-48.0646,-15.857],[-48.0677,-15.8518],[-48.0694,-15.852],[-48.0717,-15.8486],[-48.0729,-15.8476],[-48.0747,-15.8474],[-48.0755,-15.8436],[-48.0829,-15.8469],[-48.0834,-15.8485],[-48.0878,-15.8513],[-48.0907,-15.8459],[-48.0907,-15.8419],[-48.092,-15.8416],[-48.093,-15.8386]]]}},{"type":"Feature","id":"43-taquari","properties":{"name":"Taquari","province":"Distrito Federal","department":"Distrito Federal","type":"Região Administrativa","country":"Brasil","iso":"BR"},"geometry":{"type":"Polygon","coordinates":[[[-47.8755,-15.697],[-47.8697,-15.6939],[-47.868,-15.6948],[-47.8658,-15.6986],[-47.868,-15.7007],[-47.8684,-15.703],[-47.866,-15.7073],[-47.8644,-15.7067],[-47.8635,-15.7078],[-47.8645,-15.7085],[-47.8682,-15.7087],[-47.8697,-15.7071],[-47.8792,-15.7039],[-47.8795,-15.6991],[-47.8757,-15.697],[-47.8755,-15.697]]]}},{"type":"Feature","id":"44-vila-planalto","properties":{"name":"Vila Planalto","province":"Distrito Federal","department":"Distrito Federal","type":"Região Administrativa","country":"Brasil","iso":"BR"},"geometry":{"type":"Polygon","coordinates":[[[-47.849,-15.8016],[-47.8353,-15.7933],[-47.8341,-15.7904],[-47.8565,-15.7901],[-47.8578,-15.7919],[-47.8523,-15.7974],[-47.8507,-15.801],[-47.849,-15.8016]]]}}]}