{"type":"FeatureCollection","features":[{"type":"Feature","id":"okres-bratislava-1","properties":{"name":"Bratislava V","province":"Bratislava","department":"Bratislavský kraj","type":"Okres","country":"Eslovaquia","iso":"SK"},"geometry":{"type":"Polygon","coordinates":[[[17.2418,48.0225],[17.232,48.0296],[17.2249,48.0381],[17.2228,48.0398],[17.2043,48.0463],[17.1919,48.0525],[17.175,48.0578],[17.1698,48.0616],[17.1662,48.066],[17.1619,48.0689],[17.1563,48.0738],[17.1536,48.078],[17.1518,48.0834],[17.1479,48.09],[17.1397,48.1],[17.1391,48.1017],[17.1381,48.1066],[17.1383,48.1102],[17.1399,48.113],[17.1454,48.1188],[17.1464,48.1225],[17.1463,48.1261],[17.1453,48.1288],[17.1427,48.1323],[17.141,48.1334],[17.1351,48.136],[17.1247,48.1377],[17.1174,48.1383],[17.1174,48.1359],[17.1169,48.1359],[17.1171,48.1383],[17.0952,48.1386],[17.0739,48.1424],[17.0735,48.1406],[17.063,48.1423],[17.0574,48.1418],[17.0594,48.1412],[17.0594,48.1403],[17.0609,48.1389],[17.0616,48.136],[17.0601,48.1358],[17.0626,48.1318],[17.0656,48.1293],[17.0641,48.1287],[17.0643,48.1281],[17.0663,48.1282],[17.0676,48.1274],[17.0671,48.1264],[17.0688,48.1242],[17.068,48.1235],[17.0624,48.1232],[17.0628,48.1215],[17.068,48.1182],[17.068,48.1166],[17.0686,48.1161],[17.0728,48.1145],[17.0771,48.1151],[17.0729,48.1103],[17.0791,48.1079],[17.0774,48.1059],[17.0833,48.1025],[17.0837,48.103],[17.0927,48.0996],[17.0878,48.0966],[17.0931,48.0914],[17.0913,48.0906],[17.0896,48.0922],[17.0764,48.0862],[17.0746,48.0859],[17.0731,48.0834],[17.0749,48.0826],[17.0716,48.0809],[17.0789,48.0782],[17.0722,48.0704],[17.0868,48.0654],[17.0755,48.0591],[17.0717,48.0562],[17.0702,48.057],[17.0682,48.0554],[17.074,48.0529],[17.0843,48.0504],[17.0857,48.0493],[17.0878,48.0457],[17.0742,48.0363],[17.0751,48.0358],[17.0674,48.0314],[17.0848,48.0238],[17.0882,48.0218],[17.0899,48.0198],[17.1101,48.0312],[17.1174,48.0283],[17.1267,48.0209],[17.1308,48.023],[17.133,48.0224],[17.1364,48.0229],[17.1424,48.0195],[17.1438,48.0202],[17.1501,48.0136],[17.1608,48.0067],[17.1629,48.0083],[17.172,48.0118],[17.191,48.0177],[17.1944,48.0184],[17.1983,48.0177],[17.2001,48.0198],[17.2141,48.0191],[17.2207,48.0165],[17.2266,48.0162],[17.2361,48.0186],[17.2405,48.0206],[17.2403,48.0216],[17.2418,48.0225]]]}},{"type":"Feature","id":"okres-bratislava-2","properties":{"name":"Bratislava I","province":"Bratislava","department":"Bratislavský kraj","type":"Okres","country":"Eslovaquia","iso":"SK"},"geometry":{"type":"Polygon","coordinates":[[[17.1174,48.1383],[17.1175,48.14],[17.1204,48.1409],[17.1292,48.1402],[17.1324,48.1457],[17.1248,48.1465],[17.1268,48.1523],[17.1259,48.1532],[17.1252,48.1561],[17.1193,48.1576],[17.1182,48.1574],[17.1148,48.1596],[17.1082,48.1589],[17.0999,48.1626],[17.0924,48.1633],[17.0855,48.165],[17.0818,48.167],[17.0775,48.172],[17.0734,48.1745],[17.0739,48.1721],[17.0721,48.171],[17.0779,48.1672],[17.0764,48.1646],[17.0766,48.1566],[17.0772,48.1531],[17.0765,48.1468],[17.0743,48.1442],[17.0739,48.1424],[17.0952,48.1386],[17.1171,48.1383],[17.1169,48.1359],[17.1174,48.1359],[17.1174,48.1383]]]}},{"type":"Feature","id":"okres-bratislava-3","properties":{"name":"Bratislava II","province":"Bratislava","department":"Bratislavský kraj","type":"Okres","country":"Eslovaquia","iso":"SK"},"geometry":{"type":"Polygon","coordinates":[[[17.1874,48.0538],[17.1944,48.0639],[17.2021,48.0617],[17.2008,48.0654],[17.2017,48.0671],[17.2007,48.0683],[17.2021,48.0701],[17.2008,48.0705],[17.2043,48.0754],[17.2091,48.0767],[17.2119,48.0795],[17.2122,48.0807],[17.2114,48.0827],[17.2067,48.0857],[17.213,48.0928],[17.2137,48.0922],[17.2151,48.0927],[17.2149,48.0934],[17.216,48.0946],[17.2168,48.0944],[17.2177,48.0957],[17.2181,48.0977],[17.2163,48.0996],[17.2175,48.101],[17.2167,48.1023],[17.2173,48.1035],[17.2204,48.1038],[17.2299,48.1081],[17.2361,48.1116],[17.2392,48.1114],[17.2406,48.1123],[17.2443,48.1114],[17.2455,48.1123],[17.2488,48.1102],[17.254,48.1091],[17.2552,48.1082],[17.2622,48.1068],[17.2666,48.1035],[17.2762,48.1001],[17.2832,48.1102],[17.2833,48.1128],[17.2845,48.1167],[17.2793,48.1169],[17.2828,48.1208],[17.2801,48.1234],[17.2747,48.1227],[17.265,48.1238],[17.2626,48.1294],[17.2587,48.1357],[17.2535,48.1369],[17.2536,48.1377],[17.2419,48.1389],[17.2403,48.1425],[17.2385,48.1441],[17.2375,48.1442],[17.2375,48.1459],[17.239,48.1484],[17.2377,48.1498],[17.2387,48.1511],[17.2384,48.1533],[17.2366,48.1538],[17.2336,48.1563],[17.2352,48.1574],[17.2342,48.1585],[17.2343,48.1621],[17.2337,48.1629],[17.2318,48.1631],[17.2318,48.1644],[17.2272,48.164],[17.2291,48.1671],[17.2358,48.1666],[17.2373,48.1681],[17.2364,48.1691],[17.2342,48.1698],[17.2309,48.1693],[17.2296,48.1698],[17.2242,48.1741],[17.2233,48.176],[17.2179,48.1818],[17.2211,48.1825],[17.2225,48.1847],[17.2251,48.1864],[17.2244,48.1917],[17.1816,48.1891],[17.1746,48.187],[17.1752,48.1869],[17.1673,48.1778],[17.1553,48.1676],[17.1357,48.1595],[17.128,48.1584],[17.1252,48.1561],[17.1259,48.1532],[17.1268,48.1523],[17.1248,48.1465],[17.1324,48.1457],[17.1292,48.1402],[17.1204,48.1409],[17.1175,48.14],[17.1174,48.1383],[17.1344,48.1362],[17.1395,48.1345],[17.1427,48.1323],[17.146,48.127],[17.1464,48.1225],[17.1454,48.1188],[17.1399,48.113],[17.1383,48.1102],[17.1381,48.1066],[17.1397,48.1],[17.1475,48.0906],[17.152,48.0831],[17.1546,48.0762],[17.1571,48.073],[17.1662,48.066],[17.1696,48.0618],[17.174,48.0584],[17.1874,48.0538]]]}},{"type":"Feature","id":"okres-bratislava-4","properties":{"name":"Bratislava III","province":"Bratislava","department":"Bratislavský kraj","type":"Okres","country":"Eslovaquia","iso":"SK"},"geometry":{"type":"Polygon","coordinates":[[[17.1342,48.2428],[17.1281,48.2431],[17.125,48.2426],[17.1241,48.2418],[17.1222,48.2421],[17.1211,48.2413],[17.1177,48.241],[17.1148,48.2385],[17.1115,48.2377],[17.1076,48.2376],[17.1083,48.2364],[17.1069,48.2323],[17.1077,48.2303],[17.1102,48.2277],[17.1074,48.2261],[17.1074,48.2251],[17.1059,48.2231],[17.1037,48.2225],[17.0975,48.2241],[17.0956,48.2222],[17.0937,48.2213],[17.0899,48.2221],[17.089,48.2206],[17.0896,48.2186],[17.0907,48.2181],[17.0896,48.2178],[17.0843,48.2213],[17.0805,48.2219],[17.0778,48.2231],[17.0756,48.2233],[17.0701,48.2206],[17.0705,48.2189],[17.0657,48.2118],[17.0647,48.2089],[17.0646,48.205],[17.0667,48.2025],[17.0658,48.2014],[17.066,48.1993],[17.064,48.1977],[17.0642,48.1914],[17.0668,48.1915],[17.0661,48.1906],[17.068,48.1893],[17.0675,48.1881],[17.0705,48.1845],[17.0688,48.184],[17.0698,48.1828],[17.0696,48.1823],[17.0675,48.1818],[17.0644,48.1785],[17.0694,48.1764],[17.0702,48.1767],[17.0715,48.1761],[17.0714,48.1756],[17.0767,48.1726],[17.0814,48.1673],[17.0843,48.1655],[17.0924,48.1633],[17.0999,48.1626],[17.1082,48.1589],[17.1154,48.1595],[17.1182,48.1574],[17.1203,48.1574],[17.125,48.1559],[17.128,48.1584],[17.1357,48.1595],[17.1553,48.1676],[17.1673,48.1778],[17.1752,48.1869],[17.1746,48.187],[17.1816,48.1891],[17.2244,48.1917],[17.2242,48.1934],[17.2249,48.1941],[17.2263,48.1948],[17.2286,48.1948],[17.2292,48.1977],[17.2316,48.1985],[17.2272,48.204],[17.2223,48.2067],[17.2156,48.2138],[17.2093,48.2185],[17.1834,48.2334],[17.1812,48.2338],[17.1784,48.2355],[17.1711,48.2373],[17.168,48.2389],[17.1653,48.2416],[17.1654,48.2431],[17.1646,48.2446],[17.1616,48.244],[17.1592,48.2425],[17.1565,48.2393],[17.1533,48.2384],[17.1455,48.2401],[17.1447,48.2425],[17.1431,48.2438],[17.139,48.2421],[17.1342,48.2428]]]}},{"type":"Feature","id":"okres-bratislava-5","properties":{"name":"Bratislava IV","province":"Bratislava","department":"Bratislavský kraj","type":"Okres","country":"Eslovaquia","iso":"SK"},"geometry":{"type":"Polygon","coordinates":[[[17.0739,48.1424],[17.0743,48.1442],[17.0765,48.1468],[17.0772,48.1531],[17.0766,48.1566],[17.0764,48.1646],[17.0779,48.1673],[17.0721,48.171],[17.0739,48.1722],[17.0739,48.1741],[17.0731,48.175],[17.0702,48.1767],[17.0694,48.1764],[17.0644,48.1785],[17.0675,48.1818],[17.0696,48.1823],[17.0698,48.1828],[17.0688,48.184],[17.0705,48.1845],[17.0675,48.1881],[17.068,48.1893],[17.0661,48.1906],[17.0668,48.1915],[17.0642,48.1914],[17.064,48.1977],[17.066,48.1993],[17.0658,48.2014],[17.0667,48.2025],[17.0646,48.205],[17.0647,48.2089],[17.0657,48.2118],[17.0705,48.2189],[17.0701,48.2206],[17.0756,48.2233],[17.0778,48.2231],[17.0805,48.2219],[17.0843,48.2213],[17.0896,48.2178],[17.0907,48.2181],[17.0896,48.2186],[17.089,48.2206],[17.0899,48.2221],[17.0937,48.2213],[17.0956,48.2222],[17.0975,48.2241],[17.1037,48.2225],[17.1059,48.2231],[17.1074,48.2251],[17.1074,48.2261],[17.1102,48.2277],[17.1077,48.2303],[17.1069,48.2323],[17.1083,48.2364],[17.1074,48.2375],[17.1148,48.2385],[17.1177,48.241],[17.1211,48.2413],[17.1222,48.2421],[17.1241,48.2418],[17.125,48.2426],[17.1281,48.2431],[17.1342,48.2428],[17.1354,48.2433],[17.1373,48.2475],[17.1293,48.248],[17.1242,48.2463],[17.1223,48.2446],[17.1205,48.2444],[17.114,48.2456],[17.1111,48.2472],[17.1011,48.2486],[17.0994,48.2494],[17.0953,48.2492],[17.0937,48.2472],[17.091,48.2467],[17.0814,48.2498],[17.0809,48.2496],[17.0826,48.2474],[17.0815,48.247],[17.0816,48.2438],[17.0808,48.2428],[17.078,48.242],[17.0772,48.2404],[17.0764,48.2401],[17.0767,48.2359],[17.0738,48.2356],[17.0696,48.2374],[17.0679,48.2396],[17.0682,48.2413],[17.0674,48.2422],[17.0599,48.2427],[17.0578,48.2438],[17.0472,48.2455],[17.0444,48.2504],[17.0457,48.2512],[17.0442,48.2521],[17.0427,48.2511],[17.0403,48.2508],[17.0349,48.2505],[17.0342,48.2511],[17.0295,48.2502],[17.0289,48.251],[17.0208,48.2501],[17.0202,48.2491],[17.0186,48.2487],[17.0184,48.2481],[17.0038,48.2509],[16.9979,48.2512],[16.9982,48.252],[16.996,48.2526],[16.9872,48.2523],[16.9866,48.2534],[16.9851,48.2534],[16.9835,48.2552],[16.971,48.2632],[16.9585,48.2651],[16.9567,48.262],[16.9514,48.2567],[16.9498,48.2522],[16.9498,48.2488],[16.9483,48.2439],[16.9467,48.2417],[16.9461,48.2359],[16.9471,48.2339],[16.949,48.2319],[16.9575,48.2265],[16.9618,48.2208],[16.9625,48.2136],[16.9655,48.2098],[16.9671,48.2053],[16.9698,48.2017],[16.9728,48.1944],[16.9763,48.1896],[16.9774,48.1823],[16.9755,48.1766],[16.9762,48.1721],[16.985,48.1675],[16.9936,48.1617],[17.0123,48.1535],[17.0178,48.149],[17.0233,48.1428],[17.0269,48.1409],[17.0333,48.1398],[17.0386,48.1398],[17.0572,48.1437],[17.0574,48.1418],[17.063,48.1423],[17.0735,48.1406],[17.0739,48.1424]]]}}]}