{"type":"FeatureCollection","features":[{"type":"Feature","id":"commune-brussels-21001","properties":{"name":"Anderlecht","province":"Brussels","department":"Région de Bruxelles-Capitale","type":"Commune","country":"Bélgica","iso":"BE"},"geometry":{"type":"Polygon","coordinates":[[[4.3202,50.8472],[4.326,50.8454],[4.328,50.844],[4.3307,50.8444],[4.3338,50.8478],[4.3357,50.8482],[4.3361,50.8464],[4.338,50.8464],[4.34,50.8402],[4.3365,50.8392],[4.3361,50.8381],[4.3326,50.8359],[4.3322,50.8343],[4.3291,50.8313],[4.3257,50.8303],[4.3214,50.8265],[4.321,50.8247],[4.3179,50.8223],[4.3125,50.8201],[4.311,50.8201],[4.3102,50.8181],[4.3079,50.8173],[4.3082,50.8163],[4.3102,50.8155],[4.3106,50.8142],[4.3082,50.8122],[4.3005,50.8128],[4.2982,50.8114],[4.2978,50.8102],[4.2936,50.8082],[4.2897,50.8086],[4.2835,50.807],[4.2769,50.8082],[4.2765,50.81],[4.2731,50.8122],[4.2599,50.811],[4.2591,50.8138],[4.2564,50.8173],[4.2514,50.8173],[4.2499,50.8195],[4.2464,50.8191],[4.2448,50.8177],[4.2444,50.8201],[4.251,50.8243],[4.2533,50.8251],[4.2557,50.8285],[4.2549,50.8289],[4.2557,50.8303],[4.2545,50.8321],[4.2564,50.8349],[4.2587,50.8359],[4.2634,50.8353],[4.2645,50.8359],[4.2719,50.8361],[4.2719,50.8371],[4.2731,50.8387],[4.275,50.8389],[4.2777,50.8379],[4.2827,50.8379],[4.2827,50.8396],[4.2816,50.84],[4.2839,50.8406],[4.2835,50.8438],[4.2847,50.8454],[4.2916,50.8452],[4.292,50.8464],[4.2905,50.849],[4.2936,50.8492],[4.2951,50.8476],[4.299,50.8474],[4.3005,50.8488],[4.304,50.8482],[4.3071,50.8498],[4.3102,50.8504],[4.3202,50.8472]]]}},{"type":"Feature","id":"commune-brussels-21002","properties":{"name":"Auderghem","province":"Brussels","department":"Région de Bruxelles-Capitale","type":"Commune","country":"Bélgica","iso":"BE"},"geometry":{"type":"Polygon","coordinates":[[[4.4277,50.81],[4.4188,50.811],[4.4177,50.8124],[4.4123,50.8132],[4.4065,50.8124],[4.4065,50.8151],[4.398,50.8132],[4.3972,50.8148],[4.3941,50.8173],[4.3999,50.8171],[4.403,50.8185],[4.403,50.8207],[4.396,50.8257],[4.3972,50.8263],[4.3995,50.8249],[4.4045,50.8271],[4.4119,50.8225],[4.4146,50.8229],[4.4192,50.8221],[4.4274,50.8259],[4.4301,50.8261],[4.4335,50.8251],[4.4405,50.8205],[4.4432,50.8225],[4.4467,50.8227],[4.4529,50.8205],[4.4575,50.8163],[4.454,50.8151],[4.4479,50.8112],[4.4494,50.8098],[4.4471,50.8082],[4.4803,50.7944],[4.4815,50.7928],[4.4703,50.7897],[4.4664,50.7905],[4.4618,50.7905],[4.4552,50.792],[4.4513,50.7988],[4.4436,50.7976],[4.4293,50.8038],[4.4281,50.8052],[4.4293,50.808],[4.4277,50.81]]]}},{"type":"Feature","id":"commune-brussels-21003","properties":{"name":"Berchem-Sainte-Agathe","province":"Brussels","department":"Région de Bruxelles-Capitale","type":"Commune","country":"Bélgica","iso":"BE"},"geometry":{"type":"Polygon","coordinates":[[[4.3059,50.8643],[4.3063,50.8626],[4.3044,50.8616],[4.3044,50.8608],[4.3032,50.8598],[4.304,50.858],[4.2955,50.8554],[4.2897,50.8558],[4.2885,50.8576],[4.2847,50.8582],[4.2804,50.8598],[4.2808,50.8614],[4.2792,50.8657],[4.2804,50.8671],[4.2839,50.8689],[4.2885,50.8735],[4.2916,50.8745],[4.2916,50.8753],[4.3036,50.8695],[4.309,50.8693],[4.314,50.8671],[4.309,50.8669],[4.3071,50.8657],[4.3071,50.8643],[4.3059,50.8643]]]}},{"type":"Feature","id":"commune-brussels-21004","properties":{"name":"Bruxelles","province":"Brussels","department":"Région de Bruxelles-Capitale","type":"Commune","country":"Bélgica","iso":"BE"},"geometry":{"type":"Polygon","coordinates":[[[4.3407,50.8385],[4.338,50.8464],[4.3361,50.8464],[4.3357,50.8482],[4.338,50.8494],[4.3465,50.8588],[4.3458,50.8596],[4.3485,50.8628],[4.3415,50.8651],[4.3434,50.8675],[4.3427,50.8699],[4.3403,50.8713],[4.3384,50.8763],[4.3396,50.8765],[4.3384,50.8845],[4.3365,50.8869],[4.3299,50.8853],[4.3276,50.889],[4.3299,50.8902],[4.326,50.8912],[4.3276,50.8934],[4.3272,50.8936],[4.3241,50.8942],[4.3179,50.8932],[4.3137,50.8934],[4.3183,50.8946],[4.3249,50.8988],[4.3311,50.901],[4.3423,50.9024],[4.3519,50.9012],[4.3632,50.901],[4.3775,50.897],[4.3782,50.8978],[4.3779,50.8994],[4.3794,50.9008],[4.3829,50.9018],[4.3871,50.9072],[4.3875,50.9096],[4.3887,50.9102],[4.3949,50.9102],[4.3972,50.9119],[4.3987,50.9121],[4.3991,50.9133],[4.4034,50.9139],[4.4134,50.9117],[4.4138,50.9096],[4.4123,50.9086],[4.4127,50.907],[4.4181,50.9054],[4.4181,50.904],[4.4231,50.903],[4.4274,50.9],[4.4258,50.8986],[4.4316,50.8952],[4.4316,50.8936],[4.427,50.891],[4.4274,50.8894],[4.437,50.8787],[4.4289,50.8777],[4.4289,50.8763],[4.4258,50.8721],[4.4223,50.8733],[4.4142,50.8783],[4.4111,50.8771],[4.41,50.8779],[4.4084,50.8809],[4.4018,50.8859],[4.3871,50.8819],[4.3883,50.8811],[4.3825,50.8795],[4.3748,50.8753],[4.3724,50.8715],[4.3655,50.8695],[4.3635,50.8713],[4.3612,50.8689],[4.3554,50.8562],[4.3682,50.8526],[4.3697,50.8472],[4.3751,50.8476],[4.3755,50.8484],[4.3779,50.8488],[4.3806,50.8506],[4.3848,50.8516],[4.3937,50.8466],[4.396,50.8434],[4.3933,50.8379],[4.3802,50.84],[4.3806,50.8377],[4.3798,50.8367],[4.3748,50.8359],[4.3759,50.8377],[4.3751,50.8381],[4.3759,50.8398],[4.3728,50.8406],[4.3721,50.8394],[4.3686,50.84],[4.3678,50.8389],[4.3624,50.8385],[4.3554,50.8355],[4.3608,50.8317],[4.3663,50.8293],[4.3647,50.8275],[4.3686,50.8245],[4.3705,50.8241],[4.3786,50.8142],[4.3825,50.8159],[4.3852,50.8118],[4.3871,50.8076],[4.3871,50.806],[4.3887,50.8042],[4.3906,50.8022],[4.3929,50.801],[4.3968,50.8018],[4.4011,50.7974],[4.4007,50.7964],[4.3763,50.7996],[4.3779,50.8002],[4.3728,50.803],[4.3717,50.8066],[4.3728,50.8082],[4.3697,50.8094],[4.3678,50.8134],[4.3682,50.8148],[4.3705,50.8153],[4.3697,50.8193],[4.3663,50.8209],[4.367,50.8231],[4.3643,50.8241],[4.3647,50.8249],[4.3616,50.8265],[4.3624,50.8269],[4.3581,50.8307],[4.3581,50.8317],[4.355,50.8355],[4.3489,50.8329],[4.345,50.8325],[4.3431,50.8329],[4.3407,50.8385]]]}},{"type":"Feature","id":"commune-brussels-21005","properties":{"name":"Etterbeek","province":"Brussels","department":"Région de Bruxelles-Capitale","type":"Commune","country":"Bélgica","iso":"BE"},"geometry":{"type":"Polygon","coordinates":[[[4.3798,50.8367],[4.3806,50.8377],[4.3802,50.84],[4.3933,50.8379],[4.396,50.8434],[4.3987,50.8446],[4.4022,50.8404],[4.4076,50.8389],[4.4057,50.8379],[4.4069,50.8361],[4.4092,50.8343],[4.4107,50.8305],[4.4123,50.8305],[4.3995,50.8249],[4.3972,50.8263],[4.3895,50.8225],[4.3802,50.8301],[4.3821,50.8329],[4.379,50.8339],[4.3798,50.8367]]]}},{"type":"Feature","id":"commune-brussels-21006","properties":{"name":"Evere","province":"Brussels","department":"Région de Bruxelles-Capitale","type":"Commune","country":"Bélgica","iso":"BE"},"geometry":{"type":"Polygon","coordinates":[[[4.3926,50.8759],[4.3871,50.8819],[4.4018,50.8859],[4.4084,50.8809],[4.41,50.8779],[4.4111,50.8771],[4.4142,50.8783],[4.4223,50.8733],[4.4258,50.8721],[4.4208,50.8677],[4.4266,50.8628],[4.4219,50.857],[4.4119,50.852],[4.4123,50.8546],[4.4088,50.8576],[4.4076,50.8574],[4.4045,50.8598],[4.398,50.8661],[4.3926,50.8759]]]}},{"type":"Feature","id":"commune-brussels-21007","properties":{"name":"Forest","province":"Brussels","department":"Région de Bruxelles-Capitale","type":"Commune","country":"Bélgica","iso":"BE"},"geometry":{"type":"Polygon","coordinates":[[[4.3233,50.8028],[4.3218,50.8006],[4.3152,50.7992],[4.3113,50.7976],[4.3048,50.7988],[4.3021,50.8042],[4.3032,50.8054],[4.3044,50.809],[4.3055,50.8092],[4.3063,50.8124],[4.3082,50.8122],[4.3106,50.8142],[4.3102,50.8155],[4.3082,50.8163],[4.3079,50.8173],[4.3102,50.8181],[4.311,50.8201],[4.3125,50.8201],[4.3179,50.8223],[4.321,50.8247],[4.3214,50.8265],[4.3257,50.8303],[4.3299,50.8297],[4.3342,50.8281],[4.3434,50.8217],[4.3535,50.8207],[4.3504,50.8157],[4.3473,50.8161],[4.3481,50.8142],[4.3442,50.814],[4.3388,50.8151],[4.3349,50.8128],[4.3369,50.8114],[4.3357,50.8084],[4.3326,50.808],[4.3307,50.8062],[4.3284,50.8066],[4.3272,50.8056],[4.3249,50.805],[4.3233,50.8028]]]}},{"type":"Feature","id":"commune-brussels-21008","properties":{"name":"Ganshoren","province":"Brussels","department":"Région de Bruxelles-Capitale","type":"Commune","country":"Bélgica","iso":"BE"},"geometry":{"type":"Polygon","coordinates":[[[4.314,50.8671],[4.309,50.8693],[4.3036,50.8695],[4.2916,50.8753],[4.2982,50.8789],[4.299,50.8799],[4.2982,50.8821],[4.3133,50.8799],[4.3198,50.8803],[4.3195,50.8785],[4.321,50.8777],[4.3202,50.8753],[4.3233,50.8727],[4.3206,50.8721],[4.3241,50.8671],[4.326,50.8657],[4.3249,50.8651],[4.3198,50.8667],[4.314,50.8671]]]}},{"type":"Feature","id":"commune-brussels-21009","properties":{"name":"Ixelles","province":"Brussels","department":"Région de Bruxelles-Capitale","type":"Commune","country":"Bélgica","iso":"BE"},"geometry":{"type":"MultiPolygon","coordinates":[[[[4.3968,50.8018],[4.3929,50.801],[4.3906,50.8022],[4.3871,50.806],[4.3871,50.8076],[4.3852,50.8118],[4.3825,50.8159],[4.3786,50.8142],[4.3705,50.8241],[4.3686,50.8245],[4.3647,50.8275],[4.3663,50.8293],[4.3608,50.8317],[4.3562,50.8347],[4.3562,50.8357],[4.3624,50.8385],[4.3678,50.8389],[4.3686,50.84],[4.3721,50.8394],[4.3728,50.8406],[4.3748,50.8402],[4.3759,50.8398],[4.3751,50.8381],[4.3759,50.8377],[4.3748,50.8359],[4.3798,50.8367],[4.379,50.8339],[4.3821,50.8329],[4.3802,50.8301],[4.3895,50.8225],[4.396,50.8257],[4.403,50.8207],[4.403,50.8185],[4.3999,50.8171],[4.3941,50.8173],[4.3972,50.8148],[4.398,50.8132],[4.3922,50.812],[4.3941,50.81],[4.3972,50.8084],[4.3964,50.8034],[4.3968,50.8018]]],[[[4.3663,50.8209],[4.3697,50.8193],[4.3705,50.8153],[4.3682,50.8148],[4.3666,50.8169],[4.3635,50.8159],[4.3605,50.8167],[4.3589,50.8165],[4.3574,50.8146],[4.3481,50.8142],[4.3473,50.8161],[4.3504,50.8157],[4.3535,50.8207],[4.3539,50.8227],[4.3585,50.8253],[4.3585,50.8273],[4.357,50.8281],[4.3581,50.8307],[4.3624,50.8269],[4.3616,50.8265],[4.3647,50.8249],[4.3643,50.8241],[4.367,50.8231],[4.3663,50.8209]]]]}},{"type":"Feature","id":"commune-brussels-21010","properties":{"name":"Jette","province":"Brussels","department":"Région de Bruxelles-Capitale","type":"Commune","country":"Bélgica","iso":"BE"},"geometry":{"type":"Polygon","coordinates":[[[4.3206,50.8721],[4.3233,50.8727],[4.3202,50.8753],[4.321,50.8777],[4.3195,50.8785],[4.3198,50.8803],[4.3133,50.8799],[4.2982,50.8821],[4.297,50.8847],[4.2951,50.8855],[4.2939,50.8871],[4.2939,50.889],[4.3009,50.8906],[4.3082,50.8912],[4.3137,50.8934],[4.3179,50.8932],[4.3241,50.8942],[4.3276,50.8934],[4.326,50.8912],[4.3299,50.8902],[4.3276,50.889],[4.3299,50.8853],[4.3365,50.8869],[4.3384,50.8845],[4.3396,50.8765],[4.3384,50.8763],[4.3403,50.8713],[4.3322,50.8645],[4.3295,50.8677],[4.3253,50.8667],[4.3241,50.8671],[4.3206,50.8721]]]}},{"type":"Feature","id":"commune-brussels-21011","properties":{"name":"Koekelberg","province":"Brussels","department":"Région de Bruxelles-Capitale","type":"Commune","country":"Bélgica","iso":"BE"},"geometry":{"type":"Polygon","coordinates":[[[4.3264,50.859],[4.3272,50.8598],[4.3268,50.8612],[4.3222,50.8624],[4.316,50.8612],[4.3121,50.8643],[4.3071,50.8643],[4.3071,50.8657],[4.309,50.8669],[4.3148,50.8673],[4.3229,50.8661],[4.3249,50.8651],[4.326,50.8657],[4.3253,50.8667],[4.3295,50.8677],[4.3349,50.8618],[4.3349,50.861],[4.3376,50.8594],[4.3326,50.857],[4.3257,50.857],[4.3264,50.859]]]}},{"type":"Feature","id":"commune-brussels-21012","properties":{"name":"Molenbeek-Saint-Jean","province":"Brussels","department":"Région de Bruxelles-Capitale","type":"Commune","country":"Bélgica","iso":"BE"},"geometry":{"type":"Polygon","coordinates":[[[4.3403,50.8713],[4.3427,50.8699],[4.3434,50.8675],[4.3415,50.8651],[4.3485,50.8628],[4.3458,50.8596],[4.3465,50.8588],[4.338,50.8494],[4.3338,50.8478],[4.3307,50.8444],[4.328,50.844],[4.326,50.8454],[4.3102,50.8504],[4.3071,50.8498],[4.304,50.8482],[4.3005,50.8488],[4.299,50.8474],[4.2951,50.8476],[4.2936,50.8492],[4.2905,50.849],[4.292,50.8464],[4.2916,50.8452],[4.2847,50.8454],[4.2858,50.8478],[4.2881,50.8482],[4.2866,50.8512],[4.2831,50.8536],[4.2835,50.854],[4.2897,50.8558],[4.2955,50.8554],[4.304,50.858],[4.3032,50.8598],[4.3044,50.8608],[4.3044,50.8616],[4.3063,50.8626],[4.3059,50.8643],[4.3121,50.8643],[4.316,50.8612],[4.3222,50.8624],[4.3268,50.8612],[4.3272,50.8598],[4.3257,50.857],[4.3326,50.857],[4.3376,50.8594],[4.3349,50.861],[4.3349,50.8618],[4.3322,50.8645],[4.3403,50.8713]]]}},{"type":"Feature","id":"commune-brussels-21013","properties":{"name":"Saint-Gilles","province":"Brussels","department":"Région de Bruxelles-Capitale","type":"Commune","country":"Bélgica","iso":"BE"},"geometry":{"type":"MultiPolygon","coordinates":[[[[4.3535,50.8207],[4.3434,50.8217],[4.3342,50.8281],[4.326,50.8305],[4.3291,50.8313],[4.3322,50.8343],[4.3326,50.8359],[4.3361,50.8381],[4.3365,50.8392],[4.34,50.8402],[4.3431,50.8329],[4.345,50.8325],[4.3489,50.8329],[4.355,50.8355],[4.3581,50.8317],[4.357,50.8281],[4.3585,50.8273],[4.3585,50.8253],[4.3539,50.8227],[4.3535,50.8207]]],[[[4.3562,50.8347],[4.3554,50.8355],[4.3562,50.8357],[4.3562,50.8347]]]]}},{"type":"Feature","id":"commune-brussels-21014","properties":{"name":"Saint-Josse-ten-Noode","province":"Brussels","department":"Région de Bruxelles-Capitale","type":"Commune","country":"Bélgica","iso":"BE"},"geometry":{"type":"Polygon","coordinates":[[[4.384,50.8514],[4.3806,50.8506],[4.3779,50.8488],[4.3755,50.8484],[4.3751,50.8476],[4.3697,50.8472],[4.3682,50.8526],[4.3554,50.8562],[4.3574,50.8602],[4.3678,50.8574],[4.3724,50.8568],[4.381,50.8524],[4.384,50.8514]]]}},{"type":"Feature","id":"commune-brussels-21015","properties":{"name":"Schaerbeek","province":"Brussels","department":"Région de Bruxelles-Capitale","type":"Commune","country":"Bélgica","iso":"BE"},"geometry":{"type":"Polygon","coordinates":[[[4.384,50.8514],[4.381,50.8524],[4.3724,50.8568],[4.3678,50.8574],[4.3574,50.8602],[4.3612,50.8689],[4.3635,50.8713],[4.3655,50.8695],[4.3724,50.8715],[4.3748,50.8753],[4.3825,50.8795],[4.3883,50.8811],[4.3918,50.8773],[4.398,50.8661],[4.4045,50.8598],[4.4076,50.8574],[4.4088,50.8576],[4.4123,50.8546],[4.4119,50.852],[4.4111,50.8508],[4.41,50.8506],[4.4107,50.8492],[4.3999,50.8436],[4.3987,50.8446],[4.396,50.8434],[4.3929,50.8472],[4.3848,50.8516],[4.384,50.8514]]]}},{"type":"Feature","id":"commune-brussels-21016","properties":{"name":"Uccle","province":"Brussels","department":"Région de Bruxelles-Capitale","type":"Commune","country":"Bélgica","iso":"BE"},"geometry":{"type":"Polygon","coordinates":[[[4.3233,50.8028],[4.3249,50.805],[4.3272,50.8056],[4.3284,50.8066],[4.3307,50.8062],[4.3326,50.808],[4.3357,50.8084],[4.3369,50.8114],[4.3349,50.8128],[4.3388,50.8151],[4.3442,50.814],[4.3574,50.8146],[4.3589,50.8165],[4.3635,50.8159],[4.3666,50.8169],[4.3682,50.8148],[4.3678,50.8134],[4.3697,50.8094],[4.3728,50.8082],[4.3717,50.8066],[4.3728,50.803],[4.3779,50.8002],[4.3763,50.7996],[4.4007,50.7964],[4.4011,50.7942],[4.4034,50.7936],[4.4038,50.7926],[4.4011,50.7905],[4.3968,50.7893],[4.3972,50.7881],[4.4127,50.7723],[4.3829,50.7638],[4.3825,50.7687],[4.381,50.7693],[4.3639,50.7731],[4.3635,50.7713],[4.3628,50.7723],[4.3519,50.7739],[4.3477,50.7749],[4.3473,50.7755],[4.3446,50.7755],[4.3407,50.7737],[4.3315,50.7755],[4.3295,50.7777],[4.3257,50.7799],[4.3218,50.7831],[4.3195,50.7869],[4.3195,50.7889],[4.3183,50.791],[4.3187,50.7922],[4.3164,50.7964],[4.3117,50.7976],[4.3152,50.7992],[4.3218,50.8006],[4.3233,50.8028]]]}},{"type":"Feature","id":"commune-brussels-21017","properties":{"name":"Watermael-Boitsfort","province":"Brussels","department":"Région de Bruxelles-Capitale","type":"Commune","country":"Bélgica","iso":"BE"},"geometry":{"type":"Polygon","coordinates":[[[4.4277,50.81],[4.4293,50.808],[4.4281,50.8052],[4.4293,50.8038],[4.4436,50.7976],[4.4513,50.7988],[4.4552,50.792],[4.4618,50.7905],[4.4664,50.7905],[4.4703,50.7897],[4.4633,50.7879],[4.4517,50.7827],[4.4347,50.7765],[4.4332,50.7781],[4.4127,50.7723],[4.3972,50.7881],[4.3968,50.7893],[4.4011,50.7905],[4.4038,50.7926],[4.4034,50.7936],[4.4011,50.7942],[4.4011,50.7974],[4.3968,50.8018],[4.3964,50.8034],[4.3972,50.8084],[4.3941,50.81],[4.3922,50.812],[4.4065,50.8151],[4.4065,50.8124],[4.4123,50.8132],[4.4177,50.8124],[4.4188,50.811],[4.4277,50.81]]]}},{"type":"Feature","id":"commune-brussels-21018","properties":{"name":"Woluwe-Saint-Lambert","province":"Brussels","department":"Région de Bruxelles-Capitale","type":"Commune","country":"Bélgica","iso":"BE"},"geometry":{"type":"Polygon","coordinates":[[[4.4351,50.8375],[4.4339,50.8377],[4.4339,50.8396],[4.432,50.84],[4.4312,50.8394],[4.41,50.8383],[4.4022,50.8404],[4.3999,50.8436],[4.4107,50.8492],[4.41,50.8506],[4.4111,50.8508],[4.4119,50.852],[4.4219,50.857],[4.4266,50.8628],[4.4297,50.8628],[4.4308,50.8624],[4.4297,50.8612],[4.4374,50.8584],[4.439,50.8604],[4.4451,50.8582],[4.4444,50.8574],[4.4463,50.8562],[4.4459,50.8556],[4.4486,50.8542],[4.461,50.8518],[4.4618,50.8488],[4.4575,50.8478],[4.4595,50.8454],[4.4571,50.8448],[4.4571,50.8442],[4.4506,50.8438],[4.4486,50.8426],[4.4498,50.8416],[4.4517,50.842],[4.4548,50.84],[4.4424,50.8383],[4.4386,50.8369],[4.4397,50.8357],[4.4397,50.8341],[4.4347,50.8349],[4.4351,50.8375]]]}},{"type":"Feature","id":"commune-brussels-21019","properties":{"name":"Woluwe-Saint-Pierre","province":"Brussels","department":"Région de Bruxelles-Capitale","type":"Commune","country":"Bélgica","iso":"BE"},"geometry":{"type":"Polygon","coordinates":[[[4.4076,50.8389],[4.41,50.8383],[4.4161,50.8383],[4.4312,50.8394],[4.432,50.84],[4.4339,50.8396],[4.4339,50.8377],[4.4355,50.8375],[4.4347,50.8349],[4.4397,50.8341],[4.4397,50.8357],[4.4386,50.8369],[4.4424,50.8383],[4.4548,50.84],[4.4517,50.842],[4.4498,50.8416],[4.4486,50.8426],[4.4506,50.8438],[4.4571,50.8442],[4.4571,50.8448],[4.4595,50.8454],[4.4575,50.8478],[4.4625,50.849],[4.4653,50.8444],[4.4672,50.8446],[4.4668,50.8402],[4.468,50.8371],[4.4656,50.8355],[4.4769,50.8205],[4.4548,50.8185],[4.4529,50.8205],[4.4467,50.8227],[4.4432,50.8225],[4.4405,50.8205],[4.4335,50.8251],[4.4301,50.8261],[4.4274,50.8259],[4.4192,50.8221],[4.4146,50.8229],[4.4119,50.8225],[4.4045,50.8271],[4.4123,50.8305],[4.4107,50.8305],[4.4092,50.8343],[4.4069,50.8361],[4.4057,50.8379],[4.4076,50.8389]]]}}]}