{"type":"FeatureCollection","features":[{"type":"Feature","id":"sector-bucuresti-1","properties":{"name":"Sector 1","province":"București","department":"Municipiul București","type":"Sector","country":"Rumania","iso":"RO"},"geometry":{"type":"MultiPolygon","coordinates":[[[[25.9796,44.4704],[25.9905,44.4786],[25.9987,44.4797],[26.0041,44.4791],[26.0186,44.4741],[26.0251,44.4699],[26.0278,44.4701],[26.0288,44.471],[26.0308,44.4706],[26.0305,44.47],[26.0294,44.4703],[26.0283,44.4686],[26.0292,44.4689],[26.029,44.4693],[26.0299,44.469],[26.0296,44.4682],[26.03,44.469],[26.031,44.4687],[26.0303,44.468],[26.0368,44.4663],[26.0407,44.4639],[26.0414,44.4645],[26.0417,44.4637],[26.0441,44.4622],[26.046,44.4631],[26.0469,44.4625],[26.0461,44.4615],[26.0523,44.4582],[26.053,44.4586],[26.0556,44.4575],[26.056,44.4572],[26.0553,44.4569],[26.0569,44.455],[26.0581,44.4555],[26.0597,44.4548],[26.0577,44.4538],[26.0591,44.4542],[26.0594,44.4533],[26.0604,44.4533],[26.061,44.4508],[26.0624,44.4495],[26.0618,44.4516],[26.0631,44.4519],[26.0633,44.4508],[26.0624,44.4493],[26.0629,44.4483],[26.0647,44.4477],[26.0656,44.448],[26.0653,44.4473],[26.0662,44.4472],[26.0664,44.4464],[26.0674,44.4466],[26.0676,44.4456],[26.0682,44.4461],[26.0686,44.4458],[26.068,44.4453],[26.0695,44.445],[26.0694,44.4443],[26.0703,44.445],[26.0699,44.4439],[26.0704,44.4444],[26.0705,44.4435],[26.0715,44.4437],[26.071,44.4431],[26.0716,44.4425],[26.0729,44.4432],[26.0719,44.4421],[26.073,44.442],[26.0722,44.4416],[26.0733,44.4407],[26.0725,44.4401],[26.0728,44.4396],[26.0701,44.4382],[26.0749,44.4357],[26.0787,44.4345],[26.0788,44.4366],[26.0804,44.4366],[26.0804,44.4359],[26.0812,44.4358],[26.0831,44.4366],[26.0837,44.4346],[26.0846,44.4346],[26.0848,44.4352],[26.0873,44.4347],[26.0865,44.4352],[26.0875,44.4348],[26.0875,44.4353],[26.0899,44.4347],[26.0896,44.4351],[26.0905,44.4354],[26.0907,44.4347],[26.0936,44.4348],[26.0936,44.4352],[26.0947,44.4348],[26.0953,44.4355],[26.0983,44.4348],[26.1018,44.4361],[26.1038,44.4359],[26.1049,44.4371],[26.1039,44.438],[26.1016,44.4376],[26.1021,44.438],[26.1012,44.4384],[26.1015,44.4392],[26.1007,44.44],[26.1008,44.4413],[26.1016,44.4412],[26.1011,44.4422],[26.1032,44.443],[26.103,44.4448],[26.1036,44.4446],[26.1043,44.4454],[26.1032,44.4477],[26.1041,44.449],[26.1029,44.4494],[26.104,44.4498],[26.1031,44.4512],[26.1015,44.4514],[26.1016,44.4523],[26.1011,44.4525],[26.101,44.4535],[26.1023,44.4535],[26.1009,44.4547],[26.1015,44.4571],[26.1008,44.4585],[26.1025,44.467],[26.1034,44.4671],[26.1027,44.4675],[26.1036,44.4688],[26.105,44.4684],[26.1038,44.4691],[26.1044,44.4701],[26.1052,44.4699],[26.1055,44.4704],[26.1048,44.4706],[26.1055,44.4718],[26.1063,44.4717],[26.1055,44.4721],[26.1051,44.4738],[26.1038,44.4756],[26.1049,44.4758],[26.1046,44.4767],[26.1059,44.4771],[26.1036,44.4793],[26.1023,44.4789],[26.1017,44.4798],[26.1027,44.4805],[26.1017,44.4817],[26.1024,44.4861],[26.1038,44.4807],[26.103,44.4849],[26.1056,44.4847],[26.1077,44.483],[26.1057,44.4849],[26.1055,44.4876],[26.1093,44.487],[26.1107,44.4871],[26.1108,44.4876],[26.1148,44.4871],[26.1149,44.4876],[26.1106,44.4907],[26.1117,44.4923],[26.1089,44.4968],[26.1078,44.4964],[26.1072,44.4969],[26.1044,44.5016],[26.1048,44.5023],[26.1098,44.5034],[26.1087,44.5059],[26.1041,44.5049],[26.1029,44.5088],[26.1045,44.5166],[26.1049,44.5166],[26.1048,44.5156],[26.1055,44.5155],[26.1062,44.5184],[26.105,44.5186],[26.1044,44.5198],[26.105,44.5264],[26.1033,44.5295],[26.1045,44.5395],[26.1019,44.5396],[26.1018,44.5407],[26.1009,44.5407],[26.1007,44.5414],[26.0978,44.5412],[26.0977,44.5405],[26.0967,44.5404],[26.0969,44.5392],[26.0837,44.5382],[26.0777,44.5371],[26.0767,44.5407],[26.073,44.5414],[26.0693,44.5394],[26.0686,44.5349],[26.0502,44.5301],[26.0495,44.5313],[26.0488,44.531],[26.0492,44.5298],[26.0335,44.5236],[26.0293,44.5277],[26.024,44.5259],[26.0225,44.523],[26.0246,44.5203],[26.0253,44.5201],[26.0129,44.5152],[26.012,44.516],[26.0112,44.5156],[26.0107,44.516],[26.0086,44.5148],[26.0085,44.5138],[26.0095,44.5127],[26.0087,44.5117],[26.0064,44.4997],[26.0024,44.4988],[25.9986,44.499],[25.9948,44.4959],[25.9877,44.4996],[25.9833,44.498],[25.983,44.497],[25.9843,44.4966],[25.9836,44.495],[25.988,44.4927],[25.9861,44.4914],[25.9878,44.4921],[25.9839,44.4831],[25.9806,44.4781],[25.9803,44.472],[25.9796,44.4704]]]]}},{"type":"Feature","id":"sector-bucuresti-2","properties":{"name":"Sector 2","province":"București","department":"Municipiul București","type":"Sector","country":"Rumania","iso":"RO"},"geometry":{"type":"MultiPolygon","coordinates":[[[[26.1038,44.4359],[26.1064,44.436],[26.1086,44.4337],[26.1096,44.4345],[26.1126,44.4349],[26.1146,44.4332],[26.1152,44.4339],[26.1174,44.4335],[26.1179,44.4341],[26.1178,44.4334],[26.1201,44.4337],[26.1222,44.433],[26.1234,44.4339],[26.1249,44.4327],[26.128,44.433],[26.1279,44.4324],[26.132,44.4318],[26.1381,44.4325],[26.1384,44.4319],[26.1405,44.4323],[26.1408,44.4316],[26.1448,44.4318],[26.1454,44.4326],[26.1457,44.4319],[26.1493,44.4321],[26.1547,44.4327],[26.1586,44.434],[26.1584,44.4344],[26.1595,44.434],[26.1603,44.4349],[26.1605,44.4344],[26.162,44.4344],[26.168,44.4352],[26.1677,44.4369],[26.1697,44.4372],[26.1739,44.4366],[26.1752,44.437],[26.1777,44.4363],[26.1796,44.4367],[26.1797,44.4377],[26.1809,44.438],[26.1808,44.437],[26.182,44.4364],[26.1819,44.4356],[26.1831,44.4371],[26.1845,44.4376],[26.1854,44.4352],[26.1878,44.4378],[26.1914,44.4395],[26.1929,44.4413],[26.1975,44.4426],[26.196,44.4456],[26.1931,44.4469],[26.1915,44.4467],[26.1878,44.4438],[26.1817,44.446],[26.1773,44.4443],[26.1758,44.4444],[26.1747,44.445],[26.1743,44.446],[26.1772,44.4498],[26.1774,44.4536],[26.1744,44.4536],[26.1691,44.4507],[26.1665,44.4529],[26.1637,44.4535],[26.1625,44.4531],[26.1608,44.4541],[26.1572,44.4545],[26.156,44.4554],[26.1641,44.4652],[26.1787,44.4776],[26.1814,44.4789],[26.1849,44.4791],[26.1148,44.4874],[26.1108,44.4876],[26.1107,44.4871],[26.1093,44.487],[26.1055,44.4876],[26.1057,44.4849],[26.1077,44.483],[26.1056,44.4847],[26.103,44.4849],[26.1036,44.4807],[26.1024,44.4861],[26.1017,44.4817],[26.1027,44.4805],[26.1017,44.4798],[26.1023,44.4789],[26.1036,44.4793],[26.1059,44.4771],[26.1046,44.4767],[26.1049,44.4758],[26.1038,44.4756],[26.1051,44.4738],[26.1055,44.4721],[26.1063,44.4717],[26.1055,44.4718],[26.1048,44.4706],[26.1055,44.4704],[26.1052,44.4699],[26.1044,44.4701],[26.1038,44.4691],[26.105,44.4684],[26.1036,44.4688],[26.1027,44.4675],[26.1034,44.4671],[26.1025,44.467],[26.1008,44.4585],[26.1015,44.4571],[26.1009,44.4547],[26.1023,44.4535],[26.101,44.4535],[26.1011,44.4525],[26.1016,44.4523],[26.1015,44.4514],[26.1031,44.4512],[26.104,44.4498],[26.1029,44.4494],[26.1041,44.449],[26.1032,44.4477],[26.1043,44.4454],[26.1036,44.4446],[26.103,44.4448],[26.1032,44.443],[26.1011,44.4422],[26.1016,44.4412],[26.1008,44.4413],[26.1007,44.44],[26.1015,44.4392],[26.1012,44.4384],[26.1021,44.438],[26.1016,44.4376],[26.1039,44.438],[26.1049,44.4371],[26.1038,44.4359]]]]}},{"type":"Feature","id":"sector-bucuresti-3","properties":{"name":"Sector 3","province":"București","department":"Municipiul București","type":"Sector","country":"Rumania","iso":"RO"},"geometry":{"type":"MultiPolygon","coordinates":[[[[26.0966,44.4295],[26.1013,44.4286],[26.1012,44.4261],[26.1084,44.4252],[26.1116,44.4187],[26.1207,44.4102],[26.1241,44.4081],[26.1778,44.3943],[26.1822,44.3938],[26.2121,44.3951],[26.2117,44.3986],[26.2141,44.3992],[26.2128,44.4008],[26.2123,44.4032],[26.2104,44.4041],[26.2095,44.404],[26.2091,44.403],[26.208,44.4034],[26.2085,44.4052],[26.2119,44.4046],[26.2112,44.4064],[26.2181,44.4075],[26.2185,44.4089],[26.2178,44.417],[26.2183,44.4186],[26.2216,44.4181],[26.2229,44.4224],[26.2245,44.4245],[26.2208,44.4255],[26.2209,44.4264],[26.2228,44.4263],[26.2256,44.4324],[26.2245,44.4326],[26.2225,44.4316],[26.2191,44.4312],[26.2177,44.4319],[26.2151,44.435],[26.2115,44.433],[26.2092,44.4335],[26.2065,44.4356],[26.2049,44.4388],[26.2,44.4387],[26.1978,44.4394],[26.1967,44.441],[26.1978,44.4421],[26.1975,44.4426],[26.1929,44.4413],[26.1914,44.4395],[26.1878,44.4378],[26.1854,44.4352],[26.1845,44.4376],[26.1831,44.4371],[26.1819,44.4356],[26.182,44.4364],[26.1808,44.437],[26.1809,44.438],[26.1797,44.4377],[26.1796,44.4367],[26.1777,44.4363],[26.1752,44.437],[26.1739,44.4366],[26.1697,44.4372],[26.1677,44.4369],[26.168,44.4352],[26.162,44.4344],[26.1605,44.4344],[26.1603,44.4349],[26.1595,44.434],[26.1584,44.4344],[26.1586,44.434],[26.1547,44.4327],[26.1457,44.4319],[26.1454,44.4326],[26.1446,44.4318],[26.1408,44.4316],[26.1405,44.4323],[26.1384,44.4319],[26.1381,44.4325],[26.132,44.4318],[26.1279,44.4324],[26.128,44.433],[26.1249,44.4327],[26.1234,44.4339],[26.1222,44.433],[26.1201,44.4337],[26.1178,44.4334],[26.1179,44.4341],[26.1174,44.4335],[26.1152,44.4339],[26.1146,44.4332],[26.1123,44.4349],[26.1096,44.4345],[26.1086,44.4337],[26.1064,44.436],[26.1018,44.4361],[26.098,44.4349],[26.0983,44.4344],[26.0963,44.4332],[26.0956,44.4316],[26.0967,44.431],[26.096,44.4306],[26.0966,44.4295]]]]}},{"type":"Feature","id":"sector-bucuresti-4","properties":{"name":"Sector 4","province":"București","department":"Municipiul București","type":"Sector","country":"Rumania","iso":"RO"},"geometry":{"type":"MultiPolygon","coordinates":[[[[26.0881,44.3692],[26.0895,44.3672],[26.0906,44.3672],[26.0935,44.3629],[26.0948,44.3632],[26.0955,44.36],[26.096,44.36],[26.0961,44.3613],[26.0979,44.3623],[26.0991,44.3676],[26.1136,44.3656],[26.1123,44.3609],[26.1304,44.3512],[26.1274,44.3483],[26.1466,44.3378],[26.1463,44.3373],[26.1475,44.3374],[26.152,44.3342],[26.1565,44.3355],[26.1572,44.3376],[26.1562,44.3394],[26.164,44.3418],[26.1632,44.3427],[26.1668,44.3436],[26.1643,44.3468],[26.1613,44.3456],[26.1522,44.3575],[26.1486,44.3635],[26.1477,44.3636],[26.1446,44.3672],[26.1437,44.3684],[26.1442,44.3687],[26.1437,44.3694],[26.1428,44.3695],[26.1449,44.372],[26.1436,44.3729],[26.1485,44.3782],[26.1475,44.3786],[26.1512,44.3839],[26.1518,44.3836],[26.162,44.3984],[26.1241,44.4081],[26.1207,44.4102],[26.1116,44.4187],[26.1086,44.4251],[26.1072,44.4257],[26.1012,44.4261],[26.1013,44.4286],[26.1001,44.4291],[26.0966,44.4295],[26.0958,44.4286],[26.095,44.4287],[26.0954,44.4281],[26.0933,44.4279],[26.0932,44.4266],[26.0948,44.426],[26.0937,44.4255],[26.0934,44.4259],[26.0924,44.4252],[26.0925,44.4247],[26.0904,44.4241],[26.0902,44.4224],[26.0889,44.4225],[26.0887,44.4204],[26.0877,44.4195],[26.0888,44.4182],[26.0883,44.418],[26.0898,44.4178],[26.0912,44.4161],[26.0936,44.415],[26.0931,44.4141],[26.091,44.4142],[26.0892,44.4112],[26.0906,44.4122],[26.0916,44.4119],[26.0911,44.411],[26.0927,44.409],[26.095,44.4076],[26.0946,44.4063],[26.0957,44.4056],[26.0968,44.4036],[26.094,44.4026],[26.0948,44.4018],[26.092,44.3998],[26.0926,44.3993],[26.0944,44.4003],[26.0964,44.3996],[26.0954,44.3974],[26.0916,44.3965],[26.0954,44.3968],[26.0946,44.3967],[26.094,44.3955],[26.0947,44.3953],[26.094,44.3954],[26.0932,44.3943],[26.0929,44.3936],[26.0937,44.3938],[26.0909,44.3882],[26.0915,44.3881],[26.0909,44.3869],[26.0915,44.3867],[26.0909,44.3855],[26.092,44.3853],[26.0878,44.3816],[26.0856,44.3846],[26.0836,44.3833],[26.0853,44.3825],[26.0857,44.3807],[26.0881,44.3801],[26.0914,44.3802],[26.0914,44.3796],[26.0906,44.3794],[26.0911,44.3786],[26.0906,44.3786],[26.0896,44.3765],[26.0905,44.3762],[26.0899,44.3758],[26.089,44.3722],[26.0897,44.3719],[26.0873,44.3722],[26.0881,44.3692]]]]}},{"type":"Feature","id":"sector-bucuresti-5","properties":{"name":"Sector 5","province":"București","department":"Municipiul București","type":"Sector","country":"Rumania","iso":"RO"},"geometry":{"type":"MultiPolygon","coordinates":[[[[25.9962,44.4067],[25.9993,44.4071],[25.9991,44.408],[25.9997,44.4081],[25.9992,44.4096],[26.0002,44.4072],[26.01,44.4084],[26.0095,44.4109],[26.0098,44.4101],[26.012,44.4108],[26.0126,44.4087],[26.015,44.4085],[26.0164,44.4103],[26.016,44.4117],[26.0164,44.4108],[26.0172,44.4107],[26.0188,44.4121],[26.0193,44.4117],[26.0206,44.4123],[26.0189,44.4106],[26.0194,44.4104],[26.0221,44.4125],[26.025,44.4129],[26.024,44.412],[26.0244,44.4118],[26.0258,44.413],[26.0254,44.4124],[26.0259,44.4122],[26.027,44.4131],[26.0262,44.4121],[26.0273,44.4131],[26.0279,44.4132],[26.027,44.4123],[26.0279,44.4124],[26.0288,44.4133],[26.0309,44.4136],[26.031,44.413],[26.0316,44.4133],[26.0286,44.4098],[26.0325,44.4136],[26.0344,44.414],[26.0306,44.41],[26.0311,44.4098],[26.0298,44.4075],[26.0337,44.4061],[26.0368,44.4102],[26.0389,44.4093],[26.0392,44.4097],[26.0393,44.4085],[26.0453,44.4074],[26.0468,44.4085],[26.0465,44.4098],[26.0462,44.4104],[26.0438,44.4102],[26.0437,44.4111],[26.0485,44.4115],[26.0528,44.4128],[26.0525,44.4145],[26.0537,44.4149],[26.053,44.4164],[26.0537,44.4166],[26.0545,44.4154],[26.0567,44.4163],[26.0561,44.4173],[26.058,44.4177],[26.0577,44.4182],[26.0605,44.4199],[26.0594,44.421],[26.0603,44.421],[26.0604,44.424],[26.0599,44.4242],[26.0608,44.4251],[26.0604,44.4274],[26.0617,44.428],[26.0598,44.4317],[26.0598,44.4345],[26.0639,44.4354],[26.0688,44.4374],[26.069,44.437],[26.069,44.4376],[26.0703,44.4374],[26.0701,44.4382],[26.0749,44.4357],[26.0787,44.4345],[26.0788,44.4366],[26.0804,44.4366],[26.0804,44.4359],[26.0812,44.4358],[26.0824,44.436],[26.0825,44.4367],[26.0832,44.4366],[26.0837,44.4346],[26.0846,44.4346],[26.0848,44.4352],[26.0873,44.4347],[26.0865,44.4352],[26.0875,44.4348],[26.0875,44.4353],[26.0899,44.4347],[26.0896,44.4351],[26.0905,44.4354],[26.0907,44.4347],[26.0936,44.4348],[26.0936,44.4352],[26.0947,44.4348],[26.0953,44.4355],[26.0983,44.4344],[26.096,44.4328],[26.0956,44.4316],[26.0967,44.431],[26.096,44.4306],[26.0968,44.4298],[26.0965,44.4292],[26.0959,44.4293],[26.0958,44.4286],[26.095,44.4287],[26.0954,44.4281],[26.0933,44.4279],[26.0932,44.4266],[26.0948,44.426],[26.0937,44.4255],[26.0934,44.4259],[26.0924,44.4252],[26.0925,44.4247],[26.0904,44.4241],[26.0902,44.4224],[26.0889,44.4225],[26.0887,44.4204],[26.0877,44.4195],[26.0888,44.4182],[26.0883,44.418],[26.0898,44.4178],[26.0912,44.4161],[26.0936,44.415],[26.0931,44.4141],[26.091,44.4142],[26.0892,44.4112],[26.0906,44.4122],[26.0916,44.4119],[26.0911,44.411],[26.0927,44.409],[26.095,44.4076],[26.0946,44.4063],[26.0957,44.4056],[26.0968,44.4036],[26.094,44.4026],[26.0948,44.4018],[26.092,44.3998],[26.0926,44.3993],[26.0944,44.4003],[26.0964,44.3996],[26.0954,44.3974],[26.0916,44.3965],[26.0954,44.3968],[26.0946,44.3967],[26.094,44.3955],[26.0947,44.3953],[26.094,44.3954],[26.0932,44.3943],[26.0929,44.3936],[26.0937,44.3938],[26.0909,44.3882],[26.0915,44.3881],[26.0909,44.3869],[26.0915,44.3867],[26.0909,44.3855],[26.092,44.3853],[26.0878,44.3816],[26.0856,44.3846],[26.0836,44.3833],[26.0853,44.3825],[26.0857,44.3807],[26.0881,44.3801],[26.0914,44.3802],[26.0914,44.3796],[26.0906,44.3794],[26.0911,44.3786],[26.0906,44.3786],[26.0896,44.3765],[26.0905,44.3762],[26.0899,44.3758],[26.089,44.3722],[26.0897,44.3719],[26.0873,44.3722],[26.0886,44.3692],[26.0808,44.3701],[26.0753,44.372],[26.077,44.3781],[26.0717,44.379],[26.0694,44.3762],[26.069,44.3746],[26.0561,44.3795],[26.054,44.3761],[26.047,44.3777],[26.0458,44.375],[26.033,44.3832],[26.0394,44.3871],[26.035,44.3909],[26.0313,44.3884],[26.0296,44.3898],[26.0285,44.3897],[26.0109,44.4058],[26.0033,44.4017],[26.0025,44.4035],[25.9972,44.4029],[25.9962,44.4067]]]]}},{"type":"Feature","id":"sector-bucuresti-6","properties":{"name":"Sector 6","province":"București","department":"Municipiul București","type":"Sector","country":"Rumania","iso":"RO"},"geometry":{"type":"MultiPolygon","coordinates":[[[[25.9672,44.4317],[25.9677,44.4317],[25.9699,44.4184],[25.9763,44.4064],[25.9822,44.4074],[25.989,44.4074],[25.9955,44.4093],[25.9962,44.4067],[25.9976,44.4068],[25.9993,44.4071],[25.9995,44.4097],[26.0002,44.4072],[26.0095,44.4083],[26.01,44.4093],[26.0095,44.4109],[26.0098,44.4101],[26.012,44.4108],[26.0126,44.4087],[26.015,44.4085],[26.0164,44.4103],[26.016,44.4117],[26.0164,44.4108],[26.0172,44.4107],[26.0188,44.4121],[26.0193,44.4117],[26.0206,44.4123],[26.0189,44.4106],[26.0194,44.4104],[26.0221,44.4125],[26.025,44.4129],[26.024,44.412],[26.0244,44.4118],[26.0258,44.413],[26.0254,44.4124],[26.0259,44.4122],[26.027,44.4131],[26.0262,44.4121],[26.0273,44.4131],[26.0279,44.4132],[26.027,44.4123],[26.0279,44.4124],[26.0288,44.4133],[26.0309,44.4136],[26.031,44.413],[26.0317,44.4136],[26.0286,44.4098],[26.0325,44.4136],[26.0344,44.414],[26.0306,44.41],[26.0311,44.4098],[26.0298,44.4075],[26.0337,44.4061],[26.0368,44.4102],[26.0389,44.4093],[26.0392,44.4097],[26.0393,44.4085],[26.0453,44.4074],[26.0468,44.4085],[26.0465,44.4098],[26.0462,44.4104],[26.0438,44.4102],[26.0437,44.4111],[26.0485,44.4115],[26.0528,44.4128],[26.0525,44.4145],[26.0537,44.4149],[26.053,44.4164],[26.0537,44.4166],[26.0545,44.4154],[26.0567,44.4163],[26.0561,44.4173],[26.058,44.4177],[26.0577,44.4182],[26.0605,44.4199],[26.0594,44.421],[26.0603,44.421],[26.0604,44.424],[26.0599,44.4242],[26.0608,44.4251],[26.0604,44.4274],[26.0617,44.428],[26.0598,44.4317],[26.0598,44.4345],[26.0639,44.4354],[26.0688,44.4374],[26.069,44.437],[26.069,44.4376],[26.0703,44.4374],[26.07,44.4381],[26.0728,44.4396],[26.0725,44.4401],[26.0733,44.4407],[26.0722,44.4416],[26.0728,44.4421],[26.0719,44.4421],[26.0729,44.4432],[26.0716,44.4425],[26.071,44.4431],[26.0715,44.4437],[26.0705,44.4435],[26.0704,44.4444],[26.0699,44.4439],[26.0703,44.445],[26.0694,44.4443],[26.0695,44.445],[26.068,44.4453],[26.0686,44.4458],[26.0682,44.4461],[26.0676,44.4456],[26.0674,44.4466],[26.0664,44.4464],[26.0662,44.4472],[26.0653,44.4473],[26.0656,44.448],[26.0647,44.4477],[26.0629,44.4483],[26.0624,44.4493],[26.0633,44.4508],[26.0631,44.4519],[26.0618,44.4516],[26.0624,44.4495],[26.061,44.4508],[26.0604,44.4533],[26.0594,44.4533],[26.0591,44.4542],[26.0577,44.4538],[26.0596,44.4549],[26.0581,44.4555],[26.0569,44.455],[26.0553,44.4569],[26.056,44.4572],[26.0556,44.4575],[26.053,44.4586],[26.0523,44.4582],[26.0461,44.4615],[26.0469,44.4625],[26.046,44.4631],[26.0441,44.4622],[26.0417,44.4637],[26.0414,44.4645],[26.0407,44.4639],[26.0368,44.4663],[26.0303,44.468],[26.031,44.4687],[26.03,44.469],[26.0296,44.4682],[26.0299,44.469],[26.029,44.4693],[26.0292,44.4689],[26.0283,44.4686],[26.0294,44.4703],[26.0305,44.47],[26.0308,44.4706],[26.0288,44.471],[26.0278,44.4701],[26.0256,44.4698],[26.0186,44.4741],[26.0041,44.4791],[25.9987,44.4797],[25.9921,44.479],[25.9892,44.4779],[25.9764,44.4677],[25.9773,44.4671],[25.976,44.4664],[25.9761,44.4656],[25.9821,44.467],[26.0019,44.4605],[26.0066,44.4583],[26.0134,44.458],[26.0159,44.4554],[26.0132,44.4541],[26.0136,44.4521],[26.0149,44.4509],[26.0147,44.4497],[26.016,44.4491],[26.018,44.4497],[26.0198,44.4484],[26.0193,44.446],[26.0123,44.4429],[25.9667,44.4407],[25.9672,44.4317]]]]}}]}