{"type":"FeatureCollection","features":[{"type":"Feature","id":"kerulet-budapest-1","properties":{"name":"I. kerület (Várkerület)","province":"Budapest","department":"Budapest","type":"Kerület","country":"Hungría","iso":"HU"},"geometry":{"type":"MultiPolygon","coordinates":[[[[19.0238,47.4955],[19.0244,47.505],[19.0266,47.5076],[19.0424,47.5077],[19.0428,47.5012],[19.0448,47.4967],[19.0487,47.4912],[19.0514,47.4889],[19.0475,47.4871],[19.0438,47.4873],[19.0412,47.4857],[19.0373,47.487],[19.0327,47.4864],[19.0314,47.4868],[19.0262,47.4953],[19.0238,47.495],[19.0238,47.4955]]]]}},{"type":"Feature","id":"kerulet-budapest-2","properties":{"name":"II. kerület","province":"Budapest","department":"Budapest","type":"Kerület","country":"Hungría","iso":"HU"},"geometry":{"type":"MultiPolygon","coordinates":[[[[18.9251,47.5441],[18.9298,47.5418],[18.9358,47.5433],[18.9343,47.5356],[18.9348,47.5336],[18.9467,47.5269],[18.9473,47.5257],[18.9496,47.5279],[18.9521,47.5282],[18.9577,47.5247],[18.973,47.5202],[18.9908,47.5176],[18.9962,47.5174],[18.9992,47.5162],[19.0086,47.51],[19.0209,47.5084],[19.0248,47.5061],[19.0275,47.508],[19.0424,47.5077],[19.0427,47.5116],[19.0404,47.5221],[19.0422,47.5268],[19.0333,47.5281],[19.0268,47.5307],[19.0254,47.5303],[19.0247,47.5312],[19.0235,47.5302],[19.0178,47.5295],[19.0173,47.5327],[19.0157,47.5338],[19.0143,47.5371],[19.0119,47.539],[19.0064,47.5402],[19.0085,47.5418],[19.011,47.5419],[19.0081,47.5433],[19.0084,47.5441],[19.0057,47.5461],[19.0045,47.5487],[19.0045,47.5507],[19.0012,47.553],[19.0019,47.5559],[18.9998,47.5541],[18.9988,47.5546],[18.9962,47.5588],[18.9897,47.5656],[18.9871,47.5692],[18.9787,47.5738],[18.9778,47.5732],[18.9772,47.5739],[18.969,47.5762],[18.9596,47.5779],[18.9496,47.578],[18.9426,47.5789],[18.9395,47.5756],[18.9288,47.5724],[18.9381,47.5572],[18.9336,47.5559],[18.9384,47.5532],[18.9405,47.5528],[18.9408,47.5508],[18.9332,47.5464],[18.93,47.546],[18.9251,47.5441]]]]}},{"type":"Feature","id":"kerulet-budapest-3","properties":{"name":"III. kerület (Óbuda-Békásmegyer)","province":"Budapest","department":"Budapest","type":"Kerület","country":"Hungría","iso":"HU"},"geometry":{"type":"MultiPolygon","coordinates":[[[[18.9772,47.5739],[18.9768,47.5748],[18.9775,47.5758],[18.9835,47.581],[18.983,47.5816],[18.9851,47.5831],[18.9778,47.5857],[18.983,47.589],[18.9938,47.5838],[18.9969,47.5859],[18.9998,47.5835],[19.0017,47.5834],[19.0137,47.5867],[19.0199,47.5876],[19.026,47.5882],[19.0345,47.5869],[19.0297,47.5997],[19.0253,47.6046],[19.0382,47.6096],[19.0462,47.6101],[19.0537,47.609],[19.0602,47.6095],[19.0748,47.6076],[19.0767,47.6069],[19.0743,47.6042],[19.0718,47.5975],[19.0713,47.5895],[19.0728,47.5893],[19.0697,47.5796],[19.0674,47.5636],[19.0635,47.5541],[19.0564,47.5417],[19.0485,47.5348],[19.0422,47.5268],[19.0333,47.5281],[19.0268,47.5307],[19.0254,47.5303],[19.0247,47.5312],[19.0235,47.5302],[19.0178,47.5295],[19.0173,47.5327],[19.0157,47.5338],[19.0143,47.5371],[19.0119,47.539],[19.0064,47.5402],[19.0085,47.5418],[19.011,47.5419],[19.0081,47.5433],[19.0084,47.5441],[19.0057,47.5461],[19.0045,47.5487],[19.0045,47.5507],[19.0012,47.553],[19.0019,47.5559],[18.9998,47.5541],[18.9988,47.5546],[18.9962,47.5588],[18.9897,47.5656],[18.9871,47.5692],[18.9803,47.5733],[18.9787,47.5738],[18.9778,47.5732],[18.9772,47.5739]]]]}},{"type":"Feature","id":"kerulet-budapest-4","properties":{"name":"IV. kerület (Újpest)","province":"Budapest","department":"Budapest","type":"Kerület","country":"Hungría","iso":"HU"},"geometry":{"type":"MultiPolygon","coordinates":[[[[19.0672,47.5631],[19.0697,47.5796],[19.0728,47.5893],[19.0746,47.5891],[19.0885,47.6045],[19.0993,47.6131],[19.1091,47.6104],[19.1073,47.6072],[19.1086,47.6058],[19.1183,47.6033],[19.1235,47.5998],[19.1218,47.5968],[19.1217,47.5914],[19.1204,47.5868],[19.1139,47.5704],[19.1105,47.5633],[19.111,47.5629],[19.1027,47.5423],[19.0861,47.5543],[19.0851,47.5533],[19.0845,47.5537],[19.0785,47.5599],[19.0672,47.5631]]]]}},{"type":"Feature","id":"kerulet-budapest-5","properties":{"name":"V. kerület (Belváros-Lipótváros)","province":"Budapest","department":"Budapest","type":"Kerület","country":"Hungría","iso":"HU"},"geometry":{"type":"MultiPolygon","coordinates":[[[[19.042,47.5147],[19.0427,47.5116],[19.0424,47.5031],[19.0448,47.4967],[19.0487,47.4912],[19.055,47.4858],[19.0604,47.4886],[19.0618,47.4903],[19.0598,47.4946],[19.0589,47.4958],[19.0549,47.498],[19.0551,47.5087],[19.0556,47.5105],[19.0437,47.5147],[19.042,47.5147]]]]}},{"type":"Feature","id":"kerulet-budapest-6","properties":{"name":"VI. kerület (Terézváros)","province":"Budapest","department":"Budapest","type":"Kerület","country":"Hungría","iso":"HU"},"geometry":{"type":"MultiPolygon","coordinates":[[[[19.0548,47.4984],[19.0552,47.5098],[19.0596,47.5158],[19.0637,47.5179],[19.0661,47.5162],[19.0724,47.5186],[19.0808,47.5112],[19.0727,47.5076],[19.0555,47.4976],[19.0548,47.4984]]]]}},{"type":"Feature","id":"kerulet-budapest-7","properties":{"name":"VII. kerület (Erzsébetváros)","province":"Budapest","department":"Budapest","type":"Kerület","country":"Hungría","iso":"HU"},"geometry":{"type":"MultiPolygon","coordinates":[[[[19.0552,47.4976],[19.0589,47.4958],[19.06,47.4943],[19.0795,47.4995],[19.0847,47.502],[19.0911,47.502],[19.0808,47.5112],[19.0727,47.5076],[19.0552,47.4976]]]]}},{"type":"Feature","id":"kerulet-budapest-8","properties":{"name":"VIII. kerület (Józsefváros)","province":"Budapest","department":"Budapest","type":"Kerület","country":"Hungría","iso":"HU"},"geometry":{"type":"MultiPolygon","coordinates":[[[[19.06,47.4943],[19.0795,47.4995],[19.0847,47.502],[19.0911,47.502],[19.1019,47.5005],[19.103,47.4997],[19.1083,47.5002],[19.1091,47.4966],[19.109,47.4901],[19.1077,47.4865],[19.0987,47.4756],[19.0696,47.486],[19.0636,47.4888],[19.0616,47.4898],[19.0615,47.4914],[19.06,47.4943]]]]}},{"type":"Feature","id":"kerulet-budapest-9","properties":{"name":"IX. kerület (Ferencváros)","province":"Budapest","department":"Budapest","type":"Kerület","country":"Hungría","iso":"HU"},"geometry":{"type":"MultiPolygon","coordinates":[[[[19.055,47.4858],[19.0641,47.4784],[19.0669,47.4737],[19.0674,47.4678],[19.0639,47.4619],[19.0737,47.461],[19.0781,47.4583],[19.0831,47.4537],[19.0844,47.4515],[19.0879,47.44],[19.0934,47.4414],[19.1283,47.4647],[19.0696,47.486],[19.0616,47.4898],[19.0604,47.4886],[19.055,47.4858]]]]}},{"type":"Feature","id":"kerulet-budapest-10","properties":{"name":"X. kerület (Kőbánya)","province":"Budapest","department":"Budapest","type":"Kerület","country":"Hungría","iso":"HU"},"geometry":{"type":"MultiPolygon","coordinates":[[[[19.0987,47.4756],[19.1087,47.4884],[19.1091,47.4966],[19.1083,47.5002],[19.1138,47.501],[19.1668,47.5067],[19.1722,47.5022],[19.2217,47.4923],[19.216,47.4848],[19.1924,47.4589],[19.1787,47.4673],[19.178,47.464],[19.1691,47.4628],[19.1687,47.4611],[19.1732,47.4592],[19.1727,47.4582],[19.1512,47.4637],[19.1418,47.4643],[19.1317,47.4666],[19.1266,47.4655],[19.0987,47.4756]]]]}},{"type":"Feature","id":"kerulet-budapest-11","properties":{"name":"XI. kerület (Újbuda)","province":"Budapest","department":"Budapest","type":"Kerület","country":"Hungría","iso":"HU"},"geometry":{"type":"MultiPolygon","coordinates":[[[[18.9703,47.4761],[18.9758,47.4795],[18.978,47.4789],[18.9781,47.4813],[18.98,47.481],[18.987,47.4763],[18.9921,47.4785],[18.9925,47.4807],[18.9931,47.4812],[18.9995,47.4822],[19.0044,47.481],[19.0052,47.4838],[19.0095,47.4846],[19.0138,47.4828],[19.0165,47.4839],[19.0197,47.4837],[19.0174,47.4853],[19.0178,47.4854],[19.0228,47.4828],[19.022,47.4849],[19.0223,47.4859],[19.0263,47.4881],[19.0304,47.4883],[19.0314,47.4868],[19.0327,47.4864],[19.0373,47.487],[19.0409,47.4857],[19.0438,47.4873],[19.0475,47.4871],[19.0514,47.4889],[19.0641,47.4784],[19.0669,47.4737],[19.0675,47.4698],[19.0669,47.4664],[19.0639,47.4619],[19.0564,47.4533],[19.0532,47.4484],[19.0507,47.4366],[19.0478,47.4298],[19.0409,47.4304],[19.0404,47.4314],[19.0407,47.4332],[19.0383,47.4343],[19.0349,47.439],[19.0324,47.4385],[19.0322,47.4392],[19.0271,47.4415],[19.0216,47.4463],[19.0148,47.4485],[19.0122,47.4434],[19.0109,47.4427],[19.0086,47.4397],[19.0048,47.4319],[19.0001,47.4317],[18.9938,47.4282],[18.9923,47.4279],[18.9781,47.4278],[18.9744,47.4295],[18.9762,47.4301],[18.9771,47.4315],[18.9792,47.4378],[18.9792,47.4409],[18.978,47.4453],[18.9785,47.4472],[18.9756,47.448],[18.9699,47.4511],[18.9774,47.4551],[18.9811,47.4552],[18.9827,47.4608],[18.9789,47.4688],[18.9703,47.4761]]]]}},{"type":"Feature","id":"kerulet-budapest-12","properties":{"name":"XII. kerület (Hegyvidék)","province":"Budapest","department":"Budapest","type":"Kerület","country":"Hungría","iso":"HU"},"geometry":{"type":"MultiPolygon","coordinates":[[[[18.9348,47.5336],[18.9467,47.5269],[18.9473,47.5257],[18.9496,47.5279],[18.9523,47.5282],[18.9576,47.5247],[18.9666,47.522],[18.9734,47.5201],[18.9907,47.5176],[18.9962,47.5174],[18.9992,47.5162],[19.0086,47.51],[19.0212,47.5083],[19.0248,47.5061],[19.0242,47.5035],[19.0238,47.495],[19.0262,47.4953],[19.0304,47.4883],[19.0263,47.4881],[19.0228,47.4864],[19.022,47.485],[19.0228,47.4828],[19.0178,47.4854],[19.0174,47.4853],[19.0197,47.4837],[19.0165,47.4839],[19.0138,47.4828],[19.0095,47.4846],[19.0052,47.4838],[19.0044,47.481],[18.9995,47.4822],[18.9931,47.4812],[18.9925,47.4807],[18.9921,47.4785],[18.987,47.4763],[18.98,47.481],[18.9783,47.4813],[18.978,47.4789],[18.9758,47.4795],[18.9703,47.4761],[18.9649,47.4821],[18.9612,47.4845],[18.9549,47.4864],[18.9532,47.4846],[18.9477,47.4823],[18.9415,47.487],[18.9417,47.4884],[18.9359,47.4915],[18.9399,47.4979],[18.9447,47.4971],[18.945,47.4979],[18.9445,47.4983],[18.9455,47.4992],[18.9439,47.5011],[18.9436,47.5022],[18.9443,47.5033],[18.9412,47.5049],[18.9339,47.5071],[18.9383,47.5124],[18.9399,47.5125],[18.9429,47.5171],[18.9448,47.5175],[18.9353,47.5221],[18.9353,47.5226],[18.9335,47.5207],[18.9269,47.5222],[18.928,47.5243],[18.9304,47.5246],[18.9353,47.5226],[18.9349,47.5309],[18.9343,47.5322],[18.9348,47.5336]]]]}},{"type":"Feature","id":"kerulet-budapest-13","properties":{"name":"XIII. kerület","province":"Budapest","department":"Budapest","type":"Kerület","country":"Hungría","iso":"HU"},"geometry":{"type":"MultiPolygon","coordinates":[[[[19.0453,47.5141],[19.0556,47.5105],[19.0596,47.5158],[19.0637,47.5179],[19.0659,47.5162],[19.0673,47.5164],[19.0831,47.5225],[19.0886,47.5254],[19.0865,47.5266],[19.0966,47.5443],[19.0961,47.545],[19.0974,47.5462],[19.0861,47.5543],[19.0851,47.5533],[19.0845,47.5537],[19.0785,47.5599],[19.0672,47.5631],[19.0635,47.5541],[19.0564,47.5417],[19.0559,47.535],[19.0538,47.5281],[19.0453,47.5141]]]]}},{"type":"Feature","id":"kerulet-budapest-14","properties":{"name":"XIV. kerület (Zugló)","province":"Budapest","department":"Budapest","type":"Kerület","country":"Hungría","iso":"HU"},"geometry":{"type":"MultiPolygon","coordinates":[[[[19.0724,47.5186],[19.0831,47.5225],[19.0886,47.5254],[19.0865,47.5266],[19.0966,47.5443],[19.0961,47.545],[19.0974,47.5462],[19.1027,47.5423],[19.1185,47.5333],[19.1275,47.5313],[19.1454,47.5258],[19.1449,47.5227],[19.1537,47.5126],[19.1556,47.5096],[19.1571,47.5056],[19.103,47.4997],[19.1019,47.5005],[19.0912,47.5019],[19.0724,47.5186]]]]}},{"type":"Feature","id":"kerulet-budapest-15","properties":{"name":"XV. kerület","province":"Budapest","department":"Budapest","type":"Kerület","country":"Hungría","iso":"HU"},"geometry":{"type":"MultiPolygon","coordinates":[[[[19.1027,47.5423],[19.1185,47.5333],[19.1275,47.5313],[19.1455,47.5258],[19.1523,47.5295],[19.1606,47.5354],[19.1612,47.5367],[19.1626,47.5369],[19.1808,47.5482],[19.1611,47.5595],[19.163,47.5607],[19.1744,47.5643],[19.1578,47.5762],[19.1516,47.5739],[19.1454,47.5781],[19.1538,47.585],[19.1381,47.5956],[19.1404,47.5964],[19.1381,47.5998],[19.128,47.598],[19.1235,47.5998],[19.1218,47.5968],[19.1217,47.5914],[19.1204,47.5868],[19.1139,47.5704],[19.1105,47.5633],[19.111,47.5629],[19.1027,47.5423]]]]}},{"type":"Feature","id":"kerulet-budapest-16","properties":{"name":"XVI. kerület","province":"Budapest","department":"Budapest","type":"Kerület","country":"Hungría","iso":"HU"},"geometry":{"type":"MultiPolygon","coordinates":[[[[19.145,47.523],[19.1454,47.5258],[19.1523,47.5295],[19.1606,47.5354],[19.1612,47.5367],[19.1626,47.5369],[19.1774,47.5461],[19.1903,47.539],[19.1914,47.5394],[19.1949,47.5376],[19.1985,47.5398],[19.2035,47.5374],[19.2094,47.5403],[19.2105,47.54],[19.2211,47.5327],[19.2449,47.5369],[19.2588,47.5205],[19.2632,47.511],[19.2638,47.5083],[19.2537,47.5072],[19.2486,47.5034],[19.2392,47.4987],[19.2217,47.4923],[19.1722,47.5022],[19.1668,47.5067],[19.1571,47.5056],[19.1556,47.5096],[19.1537,47.5126],[19.145,47.523]]]]}},{"type":"Feature","id":"kerulet-budapest-17","properties":{"name":"XVII. kerület (Rákosmente)","province":"Budapest","department":"Budapest","type":"Kerület","country":"Hungría","iso":"HU"},"geometry":{"type":"MultiPolygon","coordinates":[[[[19.196,47.4628],[19.216,47.4848],[19.2217,47.4923],[19.2392,47.4987],[19.2486,47.5034],[19.2537,47.5072],[19.2801,47.5106],[19.2899,47.5106],[19.2964,47.5113],[19.309,47.514],[19.3187,47.5154],[19.3211,47.5104],[19.3139,47.5031],[19.3133,47.4988],[19.3142,47.493],[19.3227,47.4842],[19.3272,47.4811],[19.3298,47.4777],[19.3311,47.4675],[19.3349,47.4632],[19.3304,47.4598],[19.3211,47.4591],[19.3134,47.4571],[19.3076,47.4564],[19.3013,47.4572],[19.2923,47.4506],[19.2809,47.4363],[19.2517,47.4402],[19.2478,47.4466],[19.245,47.4489],[19.2372,47.4501],[19.2349,47.4474],[19.2282,47.4486],[19.2113,47.4581],[19.209,47.4587],[19.2058,47.4585],[19.196,47.4628]]]]}},{"type":"Feature","id":"kerulet-budapest-18","properties":{"name":"XVIII. kerület (Pestszentlőrinc-Pestszentimre)","province":"Budapest","department":"Budapest","type":"Kerület","country":"Hungría","iso":"HU"},"geometry":{"type":"MultiPolygon","coordinates":[[[[19.1541,47.4447],[19.1608,47.4507],[19.1615,47.4525],[19.1611,47.4556],[19.1631,47.4569],[19.1624,47.4572],[19.1666,47.46],[19.1727,47.4582],[19.1732,47.4592],[19.1687,47.4611],[19.1691,47.4628],[19.178,47.464],[19.1787,47.4673],[19.1924,47.4589],[19.196,47.4628],[19.2058,47.4585],[19.209,47.4587],[19.2113,47.4581],[19.2282,47.4486],[19.2349,47.4474],[19.2372,47.4501],[19.245,47.4489],[19.2478,47.4466],[19.2517,47.4402],[19.2658,47.4382],[19.2601,47.4272],[19.2547,47.4289],[19.247,47.4192],[19.2438,47.4202],[19.2431,47.4198],[19.2418,47.4209],[19.2379,47.4223],[19.2387,47.4239],[19.2364,47.426],[19.2348,47.4232],[19.2317,47.4242],[19.2281,47.4216],[19.2174,47.4128],[19.2264,47.4075],[19.2179,47.4009],[19.2156,47.4031],[19.2149,47.4013],[19.206,47.3955],[19.199,47.3854],[19.1801,47.3991],[19.1755,47.396],[19.1721,47.3985],[19.1742,47.3999],[19.1674,47.4047],[19.1733,47.4067],[19.1662,47.4119],[19.1724,47.414],[19.1591,47.4254],[19.172,47.4315],[19.1571,47.4386],[19.1609,47.4417],[19.1541,47.4447]]]]}},{"type":"Feature","id":"kerulet-budapest-19","properties":{"name":"XIX. kerület (Kispest)","province":"Budapest","department":"Budapest","type":"Kerület","country":"Hungría","iso":"HU"},"geometry":{"type":"MultiPolygon","coordinates":[[[[19.1139,47.4551],[19.1283,47.4647],[19.1266,47.4658],[19.1317,47.4666],[19.1418,47.4643],[19.1512,47.4637],[19.1666,47.46],[19.1624,47.4572],[19.1631,47.4569],[19.1611,47.4556],[19.1615,47.4525],[19.1608,47.4507],[19.1541,47.4447],[19.1609,47.4417],[19.1571,47.4386],[19.172,47.4315],[19.1586,47.4254],[19.153,47.4304],[19.1525,47.4301],[19.1418,47.4373],[19.1369,47.4398],[19.1139,47.4551]]]]}},{"type":"Feature","id":"kerulet-budapest-20","properties":{"name":"XX. kerület (Pesterzsébet)","province":"Budapest","department":"Budapest","type":"Kerület","country":"Hungría","iso":"HU"},"geometry":{"type":"MultiPolygon","coordinates":[[[[19.0879,47.44],[19.0934,47.4414],[19.1139,47.4551],[19.1369,47.4398],[19.1418,47.4373],[19.1525,47.4301],[19.153,47.4304],[19.1591,47.4251],[19.1427,47.4159],[19.1294,47.4251],[19.1196,47.4191],[19.1248,47.4137],[19.1206,47.4116],[19.1163,47.4158],[19.1182,47.4182],[19.1137,47.4221],[19.1097,47.4194],[19.1063,47.4219],[19.1034,47.4271],[19.1034,47.4265],[19.1016,47.4255],[19.1009,47.4263],[19.0997,47.4259],[19.0974,47.4281],[19.098,47.4285],[19.0948,47.4299],[19.0918,47.4293],[19.0921,47.4286],[19.0913,47.4285],[19.0889,47.4337],[19.0879,47.44]]]]}},{"type":"Feature","id":"kerulet-budapest-21","properties":{"name":"XXI. kerület (Csepel)","province":"Budapest","department":"Budapest","type":"Kerület","country":"Hungría","iso":"HU"},"geometry":{"type":"MultiPolygon","coordinates":[[[[19.0167,47.3898],[19.028,47.3929],[19.034,47.3966],[19.0414,47.4066],[19.0451,47.415],[19.0455,47.4229],[19.0507,47.4366],[19.0532,47.4484],[19.0564,47.4533],[19.0639,47.4619],[19.0743,47.4608],[19.0781,47.4583],[19.0831,47.4537],[19.0844,47.4515],[19.0883,47.4388],[19.0889,47.4337],[19.0913,47.4285],[19.093,47.4225],[19.1002,47.413],[19.1049,47.402],[19.1081,47.3975],[19.1091,47.3948],[19.1077,47.39],[19.1052,47.387],[19.094,47.391],[19.0854,47.4016],[19.0836,47.4049],[19.0753,47.4041],[19.0709,47.4028],[19.0605,47.3977],[19.0646,47.3935],[19.0628,47.392],[19.0618,47.3916],[19.0537,47.3934],[19.0509,47.3874],[19.048,47.3888],[19.0449,47.3865],[19.044,47.385],[19.0416,47.3856],[19.0382,47.3884],[19.0304,47.3853],[19.0277,47.3885],[19.0241,47.3872],[19.0224,47.3891],[19.0189,47.3881],[19.0167,47.3898]]]]}},{"type":"Feature","id":"kerulet-budapest-22","properties":{"name":"XXII. kerület (Budafok-Tétény)","province":"Budapest","department":"Budapest","type":"Kerület","country":"Hungría","iso":"HU"},"geometry":{"type":"MultiPolygon","coordinates":[[[[18.9515,47.394],[18.9522,47.3956],[18.9541,47.3971],[18.9625,47.3993],[18.9615,47.4048],[18.9569,47.4143],[18.9574,47.4174],[18.957,47.4186],[18.9744,47.4295],[18.9781,47.4278],[18.9919,47.4279],[18.9938,47.4282],[19.0001,47.4317],[19.0048,47.4319],[19.0086,47.4397],[19.0109,47.4427],[19.0122,47.4434],[19.0148,47.4485],[19.0216,47.4463],[19.0271,47.4415],[19.0322,47.4392],[19.0324,47.4385],[19.0349,47.439],[19.0383,47.4343],[19.0407,47.4332],[19.0404,47.4314],[19.0409,47.4304],[19.0478,47.4298],[19.0455,47.4229],[19.0451,47.415],[19.0414,47.4066],[19.034,47.3966],[19.028,47.3929],[19.0189,47.3901],[18.996,47.3872],[18.9801,47.3838],[18.9726,47.3808],[18.9624,47.3726],[18.9572,47.3758],[18.9553,47.3782],[18.9535,47.3829],[18.9549,47.3836],[18.9519,47.3897],[18.9515,47.394]]]]}},{"type":"Feature","id":"kerulet-budapest-23","properties":{"name":"XXIII. kerület (Soroksár)","province":"Budapest","department":"Budapest","type":"Kerület","country":"Hungría","iso":"HU"},"geometry":{"type":"MultiPolygon","coordinates":[[[[19.0913,47.4285],[19.093,47.4225],[19.1002,47.413],[19.1049,47.402],[19.1081,47.3975],[19.1091,47.3948],[19.1077,47.39],[19.0982,47.3787],[19.1282,47.3598],[19.1336,47.356],[19.1405,47.3497],[19.1507,47.3567],[19.1797,47.3611],[19.1926,47.374],[19.199,47.3854],[19.1801,47.3991],[19.1755,47.396],[19.1721,47.3985],[19.1742,47.3999],[19.1674,47.4047],[19.1733,47.4067],[19.1662,47.4119],[19.1724,47.414],[19.1591,47.4251],[19.1427,47.4159],[19.1294,47.4251],[19.1196,47.4191],[19.1248,47.4137],[19.1206,47.4116],[19.1163,47.4158],[19.1182,47.4182],[19.1137,47.4221],[19.1097,47.4194],[19.1063,47.4219],[19.1034,47.4271],[19.1034,47.4265],[19.1016,47.4255],[19.1009,47.4263],[19.0997,47.4259],[19.0974,47.4281],[19.098,47.4285],[19.0948,47.4299],[19.0918,47.4293],[19.0921,47.4286],[19.0913,47.4285]]]]}}]}