{"type":"FeatureCollection","features":[{"type":"Feature","id":2,"properties":{"name":"Comuna 2 (Recoleta)","province":"Ciudad de Buenos Aires","department":"Ciudad de Buenos Aires","type":"Comuna","country":"Argentina","iso":"AR"},"geometry":{"type":"MultiPolygon","coordinates":[[[[-58.38,-34.57],[-58.3711,-34.5748],[-58.379,-34.5704],[-58.3804,-34.5705],[-58.3805,-34.571],[-58.3783,-34.5727],[-58.3836,-34.5734],[-58.3818,-34.5744],[-58.3754,-34.5739],[-58.3707,-34.577],[-58.3767,-34.5775],[-58.374,-34.5791],[-58.3751,-34.5805],[-58.3762,-34.58],[-58.3798,-34.5802],[-58.3836,-34.5782],[-58.3899,-34.5782],[-58.3916,-34.5808],[-58.387,-34.5836],[-58.3837,-34.5875],[-58.3879,-34.5916],[-58.3869,-34.5993],[-58.3987,-34.5998],[-58.402,-34.5994],[-58.4045,-34.598],[-58.416,-34.5979],[-58.4144,-34.5941],[-58.4062,-34.5835],[-58.4019,-34.5834],[-58.4005,-34.5845],[-58.3966,-34.5785],[-58.4011,-34.5757],[-58.4026,-34.5741],[-58.3997,-34.5708],[-58.4001,-34.5693],[-58.3952,-34.5722],[-58.393,-34.572],[-58.3853,-34.5763],[-58.3834,-34.5762],[-58.3829,-34.5754],[-58.3913,-34.5706],[-58.391,-34.5701],[-58.3903,-34.5693],[-58.3831,-34.5684],[-58.381,-34.5685],[-58.3804,-34.5701],[-58.3801,-34.5683],[-58.38,-34.57]]]]}},{"type":"Feature","id":6,"properties":{"name":"Comuna 6 (Caballito)","province":"Ciudad de Buenos Aires","department":"Ciudad de Buenos Aires","type":"Comuna","country":"Argentina","iso":"AR"},"geometry":{"type":"MultiPolygon","coordinates":[[[[-58.4306,-34.607],[-58.43,-34.6154],[-58.4293,-34.6151],[-58.4268,-34.627],[-58.4516,-34.6306],[-58.4627,-34.6074],[-58.4585,-34.6045],[-58.4462,-34.6076],[-58.4392,-34.6056],[-58.4333,-34.6027],[-58.4307,-34.6059],[-58.4306,-34.607]]]]}},{"type":"Feature","id":10,"properties":{"name":"Comuna 10 (Floresta - Monte Castro - Velez Sarsfield - Versalles - Villa Luro - Villa Real)","province":"Ciudad de Buenos Aires","department":"Ciudad de Buenos Aires","type":"Comuna","country":"Argentina","iso":"AR"},"geometry":{"type":"MultiPolygon","coordinates":[[[[-58.4883,-34.6202],[-58.4827,-34.6246],[-58.4778,-34.6224],[-58.4713,-34.6367],[-58.4761,-34.6389],[-58.4785,-34.637],[-58.4953,-34.6448],[-58.4971,-34.6434],[-58.5023,-34.6458],[-58.5098,-34.64],[-58.5105,-34.6374],[-58.5057,-34.6367],[-58.5068,-34.6358],[-58.5149,-34.6332],[-58.5202,-34.6328],[-58.5207,-34.6338],[-58.5304,-34.6348],[-58.5315,-34.6155],[-58.5295,-34.6109],[-58.517,-34.6202],[-58.513,-34.6167],[-58.5002,-34.6091],[-58.4956,-34.6144],[-58.4883,-34.6202]]]]}},{"type":"Feature","id":11,"properties":{"name":"Comuna 11 (Villa Del Parque - Villa  Devoto - Villa Gral. Mitre - Villa Santa Rita)","province":"Ciudad de Buenos Aires","department":"Ciudad de Buenos Aires","type":"Comuna","country":"Argentina","iso":"AR"},"geometry":{"type":"MultiPolygon","coordinates":[[[[-58.4984,-34.5964],[-58.4835,-34.5978],[-58.4764,-34.6002],[-58.4775,-34.6008],[-58.474,-34.6053],[-58.4689,-34.6019],[-58.4585,-34.6045],[-58.4627,-34.6074],[-58.4594,-34.6139],[-58.4686,-34.6176],[-58.4827,-34.6246],[-58.4956,-34.6144],[-58.5002,-34.6091],[-58.513,-34.6167],[-58.517,-34.6202],[-58.5295,-34.6109],[-58.5155,-34.5813],[-58.5138,-34.5825],[-58.5035,-34.5945],[-58.4984,-34.5964]]]]}},{"type":"Feature","id":12,"properties":{"name":"Comuna 12 (Coghlan - Saavedra - Villa Pueyrredon - Villa Urquiza)","province":"Ciudad de Buenos Aires","department":"Ciudad de Buenos Aires","type":"Comuna","country":"Argentina","iso":"AR"},"geometry":{"type":"MultiPolygon","coordinates":[[[[-58.5033,-34.5939],[-58.5155,-34.5813],[-58.5006,-34.5495],[-58.476,-34.5386],[-58.4682,-34.5489],[-58.4744,-34.5524],[-58.467,-34.5613],[-58.4677,-34.5617],[-58.4665,-34.5622],[-58.4734,-34.5667],[-58.4681,-34.5729],[-58.5033,-34.5939]]]]}},{"type":"Feature","id":14,"properties":{"name":"Comuna 14 (Palermo)","province":"Ciudad de Buenos Aires","department":"Ciudad de Buenos Aires","type":"Comuna","country":"Argentina","iso":"AR"},"geometry":{"type":"MultiPolygon","coordinates":[[[[-58.4268,-34.552],[-58.4157,-34.5549],[-58.4111,-34.5574],[-58.4096,-34.5566],[-58.4102,-34.5581],[-58.4039,-34.5635],[-58.3988,-34.5607],[-58.4039,-34.5636],[-58.4026,-34.564],[-58.401,-34.5634],[-58.4007,-34.5643],[-58.3993,-34.5637],[-58.397,-34.5651],[-58.3969,-34.5658],[-58.4002,-34.569],[-58.397,-34.5667],[-58.3946,-34.5692],[-58.3928,-34.5722],[-58.3952,-34.5722],[-58.4001,-34.5693],[-58.3997,-34.5708],[-58.4026,-34.5741],[-58.4011,-34.5757],[-58.3966,-34.5785],[-58.4005,-34.5845],[-58.4019,-34.5834],[-58.4062,-34.5835],[-58.4144,-34.5941],[-58.416,-34.5979],[-58.4234,-34.5977],[-58.427,-34.5962],[-58.4448,-34.5845],[-58.4434,-34.5818],[-58.4399,-34.5785],[-58.444,-34.5754],[-58.4407,-34.5721],[-58.449,-34.5679],[-58.4425,-34.5637],[-58.4412,-34.5621],[-58.4364,-34.5626],[-58.4349,-34.5621],[-58.4382,-34.5617],[-58.4405,-34.5604],[-58.4414,-34.5588],[-58.4404,-34.5573],[-58.4341,-34.554],[-58.4344,-34.553],[-58.431,-34.5511],[-58.4294,-34.551],[-58.4268,-34.552]]]]}},{"type":"Feature","id":15,"properties":{"name":"Comuna 15 (Agronomia - Chacarita -  Parque Chas -  Paternal - Villa Crespo - Villa Ortuzar)","province":"Ciudad de Buenos Aires","department":"Ciudad de Buenos Aires","type":"Comuna","country":"Argentina","iso":"AR"},"geometry":{"type":"MultiPolygon","coordinates":[[[[-58.426,-34.5966],[-58.4234,-34.5977],[-58.4278,-34.5983],[-58.4294,-34.5991],[-58.4322,-34.6021],[-58.4392,-34.6056],[-58.4462,-34.6076],[-58.4689,-34.6019],[-58.474,-34.6053],[-58.4775,-34.6008],[-58.4764,-34.6002],[-58.4835,-34.5978],[-58.4972,-34.5968],[-58.5035,-34.5945],[-58.4888,-34.5848],[-58.4674,-34.5725],[-58.4632,-34.5751],[-58.4602,-34.5783],[-58.4554,-34.5791],[-58.4444,-34.5832],[-58.4446,-34.5847],[-58.426,-34.5966]]]]}},{"type":"Feature","id":13,"properties":{"name":"Comuna 13 (Belgrano - Colegiales - Nuñez)","province":"Ciudad de Buenos Aires","department":"Ciudad de Buenos Aires","type":"Comuna","country":"Argentina","iso":"AR"},"geometry":{"type":"MultiPolygon","coordinates":[[[[-58.4403,-34.5402],[-58.4402,-34.5392],[-58.4402,-34.5398],[-58.4393,-34.5401],[-58.4376,-34.5398],[-58.4362,-34.5404],[-58.4349,-34.5419],[-58.4342,-34.5419],[-58.4349,-34.542],[-58.4346,-34.5426],[-58.4313,-34.5448],[-58.4307,-34.5473],[-58.4299,-34.5473],[-58.4308,-34.5478],[-58.4292,-34.549],[-58.4266,-34.5496],[-58.4262,-34.549],[-58.4271,-34.5485],[-58.4268,-34.5482],[-58.4256,-34.5489],[-58.4255,-34.5496],[-58.4268,-34.552],[-58.4294,-34.551],[-58.431,-34.5511],[-58.4344,-34.553],[-58.4341,-34.554],[-58.4411,-34.5579],[-58.4414,-34.5588],[-58.4403,-34.5606],[-58.438,-34.5618],[-58.435,-34.5618],[-58.4354,-34.5625],[-58.4412,-34.5621],[-58.4425,-34.5637],[-58.449,-34.5679],[-58.4407,-34.5721],[-58.444,-34.5754],[-58.4399,-34.5785],[-58.4444,-34.5832],[-58.4554,-34.5791],[-58.4602,-34.5783],[-58.4632,-34.5751],[-58.4674,-34.5725],[-58.4681,-34.5729],[-58.4734,-34.5667],[-58.4665,-34.5622],[-58.4677,-34.5617],[-58.467,-34.5613],[-58.4744,-34.5524],[-58.4682,-34.5489],[-58.476,-34.5386],[-58.4638,-34.5333],[-58.4593,-34.5271],[-58.4576,-34.5265],[-58.4555,-34.5275],[-58.4534,-34.5302],[-58.4533,-34.5315],[-58.4555,-34.5333],[-58.4553,-34.5354],[-58.4588,-34.5371],[-58.4539,-34.5351],[-58.4516,-34.5317],[-58.45,-34.5351],[-58.4541,-34.5365],[-58.4548,-34.5374],[-58.4541,-34.5388],[-58.4522,-34.5396],[-58.4499,-34.5374],[-58.45,-34.5361],[-58.449,-34.5355],[-58.4494,-34.5363],[-58.4486,-34.5374],[-58.4464,-34.536],[-58.4439,-34.5361],[-58.4416,-34.5376],[-58.4409,-34.5402],[-58.4403,-34.5402]]]]}},{"type":"Feature","id":4,"properties":{"name":"Comuna 4 (Barracas - Boca - Nueva Pompeya - Parque Patricios)","province":"Ciudad de Buenos Aires","department":"Ciudad de Buenos Aires","type":"Comuna","country":"Argentina","iso":"AR"},"geometry":{"type":"MultiPolygon","coordinates":[[[[-58.3886,-34.6337],[-58.3834,-34.6322],[-58.3813,-34.6308],[-58.3813,-34.6331],[-58.3801,-34.633],[-58.3786,-34.6305],[-58.379,-34.6293],[-58.3746,-34.6268],[-58.371,-34.6266],[-58.3707,-34.6295],[-58.3679,-34.6271],[-58.368,-34.6252],[-58.3632,-34.6251],[-58.356,-34.6176],[-58.3551,-34.6196],[-58.3541,-34.6197],[-58.3515,-34.6192],[-58.3496,-34.6198],[-58.3478,-34.619],[-58.3446,-34.619],[-58.3452,-34.6198],[-58.3463,-34.6192],[-58.3472,-34.62],[-58.3459,-34.623],[-58.3461,-34.622],[-58.3455,-34.6215],[-58.3441,-34.6218],[-58.344,-34.6195],[-58.3429,-34.6186],[-58.3386,-34.6186],[-58.3375,-34.62],[-58.3372,-34.6225],[-58.3419,-34.6228],[-58.3421,-34.6222],[-58.343,-34.6227],[-58.3424,-34.6234],[-58.34,-34.6232],[-58.3352,-34.6264],[-58.3362,-34.6282],[-58.3389,-34.6289],[-58.3424,-34.6262],[-58.3443,-34.6264],[-58.3414,-34.6289],[-58.3425,-34.6295],[-58.3446,-34.628],[-58.3454,-34.6287],[-58.347,-34.6273],[-58.3488,-34.6291],[-58.348,-34.6299],[-58.3479,-34.6312],[-58.3461,-34.6317],[-58.3491,-34.6325],[-58.3511,-34.6314],[-58.3524,-34.629],[-58.353,-34.6292],[-58.3603,-34.6239],[-58.3609,-34.6242],[-58.3618,-34.6236],[-58.3613,-34.6247],[-58.3549,-34.629],[-58.3528,-34.6336],[-58.3541,-34.6365],[-58.358,-34.6392],[-58.3604,-34.6392],[-58.3614,-34.6399],[-58.3609,-34.6407],[-58.3581,-34.6419],[-58.3573,-34.644],[-58.3576,-34.645],[-58.3624,-34.6481],[-58.3643,-34.6482],[-58.3697,-34.6513],[-58.3698,-34.6536],[-58.3725,-34.655],[-58.3741,-34.6568],[-58.3848,-34.6577],[-58.3881,-34.6604],[-58.3927,-34.6622],[-58.3972,-34.662],[-58.4025,-34.6594],[-58.4072,-34.6599],[-58.4124,-34.6584],[-58.4209,-34.6605],[-58.424,-34.662],[-58.4267,-34.6587],[-58.4344,-34.6531],[-58.4304,-34.6499],[-58.4349,-34.6462],[-58.4321,-34.6452],[-58.4323,-34.6417],[-58.4113,-34.6381],[-58.4105,-34.6352],[-58.4118,-34.6304],[-58.3912,-34.6273],[-58.3904,-34.6341],[-58.3886,-34.6337]]]]}},{"type":"Feature","id":5,"properties":{"name":"Comuna 5 (Almagro - Boedo)","province":"Ciudad de Buenos Aires","department":"Ciudad de Buenos Aires","type":"Comuna","country":"Argentina","iso":"AR"},"geometry":{"type":"MultiPolygon","coordinates":[[[[-58.4333,-34.6027],[-58.4294,-34.5991],[-58.4268,-34.5979],[-58.4119,-34.598],[-58.4139,-34.6072],[-58.4147,-34.6082],[-58.4145,-34.6107],[-58.4129,-34.6141],[-58.4115,-34.6329],[-58.4105,-34.6352],[-58.4113,-34.6381],[-58.4235,-34.6402],[-58.4293,-34.6151],[-58.43,-34.6154],[-58.4307,-34.6059],[-58.4333,-34.6027]]]]}},{"type":"Feature","id":7,"properties":{"name":"Comuna 7 (Flores - Parque Chacabuco)","province":"Ciudad de Buenos Aires","department":"Ciudad de Buenos Aires","type":"Comuna","country":"Argentina","iso":"AR"},"geometry":{"type":"MultiPolygon","coordinates":[[[[-58.4604,-34.6568],[-58.467,-34.6515],[-58.463,-34.6462],[-58.4692,-34.6414],[-58.4778,-34.6224],[-58.4686,-34.6176],[-58.4594,-34.6139],[-58.4516,-34.6306],[-58.4268,-34.627],[-58.4235,-34.6402],[-58.4323,-34.6417],[-58.4321,-34.6452],[-58.4349,-34.6462],[-58.4304,-34.6499],[-58.438,-34.6558],[-58.4433,-34.6512],[-58.4546,-34.6508],[-58.4551,-34.6523],[-58.4604,-34.6568]]]]}},{"type":"Feature","id":3,"properties":{"name":"Comuna 3 (Balvanera - San Cristobal)","province":"Ciudad de Buenos Aires","department":"Ciudad de Buenos Aires","type":"Comuna","country":"Argentina","iso":"AR"},"geometry":{"type":"MultiPolygon","coordinates":[[[[-58.4119,-34.598],[-58.4045,-34.598],[-58.402,-34.5994],[-58.3987,-34.5998],[-58.3929,-34.5996],[-58.3912,-34.6273],[-58.4118,-34.6304],[-58.4129,-34.6141],[-58.4145,-34.6107],[-58.4147,-34.6082],[-58.4139,-34.6072],[-58.4119,-34.598]]]]}},{"type":"Feature","id":9,"properties":{"name":"Comuna 9 (Liniers - Mataderos - Parque Avellaneda)","province":"Ciudad de Buenos Aires","department":"Ciudad de Buenos Aires","type":"Comuna","country":"Argentina","iso":"AR"},"geometry":{"type":"MultiPolygon","coordinates":[[[[-58.5025,-34.6745],[-58.5292,-34.6543],[-58.5304,-34.6348],[-58.5207,-34.6338],[-58.5202,-34.6328],[-58.5149,-34.6332],[-58.5068,-34.6358],[-58.5057,-34.6367],[-58.5105,-34.6374],[-58.5098,-34.64],[-58.5023,-34.6458],[-58.4971,-34.6434],[-58.4953,-34.6448],[-58.4785,-34.637],[-58.4761,-34.6389],[-58.4713,-34.6367],[-58.4692,-34.6414],[-58.463,-34.6462],[-58.467,-34.6515],[-58.4604,-34.6568],[-58.4644,-34.66],[-58.4677,-34.6575],[-58.4696,-34.6591],[-58.4706,-34.6584],[-58.4725,-34.6628],[-58.4788,-34.6578],[-58.4859,-34.6624],[-58.489,-34.6633],[-58.497,-34.6712],[-58.5025,-34.6745]]]]}},{"type":"Feature","id":8,"properties":{"name":"Comuna 8 (Villa Lugano - Villa Riachuelo - Villa Soldati)","province":"Ciudad de Buenos Aires","department":"Ciudad de Buenos Aires","type":"Comuna","country":"Argentina","iso":"AR"},"geometry":{"type":"MultiPolygon","coordinates":[[[[-58.4604,-34.6568],[-58.4551,-34.6523],[-58.4546,-34.6508],[-58.4446,-34.6509],[-58.4433,-34.6512],[-58.438,-34.6558],[-58.4344,-34.6531],[-58.4267,-34.6587],[-58.424,-34.662],[-58.4279,-34.6654],[-58.4617,-34.7053],[-58.5025,-34.6745],[-58.497,-34.6712],[-58.489,-34.6633],[-58.4859,-34.6624],[-58.4788,-34.6578],[-58.4725,-34.6628],[-58.4706,-34.6584],[-58.4696,-34.6591],[-58.4677,-34.6575],[-58.4644,-34.66],[-58.4604,-34.6568]]]]}},{"type":"Feature","id":1,"properties":{"name":"Comuna 1 (Constitucion - Montserrat - Puerto Madero - Retiro - San Nicolas - San Telmo)","province":"Ciudad de Buenos Aires","department":"Ciudad de Buenos Aires","type":"Comuna","country":"Argentina","iso":"AR"},"geometry":{"type":"MultiPolygon","coordinates":[[[[-58.3685,-34.5737],[-58.3581,-34.5793],[-58.3548,-34.5927],[-58.3555,-34.5917],[-58.3582,-34.5794],[-58.3676,-34.5739],[-58.3697,-34.574],[-58.3685,-34.5737]]],[[[-58.3886,-34.6337],[-58.3904,-34.6341],[-58.3929,-34.5996],[-58.3869,-34.5993],[-58.3879,-34.5916],[-58.3837,-34.5875],[-58.387,-34.5836],[-58.3916,-34.5808],[-58.3899,-34.5782],[-58.3836,-34.5782],[-58.3798,-34.5802],[-58.3762,-34.58],[-58.3751,-34.5805],[-58.374,-34.5791],[-58.3767,-34.5775],[-58.3743,-34.5787],[-58.3679,-34.5782],[-58.3653,-34.5802],[-58.3706,-34.5808],[-58.369,-34.5817],[-58.3616,-34.5811],[-58.3614,-34.583],[-58.3661,-34.5836],[-58.3649,-34.5845],[-58.3599,-34.5841],[-58.3597,-34.5859],[-58.3636,-34.5862],[-58.3635,-34.5875],[-58.3596,-34.5872],[-58.3595,-34.5881],[-58.3607,-34.5889],[-58.368,-34.59],[-58.3665,-34.591],[-58.3644,-34.5943],[-58.3648,-34.5945],[-58.3674,-34.5914],[-58.3664,-34.593],[-58.3669,-34.5932],[-58.3678,-34.5919],[-58.3672,-34.5933],[-58.3691,-34.5942],[-58.3679,-34.5975],[-58.3665,-34.5974],[-58.3661,-34.5982],[-58.3662,-34.5974],[-58.3638,-34.5972],[-58.3641,-34.5953],[-58.3634,-34.5967],[-58.3601,-34.595],[-58.3541,-34.5947],[-58.351,-34.5951],[-58.3568,-34.5949],[-58.3534,-34.5967],[-58.347,-34.602],[-58.3459,-34.6067],[-58.3409,-34.6107],[-58.3399,-34.6161],[-58.3409,-34.6169],[-58.3448,-34.6177],[-58.3491,-34.6168],[-58.3503,-34.6172],[-58.3508,-34.6182],[-58.3498,-34.6182],[-58.35,-34.6187],[-58.3507,-34.6186],[-58.3507,-34.6192],[-58.3527,-34.6198],[-58.3551,-34.6196],[-58.356,-34.6176],[-58.3632,-34.6251],[-58.368,-34.6252],[-58.3679,-34.6271],[-58.3707,-34.6295],[-58.371,-34.6266],[-58.3746,-34.6268],[-58.379,-34.6293],[-58.3786,-34.6305],[-58.3801,-34.633],[-58.3813,-34.6331],[-58.3813,-34.6308],[-58.3834,-34.6322],[-58.3886,-34.6337]]]]}}]}