{"type":"FeatureCollection","features":[{"type":"Feature","id":"ve010101","properties":{"name":"Altagracia","province":"Distrito Capital","department":"Distrito Capital","type":"Parroquia","country":"Venezuela","iso":"VE"},"geometry":{"type":"Polygon","coordinates":[[[-66.911,10.5271],[-66.9113,10.5519],[-66.916,10.5527],[-66.9153,10.5209],[-66.9166,10.5183],[-66.9159,10.5175],[-66.9163,10.5132],[-66.9212,10.5142],[-66.9216,10.5104],[-66.9223,10.5105],[-66.9213,10.5091],[-66.9089,10.5067],[-66.9082,10.5101],[-66.9118,10.5109],[-66.9112,10.5138],[-66.9126,10.5136],[-66.9118,10.5178],[-66.9109,10.5176],[-66.911,10.5271]]]}},{"type":"Feature","id":"ve010102","properties":{"name":"Antimano","province":"Distrito Capital","department":"Distrito Capital","type":"Parroquia","country":"Venezuela","iso":"VE"},"geometry":{"type":"Polygon","coordinates":[[[-66.9713,10.4957],[-66.9714,10.497],[-66.9761,10.4952],[-66.9807,10.4953],[-66.9823,10.4923],[-66.984,10.4914],[-66.984,10.4895],[-66.9861,10.4883],[-66.9869,10.4845],[-66.99,10.4823],[-66.9917,10.4823],[-66.9926,10.4803],[-66.9935,10.4799],[-66.9937,10.4787],[-66.9922,10.4759],[-66.9932,10.476],[-66.996,10.4785],[-66.996,10.4746],[-67.0018,10.4754],[-67.0026,10.4743],[-66.999,10.4713],[-67.0088,10.4693],[-67.0075,10.4666],[-67.0085,10.4549],[-67.012,10.455],[-67.013,10.4572],[-67.0157,10.4586],[-67.0168,10.4614],[-67.018,10.4609],[-67.0194,10.4619],[-67.0235,10.4603],[-67.0265,10.461],[-67.0302,10.459],[-67.0319,10.4577],[-67.0323,10.4563],[-67.0336,10.4559],[-67.041,10.4546],[-67.0439,10.4564],[-67.0476,10.4557],[-67.0477,10.455],[-67.0455,10.4515],[-67.0418,10.4494],[-67.0411,10.4479],[-67.037,10.4479],[-67.0329,10.4462],[-67.0314,10.4472],[-67.0295,10.4468],[-67.0284,10.4446],[-67.0253,10.4445],[-67.0238,10.4432],[-67.0204,10.4453],[-67.0164,10.4455],[-67.0119,10.4438],[-67.0097,10.4448],[-67.0083,10.4442],[-67.0059,10.4456],[-67.0028,10.4448],[-67.0005,10.4466],[-66.9989,10.4451],[-66.9977,10.4462],[-66.9959,10.4437],[-66.993,10.4436],[-66.9914,10.4414],[-66.988,10.4398],[-66.9854,10.4429],[-66.9838,10.4431],[-66.9817,10.4454],[-66.979,10.4458],[-66.9756,10.4485],[-66.9735,10.4486],[-66.9716,10.4502],[-66.97,10.4505],[-66.9704,10.4521],[-66.9698,10.4547],[-66.9688,10.4555],[-66.9689,10.458],[-66.9662,10.4599],[-66.9623,10.4608],[-66.9611,10.4666],[-66.9622,10.4701],[-66.9732,10.4656],[-66.9762,10.4669],[-66.9636,10.4732],[-66.9673,10.479],[-66.9677,10.4842],[-66.9668,10.489],[-66.9713,10.4957]]]}},{"type":"Feature","id":"ve010103","properties":{"name":"Candelaria","province":"Distrito Capital","department":"Distrito Capital","type":"Parroquia","country":"Venezuela","iso":"VE"},"geometry":{"type":"Polygon","coordinates":[[[-66.9089,10.5067],[-66.9103,10.4995],[-66.9092,10.4993],[-66.9087,10.5017],[-66.9033,10.5006],[-66.9024,10.5016],[-66.8978,10.5008],[-66.896,10.502],[-66.8971,10.5045],[-66.8949,10.5088],[-66.8921,10.5112],[-66.8907,10.5155],[-66.8919,10.5152],[-66.8955,10.5107],[-66.8978,10.5095],[-66.9002,10.5052],[-66.9028,10.5058],[-66.903,10.5092],[-66.9069,10.5099],[-66.9082,10.5101],[-66.9089,10.5067]]]}},{"type":"Feature","id":"ve010104","properties":{"name":"Caricuao","province":"Distrito Capital","department":"Distrito Capital","type":"Parroquia","country":"Venezuela","iso":"VE"},"geometry":{"type":"Polygon","coordinates":[[[-66.97,10.4505],[-66.9716,10.4502],[-66.9735,10.4486],[-66.9756,10.4485],[-66.979,10.4458],[-66.9817,10.4454],[-66.9838,10.4431],[-66.9854,10.4429],[-66.988,10.4398],[-66.9914,10.4414],[-66.993,10.4436],[-66.9959,10.4437],[-66.9977,10.4462],[-66.9989,10.4451],[-67.0005,10.4466],[-67.0028,10.4448],[-67.0059,10.4456],[-67.0083,10.4442],[-67.0097,10.4448],[-67.0119,10.4438],[-67.0164,10.4455],[-67.0204,10.4453],[-67.0238,10.4432],[-67.0213,10.4419],[-67.0208,10.4393],[-67.0193,10.4387],[-67.0181,10.4287],[-67.0169,10.4266],[-67.0148,10.4256],[-67.0118,10.4262],[-67.0094,10.4244],[-67.0078,10.4247],[-67.0042,10.4239],[-67.0026,10.4221],[-66.9994,10.4209],[-66.997,10.4178],[-66.9901,10.4192],[-66.985,10.4169],[-66.9833,10.4145],[-66.9845,10.4122],[-66.983,10.4117],[-66.9821,10.4099],[-66.9825,10.4082],[-66.9813,10.4008],[-66.9796,10.4],[-66.971,10.4069],[-66.9692,10.4069],[-66.9651,10.4111],[-66.9577,10.4143],[-66.9562,10.4166],[-66.9555,10.4204],[-66.9508,10.4242],[-66.9513,10.4266],[-66.953,10.4287],[-66.9524,10.4314],[-66.9506,10.4337],[-66.9498,10.4377],[-66.9514,10.4404],[-66.9517,10.4436],[-66.9543,10.4437],[-66.9561,10.4447],[-66.9576,10.4438],[-66.9619,10.4447],[-66.9633,10.4471],[-66.9671,10.4473],[-66.9678,10.4489],[-66.9699,10.4497],[-66.97,10.4505]]]}},{"type":"Feature","id":"ve010105","properties":{"name":"Catedral","province":"Distrito Capital","department":"Distrito Capital","type":"Parroquia","country":"Venezuela","iso":"VE"},"geometry":{"type":"Polygon","coordinates":[[[-66.9137,10.5016],[-66.91,10.5014],[-66.9089,10.5067],[-66.9213,10.5091],[-66.9229,10.5112],[-66.9225,10.5102],[-66.9232,10.5071],[-66.9244,10.5073],[-66.9242,10.5055],[-66.9197,10.5054],[-66.9195,10.5042],[-66.9147,10.503],[-66.9149,10.5019],[-66.9137,10.5016]]]}},{"type":"Feature","id":"ve010106","properties":{"name":"Coche","province":"Distrito Capital","department":"Distrito Capital","type":"Parroquia","country":"Venezuela","iso":"VE"},"geometry":{"type":"Polygon","coordinates":[[[-66.9297,10.4554],[-66.9314,10.4558],[-66.9347,10.4586],[-66.9354,10.4582],[-66.9373,10.4564],[-66.9379,10.4533],[-66.941,10.4511],[-66.9422,10.4472],[-66.9468,10.4467],[-66.9493,10.4446],[-66.9516,10.4438],[-66.9514,10.4404],[-66.9498,10.4377],[-66.9506,10.4337],[-66.9524,10.4314],[-66.953,10.4285],[-66.9513,10.4267],[-66.9508,10.4242],[-66.9479,10.4246],[-66.9417,10.4229],[-66.9405,10.4205],[-66.9361,10.4183],[-66.9322,10.4141],[-66.9283,10.4139],[-66.9234,10.4153],[-66.9152,10.4112],[-66.9146,10.4126],[-66.9095,10.4089],[-66.9082,10.4087],[-66.9072,10.4106],[-66.9076,10.4122],[-66.9109,10.4141],[-66.914,10.4184],[-66.9149,10.4215],[-66.9174,10.4235],[-66.9194,10.424],[-66.9272,10.4224],[-66.929,10.4234],[-66.9289,10.4256],[-66.9252,10.4282],[-66.9239,10.4304],[-66.9253,10.4374],[-66.9236,10.4461],[-66.9228,10.4483],[-66.9193,10.4523],[-66.9242,10.4564],[-66.9269,10.4548],[-66.9297,10.4554]]]}},{"type":"Feature","id":"ve010107","properties":{"name":"El Junquito","province":"Distrito Capital","department":"Distrito Capital","type":"Parroquia","country":"Venezuela","iso":"VE"},"geometry":{"type":"Polygon","coordinates":[[[-67.0029,10.5343],[-67.0035,10.5363],[-67.0062,10.5338],[-67.0074,10.5349],[-67.0107,10.5327],[-67.0126,10.5329],[-67.0132,10.5318],[-67.0157,10.5329],[-67.0171,10.5327],[-67.0165,10.5321],[-67.0185,10.5327],[-67.0187,10.5318],[-67.0204,10.5321],[-67.021,10.5313],[-67.0226,10.5313],[-67.0245,10.535],[-67.0283,10.5358],[-67.0277,10.5327],[-67.0352,10.5328],[-67.0408,10.5308],[-67.0465,10.5272],[-67.0496,10.5278],[-67.0506,10.5267],[-67.0504,10.5214],[-67.0525,10.5205],[-67.053,10.518],[-67.0619,10.5195],[-67.0642,10.5194],[-67.0656,10.5184],[-67.0671,10.514],[-67.0557,10.5015],[-67.058,10.4963],[-67.0576,10.4935],[-67.0598,10.4863],[-67.0598,10.4836],[-67.0571,10.4828],[-67.0557,10.4803],[-67.0567,10.4755],[-67.0564,10.4731],[-67.0585,10.4708],[-67.0586,10.4674],[-67.0625,10.4657],[-67.0656,10.4625],[-67.0671,10.4627],[-67.0683,10.4616],[-67.0726,10.4606],[-67.0752,10.462],[-67.0789,10.4607],[-67.0807,10.4608],[-67.0821,10.4619],[-67.0853,10.4598],[-67.0872,10.4602],[-67.087,10.4593],[-67.0883,10.4584],[-67.0937,10.4596],[-67.0969,10.4585],[-67.1011,10.461],[-67.1067,10.457],[-67.1029,10.4552],[-67.0954,10.4547],[-67.0943,10.4535],[-67.0934,10.4544],[-67.0928,10.4538],[-67.0914,10.4542],[-67.0911,10.4531],[-67.0898,10.4541],[-67.0899,10.4552],[-67.0887,10.4542],[-67.0874,10.4545],[-67.0867,10.4557],[-67.0854,10.4549],[-67.0826,10.4555],[-67.0823,10.4544],[-67.0813,10.4543],[-67.0807,10.4556],[-67.0796,10.4561],[-67.0792,10.4547],[-67.078,10.4562],[-67.0775,10.4546],[-67.0762,10.455],[-67.0756,10.454],[-67.0743,10.4553],[-67.0738,10.4546],[-67.0717,10.4558],[-67.0708,10.4545],[-67.0699,10.4567],[-67.0681,10.4581],[-67.0667,10.4571],[-67.0646,10.457],[-67.0636,10.4577],[-67.0638,10.4587],[-67.0626,10.4576],[-67.0594,10.4568],[-67.057,10.4573],[-67.0551,10.4615],[-67.0525,10.4636],[-67.0507,10.4615],[-67.05,10.4585],[-67.0488,10.4575],[-67.0493,10.4565],[-67.0481,10.4557],[-67.0439,10.4564],[-67.0406,10.4545],[-67.0394,10.4553],[-67.0336,10.4559],[-67.0323,10.4563],[-67.0319,10.4577],[-67.0302,10.459],[-67.0265,10.461],[-67.0235,10.4603],[-67.0194,10.4619],[-67.018,10.4609],[-67.0168,10.4614],[-67.0157,10.4586],[-67.013,10.4572],[-67.012,10.455],[-67.0085,10.4549],[-67.0075,10.4666],[-67.0088,10.4693],[-66.999,10.4713],[-67.0026,10.4743],[-67.0018,10.4754],[-66.996,10.4746],[-66.996,10.4785],[-66.9922,10.4759],[-66.9921,10.4768],[-66.9937,10.4788],[-66.992,10.482],[-66.99,10.4823],[-66.9869,10.4845],[-66.9861,10.4883],[-66.984,10.4895],[-66.984,10.4914],[-66.9823,10.4923],[-66.9807,10.4953],[-66.9761,10.4953],[-66.9784,10.4972],[-66.9809,10.4971],[-66.9828,10.4985],[-66.9842,10.4963],[-66.9868,10.4951],[-66.9876,10.4934],[-66.9886,10.495],[-66.9902,10.4948],[-66.9895,10.4997],[-66.9925,10.4997],[-66.9921,10.5024],[-66.9972,10.5033],[-66.9985,10.5023],[-66.9976,10.5053],[-66.9999,10.5068],[-67.0001,10.5118],[-66.9971,10.5143],[-66.9965,10.5168],[-66.9943,10.5202],[-66.9949,10.5219],[-66.9927,10.5272],[-66.9969,10.5272],[-66.9955,10.5284],[-66.9962,10.5289],[-66.9946,10.529],[-66.9943,10.53],[-66.9966,10.5307],[-66.9968,10.5318],[-66.9975,10.5308],[-66.9993,10.5313],[-67.0029,10.5343]]]}},{"type":"Feature","id":"ve010108","properties":{"name":"El Paraíso","province":"Distrito Capital","department":"Distrito Capital","type":"Parroquia","country":"Venezuela","iso":"VE"},"geometry":{"type":"Polygon","coordinates":[[[-66.9448,10.4745],[-66.942,10.4732],[-66.9415,10.4716],[-66.9381,10.4705],[-66.9334,10.4723],[-66.934,10.4741],[-66.9326,10.4767],[-66.9315,10.477],[-66.9323,10.4787],[-66.9314,10.4814],[-66.9228,10.4854],[-66.922,10.4866],[-66.9206,10.4859],[-66.9182,10.4867],[-66.9173,10.4863],[-66.9161,10.4876],[-66.9165,10.4896],[-66.9153,10.4885],[-66.9144,10.4893],[-66.9153,10.4915],[-66.9151,10.4932],[-66.9174,10.4915],[-66.9192,10.4913],[-66.9239,10.4954],[-66.9275,10.4959],[-66.9405,10.4884],[-66.9415,10.4907],[-66.9409,10.4911],[-66.9459,10.4996],[-66.948,10.499],[-66.9519,10.496],[-66.9562,10.4954],[-66.96,10.4931],[-66.9677,10.4986],[-66.9714,10.497],[-66.9705,10.4938],[-66.9668,10.489],[-66.9677,10.4842],[-66.9673,10.479],[-66.9636,10.4732],[-66.9553,10.4771],[-66.9489,10.4822],[-66.946,10.4747],[-66.9448,10.4745]]]}},{"type":"Feature","id":"ve010109","properties":{"name":"El Recreo","province":"Distrito Capital","department":"Distrito Capital","type":"Parroquia","country":"Venezuela","iso":"VE"},"geometry":{"type":"Polygon","coordinates":[[[-66.8717,10.5417],[-66.8727,10.5461],[-66.8758,10.5431],[-66.8799,10.5416],[-66.8834,10.5419],[-66.8905,10.5457],[-66.8907,10.5145],[-66.8921,10.5112],[-66.8952,10.5084],[-66.8971,10.5043],[-66.8942,10.4974],[-66.8881,10.4975],[-66.8851,10.4954],[-66.8854,10.4937],[-66.8841,10.4912],[-66.8819,10.4904],[-66.8785,10.4906],[-66.8736,10.4873],[-66.869,10.4875],[-66.8706,10.4939],[-66.8697,10.4943],[-66.8694,10.4983],[-66.8688,10.4996],[-66.8676,10.4998],[-66.8657,10.5048],[-66.8641,10.5056],[-66.8641,10.5072],[-66.8621,10.5097],[-66.8613,10.5126],[-66.8616,10.5139],[-66.8639,10.5148],[-66.8641,10.5189],[-66.8633,10.521],[-66.8667,10.5253],[-66.8716,10.5355],[-66.8717,10.5417]]]}},{"type":"Feature","id":"ve010110","properties":{"name":"El Valle","province":"Distrito Capital","department":"Distrito Capital","type":"Parroquia","country":"Venezuela","iso":"VE"},"geometry":{"type":"Polygon","coordinates":[[[-66.8989,10.4768],[-66.9004,10.4781],[-66.9016,10.4757],[-66.9027,10.4763],[-66.9038,10.4742],[-66.9052,10.475],[-66.9067,10.4737],[-66.9073,10.4746],[-66.9079,10.4736],[-66.9091,10.4736],[-66.9096,10.4722],[-66.9118,10.4721],[-66.9179,10.4674],[-66.9192,10.4681],[-66.9212,10.4669],[-66.9227,10.4673],[-66.9287,10.4652],[-66.929,10.4658],[-66.9347,10.4586],[-66.9314,10.4558],[-66.9283,10.455],[-66.9269,10.4548],[-66.9242,10.4564],[-66.9193,10.4523],[-66.9228,10.4483],[-66.9236,10.4461],[-66.9253,10.4374],[-66.9239,10.4304],[-66.9252,10.4282],[-66.9289,10.4256],[-66.9289,10.4233],[-66.9269,10.4224],[-66.9194,10.424],[-66.9175,10.4236],[-66.9149,10.4215],[-66.914,10.4184],[-66.9109,10.4141],[-66.9076,10.4122],[-66.9072,10.4106],[-66.9082,10.4087],[-66.9039,10.4081],[-66.9002,10.4087],[-66.8957,10.412],[-66.8965,10.4169],[-66.8956,10.4197],[-66.8993,10.4233],[-66.9001,10.4272],[-66.8998,10.4295],[-66.8977,10.4328],[-66.8982,10.4341],[-66.8964,10.4356],[-66.8968,10.4372],[-66.8956,10.44],[-66.8965,10.4479],[-66.8946,10.4504],[-66.8957,10.4516],[-66.8922,10.4564],[-66.8923,10.4618],[-66.891,10.4645],[-66.8901,10.4645],[-66.8915,10.466],[-66.8907,10.4678],[-66.892,10.4696],[-66.8904,10.469],[-66.8905,10.4705],[-66.8939,10.4721],[-66.8935,10.4729],[-66.8989,10.4768]]]}},{"type":"Feature","id":"ve010111","properties":{"name":"La Pastora","province":"Distrito Capital","department":"Distrito Capital","type":"Parroquia","country":"Venezuela","iso":"VE"},"geometry":{"type":"Polygon","coordinates":[[[-66.9158,10.5369],[-66.916,10.5527],[-66.9281,10.5501],[-66.9306,10.5381],[-66.9334,10.5351],[-66.9339,10.5332],[-66.9333,10.5316],[-66.9352,10.5276],[-66.9331,10.5221],[-66.9341,10.5198],[-66.933,10.519],[-66.9316,10.514],[-66.9274,10.5132],[-66.9216,10.5104],[-66.9212,10.5142],[-66.9163,10.5132],[-66.9159,10.5175],[-66.9166,10.5183],[-66.9153,10.5209],[-66.9158,10.5369]]]}},{"type":"Feature","id":"ve010112","properties":{"name":"La Vega","province":"Distrito Capital","department":"Distrito Capital","type":"Parroquia","country":"Venezuela","iso":"VE"},"geometry":{"type":"Polygon","coordinates":[[[-66.9334,10.4724],[-66.9381,10.4705],[-66.9415,10.4716],[-66.9422,10.4733],[-66.9459,10.4744],[-66.9489,10.4822],[-66.9553,10.4771],[-66.9762,10.4669],[-66.9732,10.4656],[-66.9622,10.4701],[-66.9611,10.4666],[-66.9623,10.4608],[-66.9662,10.4599],[-66.9689,10.458],[-66.9688,10.4555],[-66.9698,10.4547],[-66.9704,10.4521],[-66.9699,10.4497],[-66.9678,10.4489],[-66.9671,10.4473],[-66.9633,10.4471],[-66.9619,10.4447],[-66.9576,10.4438],[-66.9561,10.4447],[-66.9543,10.4437],[-66.9517,10.4436],[-66.9468,10.4467],[-66.9422,10.4472],[-66.941,10.4511],[-66.9379,10.4533],[-66.9373,10.4564],[-66.933,10.46],[-66.9311,10.4636],[-66.929,10.4658],[-66.9301,10.4684],[-66.9318,10.4692],[-66.9314,10.4716],[-66.9334,10.4724]]]}},{"type":"Feature","id":"ve010113","properties":{"name":"Macarao","province":"Distrito Capital","department":"Distrito Capital","type":"Parroquia","country":"Venezuela","iso":"VE"},"geometry":{"type":"Polygon","coordinates":[[[-67.0521,10.4635],[-67.0551,10.4615],[-67.057,10.4573],[-67.0594,10.4568],[-67.0626,10.4576],[-67.0638,10.4587],[-67.0636,10.4577],[-67.0646,10.457],[-67.0667,10.4571],[-67.0681,10.4581],[-67.0699,10.4567],[-67.0708,10.4545],[-67.0717,10.4558],[-67.0738,10.4546],[-67.0743,10.4553],[-67.0756,10.454],[-67.0762,10.455],[-67.0775,10.4546],[-67.078,10.4562],[-67.0792,10.4547],[-67.0796,10.4561],[-67.0807,10.4556],[-67.0813,10.4543],[-67.0823,10.4544],[-67.0826,10.4555],[-67.0854,10.4549],[-67.0867,10.4557],[-67.0874,10.4545],[-67.0887,10.4542],[-67.0899,10.4552],[-67.0898,10.4541],[-67.0911,10.4531],[-67.0914,10.4542],[-67.0928,10.4538],[-67.0934,10.4544],[-67.0943,10.4535],[-67.0954,10.4547],[-67.1032,10.4552],[-67.1132,10.4598],[-67.1164,10.4581],[-67.1198,10.4589],[-67.1224,10.4582],[-67.1313,10.4536],[-67.144,10.4496],[-67.1507,10.4421],[-67.1608,10.4395],[-67.1628,10.4368],[-67.159,10.4335],[-67.1586,10.4308],[-67.1595,10.4275],[-67.1583,10.4255],[-67.1623,10.421],[-67.1626,10.4178],[-67.1639,10.4167],[-67.1634,10.4141],[-67.1598,10.4131],[-67.1576,10.4136],[-67.1552,10.4161],[-67.1532,10.4161],[-67.1516,10.4155],[-67.1486,10.4117],[-67.1417,10.4091],[-67.1378,10.4111],[-67.122,10.4075],[-67.1194,10.4053],[-67.1133,10.4049],[-67.109,10.4057],[-67.1064,10.4039],[-67.1028,10.4053],[-67.0988,10.4051],[-67.0947,10.4061],[-67.0907,10.4049],[-67.0797,10.393],[-67.0707,10.3943],[-67.0643,10.3914],[-67.0607,10.3913],[-67.0571,10.3898],[-67.0554,10.3906],[-67.0454,10.3859],[-67.0374,10.3895],[-67.0362,10.3909],[-67.0318,10.3917],[-67.0214,10.3895],[-67.0174,10.3865],[-67.0163,10.3835],[-67.0146,10.3832],[-67.0112,10.3838],[-67.0064,10.3863],[-66.9989,10.3874],[-66.9939,10.3937],[-66.9881,10.3955],[-66.9848,10.3984],[-66.9832,10.3985],[-66.9813,10.4008],[-66.9825,10.4082],[-66.9821,10.4099],[-66.983,10.4117],[-66.9845,10.4122],[-66.9833,10.4147],[-66.985,10.4169],[-66.9901,10.4192],[-66.997,10.4178],[-66.9994,10.4209],[-67.0026,10.4221],[-67.0042,10.4239],[-67.0078,10.4247],[-67.0094,10.4244],[-67.0118,10.4262],[-67.0148,10.4256],[-67.0169,10.4266],[-67.0181,10.4287],[-67.0193,10.4387],[-67.0208,10.4393],[-67.0213,10.4419],[-67.0253,10.4445],[-67.0284,10.4446],[-67.0295,10.4468],[-67.0314,10.4472],[-67.0329,10.4462],[-67.037,10.4479],[-67.0413,10.4481],[-67.0418,10.4494],[-67.0455,10.4515],[-67.0476,10.4557],[-67.0493,10.4565],[-67.0488,10.4575],[-67.05,10.4585],[-67.0507,10.4615],[-67.0521,10.4635]]]}},{"type":"Feature","id":"ve010114","properties":{"name":"San Agustín","province":"Distrito Capital","department":"Distrito Capital","type":"Parroquia","country":"Venezuela","iso":"VE"},"geometry":{"type":"Polygon","coordinates":[[[-66.9006,10.4917],[-66.8996,10.4925],[-66.8986,10.4964],[-66.8942,10.4974],[-66.896,10.502],[-66.8978,10.5008],[-66.9024,10.5016],[-66.9033,10.5006],[-66.9087,10.5017],[-66.9097,10.4966],[-66.9107,10.4969],[-66.911,10.4908],[-66.9091,10.4911],[-66.9076,10.4902],[-66.9006,10.4917]]]}},{"type":"Feature","id":"ve010115","properties":{"name":"San Bernandino","province":"Distrito Capital","department":"Distrito Capital","type":"Parroquia","country":"Venezuela","iso":"VE"},"geometry":{"type":"Polygon","coordinates":[[[-66.9032,10.5513],[-66.9068,10.5515],[-66.907,10.5231],[-66.9076,10.5222],[-66.9066,10.519],[-66.9048,10.5173],[-66.9049,10.5126],[-66.9026,10.5084],[-66.9028,10.5058],[-66.9002,10.5052],[-66.8978,10.5095],[-66.8955,10.5107],[-66.8919,10.5152],[-66.8907,10.5155],[-66.8905,10.5457],[-66.8939,10.5483],[-66.9032,10.5513]]]}},{"type":"Feature","id":"ve010116","properties":{"name":"San José","province":"Distrito Capital","department":"Distrito Capital","type":"Parroquia","country":"Venezuela","iso":"VE"},"geometry":{"type":"Polygon","coordinates":[[[-66.9066,10.5189],[-66.9076,10.5222],[-66.907,10.5231],[-66.9068,10.5515],[-66.9113,10.5519],[-66.9109,10.5176],[-66.9118,10.5178],[-66.9126,10.5136],[-66.9112,10.5138],[-66.9118,10.5109],[-66.903,10.5092],[-66.9049,10.5125],[-66.9048,10.5173],[-66.9066,10.5189]]]}},{"type":"Feature","id":"ve010117","properties":{"name":"San Juan","province":"Distrito Capital","department":"Distrito Capital","type":"Parroquia","country":"Venezuela","iso":"VE"},"geometry":{"type":"Polygon","coordinates":[[[-66.9452,10.4995],[-66.9459,10.4996],[-66.9439,10.4968],[-66.9437,10.4952],[-66.9409,10.4911],[-66.9415,10.4907],[-66.9405,10.4884],[-66.9275,10.4959],[-66.9239,10.4954],[-66.9205,10.492],[-66.918,10.5038],[-66.9195,10.5042],[-66.9197,10.5054],[-66.9238,10.5056],[-66.9233,10.5043],[-66.9299,10.5025],[-66.9333,10.5025],[-66.9362,10.5036],[-66.9435,10.5028],[-66.9445,10.5022],[-66.9452,10.4995]]]}},{"type":"Feature","id":"ve010118","properties":{"name":"San Pedro","province":"Distrito Capital","department":"Distrito Capital","type":"Parroquia","country":"Venezuela","iso":"VE"},"geometry":{"type":"Polygon","coordinates":[[[-66.8846,10.492],[-66.8854,10.4937],[-66.8851,10.4954],[-66.8878,10.4974],[-66.8942,10.4974],[-66.8986,10.4964],[-66.8996,10.4925],[-66.9006,10.4917],[-66.9076,10.4902],[-66.9095,10.4911],[-66.9113,10.4903],[-66.911,10.488],[-66.9097,10.4862],[-66.8967,10.4747],[-66.8935,10.4729],[-66.8939,10.4721],[-66.8905,10.4705],[-66.8904,10.469],[-66.892,10.4696],[-66.8907,10.4678],[-66.8915,10.466],[-66.8901,10.4645],[-66.884,10.4697],[-66.8835,10.4713],[-66.8815,10.471],[-66.881,10.4721],[-66.8818,10.4759],[-66.883,10.4756],[-66.8835,10.4765],[-66.8833,10.4799],[-66.882,10.4808],[-66.883,10.4816],[-66.8816,10.4827],[-66.8826,10.4832],[-66.8821,10.4847],[-66.8833,10.4864],[-66.8822,10.4861],[-66.88,10.4874],[-66.881,10.4882],[-66.8803,10.4896],[-66.8806,10.4906],[-66.8833,10.4907],[-66.8846,10.492]]]}},{"type":"Feature","id":"ve010119","properties":{"name":"Santa Rosalía","province":"Distrito Capital","department":"Distrito Capital","type":"Parroquia","country":"Venezuela","iso":"VE"},"geometry":{"type":"Polygon","coordinates":[[[-66.9314,10.4716],[-66.9318,10.4692],[-66.9301,10.4684],[-66.9287,10.4652],[-66.9227,10.4673],[-66.9212,10.4669],[-66.9192,10.4681],[-66.9179,10.4674],[-66.9118,10.4721],[-66.9096,10.4722],[-66.9091,10.4736],[-66.9079,10.4736],[-66.9073,10.4746],[-66.9064,10.4736],[-66.9052,10.475],[-66.9038,10.4742],[-66.9027,10.4763],[-66.9016,10.4757],[-66.9004,10.4781],[-66.9111,10.4882],[-66.9107,10.4969],[-66.9097,10.4966],[-66.9092,10.4993],[-66.9103,10.4995],[-66.91,10.5014],[-66.9137,10.5016],[-66.9153,10.4915],[-66.9144,10.4893],[-66.9153,10.4885],[-66.9165,10.4896],[-66.9161,10.4876],[-66.9173,10.4863],[-66.9182,10.4867],[-66.9206,10.4859],[-66.922,10.4866],[-66.9228,10.4854],[-66.9314,10.4813],[-66.9323,10.4787],[-66.9315,10.477],[-66.9326,10.4767],[-66.934,10.474],[-66.9334,10.4724],[-66.9314,10.4716]]]}},{"type":"Feature","id":"ve010120","properties":{"name":"Santa Teresa","province":"Distrito Capital","department":"Distrito Capital","type":"Parroquia","country":"Venezuela","iso":"VE"},"geometry":{"type":"Polygon","coordinates":[[[-66.9155,10.493],[-66.9137,10.5016],[-66.9149,10.5019],[-66.9147,10.503],[-66.918,10.5038],[-66.9205,10.492],[-66.918,10.4913],[-66.9155,10.493]]]}},{"type":"Feature","id":"ve010121","properties":{"name":"Sucre","province":"Distrito Capital","department":"Distrito Capital","type":"Parroquia","country":"Venezuela","iso":"VE"},"geometry":{"type":"Polygon","coordinates":[[[-67.0115,10.5625],[-67.0142,10.5625],[-67.0174,10.5607],[-67.0229,10.5538],[-67.0308,10.5498],[-67.0283,10.5358],[-67.0245,10.535],[-67.0226,10.5313],[-67.021,10.5313],[-67.0204,10.5321],[-67.0187,10.5318],[-67.0185,10.5327],[-67.0165,10.5321],[-67.0171,10.5327],[-67.0157,10.5329],[-67.0132,10.5318],[-67.0126,10.5329],[-67.0107,10.5327],[-67.0074,10.5349],[-67.0062,10.5338],[-67.0035,10.5363],[-67.0029,10.5343],[-66.9993,10.5313],[-66.9975,10.5308],[-66.9968,10.5318],[-66.9966,10.5307],[-66.9943,10.53],[-66.9946,10.529],[-66.9962,10.5289],[-66.9955,10.5284],[-66.9969,10.5273],[-66.9928,10.5275],[-66.9949,10.5219],[-66.9943,10.5202],[-66.9965,10.5168],[-66.9971,10.5143],[-67.0001,10.5118],[-67.0004,10.5091],[-66.9999,10.5068],[-66.9976,10.5053],[-66.9985,10.5023],[-66.9974,10.5033],[-66.9945,10.5023],[-66.9923,10.5025],[-66.9918,10.5018],[-66.9925,10.4997],[-66.9896,10.4999],[-66.9902,10.4948],[-66.9886,10.495],[-66.9875,10.4935],[-66.9868,10.4951],[-66.9842,10.4963],[-66.9828,10.4985],[-66.9809,10.4971],[-66.9784,10.4972],[-66.9761,10.4952],[-66.9677,10.4986],[-66.96,10.4931],[-66.9562,10.4954],[-66.9519,10.496],[-66.948,10.499],[-66.9459,10.4996],[-66.9475,10.5022],[-66.9453,10.5105],[-66.9408,10.5097],[-66.9383,10.5053],[-66.9375,10.5085],[-66.9348,10.5089],[-66.9348,10.5118],[-66.9326,10.5142],[-66.9316,10.514],[-66.9314,10.5148],[-66.9326,10.5159],[-66.933,10.519],[-66.9341,10.5198],[-66.9331,10.5221],[-66.9352,10.5276],[-66.9333,10.5316],[-66.9339,10.5332],[-66.9334,10.5351],[-66.9306,10.5381],[-66.9281,10.5501],[-66.9343,10.5493],[-66.9378,10.5464],[-66.9441,10.5432],[-66.9521,10.5435],[-66.9537,10.5439],[-66.9567,10.5465],[-66.9608,10.5485],[-66.9651,10.5495],[-66.9684,10.552],[-66.9842,10.5593],[-67.0021,10.5625],[-67.0087,10.5624],[-67.0096,10.5613],[-67.0115,10.5625]]]}},{"type":"Feature","id":"ve010122","properties":{"name":"23 de Enero","province":"Distrito Capital","department":"Distrito Capital","type":"Parroquia","country":"Venezuela","iso":"VE"},"geometry":{"type":"Polygon","coordinates":[[[-66.9446,10.5009],[-66.9445,10.5022],[-66.9435,10.5028],[-66.9362,10.5036],[-66.9333,10.5025],[-66.9299,10.5025],[-66.9233,10.5043],[-66.9244,10.5073],[-66.9232,10.5071],[-66.9226,10.5106],[-66.9274,10.5132],[-66.9326,10.5142],[-66.9348,10.5118],[-66.9348,10.5089],[-66.9376,10.5083],[-66.9383,10.5053],[-66.9408,10.5097],[-66.9453,10.5105],[-66.9475,10.5022],[-66.9459,10.4996],[-66.9452,10.4995],[-66.9446,10.5009]]]}}]}