{"type":"FeatureCollection","features":[{"type":"Feature","id":"mx09010","properties":{"name":"Álvaro Obregón","province":"Distrito Federal","department":"Ciudad de México","type":"Alcaldía","country":"México","iso":"MX"},"geometry":{"type":"Polygon","coordinates":[[[-99.1891,19.3956],[-99.1922,19.4011],[-99.1922,19.4037],[-99.2105,19.4004],[-99.2236,19.3959],[-99.2273,19.3958],[-99.2376,19.3936],[-99.2389,19.3927],[-99.2397,19.3891],[-99.2421,19.3874],[-99.246,19.3872],[-99.2614,19.3758],[-99.27,19.3731],[-99.2698,19.3714],[-99.2684,19.3718],[-99.2691,19.3691],[-99.2684,19.3687],[-99.2672,19.3693],[-99.2661,19.3716],[-99.2651,19.3717],[-99.2667,19.3678],[-99.2668,19.3635],[-99.2613,19.361],[-99.2593,19.3502],[-99.2582,19.3498],[-99.2611,19.3478],[-99.259,19.3481],[-99.2631,19.3468],[-99.2684,19.3419],[-99.2695,19.342],[-99.2785,19.3377],[-99.2812,19.3374],[-99.2801,19.3362],[-99.2802,19.3352],[-99.285,19.3365],[-99.2875,19.3311],[-99.2867,19.3298],[-99.2883,19.3307],[-99.288,19.3335],[-99.2913,19.3292],[-99.2908,19.3266],[-99.2917,19.3242],[-99.2906,19.3215],[-99.2931,19.3205],[-99.2948,19.3169],[-99.2955,19.3176],[-99.2965,19.3172],[-99.2967,19.3186],[-99.2982,19.3192],[-99.3005,19.3223],[-99.3018,19.3183],[-99.3,19.314],[-99.3011,19.3122],[-99.3013,19.3095],[-99.3033,19.3111],[-99.3059,19.3072],[-99.3074,19.3079],[-99.3078,19.3057],[-99.3088,19.3051],[-99.3102,19.3076],[-99.3116,19.3068],[-99.312,19.3043],[-99.3136,19.3036],[-99.314,19.3014],[-99.3164,19.3001],[-99.3159,19.2992],[-99.3172,19.2958],[-99.3171,19.2934],[-99.3157,19.2899],[-99.3167,19.2861],[-99.3157,19.2822],[-99.3174,19.2749],[-99.3236,19.2651],[-99.3243,19.2326],[-99.3223,19.2326],[-99.3233,19.2386],[-99.3227,19.2403],[-99.3201,19.2431],[-99.3187,19.2432],[-99.3176,19.2445],[-99.3171,19.2503],[-99.3159,19.2509],[-99.3159,19.2528],[-99.3148,19.255],[-99.3154,19.2564],[-99.3088,19.2581],[-99.3053,19.2579],[-99.3024,19.2589],[-99.3009,19.261],[-99.298,19.2615],[-99.2968,19.2631],[-99.2942,19.2646],[-99.2926,19.2683],[-99.2896,19.2703],[-99.2862,19.2707],[-99.2852,19.2731],[-99.2833,19.2751],[-99.284,19.277],[-99.2811,19.2806],[-99.2792,19.2817],[-99.2782,19.2814],[-99.2779,19.2826],[-99.2733,19.2852],[-99.2762,19.2891],[-99.2725,19.2942],[-99.2715,19.2992],[-99.2697,19.3012],[-99.2722,19.3025],[-99.2684,19.3051],[-99.2712,19.3072],[-99.2701,19.3115],[-99.2705,19.3119],[-99.2684,19.314],[-99.2659,19.3134],[-99.2618,19.3177],[-99.2604,19.3206],[-99.2575,19.3229],[-99.2552,19.3266],[-99.2442,19.3286],[-99.2428,19.328],[-99.2403,19.3244],[-99.2373,19.3247],[-99.2335,19.3272],[-99.2312,19.3298],[-99.2224,19.3335],[-99.2171,19.3347],[-99.2149,19.3364],[-99.2115,19.3362],[-99.2075,19.3378],[-99.2087,19.336],[-99.2067,19.3362],[-99.2094,19.3333],[-99.2128,19.3268],[-99.2211,19.3203],[-99.2205,19.3137],[-99.2182,19.3099],[-99.2159,19.3079],[-99.2058,19.3057],[-99.2056,19.3067],[-99.2052,19.3063],[-99.2002,19.3112],[-99.2012,19.312],[-99.195,19.3218],[-99.1947,19.3302],[-99.1963,19.3336],[-99.1998,19.3335],[-99.1981,19.3355],[-99.1912,19.3369],[-99.1903,19.3387],[-99.184,19.3436],[-99.1829,19.3466],[-99.1806,19.3472],[-99.1799,19.3496],[-99.173,19.3568],[-99.1717,19.3596],[-99.1777,19.3651],[-99.1798,19.363],[-99.1837,19.3617],[-99.1911,19.3635],[-99.1908,19.3669],[-99.1921,19.3734],[-99.1917,19.3827],[-99.1884,19.3932],[-99.1891,19.3956]]]}},{"type":"Feature","id":"mx09002","properties":{"name":"Azcapotzalco","province":"Distrito Federal","department":"Ciudad de México","type":"Alcaldía","country":"México","iso":"MX"},"geometry":{"type":"Polygon","coordinates":[[[-99.1572,19.5028],[-99.173,19.5086],[-99.1771,19.5062],[-99.1823,19.5075],[-99.2047,19.5151],[-99.209,19.5127],[-99.2102,19.5111],[-99.2135,19.4983],[-99.2211,19.4751],[-99.2068,19.4712],[-99.201,19.4734],[-99.191,19.4706],[-99.1904,19.4705],[-99.1907,19.4647],[-99.188,19.4638],[-99.1885,19.4608],[-99.1637,19.4564],[-99.1629,19.4593],[-99.1587,19.4639],[-99.1506,19.4629],[-99.1431,19.4651],[-99.1572,19.5028]]]}},{"type":"Feature","id":"mx09014","properties":{"name":"Benito Juárez","province":"Distrito Federal","department":"Ciudad de México","type":"Alcaldía","country":"México","iso":"MX"},"geometry":{"type":"Polygon","coordinates":[[[-99.1366,19.4028],[-99.1376,19.4035],[-99.1567,19.404],[-99.1755,19.3981],[-99.1891,19.3956],[-99.1884,19.3932],[-99.1917,19.3827],[-99.1921,19.3734],[-99.1908,19.3669],[-99.1911,19.3635],[-99.1837,19.3617],[-99.1798,19.363],[-99.1777,19.3651],[-99.1731,19.3604],[-99.1698,19.3587],[-99.1398,19.3569],[-99.131,19.3976],[-99.1309,19.399],[-99.1372,19.3992],[-99.1366,19.4028]]]}},{"type":"Feature","id":"mx09003","properties":{"name":"Coyoacán","province":"Distrito Federal","department":"Ciudad de México","type":"Alcaldía","country":"México","iso":"MX"},"geometry":{"type":"Polygon","coordinates":[[[-99.1398,19.3569],[-99.1692,19.3586],[-99.1717,19.3596],[-99.173,19.3568],[-99.1799,19.3496],[-99.1806,19.3472],[-99.1829,19.3466],[-99.184,19.3436],[-99.1903,19.3387],[-99.1912,19.3369],[-99.1981,19.3355],[-99.1998,19.3335],[-99.1963,19.3336],[-99.1947,19.3302],[-99.1949,19.322],[-99.2012,19.312],[-99.2002,19.3112],[-99.2052,19.3063],[-99.2056,19.3067],[-99.2058,19.3057],[-99.1951,19.3021],[-99.1793,19.3034],[-99.1623,19.3013],[-99.159,19.2997],[-99.1567,19.2968],[-99.1516,19.298],[-99.1474,19.3013],[-99.1426,19.2996],[-99.1347,19.3083],[-99.1168,19.3014],[-99.1092,19.2996],[-99.1009,19.3],[-99.0992,19.3209],[-99.1057,19.3263],[-99.1102,19.3327],[-99.1129,19.3354],[-99.1156,19.3433],[-99.1208,19.3518],[-99.122,19.3577],[-99.1312,19.3587],[-99.1335,19.3566],[-99.1398,19.3569]]]}},{"type":"Feature","id":"mx09004","properties":{"name":"Cuajimalpa de Morelos","province":"Distrito Federal","department":"Ciudad de México","type":"Alcaldía","country":"México","iso":"MX"},"geometry":{"type":"Polygon","coordinates":[[[-99.2558,19.4036],[-99.257,19.4004],[-99.2583,19.4027],[-99.2579,19.4048],[-99.2588,19.4037],[-99.2591,19.4015],[-99.2613,19.3993],[-99.2651,19.399],[-99.2696,19.3904],[-99.2724,19.3897],[-99.2737,19.387],[-99.28,19.3823],[-99.2828,19.3814],[-99.285,19.3791],[-99.2857,19.3764],[-99.2877,19.3767],[-99.2886,19.3751],[-99.2906,19.375],[-99.2939,19.3701],[-99.2956,19.3691],[-99.2979,19.3693],[-99.299,19.3675],[-99.3012,19.3697],[-99.301,19.3718],[-99.3019,19.3758],[-99.3013,19.3771],[-99.3035,19.3778],[-99.305,19.3768],[-99.3061,19.3736],[-99.3078,19.3716],[-99.3093,19.3716],[-99.3107,19.3704],[-99.3131,19.3704],[-99.3154,19.3659],[-99.3169,19.3663],[-99.3181,19.3642],[-99.3195,19.3636],[-99.3207,19.3604],[-99.3181,19.3582],[-99.3192,19.3576],[-99.3233,19.3583],[-99.3264,19.3537],[-99.3274,19.3541],[-99.3285,19.3531],[-99.3289,19.3456],[-99.3283,19.3452],[-99.3312,19.3398],[-99.3323,19.3335],[-99.3338,19.3306],[-99.3566,19.3067],[-99.3563,19.302],[-99.35,19.2968],[-99.3535,19.2974],[-99.3513,19.295],[-99.3515,19.2942],[-99.3545,19.2933],[-99.3536,19.2919],[-99.3649,19.2778],[-99.3619,19.2757],[-99.3482,19.274],[-99.3447,19.2695],[-99.3392,19.2677],[-99.3376,19.264],[-99.3399,19.2597],[-99.3421,19.2475],[-99.3423,19.2411],[-99.3308,19.2379],[-99.3267,19.2326],[-99.3243,19.2326],[-99.3236,19.2651],[-99.3174,19.2749],[-99.3157,19.2822],[-99.3167,19.2861],[-99.3157,19.2899],[-99.3171,19.2934],[-99.3172,19.2958],[-99.3159,19.2992],[-99.3164,19.3001],[-99.314,19.3014],[-99.3136,19.3036],[-99.312,19.3043],[-99.3116,19.3068],[-99.3102,19.3076],[-99.3088,19.3051],[-99.3078,19.3057],[-99.3074,19.3079],[-99.3059,19.3072],[-99.3033,19.3111],[-99.3013,19.3095],[-99.3011,19.3122],[-99.3,19.314],[-99.3018,19.3183],[-99.3005,19.3223],[-99.2982,19.3192],[-99.2967,19.3186],[-99.2965,19.3172],[-99.2955,19.3176],[-99.2948,19.3169],[-99.2931,19.3205],[-99.2906,19.3215],[-99.2917,19.3242],[-99.2908,19.3266],[-99.2913,19.3292],[-99.288,19.3335],[-99.2883,19.3307],[-99.2867,19.3298],[-99.2875,19.3311],[-99.285,19.3365],[-99.2802,19.3352],[-99.2801,19.3362],[-99.2812,19.3374],[-99.2785,19.3377],[-99.2695,19.342],[-99.2684,19.3419],[-99.2631,19.3468],[-99.259,19.3481],[-99.2611,19.3478],[-99.2582,19.3497],[-99.2593,19.3502],[-99.2613,19.361],[-99.2668,19.3635],[-99.2667,19.3678],[-99.2651,19.3717],[-99.2661,19.3716],[-99.2672,19.3693],[-99.2684,19.3687],[-99.2691,19.3691],[-99.2684,19.3718],[-99.2698,19.3714],[-99.2702,19.3727],[-99.2614,19.3758],[-99.2477,19.386],[-99.2485,19.3904],[-99.247,19.3927],[-99.247,19.3942],[-99.2526,19.3935],[-99.2548,19.3952],[-99.2548,19.3937],[-99.2593,19.3926],[-99.2596,19.3944],[-99.2557,19.3973],[-99.2552,19.4015],[-99.2558,19.4036]]]}},{"type":"Feature","id":"mx09015","properties":{"name":"Cuauhtémoc","province":"Distrito Federal","department":"Ciudad de México","type":"Alcaldía","country":"México","iso":"MX"},"geometry":{"type":"Polygon","coordinates":[[[-99.1222,19.4598],[-99.1276,19.4615],[-99.1333,19.4649],[-99.1417,19.4658],[-99.1503,19.463],[-99.1576,19.4641],[-99.1593,19.4636],[-99.1632,19.4589],[-99.1658,19.4436],[-99.1776,19.4236],[-99.1751,19.423],[-99.1843,19.4078],[-99.1711,19.4035],[-99.1704,19.3998],[-99.1563,19.4041],[-99.1376,19.4035],[-99.1364,19.4028],[-99.1303,19.4032],[-99.1257,19.4043],[-99.1282,19.4138],[-99.1271,19.4204],[-99.126,19.4229],[-99.1231,19.4425],[-99.1259,19.4482],[-99.1233,19.4582],[-99.1222,19.4598]]]}},{"type":"Feature","id":"mx09005","properties":{"name":"Gustavo A. Madero","province":"Distrito Federal","department":"Ciudad de México","type":"Alcaldía","country":"México","iso":"MX"},"geometry":{"type":"Polygon","coordinates":[[[-99.1179,19.5906],[-99.1195,19.592],[-99.1237,19.5928],[-99.127,19.5885],[-99.1338,19.5862],[-99.1338,19.5849],[-99.1379,19.5811],[-99.1396,19.5754],[-99.1448,19.5708],[-99.1468,19.5646],[-99.1509,19.5605],[-99.1528,19.562],[-99.1561,19.5602],[-99.1581,19.5574],[-99.1576,19.555],[-99.1609,19.5493],[-99.1592,19.5492],[-99.1586,19.5483],[-99.1511,19.5448],[-99.1585,19.5339],[-99.1558,19.5324],[-99.1586,19.5289],[-99.1568,19.5281],[-99.1592,19.5269],[-99.176,19.532],[-99.177,19.5293],[-99.1762,19.5289],[-99.1754,19.5301],[-99.1714,19.5272],[-99.1746,19.5241],[-99.163,19.518],[-99.1431,19.4651],[-99.1419,19.4658],[-99.1333,19.4649],[-99.1276,19.4615],[-99.1173,19.4581],[-99.1116,19.4537],[-99.1014,19.4499],[-99.0932,19.4516],[-99.0872,19.4458],[-99.0809,19.4502],[-99.0623,19.4448],[-99.0526,19.4484],[-99.0509,19.4502],[-99.0634,19.4786],[-99.0633,19.4813],[-99.0649,19.4818],[-99.068,19.4891],[-99.0639,19.4988],[-99.0974,19.5126],[-99.1034,19.5113],[-99.1059,19.5099],[-99.1067,19.5104],[-99.1073,19.5097],[-99.1076,19.511],[-99.1086,19.5105],[-99.109,19.5111],[-99.1094,19.5103],[-99.1106,19.5112],[-99.1144,19.5111],[-99.1159,19.5131],[-99.121,19.5163],[-99.1253,19.5205],[-99.128,19.5245],[-99.1274,19.5351],[-99.1306,19.5361],[-99.1227,19.5454],[-99.121,19.5491],[-99.1185,19.5522],[-99.1156,19.554],[-99.1157,19.5567],[-99.1081,19.5649],[-99.1118,19.5687],[-99.1147,19.5798],[-99.1169,19.5814],[-99.1186,19.5845],[-99.1179,19.5906]]]}},{"type":"Feature","id":"mx09006","properties":{"name":"Iztacalco","province":"Distrito Federal","department":"Ciudad de México","type":"Alcaldía","country":"México","iso":"MX"},"geometry":{"type":"Polygon","coordinates":[[[-99.0558,19.4221],[-99.0579,19.4209],[-99.0695,19.4203],[-99.0782,19.4071],[-99.098,19.4091],[-99.1146,19.4056],[-99.1366,19.4028],[-99.1372,19.3992],[-99.1309,19.399],[-99.1355,19.3772],[-99.1297,19.377],[-99.1225,19.3757],[-99.1225,19.3824],[-99.0956,19.3796],[-99.0888,19.3904],[-99.0846,19.3895],[-99.084,19.3926],[-99.0664,19.3835],[-99.0608,19.3826],[-99.0558,19.4221]]]}},{"type":"Feature","id":"mx09007","properties":{"name":"Iztapalapa","province":"Distrito Federal","department":"Ciudad de México","type":"Alcaldía","country":"México","iso":"MX"},"geometry":{"type":"Polygon","coordinates":[[[-99.0581,19.4007],[-99.0608,19.3826],[-99.0664,19.3835],[-99.084,19.3926],[-99.0846,19.3895],[-99.0888,19.3904],[-99.0956,19.3796],[-99.1225,19.3824],[-99.1225,19.3757],[-99.1354,19.3773],[-99.1399,19.3574],[-99.1337,19.3566],[-99.1312,19.3587],[-99.122,19.3577],[-99.1202,19.3506],[-99.1156,19.3433],[-99.1138,19.3369],[-99.1122,19.3342],[-99.1102,19.3327],[-99.1057,19.3263],[-99.1,19.3219],[-99.0977,19.3172],[-99.0749,19.2897],[-99.0692,19.2851],[-99.0616,19.2927],[-99.0626,19.2973],[-99.0648,19.3016],[-99.0634,19.3057],[-99.0599,19.3044],[-99.054,19.3116],[-99.0525,19.3105],[-99.0502,19.3129],[-99.0489,19.3119],[-99.0466,19.3149],[-99.0436,19.3122],[-99.0404,19.3154],[-99.0396,19.3147],[-99.0387,19.3157],[-99.0014,19.3271],[-98.9799,19.3261],[-98.9806,19.3247],[-98.9786,19.3239],[-98.9782,19.3253],[-98.9766,19.3249],[-98.9765,19.3243],[-98.9753,19.3256],[-98.969,19.3247],[-98.9683,19.3257],[-98.9604,19.3254],[-98.9743,19.337],[-98.9788,19.3433],[-98.9946,19.3581],[-98.9919,19.3676],[-99.0196,19.3833],[-99.0581,19.4007]]]}},{"type":"Feature","id":"mx09008","properties":{"name":"La Magdalena Contreras","province":"Distrito Federal","department":"Ciudad de México","type":"Alcaldía","country":"México","iso":"MX"},"geometry":{"type":"Polygon","coordinates":[[[-99.2199,19.3123],[-99.2212,19.3201],[-99.2128,19.3268],[-99.2094,19.3333],[-99.2067,19.3362],[-99.2087,19.336],[-99.2075,19.3378],[-99.2115,19.3362],[-99.2149,19.3364],[-99.2171,19.3347],[-99.2224,19.3335],[-99.2312,19.3298],[-99.2335,19.3272],[-99.2373,19.3247],[-99.2403,19.3244],[-99.2428,19.328],[-99.2442,19.3286],[-99.2552,19.3266],[-99.2575,19.3229],[-99.2604,19.3206],[-99.2618,19.3177],[-99.2659,19.3134],[-99.2684,19.314],[-99.2705,19.3119],[-99.2701,19.3115],[-99.2712,19.3072],[-99.2684,19.3051],[-99.2722,19.3025],[-99.2697,19.3012],[-99.2715,19.2992],[-99.2725,19.2942],[-99.2762,19.2891],[-99.2733,19.2852],[-99.2779,19.2826],[-99.2782,19.2814],[-99.2792,19.2817],[-99.2811,19.2806],[-99.284,19.277],[-99.2833,19.2751],[-99.2852,19.2731],[-99.2862,19.2707],[-99.2896,19.2703],[-99.2926,19.2683],[-99.2942,19.2646],[-99.2968,19.2631],[-99.298,19.2615],[-99.3009,19.261],[-99.3024,19.2589],[-99.3053,19.2579],[-99.3088,19.2581],[-99.3154,19.2564],[-99.3148,19.255],[-99.3159,19.2528],[-99.3159,19.2509],[-99.3171,19.2503],[-99.3176,19.2445],[-99.3187,19.2432],[-99.3201,19.2431],[-99.3232,19.2392],[-99.3223,19.2326],[-99.3153,19.2292],[-99.3151,19.2269],[-99.3096,19.2247],[-99.3014,19.2182],[-99.2967,19.2178],[-99.2932,19.2139],[-99.2914,19.2146],[-99.2878,19.2131],[-99.2846,19.2137],[-99.2824,19.2131],[-99.2773,19.2147],[-99.2742,19.2182],[-99.2742,19.221],[-99.2707,19.2242],[-99.2638,19.2285],[-99.2589,19.2305],[-99.2529,19.2355],[-99.2529,19.2376],[-99.251,19.2405],[-99.2518,19.2424],[-99.2501,19.2447],[-99.2504,19.2457],[-99.248,19.2467],[-99.2474,19.2489],[-99.2453,19.2503],[-99.2446,19.2527],[-99.2454,19.2573],[-99.2439,19.2592],[-99.2457,19.2589],[-99.2472,19.2603],[-99.2459,19.2612],[-99.2455,19.2629],[-99.2471,19.2647],[-99.246,19.2675],[-99.2435,19.2698],[-99.2446,19.2729],[-99.2435,19.2756],[-99.2454,19.277],[-99.2449,19.2801],[-99.2434,19.2811],[-99.2435,19.2822],[-99.242,19.283],[-99.2429,19.2841],[-99.2408,19.287],[-99.2428,19.2894],[-99.2427,19.2923],[-99.2415,19.2929],[-99.2414,19.294],[-99.236,19.2945],[-99.2361,19.2951],[-99.2333,19.2966],[-99.2325,19.2979],[-99.2334,19.3008],[-99.2322,19.3015],[-99.233,19.3018],[-99.2319,19.305],[-99.2277,19.307],[-99.2276,19.3081],[-99.2249,19.3106],[-99.2207,19.3111],[-99.2199,19.3123]]]}},{"type":"Feature","id":"mx09016","properties":{"name":"Miguel Hidalgo","province":"Distrito Federal","department":"Ciudad de México","type":"Alcaldía","country":"México","iso":"MX"},"geometry":{"type":"Polygon","coordinates":[[[-99.1637,19.4564],[-99.1885,19.4608],[-99.188,19.4638],[-99.1907,19.4647],[-99.1904,19.4705],[-99.1914,19.4708],[-99.201,19.4734],[-99.2068,19.4712],[-99.2072,19.4696],[-99.2089,19.4701],[-99.2099,19.4694],[-99.2121,19.4671],[-99.2135,19.4629],[-99.2126,19.4625],[-99.2153,19.4562],[-99.2174,19.4537],[-99.22,19.4529],[-99.2201,19.4461],[-99.2181,19.4441],[-99.2206,19.4437],[-99.2281,19.4382],[-99.2271,19.4368],[-99.2274,19.4349],[-99.2262,19.434],[-99.2268,19.4313],[-99.2234,19.4295],[-99.2223,19.427],[-99.2228,19.4264],[-99.2245,19.4271],[-99.2255,19.4266],[-99.227,19.4243],[-99.2308,19.4217],[-99.233,19.4194],[-99.2336,19.4166],[-99.2354,19.4154],[-99.2373,19.4124],[-99.2408,19.4119],[-99.2483,19.4086],[-99.2549,19.4046],[-99.2558,19.4036],[-99.2552,19.4015],[-99.2557,19.3973],[-99.2596,19.3943],[-99.2593,19.3926],[-99.2548,19.3937],[-99.2548,19.3952],[-99.2526,19.3935],[-99.247,19.3942],[-99.247,19.3927],[-99.2485,19.3904],[-99.2477,19.386],[-99.2455,19.3874],[-99.2427,19.387],[-99.2399,19.3889],[-99.2389,19.3927],[-99.2378,19.3935],[-99.2273,19.3958],[-99.2236,19.3959],[-99.2105,19.4004],[-99.2019,19.4016],[-99.1976,19.4031],[-99.1922,19.4037],[-99.1922,19.4011],[-99.1891,19.3956],[-99.1841,19.3962],[-99.1704,19.3998],[-99.1711,19.4035],[-99.1843,19.4078],[-99.1751,19.423],[-99.1776,19.4236],[-99.1658,19.4436],[-99.1637,19.4564]]]}},{"type":"Feature","id":"mx09009","properties":{"name":"Milpa Alta","province":"Distrito Federal","department":"Ciudad de México","type":"Alcaldía","country":"México","iso":"MX"},"geometry":{"type":"Polygon","coordinates":[[[-98.9685,19.2106],[-98.9743,19.2144],[-98.9782,19.2151],[-98.9906,19.2258],[-98.9912,19.2248],[-98.9933,19.2249],[-98.9937,19.2275],[-98.9953,19.2275],[-98.9958,19.225],[-98.9975,19.2265],[-98.9972,19.2275],[-98.9989,19.2277],[-98.9998,19.2268],[-99.003,19.2276],[-99.0031,19.2271],[-99.0001,19.2263],[-99.0302,19.2236],[-99.091,19.211],[-99.0946,19.2115],[-99.0957,19.2086],[-99.0993,19.2081],[-99.1017,19.2048],[-99.1022,19.2007],[-99.1048,19.199],[-99.1324,19.1486],[-99.1404,19.1522],[-99.1445,19.1587],[-99.1468,19.1599],[-99.1496,19.1603],[-99.152,19.1508],[-99.1525,19.1421],[-99.1633,19.1175],[-99.1365,19.0894],[-99.1354,19.0893],[-99.1254,19.0621],[-99.0598,19.0482],[-99.0432,19.0758],[-99.029,19.0854],[-98.9836,19.0788],[-98.979,19.0745],[-98.9737,19.0796],[-98.9683,19.0831],[-98.9657,19.0859],[-98.9612,19.0956],[-98.9591,19.1043],[-98.9575,19.1224],[-98.9611,19.133],[-98.9665,19.1439],[-98.9546,19.1495],[-98.9674,19.1644],[-98.9524,19.1686],[-98.9562,19.1768],[-98.9598,19.1792],[-98.9664,19.187],[-98.9677,19.1897],[-98.967,19.1999],[-98.9677,19.2031],[-98.9697,19.2043],[-98.9672,19.2063],[-98.9668,19.209],[-98.9685,19.2106]]]}},{"type":"Feature","id":"mx09011","properties":{"name":"Tláhuac","province":"Distrito Federal","department":"Ciudad de México","type":"Alcaldía","country":"México","iso":"MX"},"geometry":{"type":"Polygon","coordinates":[[[-98.9604,19.3254],[-98.9683,19.3257],[-98.969,19.3247],[-98.9753,19.3256],[-98.9765,19.3243],[-98.9766,19.3249],[-98.9782,19.3253],[-98.9786,19.3239],[-98.9806,19.3247],[-98.9799,19.3261],[-99.0014,19.3271],[-99.0387,19.3157],[-99.0396,19.3147],[-99.0404,19.3154],[-99.0436,19.3122],[-99.0466,19.3149],[-99.0489,19.3119],[-99.0502,19.3129],[-99.0525,19.3105],[-99.054,19.3116],[-99.0599,19.3044],[-99.0634,19.3057],[-99.0648,19.3016],[-99.0626,19.2973],[-99.0616,19.2927],[-99.069,19.285],[-99.0644,19.282],[-99.0576,19.2796],[-99.0545,19.2794],[-99.0483,19.276],[-99.0373,19.2717],[-99.0311,19.2649],[-99.0298,19.2626],[-99.0197,19.2612],[-99.0165,19.26],[-99.0128,19.2579],[-99.007,19.2516],[-99.0079,19.2505],[-99.0089,19.2507],[-99.0112,19.2461],[-99.0123,19.2465],[-99.0126,19.2447],[-99.0139,19.2451],[-99.0155,19.2409],[-99.0302,19.2236],[-99.0001,19.2263],[-99.0031,19.2271],[-99.003,19.2276],[-98.9998,19.2268],[-98.9996,19.2276],[-98.9972,19.2275],[-98.9975,19.2265],[-98.9958,19.225],[-98.9953,19.2275],[-98.9937,19.2275],[-98.9933,19.2249],[-98.9912,19.2248],[-98.9906,19.2258],[-98.9782,19.2151],[-98.9743,19.2144],[-98.9685,19.2106],[-98.9627,19.2141],[-98.9597,19.2139],[-98.96,19.2144],[-98.9575,19.2151],[-98.9539,19.2146],[-98.9511,19.2182],[-98.9426,19.2156],[-98.9403,19.2232],[-98.9686,19.2322],[-98.966,19.2499],[-98.9765,19.2531],[-98.9714,19.2784],[-98.9672,19.306],[-98.9648,19.3069],[-98.963,19.3167],[-98.9579,19.3232],[-98.9604,19.3254]]]}},{"type":"Feature","id":"mx09012","properties":{"name":"Tlalpan","province":"Distrito Federal","department":"Ciudad de México","type":"Alcaldía","country":"México","iso":"MX"},"geometry":{"type":"Polygon","coordinates":[[[-99.2058,19.3057],[-99.2154,19.3076],[-99.2178,19.3094],[-99.2199,19.3123],[-99.2207,19.3111],[-99.2246,19.3107],[-99.2276,19.3081],[-99.2277,19.307],[-99.2319,19.305],[-99.233,19.3018],[-99.2322,19.3015],[-99.2334,19.3008],[-99.2325,19.2979],[-99.2332,19.2967],[-99.2361,19.2951],[-99.236,19.2945],[-99.2415,19.2939],[-99.243,19.2914],[-99.2428,19.2894],[-99.2408,19.287],[-99.2429,19.2841],[-99.242,19.283],[-99.2435,19.2822],[-99.2434,19.2811],[-99.2449,19.2801],[-99.2454,19.277],[-99.2435,19.2756],[-99.2446,19.2729],[-99.2435,19.2698],[-99.246,19.2675],[-99.2471,19.2647],[-99.2455,19.2629],[-99.2459,19.2612],[-99.2472,19.2603],[-99.2457,19.2589],[-99.2439,19.2592],[-99.2454,19.2573],[-99.2446,19.2527],[-99.2452,19.2504],[-99.2474,19.2489],[-99.248,19.2467],[-99.2504,19.2457],[-99.2501,19.2447],[-99.2518,19.2424],[-99.251,19.2405],[-99.2529,19.2376],[-99.2531,19.2351],[-99.2561,19.2325],[-99.2573,19.2325],[-99.2589,19.2305],[-99.2638,19.2285],[-99.2707,19.2242],[-99.2742,19.221],[-99.2742,19.2182],[-99.2773,19.2147],[-99.2824,19.2131],[-99.2846,19.2137],[-99.2878,19.2131],[-99.2914,19.2146],[-99.2928,19.2138],[-99.2967,19.2178],[-99.3014,19.2182],[-99.3057,19.2222],[-99.3156,19.2274],[-99.3162,19.2215],[-99.3071,19.2137],[-99.3028,19.1909],[-99.2956,19.1729],[-99.2876,19.1466],[-99.2787,19.1317],[-99.2268,19.0961],[-99.1365,19.0894],[-99.1633,19.1175],[-99.1525,19.1421],[-99.152,19.1508],[-99.1496,19.1603],[-99.1468,19.1599],[-99.1445,19.1587],[-99.1404,19.1522],[-99.1324,19.1486],[-99.1302,19.1525],[-99.1325,19.153],[-99.1328,19.1549],[-99.1327,19.1601],[-99.1303,19.1659],[-99.1305,19.1714],[-99.13,19.1722],[-99.1321,19.1751],[-99.1324,19.1785],[-99.1301,19.1839],[-99.1271,19.1873],[-99.1307,19.1913],[-99.1299,19.1954],[-99.1305,19.1962],[-99.1291,19.1994],[-99.1293,19.203],[-99.1303,19.2032],[-99.1301,19.2038],[-99.1324,19.2065],[-99.1328,19.21],[-99.1383,19.2157],[-99.1544,19.2206],[-99.1535,19.2218],[-99.1525,19.2205],[-99.1512,19.2234],[-99.1512,19.2244],[-99.1527,19.2248],[-99.1534,19.226],[-99.1506,19.2326],[-99.1507,19.2347],[-99.1495,19.234],[-99.1482,19.2363],[-99.1479,19.2346],[-99.1445,19.2345],[-99.1475,19.2403],[-99.1467,19.2403],[-99.1461,19.2393],[-99.144,19.2397],[-99.1443,19.2447],[-99.1404,19.2436],[-99.1389,19.246],[-99.1417,19.249],[-99.1394,19.2547],[-99.1408,19.257],[-99.1402,19.2579],[-99.1424,19.2602],[-99.1424,19.2666],[-99.1449,19.2674],[-99.1439,19.2695],[-99.1421,19.2707],[-99.1412,19.2735],[-99.1421,19.2739],[-99.1411,19.2825],[-99.1351,19.2825],[-99.1249,19.2852],[-99.105,19.2935],[-99.1014,19.2952],[-99.1009,19.3],[-99.1092,19.2996],[-99.1168,19.3014],[-99.1347,19.3083],[-99.1426,19.2996],[-99.1474,19.3013],[-99.1516,19.298],[-99.1567,19.2968],[-99.159,19.2997],[-99.1623,19.3013],[-99.1793,19.3034],[-99.1951,19.3021],[-99.2058,19.3057]]]}},{"type":"Feature","id":"mx09017","properties":{"name":"Venustiano Carranza","province":"Distrito Federal","department":"Ciudad de México","type":"Alcaldía","country":"México","iso":"MX"},"geometry":{"type":"Polygon","coordinates":[[[-99.0509,19.4502],[-99.0526,19.4484],[-99.0623,19.4448],[-99.0809,19.4502],[-99.0872,19.4458],[-99.0932,19.4516],[-99.1014,19.4499],[-99.1118,19.4538],[-99.1171,19.458],[-99.1222,19.4598],[-99.1233,19.4582],[-99.1259,19.4482],[-99.1231,19.4425],[-99.126,19.4229],[-99.1271,19.4204],[-99.1282,19.4138],[-99.1257,19.4043],[-99.1146,19.4056],[-99.098,19.4091],[-99.078,19.4071],[-99.0695,19.4203],[-99.0579,19.4209],[-99.0558,19.4221],[-99.0506,19.4347],[-99.0465,19.4424],[-99.0509,19.4502]]]}},{"type":"Feature","id":"mx09013","properties":{"name":"Xochimilco","province":"Distrito Federal","department":"Ciudad de México","type":"Alcaldía","country":"México","iso":"MX"},"geometry":{"type":"Polygon","coordinates":[[[-99.069,19.285],[-99.0749,19.2897],[-99.0943,19.3128],[-99.0993,19.3204],[-99.1014,19.2952],[-99.1249,19.2852],[-99.1351,19.2825],[-99.1411,19.2825],[-99.1421,19.2739],[-99.1412,19.2735],[-99.1421,19.2707],[-99.1439,19.2695],[-99.1449,19.2674],[-99.1424,19.2666],[-99.1424,19.2602],[-99.1402,19.2579],[-99.1408,19.257],[-99.1394,19.2547],[-99.1417,19.249],[-99.1389,19.246],[-99.1404,19.2436],[-99.1443,19.2447],[-99.144,19.2397],[-99.1461,19.2393],[-99.1467,19.2403],[-99.1475,19.2403],[-99.1445,19.2345],[-99.1479,19.2346],[-99.1482,19.2363],[-99.1495,19.234],[-99.1507,19.2347],[-99.1506,19.2326],[-99.1534,19.226],[-99.1527,19.2248],[-99.1512,19.2244],[-99.1512,19.2234],[-99.1525,19.2205],[-99.1535,19.2218],[-99.1544,19.2206],[-99.1383,19.2157],[-99.1328,19.21],[-99.1324,19.2065],[-99.1301,19.2038],[-99.1303,19.2032],[-99.1293,19.203],[-99.1291,19.1994],[-99.1305,19.1962],[-99.1299,19.1954],[-99.1307,19.1913],[-99.1271,19.1873],[-99.1301,19.1839],[-99.1324,19.1785],[-99.1321,19.1751],[-99.1299,19.1724],[-99.1305,19.1714],[-99.1303,19.1659],[-99.1327,19.1601],[-99.1325,19.153],[-99.1302,19.1525],[-99.1048,19.199],[-99.1022,19.2007],[-99.1017,19.2048],[-99.0993,19.2081],[-99.0957,19.2086],[-99.0946,19.2115],[-99.091,19.211],[-99.0302,19.2236],[-99.0155,19.2409],[-99.0139,19.2451],[-99.0126,19.2447],[-99.0123,19.2465],[-99.0112,19.2461],[-99.0089,19.2507],[-99.0079,19.2505],[-99.007,19.2516],[-99.0128,19.2579],[-99.0165,19.26],[-99.0197,19.2612],[-99.0298,19.2626],[-99.0311,19.2649],[-99.0373,19.2717],[-99.0483,19.276],[-99.0545,19.2794],[-99.0576,19.2796],[-99.0644,19.282],[-99.069,19.285]]]}}]}