{"type":"FeatureCollection","features":[{"type":"Feature","id":"gt0114","properties":{"name":"Amatitlán","province":"Guatemala","department":"Guatemala","type":"Municipio","country":"Guatemala","iso":"GT"},"geometry":{"type":"Polygon","coordinates":[[[-90.6105,14.4906],[-90.6167,14.4961],[-90.6222,14.4984],[-90.624,14.5018],[-90.6238,14.5102],[-90.6282,14.516],[-90.6433,14.5197],[-90.6514,14.5231],[-90.6574,14.5273],[-90.6619,14.5283],[-90.663,14.5293],[-90.6662,14.5243],[-90.6648,14.5127],[-90.6701,14.503],[-90.672,14.498],[-90.6725,14.4861],[-90.6735,14.4808],[-90.6613,14.4649],[-90.6493,14.4541],[-90.648,14.4485],[-90.6441,14.4419],[-90.6442,14.4322],[-90.6432,14.4281],[-90.6397,14.4261],[-90.6293,14.4249],[-90.6172,14.4238],[-90.6054,14.4242],[-90.6013,14.4215],[-90.5992,14.4178],[-90.5997,14.3888],[-90.5994,14.3876],[-90.5922,14.3822],[-90.5888,14.3823],[-90.5824,14.3859],[-90.5785,14.3865],[-90.5547,14.3945],[-90.5524,14.3964],[-90.5501,14.4038],[-90.5492,14.4135],[-90.5429,14.4221],[-90.5463,14.4226],[-90.5487,14.4246],[-90.552,14.4254],[-90.552,14.4279],[-90.5561,14.4314],[-90.5581,14.4398],[-90.5688,14.4547],[-90.5733,14.4578],[-90.5747,14.4607],[-90.5747,14.4635],[-90.5761,14.4652],[-90.5791,14.466],[-90.583,14.4628],[-90.585,14.4629],[-90.5875,14.4661],[-90.5876,14.4714],[-90.595,14.4782],[-90.5981,14.4785],[-90.6029,14.4737],[-90.6053,14.4739],[-90.6062,14.4806],[-90.6099,14.4846],[-90.6112,14.4877],[-90.6105,14.4906]]]}},{"type":"Feature","id":"gt0106","properties":{"name":"Chinautla","province":"Guatemala","department":"Guatemala","type":"Municipio","country":"Guatemala","iso":"GT"},"geometry":{"type":"Polygon","coordinates":[[[-90.4519,14.7059],[-90.4558,14.7127],[-90.4641,14.7217],[-90.472,14.7266],[-90.4734,14.7294],[-90.4734,14.731],[-90.472,14.7331],[-90.4737,14.738],[-90.4736,14.7472],[-90.4728,14.7505],[-90.4738,14.7555],[-90.4784,14.7553],[-90.4823,14.7564],[-90.4854,14.758],[-90.4898,14.7626],[-90.4936,14.7789],[-90.492,14.788],[-90.4872,14.7972],[-90.4951,14.806],[-90.4981,14.8046],[-90.5,14.8053],[-90.5027,14.8047],[-90.5046,14.8026],[-90.5037,14.7986],[-90.5046,14.7973],[-90.505,14.7929],[-90.5063,14.7915],[-90.5087,14.7911],[-90.5103,14.7919],[-90.5123,14.788],[-90.5153,14.7852],[-90.5166,14.7826],[-90.5163,14.7788],[-90.5126,14.7737],[-90.5102,14.768],[-90.5104,14.7629],[-90.5125,14.7608],[-90.5172,14.7604],[-90.5195,14.7614],[-90.5248,14.7616],[-90.5294,14.7607],[-90.5309,14.762],[-90.5313,14.7649],[-90.533,14.7665],[-90.5383,14.7613],[-90.5399,14.7585],[-90.5397,14.7545],[-90.537,14.7452],[-90.5354,14.7439],[-90.5301,14.745],[-90.5276,14.7447],[-90.5254,14.7433],[-90.5188,14.7433],[-90.5164,14.7415],[-90.5136,14.7367],[-90.5127,14.7306],[-90.5131,14.7274],[-90.5155,14.7219],[-90.5251,14.7096],[-90.5249,14.6992],[-90.5228,14.6945],[-90.521,14.6926],[-90.5161,14.6908],[-90.5159,14.6881],[-90.5187,14.6841],[-90.5282,14.6796],[-90.532,14.6717],[-90.5322,14.6693],[-90.5293,14.6651],[-90.5203,14.6712],[-90.5116,14.6754],[-90.5054,14.6769],[-90.4979,14.6764],[-90.4844,14.6732],[-90.4825,14.6755],[-90.4806,14.6821],[-90.4766,14.6848],[-90.4757,14.6868],[-90.4727,14.6873],[-90.4715,14.6883],[-90.4708,14.6931],[-90.4697,14.694],[-90.4618,14.6936],[-90.4606,14.6942],[-90.4519,14.7059]]]}},{"type":"Feature","id":"gt0112","properties":{"name":"Chuarrancho","province":"Guatemala","department":"Guatemala","type":"Municipio","country":"Guatemala","iso":"GT"},"geometry":{"type":"Polygon","coordinates":[[[-90.3948,14.8746],[-90.3963,14.8765],[-90.3968,14.8802],[-90.3992,14.8819],[-90.402,14.8875],[-90.4021,14.8953],[-90.4078,14.9022],[-90.4079,14.9083],[-90.4091,14.9111],[-90.4203,14.9122],[-90.4226,14.9145],[-90.4245,14.9147],[-90.428,14.9126],[-90.429,14.9107],[-90.4325,14.9098],[-90.4336,14.9084],[-90.4346,14.9025],[-90.4361,14.9004],[-90.4354,14.8921],[-90.4375,14.8888],[-90.4362,14.8862],[-90.4427,14.8827],[-90.4475,14.8832],[-90.4497,14.882],[-90.4546,14.8815],[-90.4667,14.8827],[-90.4701,14.8797],[-90.4739,14.8794],[-90.4757,14.8806],[-90.4785,14.8844],[-90.4812,14.8836],[-90.4841,14.8865],[-90.4896,14.8888],[-90.492,14.8921],[-90.4931,14.8954],[-90.4955,14.8938],[-90.4972,14.8952],[-90.4992,14.8952],[-90.5013,14.8932],[-90.5055,14.8918],[-90.5102,14.8886],[-90.5183,14.8871],[-90.5247,14.8872],[-90.5282,14.8838],[-90.5339,14.8864],[-90.5369,14.8865],[-90.5391,14.884],[-90.5386,14.8824],[-90.5332,14.878],[-90.5324,14.8749],[-90.5245,14.867],[-90.5226,14.8626],[-90.5226,14.8599],[-90.5254,14.8526],[-90.5258,14.8447],[-90.5289,14.8406],[-90.5305,14.8396],[-90.532,14.8397],[-90.535,14.8417],[-90.5392,14.8419],[-90.5406,14.8409],[-90.5405,14.8239],[-90.5417,14.8206],[-90.5497,14.8095],[-90.5498,14.8039],[-90.5467,14.8006],[-90.5451,14.8003],[-90.5413,14.8021],[-90.5382,14.8025],[-90.526,14.7997],[-90.5214,14.8025],[-90.5176,14.8026],[-90.5128,14.8001],[-90.5104,14.7977],[-90.5092,14.7932],[-90.5103,14.7919],[-90.5087,14.7911],[-90.5063,14.7915],[-90.505,14.7929],[-90.5046,14.7973],[-90.5037,14.7986],[-90.5047,14.8015],[-90.5044,14.8032],[-90.5018,14.8051],[-90.4972,14.8048],[-90.492,14.808],[-90.4887,14.8081],[-90.4871,14.8102],[-90.4848,14.8105],[-90.4843,14.8126],[-90.4817,14.8152],[-90.4821,14.8184],[-90.4773,14.8227],[-90.4721,14.8239],[-90.4672,14.8236],[-90.4661,14.8255],[-90.4639,14.8243],[-90.4601,14.8252],[-90.4571,14.8243],[-90.4508,14.8246],[-90.4486,14.8232],[-90.445,14.8245],[-90.4381,14.8237],[-90.4349,14.8252],[-90.4244,14.8254],[-90.4208,14.8312],[-90.4188,14.8327],[-90.4153,14.8336],[-90.4148,14.8348],[-90.4154,14.8381],[-90.4115,14.8429],[-90.4092,14.8416],[-90.4039,14.8453],[-90.4031,14.8486],[-90.4044,14.8533],[-90.4022,14.858],[-90.4052,14.8624],[-90.4054,14.866],[-90.4037,14.868],[-90.3979,14.8711],[-90.3948,14.8746]]]}},{"type":"Feature","id":"gt0113","properties":{"name":"Fraijanes","province":"Guatemala","department":"Guatemala","type":"Municipio","country":"Guatemala","iso":"GT"},"geometry":{"type":"Polygon","coordinates":[[[-90.3809,14.4802],[-90.385,14.4871],[-90.3887,14.4898],[-90.3921,14.5057],[-90.3925,14.5127],[-90.3958,14.5217],[-90.3987,14.5234],[-90.4112,14.5256],[-90.4165,14.5291],[-90.4269,14.546],[-90.4294,14.547],[-90.4337,14.5433],[-90.4439,14.5411],[-90.4462,14.5395],[-90.447,14.5285],[-90.4481,14.5248],[-90.4504,14.5229],[-90.454,14.5227],[-90.4619,14.5252],[-90.4652,14.5255],[-90.4685,14.525],[-90.4736,14.5216],[-90.4751,14.5138],[-90.4774,14.5099],[-90.4796,14.4994],[-90.4818,14.4933],[-90.4824,14.4816],[-90.4843,14.4777],[-90.4845,14.4739],[-90.4837,14.4606],[-90.4818,14.4597],[-90.4788,14.4603],[-90.4757,14.4585],[-90.4757,14.4568],[-90.4784,14.4543],[-90.4787,14.4525],[-90.4732,14.447],[-90.4733,14.4424],[-90.4759,14.4355],[-90.476,14.4263],[-90.4778,14.4216],[-90.4783,14.4164],[-90.4776,14.4105],[-90.4773,14.4094],[-90.4715,14.4044],[-90.468,14.3984],[-90.4654,14.3754],[-90.4594,14.3645],[-90.4504,14.3654],[-90.4491,14.3743],[-90.4495,14.3784],[-90.4509,14.3818],[-90.4549,14.387],[-90.4549,14.39],[-90.4539,14.3924],[-90.4552,14.3973],[-90.4549,14.4003],[-90.4324,14.4043],[-90.4328,14.4087],[-90.4304,14.4179],[-90.4236,14.4174],[-90.4217,14.4199],[-90.4194,14.4269],[-90.4214,14.4285],[-90.4214,14.4301],[-90.4161,14.4343],[-90.417,14.4382],[-90.4161,14.4449],[-90.4135,14.4489],[-90.4104,14.4567],[-90.4062,14.4746],[-90.4056,14.4805],[-90.4031,14.489],[-90.4018,14.4894],[-90.3939,14.4774],[-90.3914,14.4757],[-90.3894,14.4749],[-90.3856,14.4754],[-90.3839,14.4762],[-90.3809,14.4802]]]}},{"type":"Feature","id":"gt0101","properties":{"name":"Guatemala","province":"Guatemala","department":"Guatemala","type":"Municipio","country":"Guatemala","iso":"GT"},"geometry":{"type":"Polygon","coordinates":[[[-90.391,14.6198],[-90.3871,14.6249],[-90.3863,14.6288],[-90.3873,14.6412],[-90.3893,14.647],[-90.3898,14.6509],[-90.388,14.6558],[-90.3881,14.659],[-90.3906,14.6649],[-90.3908,14.6682],[-90.3867,14.6777],[-90.3866,14.6868],[-90.3833,14.6919],[-90.3804,14.6986],[-90.3807,14.7032],[-90.382,14.706],[-90.3868,14.7099],[-90.3966,14.7132],[-90.4023,14.7112],[-90.4105,14.7101],[-90.4142,14.7084],[-90.4237,14.7092],[-90.4339,14.7067],[-90.4379,14.7095],[-90.4411,14.7093],[-90.4447,14.7064],[-90.4519,14.7059],[-90.4606,14.6942],[-90.4618,14.6936],[-90.4697,14.694],[-90.4708,14.6931],[-90.4715,14.6883],[-90.4727,14.6873],[-90.4757,14.6868],[-90.4766,14.6848],[-90.4806,14.6821],[-90.4825,14.6755],[-90.4844,14.6732],[-90.4979,14.6764],[-90.5054,14.6769],[-90.5116,14.6754],[-90.5257,14.668],[-90.5293,14.6651],[-90.5329,14.6594],[-90.5362,14.6576],[-90.547,14.6532],[-90.5531,14.6521],[-90.5588,14.6525],[-90.5632,14.6514],[-90.5661,14.6493],[-90.5667,14.6431],[-90.5655,14.6362],[-90.5659,14.633],[-90.5673,14.631],[-90.5728,14.6286],[-90.5738,14.625],[-90.5742,14.6215],[-90.5724,14.6122],[-90.5721,14.597],[-90.5734,14.5924],[-90.5764,14.5886],[-90.5775,14.5813],[-90.579,14.5793],[-90.5758,14.5767],[-90.5695,14.5771],[-90.5612,14.5803],[-90.5587,14.5774],[-90.5565,14.5765],[-90.5551,14.5679],[-90.5527,14.5655],[-90.5497,14.5646],[-90.5501,14.5628],[-90.5548,14.5575],[-90.5556,14.5554],[-90.5556,14.55],[-90.5567,14.548],[-90.5566,14.5444],[-90.5469,14.5435],[-90.5404,14.5407],[-90.5375,14.5371],[-90.5338,14.5433],[-90.5319,14.5538],[-90.53,14.5566],[-90.5244,14.56],[-90.523,14.564],[-90.5163,14.5741],[-90.5042,14.5775],[-90.4961,14.5778],[-90.4858,14.5797],[-90.4823,14.5786],[-90.4715,14.5936],[-90.4672,14.5965],[-90.4573,14.5991],[-90.4506,14.6035],[-90.4464,14.6095],[-90.4397,14.6113],[-90.4344,14.6139],[-90.4316,14.6137],[-90.4289,14.612],[-90.4226,14.6109],[-90.4128,14.6131],[-90.4105,14.6145],[-90.4071,14.6146],[-90.3979,14.619],[-90.391,14.6198]]]}},{"type":"Feature","id":"gt0108","properties":{"name":"Mixco","province":"Guatemala","department":"Guatemala","type":"Municipio","country":"Guatemala","iso":"GT"},"geometry":{"type":"Polygon","coordinates":[[[-90.5251,14.7075],[-90.5341,14.7083],[-90.537,14.7098],[-90.5433,14.7057],[-90.5473,14.7021],[-90.5505,14.697],[-90.5565,14.6905],[-90.5644,14.6852],[-90.5759,14.682],[-90.5775,14.6808],[-90.5803,14.6764],[-90.5851,14.6719],[-90.5917,14.6693],[-90.5971,14.6687],[-90.6063,14.6636],[-90.6094,14.6632],[-90.6181,14.667],[-90.6245,14.6667],[-90.6285,14.6652],[-90.6299,14.6636],[-90.6307,14.6587],[-90.6324,14.6566],[-90.6385,14.6532],[-90.6394,14.6417],[-90.6433,14.6264],[-90.6392,14.623],[-90.6353,14.623],[-90.6331,14.621],[-90.6327,14.6182],[-90.6333,14.6171],[-90.6356,14.6156],[-90.6383,14.6121],[-90.6384,14.6076],[-90.6372,14.6018],[-90.6347,14.5977],[-90.626,14.5932],[-90.6137,14.59],[-90.6124,14.5854],[-90.6129,14.5827],[-90.6049,14.5809],[-90.6026,14.579],[-90.5976,14.5768],[-90.589,14.5771],[-90.5812,14.5796],[-90.579,14.5793],[-90.5775,14.5813],[-90.5764,14.5886],[-90.5734,14.5924],[-90.5721,14.597],[-90.5724,14.6122],[-90.5742,14.6215],[-90.5738,14.625],[-90.5728,14.6286],[-90.5673,14.631],[-90.5659,14.633],[-90.5655,14.6362],[-90.5667,14.6431],[-90.5661,14.6493],[-90.5632,14.6514],[-90.5588,14.6525],[-90.5531,14.6521],[-90.547,14.6532],[-90.5329,14.6594],[-90.5293,14.6651],[-90.5322,14.6693],[-90.532,14.6717],[-90.5282,14.6796],[-90.5187,14.6841],[-90.5159,14.6881],[-90.5161,14.6908],[-90.521,14.6926],[-90.5228,14.6945],[-90.5254,14.701],[-90.5251,14.7075]]]}},{"type":"Feature","id":"gt0105","properties":{"name":"Palencia","province":"Guatemala","department":"Guatemala","type":"Municipio","country":"Guatemala","iso":"GT"},"geometry":{"type":"Polygon","coordinates":[[[-90.3319,14.7327],[-90.3355,14.734],[-90.3409,14.7394],[-90.3463,14.7416],[-90.3491,14.7441],[-90.3479,14.7515],[-90.3497,14.7536],[-90.3513,14.7539],[-90.3539,14.7563],[-90.3572,14.7615],[-90.3596,14.7605],[-90.3651,14.7433],[-90.366,14.742],[-90.3754,14.7362],[-90.3773,14.7336],[-90.3783,14.7293],[-90.38,14.7277],[-90.3818,14.7277],[-90.3827,14.7302],[-90.3832,14.7388],[-90.384,14.7396],[-90.3858,14.7401],[-90.3899,14.7366],[-90.3952,14.7351],[-90.3996,14.7355],[-90.4033,14.7377],[-90.4109,14.7444],[-90.4118,14.7429],[-90.4124,14.7395],[-90.4161,14.7329],[-90.4166,14.7272],[-90.4105,14.7152],[-90.4105,14.7101],[-90.4023,14.7112],[-90.3966,14.7132],[-90.3868,14.7099],[-90.3841,14.7083],[-90.382,14.706],[-90.3807,14.7032],[-90.3804,14.6986],[-90.3833,14.6919],[-90.3866,14.6868],[-90.3867,14.6777],[-90.3908,14.6682],[-90.3906,14.6649],[-90.3881,14.659],[-90.388,14.6558],[-90.3898,14.6509],[-90.3893,14.647],[-90.3873,14.6412],[-90.3863,14.6288],[-90.3871,14.6249],[-90.391,14.6198],[-90.3852,14.6153],[-90.3682,14.6136],[-90.3643,14.6124],[-90.359,14.6065],[-90.3563,14.6058],[-90.3545,14.6041],[-90.3508,14.6026],[-90.3434,14.6014],[-90.333,14.5968],[-90.3292,14.5959],[-90.3248,14.5964],[-90.316,14.6002],[-90.3025,14.604],[-90.2911,14.602],[-90.283,14.6017],[-90.2696,14.6081],[-90.2629,14.6093],[-90.2501,14.6102],[-90.2378,14.6084],[-90.2306,14.6201],[-90.2326,14.6238],[-90.2325,14.626],[-90.2297,14.63],[-90.2304,14.6365],[-90.2286,14.6412],[-90.2289,14.6458],[-90.2309,14.6493],[-90.2311,14.6515],[-90.2273,14.6621],[-90.2254,14.6646],[-90.2202,14.6675],[-90.2121,14.6684],[-90.2119,14.6704],[-90.2493,14.6922],[-90.2967,14.7041],[-90.2988,14.7073],[-90.2994,14.7104],[-90.3021,14.7127],[-90.3063,14.7141],[-90.3154,14.7149],[-90.3195,14.7175],[-90.3256,14.7225],[-90.3285,14.7285],[-90.3319,14.7327]]]}},{"type":"Feature","id":"gt0117","properties":{"name":"Petapa","province":"Guatemala","department":"Guatemala","type":"Municipio","country":"Guatemala","iso":"GT"},"geometry":{"type":"Polygon","coordinates":[[[-90.5375,14.5371],[-90.5404,14.5407],[-90.5469,14.5435],[-90.5566,14.5444],[-90.5579,14.5405],[-90.5583,14.5357],[-90.5619,14.5298],[-90.5633,14.5246],[-90.5664,14.5213],[-90.5708,14.5195],[-90.5733,14.5173],[-90.5754,14.5137],[-90.5757,14.5067],[-90.5771,14.5037],[-90.5797,14.5009],[-90.5803,14.498],[-90.5799,14.4942],[-90.5768,14.4875],[-90.572,14.488],[-90.5684,14.4866],[-90.568,14.4825],[-90.5563,14.4782],[-90.5519,14.4759],[-90.5472,14.4718],[-90.5436,14.4735],[-90.5418,14.479],[-90.5385,14.4831],[-90.5378,14.4852],[-90.5382,14.4892],[-90.5427,14.4977],[-90.5423,14.5031],[-90.5405,14.5081],[-90.5377,14.5118],[-90.5381,14.5158],[-90.5394,14.5184],[-90.539,14.5219],[-90.5399,14.5265],[-90.5375,14.5371]]]}},{"type":"Feature","id":"gt0104","properties":{"name":"San José del Golfo","province":"Guatemala","department":"Guatemala","type":"Municipio","country":"Guatemala","iso":"GT"},"geometry":{"type":"Polygon","coordinates":[[[-90.3272,14.813],[-90.3272,14.8204],[-90.3261,14.8232],[-90.3276,14.8236],[-90.3299,14.8213],[-90.3313,14.8211],[-90.3315,14.8262],[-90.3356,14.8286],[-90.3358,14.832],[-90.3369,14.8341],[-90.3388,14.8356],[-90.3439,14.8374],[-90.3461,14.8369],[-90.3491,14.84],[-90.3538,14.8391],[-90.3573,14.841],[-90.3667,14.8397],[-90.3684,14.8399],[-90.3714,14.8421],[-90.3882,14.8396],[-90.3946,14.842],[-90.398,14.8451],[-90.4023,14.8448],[-90.4036,14.8459],[-90.405,14.8441],[-90.4076,14.8432],[-90.4092,14.8416],[-90.4115,14.8429],[-90.4154,14.8381],[-90.4148,14.8348],[-90.4153,14.8336],[-90.4188,14.8327],[-90.4208,14.8312],[-90.4244,14.8254],[-90.4228,14.8225],[-90.4182,14.8202],[-90.4121,14.8183],[-90.4036,14.8142],[-90.3994,14.8133],[-90.3979,14.8108],[-90.3969,14.8053],[-90.3915,14.8038],[-90.3868,14.7737],[-90.3882,14.7724],[-90.4058,14.765],[-90.4065,14.753],[-90.4072,14.7509],[-90.411,14.7474],[-90.4109,14.7444],[-90.4033,14.7377],[-90.3996,14.7355],[-90.3952,14.7351],[-90.3899,14.7366],[-90.3858,14.7401],[-90.384,14.7396],[-90.3832,14.7388],[-90.3827,14.7302],[-90.3818,14.7277],[-90.38,14.7277],[-90.3783,14.7293],[-90.3773,14.7336],[-90.3754,14.7362],[-90.366,14.742],[-90.3651,14.7433],[-90.3596,14.7605],[-90.3572,14.7615],[-90.3539,14.7563],[-90.3513,14.7539],[-90.3497,14.7536],[-90.3479,14.7515],[-90.3491,14.7441],[-90.3463,14.7416],[-90.3409,14.7394],[-90.3355,14.734],[-90.3319,14.7327],[-90.3325,14.7423],[-90.3378,14.7514],[-90.3397,14.7602],[-90.3442,14.7655],[-90.3473,14.7674],[-90.3479,14.7692],[-90.3464,14.7744],[-90.3418,14.7774],[-90.3407,14.7792],[-90.3396,14.7869],[-90.3401,14.7895],[-90.3428,14.7917],[-90.3441,14.794],[-90.3421,14.7996],[-90.3395,14.8018],[-90.3401,14.8072],[-90.3373,14.8101],[-90.3272,14.813]]]}},{"type":"Feature","id":"gt0103","properties":{"name":"San José Pinula","province":"Guatemala","department":"Guatemala","type":"Municipio","country":"Guatemala","iso":"GT"},"geometry":{"type":"Polygon","coordinates":[[[-90.2368,14.6093],[-90.2378,14.6084],[-90.2501,14.6102],[-90.2629,14.6093],[-90.2696,14.6081],[-90.283,14.6017],[-90.2911,14.602],[-90.3025,14.604],[-90.316,14.6002],[-90.3248,14.5964],[-90.3292,14.5959],[-90.333,14.5968],[-90.3434,14.6014],[-90.3508,14.6026],[-90.3545,14.6041],[-90.3563,14.6058],[-90.359,14.6065],[-90.3643,14.6124],[-90.3682,14.6136],[-90.3852,14.6153],[-90.391,14.6198],[-90.3979,14.619],[-90.4071,14.6146],[-90.417,14.6033],[-90.4355,14.5875],[-90.4354,14.5865],[-90.4141,14.561],[-90.415,14.56],[-90.4229,14.5591],[-90.4248,14.558],[-90.4268,14.5557],[-90.4294,14.547],[-90.4269,14.546],[-90.4249,14.5437],[-90.4165,14.5291],[-90.4112,14.5256],[-90.3987,14.5234],[-90.3958,14.5217],[-90.3925,14.5127],[-90.3921,14.5057],[-90.3887,14.4898],[-90.385,14.4871],[-90.3809,14.4802],[-90.378,14.4826],[-90.374,14.4844],[-90.3699,14.4848],[-90.3636,14.4835],[-90.3536,14.4789],[-90.3477,14.4792],[-90.3462,14.4797],[-90.3323,14.4932],[-90.3286,14.4939],[-90.3258,14.4921],[-90.322,14.4873],[-90.3072,14.5028],[-90.2948,14.5052],[-90.2914,14.5074],[-90.2891,14.5115],[-90.2845,14.5242],[-90.2803,14.5291],[-90.278,14.5299],[-90.2685,14.5281],[-90.2644,14.5284],[-90.2627,14.5302],[-90.2625,14.5327],[-90.2676,14.5391],[-90.2705,14.5479],[-90.2749,14.5666],[-90.2758,14.5762],[-90.2723,14.585],[-90.2672,14.5901],[-90.2632,14.5918],[-90.2554,14.5929],[-90.2517,14.5923],[-90.2477,14.5896],[-90.2452,14.5907],[-90.2432,14.5938],[-90.2433,14.5995],[-90.2412,14.6027],[-90.2371,14.6065],[-90.2368,14.6093]]]}},{"type":"Feature","id":"gt0110","properties":{"name":"San Juan Sacatepéquez","province":"Guatemala","department":"Guatemala","type":"Municipio","country":"Guatemala","iso":"GT"},"geometry":{"type":"Polygon","coordinates":[[[-90.5696,14.8734],[-90.5803,14.8699],[-90.5882,14.8754],[-90.5897,14.8741],[-90.5903,14.8716],[-90.5943,14.8719],[-90.5985,14.8753],[-90.6069,14.8801],[-90.6146,14.8763],[-90.622,14.8773],[-90.6258,14.8719],[-90.6322,14.8701],[-90.6357,14.8663],[-90.6416,14.8657],[-90.6467,14.8621],[-90.6542,14.8628],[-90.662,14.86],[-90.6632,14.8545],[-90.6615,14.8519],[-90.6638,14.846],[-90.6691,14.8478],[-90.6764,14.8464],[-90.678,14.8436],[-90.6809,14.8416],[-90.6825,14.8391],[-90.6885,14.8381],[-90.6923,14.8366],[-90.6941,14.8343],[-90.6938,14.8324],[-90.695,14.8304],[-90.6933,14.8279],[-90.6919,14.8224],[-90.6951,14.8173],[-90.6946,14.8127],[-90.6912,14.8097],[-90.69,14.8071],[-90.687,14.8046],[-90.6885,14.7992],[-90.6923,14.7971],[-90.6936,14.7917],[-90.6957,14.7898],[-90.7031,14.7896],[-90.7043,14.7888],[-90.7076,14.7785],[-90.7085,14.7775],[-90.7106,14.7763],[-90.7197,14.7751],[-90.722,14.7709],[-90.7302,14.7643],[-90.7324,14.7616],[-90.7395,14.7578],[-90.7424,14.7528],[-90.7424,14.7492],[-90.7455,14.7496],[-90.7509,14.7473],[-90.7556,14.7397],[-90.758,14.7381],[-90.7624,14.7326],[-90.7622,14.7293],[-90.7583,14.7241],[-90.7528,14.7191],[-90.7495,14.7172],[-90.7474,14.7139],[-90.7435,14.7102],[-90.7406,14.7011],[-90.7389,14.6983],[-90.7346,14.6954],[-90.7319,14.6966],[-90.728,14.6969],[-90.7235,14.6936],[-90.7174,14.6923],[-90.7142,14.6931],[-90.7104,14.6916],[-90.7062,14.6941],[-90.6997,14.695],[-90.6969,14.6969],[-90.6949,14.6986],[-90.694,14.7033],[-90.6931,14.704],[-90.6807,14.7024],[-90.6751,14.7001],[-90.6748,14.6921],[-90.6728,14.6796],[-90.668,14.6811],[-90.6625,14.686],[-90.6569,14.6889],[-90.6543,14.6945],[-90.6525,14.6969],[-90.6503,14.6979],[-90.6446,14.6967],[-90.6389,14.6917],[-90.6331,14.6921],[-90.6251,14.6969],[-90.6241,14.696],[-90.6237,14.6914],[-90.6221,14.6889],[-90.615,14.6818],[-90.6089,14.6783],[-90.6001,14.6782],[-90.5967,14.6791],[-90.589,14.6794],[-90.5836,14.6815],[-90.5738,14.6897],[-90.5693,14.6919],[-90.5651,14.692],[-90.56,14.695],[-90.5479,14.7081],[-90.5409,14.7181],[-90.5511,14.7158],[-90.5606,14.7159],[-90.5687,14.7146],[-90.5864,14.7151],[-90.5977,14.7171],[-90.6019,14.7199],[-90.6099,14.734],[-90.6189,14.735],[-90.6202,14.7462],[-90.6194,14.7485],[-90.608,14.7625],[-90.608,14.7649],[-90.6112,14.7707],[-90.6039,14.7839],[-90.6005,14.7863],[-90.5841,14.7858],[-90.5797,14.7867],[-90.5775,14.7882],[-90.5775,14.8062],[-90.5781,14.8073],[-90.5772,14.8184],[-90.5744,14.8216],[-90.5755,14.8278],[-90.5773,14.8312],[-90.5797,14.8319],[-90.5833,14.8292],[-90.5848,14.8303],[-90.5855,14.837],[-90.5869,14.8391],[-90.5867,14.8421],[-90.5846,14.8448],[-90.5776,14.8464],[-90.573,14.8487],[-90.5719,14.8503],[-90.5691,14.8573],[-90.5696,14.8734]]]}},{"type":"Feature","id":"gt0107","properties":{"name":"San Pedro Ayampuc","province":"Guatemala","department":"Guatemala","type":"Municipio","country":"Guatemala","iso":"GT"},"geometry":{"type":"Polygon","coordinates":[[[-90.4244,14.8254],[-90.4349,14.8252],[-90.4381,14.8237],[-90.445,14.8245],[-90.4486,14.8232],[-90.4508,14.8246],[-90.4571,14.8243],[-90.4601,14.8252],[-90.4639,14.8243],[-90.4661,14.8255],[-90.4672,14.8236],[-90.4721,14.8239],[-90.4765,14.8229],[-90.4796,14.8212],[-90.4821,14.8184],[-90.4817,14.8152],[-90.4843,14.8126],[-90.4848,14.8105],[-90.4871,14.8102],[-90.488,14.8084],[-90.492,14.808],[-90.4951,14.806],[-90.4872,14.7972],[-90.492,14.788],[-90.4936,14.7789],[-90.4898,14.7626],[-90.4854,14.758],[-90.4823,14.7564],[-90.4784,14.7553],[-90.4738,14.7555],[-90.4728,14.7505],[-90.4736,14.7472],[-90.4737,14.738],[-90.472,14.7331],[-90.4734,14.731],[-90.4734,14.7294],[-90.472,14.7266],[-90.4641,14.7217],[-90.4558,14.7127],[-90.4519,14.7059],[-90.4447,14.7064],[-90.4411,14.7093],[-90.4379,14.7095],[-90.4339,14.7067],[-90.4237,14.7092],[-90.4142,14.7084],[-90.4105,14.7101],[-90.4105,14.7152],[-90.4166,14.7272],[-90.4161,14.7329],[-90.4124,14.7395],[-90.4109,14.7444],[-90.411,14.7474],[-90.4072,14.7509],[-90.4065,14.753],[-90.4063,14.7644],[-90.3882,14.7724],[-90.3868,14.7737],[-90.3915,14.8038],[-90.3969,14.8053],[-90.3979,14.8108],[-90.3994,14.8133],[-90.4036,14.8142],[-90.4121,14.8183],[-90.4182,14.8202],[-90.4228,14.8225],[-90.4244,14.8254]]]}},{"type":"Feature","id":"gt0109","properties":{"name":"San Pedro Sacatepéquez","province":"Guatemala","department":"Guatemala","type":"Municipio","country":"Guatemala","iso":"GT"},"geometry":{"type":"Polygon","coordinates":[[[-90.537,14.7098],[-90.5304,14.7151],[-90.53,14.7175],[-90.5307,14.7187],[-90.5321,14.719],[-90.5409,14.7181],[-90.5479,14.7081],[-90.5626,14.693],[-90.5651,14.692],[-90.5693,14.6919],[-90.5738,14.6897],[-90.5836,14.6815],[-90.589,14.6794],[-90.5967,14.6791],[-90.6001,14.6782],[-90.6089,14.6783],[-90.615,14.6818],[-90.6221,14.6889],[-90.6237,14.6914],[-90.6241,14.696],[-90.6251,14.6969],[-90.6331,14.6921],[-90.6389,14.6917],[-90.6446,14.6967],[-90.6503,14.6979],[-90.6525,14.6969],[-90.6543,14.6945],[-90.6569,14.6889],[-90.6625,14.686],[-90.668,14.6811],[-90.6728,14.6796],[-90.6732,14.6684],[-90.6578,14.6623],[-90.652,14.6612],[-90.6477,14.6594],[-90.6385,14.6532],[-90.6324,14.6566],[-90.6307,14.6587],[-90.6299,14.6636],[-90.6285,14.6652],[-90.6245,14.6667],[-90.6181,14.667],[-90.6094,14.6632],[-90.6063,14.6636],[-90.5971,14.6687],[-90.5917,14.6693],[-90.5851,14.6719],[-90.5803,14.6764],[-90.5775,14.6808],[-90.5759,14.682],[-90.5644,14.6852],[-90.5565,14.6905],[-90.5505,14.697],[-90.5473,14.7021],[-90.5433,14.7057],[-90.537,14.7098]]]}},{"type":"Feature","id":"gt0111","properties":{"name":"San Raimundo","province":"Guatemala","department":"Guatemala","type":"Municipio","country":"Guatemala","iso":"GT"},"geometry":{"type":"Polygon","coordinates":[[[-90.5103,14.7919],[-90.5092,14.7932],[-90.5104,14.7977],[-90.5128,14.8001],[-90.5176,14.8026],[-90.5214,14.8025],[-90.526,14.7997],[-90.5382,14.8025],[-90.5413,14.8021],[-90.5451,14.8003],[-90.5467,14.8006],[-90.5498,14.8039],[-90.5497,14.8095],[-90.5417,14.8206],[-90.5405,14.8239],[-90.5406,14.8409],[-90.5392,14.8419],[-90.535,14.8417],[-90.532,14.8397],[-90.5305,14.8396],[-90.5289,14.8406],[-90.5258,14.8447],[-90.5254,14.8526],[-90.5226,14.8599],[-90.5226,14.8626],[-90.5245,14.867],[-90.5324,14.8749],[-90.5332,14.878],[-90.5386,14.8824],[-90.5391,14.884],[-90.5437,14.8825],[-90.5494,14.877],[-90.5519,14.8772],[-90.5555,14.8752],[-90.5589,14.875],[-90.5621,14.8725],[-90.5637,14.8729],[-90.5641,14.8762],[-90.5666,14.876],[-90.5696,14.8734],[-90.5691,14.8573],[-90.5719,14.8503],[-90.573,14.8487],[-90.5776,14.8464],[-90.5846,14.8448],[-90.5867,14.8421],[-90.5869,14.8391],[-90.5855,14.837],[-90.5848,14.8303],[-90.5833,14.8292],[-90.5797,14.8319],[-90.5773,14.8312],[-90.5755,14.8278],[-90.5744,14.8216],[-90.5772,14.8184],[-90.5781,14.8073],[-90.5775,14.8062],[-90.5775,14.7882],[-90.5797,14.7867],[-90.5841,14.7858],[-90.6005,14.7863],[-90.6039,14.7839],[-90.6112,14.7707],[-90.608,14.7649],[-90.608,14.7625],[-90.6194,14.7485],[-90.6202,14.7462],[-90.6189,14.735],[-90.6099,14.734],[-90.6019,14.7199],[-90.5977,14.7171],[-90.5864,14.7151],[-90.5687,14.7146],[-90.5606,14.7159],[-90.5511,14.7158],[-90.5362,14.7191],[-90.5321,14.719],[-90.5307,14.7187],[-90.53,14.7175],[-90.5304,14.7151],[-90.537,14.7098],[-90.5341,14.7083],[-90.5251,14.7075],[-90.5247,14.7103],[-90.5155,14.7219],[-90.5131,14.7274],[-90.5127,14.7306],[-90.5136,14.7367],[-90.5164,14.7415],[-90.5188,14.7433],[-90.5254,14.7433],[-90.5276,14.7447],[-90.5301,14.745],[-90.5354,14.7439],[-90.537,14.7452],[-90.5397,14.7545],[-90.5399,14.7585],[-90.5383,14.7613],[-90.533,14.7665],[-90.5313,14.7649],[-90.5309,14.762],[-90.5294,14.7607],[-90.5248,14.7616],[-90.5195,14.7614],[-90.5172,14.7604],[-90.5125,14.7608],[-90.5104,14.7629],[-90.5102,14.768],[-90.5126,14.7737],[-90.5163,14.7788],[-90.5166,14.7826],[-90.5153,14.7852],[-90.5123,14.788],[-90.5103,14.7919]]]}},{"type":"Feature","id":"gt0102","properties":{"name":"Santa Catarina Pinula","province":"Guatemala","department":"Guatemala","type":"Municipio","country":"Guatemala","iso":"GT"},"geometry":{"type":"Polygon","coordinates":[[[-90.4294,14.547],[-90.4268,14.5557],[-90.4248,14.558],[-90.4229,14.5591],[-90.415,14.56],[-90.4141,14.561],[-90.4354,14.5865],[-90.4355,14.5875],[-90.417,14.6033],[-90.4071,14.6146],[-90.4105,14.6145],[-90.4128,14.6131],[-90.4226,14.6109],[-90.4289,14.612],[-90.4316,14.6137],[-90.4344,14.6139],[-90.4397,14.6113],[-90.4464,14.6095],[-90.4506,14.6035],[-90.4573,14.5991],[-90.4672,14.5965],[-90.4715,14.5936],[-90.4823,14.5786],[-90.4858,14.5797],[-90.4961,14.5778],[-90.5042,14.5775],[-90.5163,14.5741],[-90.5177,14.5728],[-90.5191,14.5694],[-90.5242,14.5616],[-90.5244,14.56],[-90.5179,14.5593],[-90.5199,14.5545],[-90.5196,14.5443],[-90.5175,14.5433],[-90.5151,14.5453],[-90.5132,14.5453],[-90.51,14.5401],[-90.508,14.5386],[-90.5023,14.5389],[-90.4993,14.536],[-90.4941,14.5366],[-90.4931,14.5327],[-90.4863,14.5317],[-90.4838,14.5291],[-90.4807,14.5211],[-90.4773,14.5195],[-90.4742,14.5198],[-90.4736,14.5216],[-90.4685,14.525],[-90.4652,14.5255],[-90.4619,14.5252],[-90.454,14.5227],[-90.4504,14.5229],[-90.4481,14.5248],[-90.447,14.5285],[-90.4462,14.5395],[-90.4439,14.5411],[-90.4337,14.5433],[-90.4294,14.547]]]}},{"type":"Feature","id":"gt0116","properties":{"name":"Villa Canales","province":"Guatemala","department":"Guatemala","type":"Municipio","country":"Guatemala","iso":"GT"},"geometry":{"type":"Polygon","coordinates":[[[-90.4742,14.5198],[-90.4773,14.5195],[-90.4807,14.5211],[-90.4838,14.5291],[-90.4863,14.5317],[-90.4931,14.5327],[-90.4941,14.5366],[-90.4993,14.536],[-90.5023,14.5389],[-90.508,14.5386],[-90.51,14.5401],[-90.5132,14.5453],[-90.5151,14.5453],[-90.5184,14.5433],[-90.5201,14.5455],[-90.5199,14.5545],[-90.5179,14.5593],[-90.5244,14.56],[-90.53,14.5566],[-90.5319,14.5538],[-90.5338,14.5433],[-90.538,14.5366],[-90.5381,14.5323],[-90.5397,14.5292],[-90.5394,14.5184],[-90.5381,14.5158],[-90.5377,14.5118],[-90.5405,14.5081],[-90.5423,14.5031],[-90.5427,14.4977],[-90.5382,14.4892],[-90.5378,14.4852],[-90.5385,14.4831],[-90.5418,14.479],[-90.5436,14.4735],[-90.5472,14.4718],[-90.5519,14.4759],[-90.5638,14.4814],[-90.5671,14.482],[-90.5686,14.4834],[-90.5706,14.4819],[-90.5689,14.48],[-90.5709,14.4774],[-90.5719,14.4772],[-90.5716,14.4752],[-90.5753,14.4719],[-90.5743,14.4702],[-90.5695,14.4713],[-90.5671,14.4687],[-90.5665,14.4661],[-90.5672,14.4625],[-90.5666,14.4608],[-90.5674,14.4575],[-90.5652,14.4583],[-90.5639,14.4574],[-90.5632,14.455],[-90.5655,14.4536],[-90.5646,14.4523],[-90.5624,14.4516],[-90.5616,14.4499],[-90.5606,14.4502],[-90.5603,14.4532],[-90.559,14.4523],[-90.5573,14.4526],[-90.5561,14.4499],[-90.553,14.4493],[-90.5483,14.4451],[-90.5458,14.4461],[-90.5441,14.4458],[-90.5426,14.4475],[-90.5374,14.4485],[-90.5351,14.4469],[-90.5298,14.4473],[-90.5281,14.4459],[-90.5298,14.4437],[-90.5331,14.4428],[-90.5359,14.4388],[-90.5353,14.4305],[-90.534,14.4262],[-90.5345,14.4239],[-90.5388,14.42],[-90.5407,14.4201],[-90.5429,14.4221],[-90.5473,14.4168],[-90.5492,14.4135],[-90.5501,14.4038],[-90.5524,14.3964],[-90.5547,14.3945],[-90.5785,14.3865],[-90.5824,14.3859],[-90.5909,14.3818],[-90.5994,14.3876],[-90.5979,14.3647],[-90.5985,14.3622],[-90.6024,14.3543],[-90.6034,14.3504],[-90.6084,14.3429],[-90.614,14.3369],[-90.6144,14.3335],[-90.6126,14.3239],[-90.6048,14.3137],[-90.6043,14.3069],[-90.605,14.3029],[-90.6029,14.2994],[-90.5978,14.2969],[-90.5892,14.2944],[-90.5856,14.2915],[-90.5847,14.2896],[-90.5843,14.2866],[-90.5893,14.2768],[-90.5893,14.2743],[-90.5852,14.2732],[-90.5824,14.2701],[-90.5814,14.2671],[-90.5815,14.2611],[-90.58,14.2591],[-90.5795,14.2563],[-90.5873,14.2469],[-90.5889,14.2425],[-90.5832,14.2423],[-90.5807,14.2429],[-90.5777,14.2484],[-90.5682,14.2575],[-90.5611,14.2595],[-90.5588,14.2578],[-90.5536,14.2608],[-90.5495,14.2601],[-90.5459,14.2616],[-90.5443,14.2647],[-90.5425,14.266],[-90.5388,14.266],[-90.5342,14.2688],[-90.5275,14.2693],[-90.5267,14.2791],[-90.5215,14.2806],[-90.5212,14.2833],[-90.5172,14.2833],[-90.511,14.2876],[-90.5089,14.291],[-90.5045,14.2914],[-90.5072,14.298],[-90.5143,14.3064],[-90.5142,14.3088],[-90.5052,14.3156],[-90.5034,14.3184],[-90.5002,14.3208],[-90.4959,14.3258],[-90.4954,14.3268],[-90.4961,14.33],[-90.4991,14.3325],[-90.4997,14.336],[-90.4953,14.3406],[-90.4867,14.3612],[-90.4594,14.3645],[-90.4654,14.3754],[-90.468,14.3984],[-90.4715,14.4044],[-90.4773,14.4094],[-90.4776,14.4105],[-90.4783,14.4164],[-90.4778,14.4216],[-90.476,14.4263],[-90.4759,14.4355],[-90.4733,14.4424],[-90.4732,14.447],[-90.4787,14.4525],[-90.4784,14.4543],[-90.4757,14.4568],[-90.4757,14.4585],[-90.4788,14.4603],[-90.4818,14.4597],[-90.4837,14.4606],[-90.4843,14.4777],[-90.4824,14.4816],[-90.4818,14.4933],[-90.4796,14.4994],[-90.4774,14.5099],[-90.4751,14.5138],[-90.4742,14.5198]]]}},{"type":"Feature","id":"gt0115","properties":{"name":"Villa Nueva","province":"Guatemala","department":"Guatemala","type":"Municipio","country":"Guatemala","iso":"GT"},"geometry":{"type":"Polygon","coordinates":[[[-90.6129,14.5827],[-90.6143,14.5809],[-90.6219,14.5795],[-90.6281,14.5815],[-90.6314,14.5803],[-90.6317,14.5776],[-90.6302,14.5698],[-90.6312,14.5662],[-90.633,14.5636],[-90.6346,14.5635],[-90.6373,14.5651],[-90.6386,14.5701],[-90.6415,14.5753],[-90.6514,14.5831],[-90.6613,14.5851],[-90.6643,14.5849],[-90.667,14.5832],[-90.6685,14.5763],[-90.6678,14.5741],[-90.6647,14.5707],[-90.6584,14.5665],[-90.6533,14.5643],[-90.6488,14.5596],[-90.6491,14.5575],[-90.6502,14.5563],[-90.655,14.5549],[-90.6584,14.5527],[-90.6587,14.5492],[-90.6577,14.5464],[-90.6576,14.5423],[-90.663,14.5293],[-90.6619,14.5283],[-90.6574,14.5273],[-90.6514,14.5231],[-90.6433,14.5197],[-90.6282,14.516],[-90.6238,14.5102],[-90.624,14.5018],[-90.6222,14.4984],[-90.6167,14.4961],[-90.6105,14.4906],[-90.6087,14.4907],[-90.6048,14.4893],[-90.6029,14.4867],[-90.5978,14.485],[-90.5937,14.4853],[-90.5907,14.4846],[-90.588,14.4823],[-90.5855,14.4823],[-90.5837,14.481],[-90.5819,14.4809],[-90.5808,14.4817],[-90.5797,14.4846],[-90.5768,14.4875],[-90.5799,14.4942],[-90.5803,14.498],[-90.5797,14.5009],[-90.5771,14.5037],[-90.5757,14.5067],[-90.5754,14.5137],[-90.5733,14.5173],[-90.5708,14.5195],[-90.5664,14.5213],[-90.5633,14.5246],[-90.5619,14.5298],[-90.5583,14.5357],[-90.5579,14.5405],[-90.5566,14.5444],[-90.5567,14.548],[-90.5556,14.55],[-90.5556,14.5554],[-90.5548,14.5575],[-90.5501,14.5628],[-90.5497,14.5646],[-90.5527,14.5655],[-90.5551,14.5679],[-90.5565,14.5765],[-90.5587,14.5774],[-90.5612,14.5803],[-90.5695,14.5771],[-90.5758,14.5767],[-90.579,14.5793],[-90.5812,14.5796],[-90.589,14.5771],[-90.5976,14.5768],[-90.6026,14.579],[-90.6049,14.5809],[-90.6129,14.5827]]]}}]}