{"type":"FeatureCollection","features":[{"type":"Feature","id":"pa120401","properties":{"name":"Ancón","province":"Panamá","department":"Panamá","type":"Corregimiento","country":"Panamá","iso":"PA"},"geometry":{"type":"MultiPolygon","coordinates":[[[[-79.5347,8.9792],[-79.5359,9.0087],[-79.5355,9.0153],[-79.5312,9.0211],[-79.5206,9.026],[-79.5193,9.0366],[-79.5238,9.0416],[-79.539,9.0538],[-79.5425,9.0583],[-79.5625,9.071],[-79.5743,9.0816],[-79.5828,9.0879],[-79.5934,9.0974],[-79.6058,9.112],[-79.6119,9.1173],[-79.6171,9.1268],[-79.6221,9.1327],[-79.6274,9.1442],[-79.6346,9.1505],[-79.6396,9.1576],[-79.6449,9.16],[-79.6511,9.166],[-79.6516,9.1772],[-79.6534,9.179],[-79.6543,9.1837],[-79.6507,9.1875],[-79.6526,9.1894],[-79.6532,9.1926],[-79.6554,9.1869],[-79.6588,9.1812],[-79.6561,9.1778],[-79.6567,9.1751],[-79.6587,9.1737],[-79.6584,9.1587],[-79.6609,9.155],[-79.672,9.1522],[-79.6772,9.1451],[-79.6776,9.1391],[-79.6799,9.1365],[-79.6821,9.1365],[-79.6826,9.1354],[-79.6799,9.134],[-79.6779,9.1362],[-79.6774,9.1351],[-79.6762,9.1351],[-79.6762,9.1332],[-79.6793,9.1307],[-79.6815,9.1299],[-79.6846,9.1301],[-79.6868,9.129],[-79.6846,9.1246],[-79.6818,9.1243],[-79.6826,9.1224],[-79.6846,9.1221],[-79.6857,9.1207],[-79.6854,9.1196],[-79.6821,9.1187],[-79.6829,9.1157],[-79.6849,9.1157],[-79.686,9.114],[-79.6885,9.1143],[-79.6876,9.1126],[-79.6899,9.1138],[-79.6926,9.1138],[-79.6949,9.1114],[-79.6926,9.1093],[-79.6901,9.1085],[-79.6934,9.105],[-79.6923,9.1021],[-79.685,9.0932],[-79.6807,9.0864],[-79.672,9.067],[-79.6676,9.0628],[-79.6599,9.0578],[-79.6551,9.053],[-79.6451,9.0382],[-79.6315,9.0292],[-79.6122,9.0182],[-79.608,9.0143],[-79.6068,9.0103],[-79.6046,9.0062],[-79.6022,9.0057],[-79.5999,9.0036],[-79.5907,8.9991],[-79.5875,8.9984],[-79.586,8.9962],[-79.5824,8.9955],[-79.5798,8.9935],[-79.5783,8.9904],[-79.5764,8.9886],[-79.5754,8.9851],[-79.5762,8.983],[-79.5754,8.9795],[-79.5776,8.9757],[-79.576,8.9735],[-79.5765,8.9726],[-79.5749,8.9696],[-79.5746,8.9674],[-79.5735,8.9668],[-79.5738,8.9654],[-79.5707,8.9649],[-79.5665,8.961],[-79.5668,8.9588],[-79.5657,8.956],[-79.5676,8.9549],[-79.5679,8.9474],[-79.5657,8.9471],[-79.5651,8.9451],[-79.5632,8.9449],[-79.5632,8.9426],[-79.5618,8.9432],[-79.559,8.9426],[-79.5535,8.9385],[-79.5526,8.9371],[-79.5479,8.9343],[-79.5449,8.9301],[-79.5435,8.9307],[-79.5429,8.9326],[-79.544,8.9326],[-79.5446,8.9343],[-79.5446,8.9399],[-79.5454,8.9429],[-79.549,8.9426],[-79.5504,8.944],[-79.5524,8.944],[-79.5529,8.9449],[-79.5504,8.9446],[-79.5474,8.9457],[-79.5465,8.9482],[-79.5428,8.949],[-79.5394,8.9573],[-79.5391,8.9729],[-79.5347,8.9792]]],[[[-79.604,9.2199],[-79.6038,9.2226],[-79.6054,9.2243],[-79.6062,9.221],[-79.604,9.2199]]],[[[-79.6209,9.2029],[-79.6219,9.2024],[-79.6214,9.1987],[-79.6177,9.1949],[-79.6141,9.1886],[-79.6116,9.1861],[-79.6039,9.1862],[-79.593,9.1814],[-79.5844,9.181],[-79.5814,9.1829],[-79.5806,9.1863],[-79.5817,9.1899],[-79.5826,9.1896],[-79.5824,9.1874],[-79.5846,9.1874],[-79.586,9.189],[-79.5857,9.1901],[-79.5835,9.1899],[-79.5821,9.191],[-79.5832,9.1954],[-79.5846,9.1954],[-79.5851,9.194],[-79.5863,9.1938],[-79.586,9.1915],[-79.5879,9.1924],[-79.5899,9.191],[-79.589,9.1932],[-79.5851,9.1962],[-79.5857,9.1982],[-79.5849,9.1985],[-79.5846,9.2015],[-79.5863,9.201],[-79.5865,9.1996],[-79.5876,9.1996],[-79.5882,9.2021],[-79.589,9.2024],[-79.5896,9.1999],[-79.5924,9.1999],[-79.5924,9.2007],[-79.591,9.2013],[-79.5904,9.2043],[-79.589,9.2043],[-79.5888,9.2057],[-79.591,9.2057],[-79.5921,9.2068],[-79.5921,9.2079],[-79.591,9.2085],[-79.5912,9.2104],[-79.5932,9.2115],[-79.5949,9.2151],[-79.6026,9.2174],[-79.6062,9.2204],[-79.6085,9.2196],[-79.6101,9.2199],[-79.6115,9.2204],[-79.6129,9.2229],[-79.6143,9.2229],[-79.6154,9.2215],[-79.6154,9.2201],[-79.6124,9.219],[-79.611,9.2174],[-79.6107,9.2107],[-79.6099,9.2107],[-79.6096,9.2121],[-79.6085,9.2126],[-79.6085,9.2118],[-79.606,9.2093],[-79.6054,9.2068],[-79.6093,9.206],[-79.6115,9.2038],[-79.6137,9.2049],[-79.614,9.2032],[-79.6151,9.2029],[-79.6157,9.204],[-79.6151,9.2054],[-79.616,9.2063],[-79.6154,9.2104],[-79.6168,9.2107],[-79.6185,9.2096],[-79.6196,9.2065],[-79.6196,9.2035],[-79.6209,9.2029]]],[[[-79.6835,9.1315],[-79.6835,9.1324],[-79.6818,9.1321],[-79.6821,9.1335],[-79.6824,9.1329],[-79.6846,9.1332],[-79.6849,9.1318],[-79.6835,9.1315]]],[[[-79.6854,9.1232],[-79.6862,9.1232],[-79.6865,9.1274],[-79.6874,9.1276],[-79.6876,9.1243],[-79.6865,9.1226],[-79.6854,9.1232]]],[[[-79.5343,8.9185],[-79.5354,8.9179],[-79.534,8.9165],[-79.5343,8.9146],[-79.5312,8.9132],[-79.5296,8.9135],[-79.5296,8.9157],[-79.5312,8.9157],[-79.5329,8.9179],[-79.5343,8.9185]]],[[[-79.5226,8.9165],[-79.5263,8.9154],[-79.5249,8.9126],[-79.5235,8.9129],[-79.5218,8.9146],[-79.5215,8.9154],[-79.5226,8.9165]]],[[[-79.5149,8.9113],[-79.5182,8.9113],[-79.5182,8.9104],[-79.5215,8.9101],[-79.5229,8.9079],[-79.5226,8.9068],[-79.5212,8.9065],[-79.5215,8.9051],[-79.5149,8.9051],[-79.5149,8.9113]]]]}},{"type":"Feature","id":"pa120402","properties":{"name":"Bella Vista","province":"Panamá","department":"Panamá","type":"Corregimiento","country":"Panamá","iso":"PA"},"geometry":{"type":"Polygon","coordinates":[[[-79.5279,8.9707],[-79.5254,8.9701],[-79.5268,8.9724],[-79.5254,8.9754],[-79.5193,8.9751],[-79.5109,8.9823],[-79.5108,8.9838],[-79.5085,8.9866],[-79.5081,8.9886],[-79.5087,8.991],[-79.5112,8.9934],[-79.5316,8.9754],[-79.5289,8.9729],[-79.5302,8.9716],[-79.5279,8.9712],[-79.5279,8.9707]]]}},{"type":"Feature","id":"pa120403","properties":{"name":"Betania","province":"Panamá","department":"Panamá","type":"Corregimiento","country":"Panamá","iso":"PA"},"geometry":{"type":"Polygon","coordinates":[[[-79.5277,8.9853],[-79.5203,8.9993],[-79.5215,9.0122],[-79.5174,9.0212],[-79.5058,9.0264],[-79.5121,9.0302],[-79.5114,9.0314],[-79.5131,9.0331],[-79.5131,9.0353],[-79.5151,9.0352],[-79.517,9.0333],[-79.5193,9.0366],[-79.5206,9.026],[-79.5312,9.0211],[-79.5355,9.0153],[-79.5359,9.0087],[-79.5347,8.9792],[-79.532,8.9845],[-79.5277,8.9853]]]}},{"type":"Feature","id":"pa120404","properties":{"name":"Chilibre","province":"Panamá","department":"Panamá","type":"Corregimiento","country":"Panamá","iso":"PA"},"geometry":{"type":"MultiPolygon","coordinates":[[[[-79.4228,9.5035],[-79.4273,9.5056],[-79.432,9.5062],[-79.4374,9.5086],[-79.4483,9.5177],[-79.4527,9.5233],[-79.4662,9.5094],[-79.4741,9.4949],[-79.4827,9.4887],[-79.4876,9.4882],[-79.4897,9.4892],[-79.4909,9.4911],[-79.5067,9.4908],[-79.5088,9.4894],[-79.5111,9.4855],[-79.5173,9.486],[-79.5222,9.4824],[-79.5315,9.4813],[-79.5339,9.4789],[-79.5344,9.4753],[-79.5328,9.4736],[-79.5327,9.4716],[-79.5358,9.4658],[-79.5351,9.4577],[-79.5361,9.4496],[-79.539,9.4459],[-79.5434,9.4368],[-79.5433,9.4336],[-79.5418,9.4289],[-79.5423,9.4226],[-79.5534,9.4122],[-79.5536,9.4068],[-79.5552,9.4048],[-79.5545,9.4026],[-79.5529,9.401],[-79.5571,9.3976],[-79.5595,9.3918],[-79.5595,9.387],[-79.5656,9.3794],[-79.5671,9.3756],[-79.5664,9.3691],[-79.5636,9.3656],[-79.5601,9.3638],[-79.5585,9.3612],[-79.5563,9.3612],[-79.5576,9.3588],[-79.556,9.3571],[-79.5551,9.3549],[-79.5524,9.3554],[-79.5507,9.3546],[-79.549,9.3557],[-79.5504,9.354],[-79.5493,9.3512],[-79.551,9.3479],[-79.551,9.346],[-79.5524,9.3446],[-79.5526,9.3404],[-79.5537,9.3396],[-79.5535,9.3374],[-79.5554,9.3388],[-79.5576,9.3388],[-79.5582,9.3371],[-79.561,9.3349],[-79.5615,9.3337],[-79.561,9.3318],[-79.5657,9.3276],[-79.566,9.3265],[-79.5685,9.3254],[-79.569,9.3237],[-79.5682,9.3226],[-79.5721,9.3196],[-79.5729,9.3179],[-79.5721,9.3157],[-79.5776,9.3107],[-79.5779,9.3096],[-79.581,9.3085],[-79.581,9.3071],[-79.5796,9.3054],[-79.5796,9.3035],[-79.5829,9.3026],[-79.5832,9.3018],[-79.5824,9.3001],[-79.5793,9.2993],[-79.5788,9.2985],[-79.5751,9.3007],[-79.5751,9.2999],[-79.5762,9.2993],[-79.5762,9.2965],[-79.5782,9.2968],[-79.5807,9.296],[-79.5815,9.2935],[-79.5796,9.2926],[-79.5796,9.2918],[-79.5824,9.2907],[-79.581,9.2896],[-79.5815,9.2865],[-79.5785,9.2849],[-79.5788,9.2832],[-79.5765,9.2821],[-79.5768,9.2801],[-79.5757,9.2799],[-79.5754,9.2771],[-79.5782,9.2746],[-79.5782,9.2724],[-79.5793,9.2712],[-79.579,9.2699],[-79.5762,9.2693],[-79.5757,9.271],[-79.5743,9.2707],[-79.5715,9.2726],[-79.5696,9.2729],[-79.5699,9.2707],[-79.571,9.2696],[-79.5735,9.269],[-79.5726,9.2674],[-79.574,9.2671],[-79.5749,9.2679],[-79.5768,9.2662],[-79.5768,9.2654],[-79.5754,9.266],[-79.5749,9.2649],[-79.5729,9.2643],[-79.5729,9.2632],[-79.5751,9.2632],[-79.5746,9.2607],[-79.5735,9.2604],[-79.5693,9.2563],[-79.5696,9.2551],[-79.571,9.2549],[-79.571,9.254],[-79.5699,9.2537],[-79.5699,9.2524],[-79.5713,9.2518],[-79.5713,9.251],[-79.5701,9.251],[-79.5682,9.2526],[-79.5676,9.2518],[-79.5685,9.2504],[-79.5663,9.2504],[-79.5663,9.2496],[-79.5687,9.2474],[-79.566,9.2471],[-79.5654,9.249],[-79.5646,9.249],[-79.5646,9.2451],[-79.5621,9.2454],[-79.5624,9.244],[-79.5638,9.2429],[-79.5612,9.2412],[-79.5599,9.2412],[-79.5585,9.2432],[-79.5582,9.2482],[-79.5565,9.2482],[-79.5568,9.2457],[-79.5551,9.2476],[-79.554,9.2476],[-79.554,9.2465],[-79.5551,9.2457],[-79.5549,9.2446],[-79.5535,9.2446],[-79.5529,9.246],[-79.551,9.2468],[-79.5512,9.2454],[-79.5493,9.244],[-79.5493,9.2432],[-79.551,9.244],[-79.5529,9.2429],[-79.5565,9.2435],[-79.5565,9.2404],[-79.5574,9.2393],[-79.5568,9.2368],[-79.5551,9.2376],[-79.5557,9.2357],[-79.5546,9.234],[-79.5529,9.2329],[-79.5499,9.2335],[-79.5482,9.2304],[-79.5471,9.2307],[-79.5462,9.2324],[-79.5451,9.2324],[-79.5451,9.2304],[-79.5465,9.2304],[-79.5468,9.2296],[-79.5443,9.2276],[-79.5449,9.2254],[-79.5429,9.2238],[-79.5413,9.224],[-79.5407,9.2254],[-79.539,9.2262],[-79.539,9.229],[-79.5379,9.2301],[-79.5351,9.2307],[-79.5338,9.2321],[-79.5318,9.2315],[-79.5304,9.229],[-79.5321,9.2296],[-79.5332,9.2313],[-79.5379,9.2296],[-79.5382,9.226],[-79.5354,9.2251],[-79.5349,9.2224],[-79.5365,9.2218],[-79.5382,9.2226],[-79.5407,9.2204],[-79.5443,9.2207],[-79.5476,9.224],[-79.5482,9.2268],[-79.5501,9.2257],[-79.549,9.2282],[-79.5499,9.2282],[-79.5504,9.2271],[-79.5554,9.2276],[-79.5568,9.2246],[-79.5596,9.2254],[-79.5612,9.2246],[-79.5626,9.2268],[-79.564,9.2268],[-79.5649,9.2254],[-79.5635,9.2251],[-79.5635,9.2243],[-79.5649,9.224],[-79.5646,9.2218],[-79.5657,9.2204],[-79.5676,9.2226],[-79.5687,9.2218],[-79.5707,9.2226],[-79.5704,9.2207],[-79.5713,9.219],[-79.5693,9.2182],[-79.5685,9.2196],[-79.5676,9.2196],[-79.5671,9.219],[-79.5676,9.2165],[-79.5668,9.2154],[-79.566,9.2154],[-79.5651,9.2171],[-79.5629,9.2171],[-79.5621,9.2188],[-79.5601,9.2176],[-79.561,9.2157],[-79.5643,9.2129],[-79.5663,9.2082],[-79.5657,9.2049],[-79.564,9.2049],[-79.5651,9.2018],[-79.5646,9.2004],[-79.5649,9.1985],[-79.5657,9.1979],[-79.5654,9.1962],[-79.5668,9.1974],[-79.569,9.1968],[-79.5699,9.1999],[-79.5707,9.1999],[-79.571,9.1987],[-79.5765,9.199],[-79.5779,9.2007],[-79.579,9.1993],[-79.5762,9.1974],[-79.5788,9.1968],[-79.5793,9.1957],[-79.5788,9.1938],[-79.5807,9.1921],[-79.5804,9.1904],[-79.5818,9.1901],[-79.5806,9.1863],[-79.5809,9.1843],[-79.5832,9.1812],[-79.593,9.1814],[-79.605,9.1865],[-79.6092,9.1856],[-79.6116,9.1861],[-79.6141,9.1886],[-79.6177,9.1949],[-79.6214,9.1987],[-79.6219,9.2024],[-79.6209,9.2029],[-79.6274,9.2043],[-79.6296,9.204],[-79.6312,9.2057],[-79.636,9.2051],[-79.6413,9.2065],[-79.6451,9.206],[-79.6454,9.2046],[-79.6438,9.2029],[-79.644,9.2001],[-79.6449,9.1996],[-79.6474,9.2001],[-79.6482,9.1962],[-79.6501,9.194],[-79.6524,9.1929],[-79.6527,9.1897],[-79.6507,9.1875],[-79.6543,9.1837],[-79.6534,9.179],[-79.6516,9.1772],[-79.6511,9.166],[-79.6449,9.16],[-79.6396,9.1576],[-79.6346,9.1505],[-79.6274,9.1442],[-79.6221,9.1327],[-79.6171,9.1268],[-79.6119,9.1173],[-79.6058,9.112],[-79.5925,9.0965],[-79.5751,9.0821],[-79.5759,9.0903],[-79.5734,9.104],[-79.5755,9.1068],[-79.5806,9.1104],[-79.5838,9.1143],[-79.5865,9.1208],[-79.5857,9.1239],[-79.5816,9.1252],[-79.5734,9.1252],[-79.5672,9.1353],[-79.5646,9.137],[-79.5615,9.1375],[-79.5499,9.1374],[-79.5465,9.1352],[-79.5415,9.13],[-79.5348,9.1265],[-79.5332,9.1276],[-79.5324,9.1294],[-79.5313,9.1361],[-79.5301,9.1391],[-79.5281,9.1398],[-79.5234,9.1386],[-79.5169,9.1419],[-79.514,9.1452],[-79.509,9.1547],[-79.5044,9.1589],[-79.4933,9.163],[-79.4903,9.1621],[-79.4852,9.158],[-79.4812,9.157],[-79.4792,9.1575],[-79.472,9.1692],[-79.4727,9.1753],[-79.4626,9.1845],[-79.4609,9.1894],[-79.4617,9.1915],[-79.4656,9.1959],[-79.4656,9.201],[-79.4672,9.2037],[-79.4672,9.2071],[-79.4634,9.2071],[-79.4607,9.2038],[-79.4594,9.2004],[-79.4574,9.1986],[-79.4553,9.1986],[-79.4507,9.2005],[-79.4412,9.1976],[-79.427,9.1993],[-79.4196,9.2063],[-79.4138,9.2064],[-79.411,9.2073],[-79.4097,9.2086],[-79.4083,9.2126],[-79.4034,9.221],[-79.4037,9.2241],[-79.4072,9.2293],[-79.4077,9.2331],[-79.4053,9.2411],[-79.4029,9.2451],[-79.3905,9.2493],[-79.389,9.2492],[-79.3744,9.2348],[-79.3729,9.2342],[-79.3709,9.2349],[-79.3674,9.2393],[-79.3614,9.2427],[-79.3576,9.2523],[-79.3526,9.2566],[-79.353,9.268],[-79.3521,9.2707],[-79.3494,9.274],[-79.3456,9.2758],[-79.3358,9.2764],[-79.321,9.2831],[-79.3139,9.2876],[-79.3055,9.2903],[-79.3002,9.2955],[-79.2943,9.3028],[-79.2969,9.3107],[-79.296,9.3132],[-79.2907,9.3168],[-79.2828,9.3175],[-79.2827,9.3202],[-79.2814,9.3229],[-79.2775,9.3275],[-79.2722,9.3292],[-79.2705,9.335],[-79.2631,9.3384],[-79.2537,9.3407],[-79.2523,9.3418],[-79.2511,9.3447],[-79.2594,9.3513],[-79.2643,9.3583],[-79.2651,9.361],[-79.265,9.3633],[-79.2577,9.3754],[-79.2537,9.391],[-79.2536,9.3965],[-79.2553,9.3986],[-79.2586,9.3986],[-79.2756,9.3918],[-79.2763,9.3934],[-79.2752,9.3991],[-79.2711,9.4096],[-79.2615,9.4245],[-79.2617,9.4282],[-79.2636,9.4326],[-79.2685,9.4361],[-79.2704,9.4403],[-79.2724,9.4377],[-79.277,9.4375],[-79.2779,9.4363],[-79.2794,9.4367],[-79.2815,9.4347],[-79.2849,9.4351],[-79.2871,9.4387],[-79.2982,9.4497],[-79.3023,9.4513],[-79.3059,9.4541],[-79.3096,9.4545],[-79.3123,9.4531],[-79.3164,9.4526],[-79.3203,9.4486],[-79.3268,9.4469],[-79.3295,9.4411],[-79.3361,9.434],[-79.3384,9.4324],[-79.3411,9.432],[-79.3447,9.4302],[-79.3492,9.4299],[-79.3519,9.4314],[-79.3544,9.4339],[-79.3541,9.4384],[-79.3549,9.4403],[-79.3599,9.4436],[-79.3621,9.444],[-79.3679,9.4404],[-79.3733,9.4385],[-79.3765,9.435],[-79.3777,9.4313],[-79.3793,9.4295],[-79.3917,9.425],[-79.3995,9.4238],[-79.4055,9.4219],[-79.4058,9.4201],[-79.4089,9.4199],[-79.4132,9.4214],[-79.4135,9.4244],[-79.4109,9.4286],[-79.4058,9.4289],[-79.4042,9.4281],[-79.4009,9.4303],[-79.4003,9.4318],[-79.3953,9.4313],[-79.3941,9.4323],[-79.3911,9.4327],[-79.3896,9.4349],[-79.3868,9.4357],[-79.3838,9.4397],[-79.3797,9.441],[-79.3795,9.4424],[-79.3809,9.444],[-79.3797,9.4505],[-79.3808,9.455],[-79.3803,9.4615],[-79.3773,9.4699],[-79.3774,9.4726],[-79.3828,9.4803],[-79.3941,9.4865],[-79.3954,9.4891],[-79.3947,9.4911],[-79.3867,9.501],[-79.3757,9.5072],[-79.3873,9.5084],[-79.3909,9.5106],[-79.3937,9.5135],[-79.4027,9.5184],[-79.4048,9.5187],[-79.4084,9.5158],[-79.418,9.5146],[-79.4188,9.5128],[-79.4186,9.5064],[-79.4199,9.5041],[-79.4228,9.5035]]],[[[-79.5749,9.2065],[-79.5765,9.206],[-79.5771,9.2038],[-79.576,9.2021],[-79.5729,9.2021],[-79.5729,9.2057],[-79.5749,9.2065]]],[[[-79.5663,9.2104],[-79.566,9.2113],[-79.5687,9.2107],[-79.5679,9.2099],[-79.5663,9.2104]]],[[[-79.5801,9.2151],[-79.5807,9.2151],[-79.5804,9.2137],[-79.5815,9.2115],[-79.5788,9.2096],[-79.5799,9.2071],[-79.5785,9.2065],[-79.5776,9.2071],[-79.5776,9.2082],[-79.5801,9.2151]]],[[[-79.5768,9.2618],[-79.5779,9.2615],[-79.5779,9.2601],[-79.5754,9.2596],[-79.5754,9.261],[-79.5768,9.2618]]]]}},{"type":"Feature","id":"pa120405","properties":{"name":"Curundú","province":"Panamá","department":"Panamá","type":"Corregimiento","country":"Panamá","iso":"PA"},"geometry":{"type":"Polygon","coordinates":[[[-79.5316,8.9754],[-79.5265,8.9797],[-79.5277,8.9853],[-79.532,8.9845],[-79.5391,8.9729],[-79.5395,8.9657],[-79.5345,8.9686],[-79.5316,8.9754]]]}},{"type":"Feature","id":"pa120406","properties":{"name":"El Chorrillo","province":"Panamá","department":"Panamá","type":"Corregimiento","country":"Panamá","iso":"PA"},"geometry":{"type":"Polygon","coordinates":[[[-79.5335,8.9501],[-79.5336,8.9549],[-79.5357,8.9554],[-79.5365,8.9576],[-79.5394,8.9573],[-79.5428,8.949],[-79.5404,8.949],[-79.5379,8.9501],[-79.5365,8.9496],[-79.5335,8.9501]]]}},{"type":"Feature","id":"pa120407","properties":{"name":"Juan Díaz","province":"Panamá","department":"Panamá","type":"Corregimiento","country":"Panamá","iso":"PA"},"geometry":{"type":"Polygon","coordinates":[[[-79.3937,9.0279],[-79.397,9.039],[-79.397,9.0429],[-79.3959,9.0473],[-79.3962,9.0494],[-79.4005,9.0536],[-79.4048,9.0603],[-79.4134,9.0708],[-79.4205,9.0629],[-79.4246,9.0618],[-79.4384,9.0545],[-79.4414,9.0535],[-79.4551,9.0526],[-79.4604,9.0476],[-79.4667,9.0445],[-79.4732,9.0371],[-79.4759,9.0275],[-79.4693,9.027],[-79.4623,9.022],[-79.4614,9.0177],[-79.4656,9.0087],[-79.4629,9.0085],[-79.4551,9.0115],[-79.4532,9.0107],[-79.4529,9.0118],[-79.4451,9.0126],[-79.4407,9.0165],[-79.4379,9.0165],[-79.4371,9.0182],[-79.436,9.0182],[-79.4332,9.0126],[-79.4321,9.0129],[-79.4313,9.0149],[-79.426,9.0143],[-79.4132,9.0165],[-79.4076,9.0163],[-79.406,9.0179],[-79.4035,9.0179],[-79.4021,9.0171],[-79.4024,9.016],[-79.4007,9.016],[-79.4004,9.0168],[-79.4015,9.0188],[-79.401,9.0218],[-79.3993,9.024],[-79.3982,9.024],[-79.3951,9.0212],[-79.3941,9.0218],[-79.3937,9.0279]]]}},{"type":"Feature","id":"pa120408","properties":{"name":"La Exposición o Calidonia","province":"Panamá","department":"Panamá","type":"Corregimiento","country":"Panamá","iso":"PA"},"geometry":{"type":"MultiPolygon","coordinates":[[[[-79.5287,8.971],[-79.5302,8.9716],[-79.5289,8.9729],[-79.5316,8.9754],[-79.5345,8.9686],[-79.5395,8.9657],[-79.5395,8.9624],[-79.5343,8.9643],[-79.5329,8.9671],[-79.5287,8.971]]],[[[-79.5262,8.9699],[-79.5279,8.9707],[-79.5276,8.9693],[-79.5262,8.9699]]]]}},{"type":"Feature","id":"pa120409","properties":{"name":"Las Cumbres","province":"Panamá","department":"Panamá","type":"Corregimiento","country":"Panamá","iso":"PA"},"geometry":{"type":"Polygon","coordinates":[[[-79.481,9.0897],[-79.4741,9.0919],[-79.4717,9.0915],[-79.4667,9.0927],[-79.4579,9.0907],[-79.4485,9.0873],[-79.4566,9.0977],[-79.4574,9.1007],[-79.4569,9.1069],[-79.4598,9.1154],[-79.4596,9.1215],[-79.4562,9.1289],[-79.4537,9.1388],[-79.4609,9.1443],[-79.4634,9.1475],[-79.4645,9.1503],[-79.464,9.1574],[-79.4614,9.1645],[-79.4624,9.1694],[-79.4626,9.1845],[-79.4727,9.1753],[-79.472,9.1692],[-79.4792,9.1575],[-79.4812,9.157],[-79.4852,9.158],[-79.4903,9.1621],[-79.4933,9.163],[-79.5044,9.1589],[-79.509,9.1547],[-79.514,9.1452],[-79.5169,9.1419],[-79.5234,9.1386],[-79.5281,9.1398],[-79.5301,9.1391],[-79.5313,9.1361],[-79.5324,9.1294],[-79.5339,9.1268],[-79.5357,9.1267],[-79.5415,9.13],[-79.5465,9.1352],[-79.5499,9.1374],[-79.5615,9.1375],[-79.5646,9.137],[-79.5672,9.1353],[-79.5734,9.1252],[-79.5816,9.1252],[-79.5844,9.1246],[-79.5864,9.1232],[-79.5865,9.1208],[-79.5838,9.1143],[-79.5806,9.1104],[-79.5755,9.1068],[-79.5734,9.104],[-79.5759,9.0903],[-79.5751,9.0821],[-79.5625,9.071],[-79.5425,9.0583],[-79.5307,9.0628],[-79.5238,9.0642],[-79.52,9.0712],[-79.512,9.0798],[-79.5031,9.0811],[-79.5008,9.0767],[-79.495,9.08],[-79.4893,9.0871],[-79.481,9.0897]]]}},{"type":"Feature","id":"pa120410","properties":{"name":"Pacora","province":"Panamá","department":"Panamá","type":"Corregimiento","country":"Panamá","iso":"PA"},"geometry":{"type":"MultiPolygon","coordinates":[[[[-79.3258,9.2809],[-79.3358,9.2764],[-79.3456,9.2758],[-79.3494,9.274],[-79.3521,9.2707],[-79.353,9.268],[-79.3526,9.2566],[-79.3576,9.2523],[-79.3614,9.2427],[-79.3674,9.2393],[-79.3718,9.2343],[-79.3751,9.2354],[-79.389,9.2492],[-79.3905,9.2493],[-79.4029,9.2451],[-79.4053,9.2411],[-79.4077,9.2331],[-79.4072,9.2293],[-79.4037,9.2241],[-79.4034,9.221],[-79.4083,9.2126],[-79.4097,9.2086],[-79.4128,9.2066],[-79.4184,9.2065],[-79.4207,9.2057],[-79.4252,9.2003],[-79.427,9.1993],[-79.4412,9.1976],[-79.4461,9.1858],[-79.4458,9.1786],[-79.4345,9.1577],[-79.4308,9.1542],[-79.4271,9.1522],[-79.4041,9.1429],[-79.3851,9.13],[-79.3783,9.1265],[-79.3746,9.1194],[-79.3702,9.1149],[-79.3687,9.1038],[-79.3604,9.0933],[-79.3546,9.0881],[-79.347,9.0767],[-79.3465,9.0713],[-79.3503,9.0629],[-79.3521,9.0519],[-79.3531,9.0497],[-79.3575,9.0466],[-79.3691,9.035],[-79.375,9.0349],[-79.3871,9.0333],[-79.3897,9.0317],[-79.3937,9.0279],[-79.3937,9.0227],[-79.3949,9.021],[-79.3926,9.019],[-79.3935,9.0165],[-79.3901,9.0165],[-79.3893,9.0176],[-79.3863,9.0188],[-79.3804,9.019],[-79.3782,9.0204],[-79.3743,9.0199],[-79.3704,9.0212],[-79.3587,9.0218],[-79.3546,9.026],[-79.3526,9.026],[-79.3515,9.0246],[-79.3479,9.0229],[-79.2901,9.024],[-79.2885,9.0257],[-79.2857,9.0246],[-79.2726,9.0224],[-79.2671,9.0224],[-79.2668,9.0193],[-79.2624,9.019],[-79.2615,9.0174],[-79.2593,9.0157],[-79.2549,9.016],[-79.2543,9.0182],[-79.2474,9.0171],[-79.2468,9.0185],[-79.244,9.0185],[-79.2193,9.0152],[-79.2049,9.014],[-79.2038,9.0124],[-79.2015,9.0129],[-79.2007,9.0121],[-79.1974,9.0115],[-79.1937,9.0121],[-79.1929,9.0104],[-79.1907,9.0107],[-79.1896,9.0096],[-79.189,9.011],[-79.1918,9.0135],[-79.1851,9.0132],[-79.1846,9.0121],[-79.1818,9.0124],[-79.1779,9.0112],[-79.1768,9.0135],[-79.1776,9.0143],[-79.1774,9.0151],[-79.1729,9.0157],[-79.1726,9.0176],[-79.1738,9.019],[-79.1751,9.026],[-79.1751,9.0274],[-79.1743,9.0274],[-79.1726,9.0201],[-79.1699,9.019],[-79.1674,9.0168],[-79.1687,9.0154],[-79.1704,9.0163],[-79.1704,9.0149],[-79.1687,9.0129],[-79.1582,9.0118],[-79.1645,9.0147],[-79.1672,9.0186],[-79.1673,9.0206],[-79.1655,9.0215],[-79.1617,9.0214],[-79.1592,9.0201],[-79.1576,9.0212],[-79.153,9.0308],[-79.1541,9.0416],[-79.1514,9.0425],[-79.1396,9.0393],[-79.1394,9.0353],[-79.1432,9.0341],[-79.1441,9.0325],[-79.1432,9.029],[-79.1419,9.0279],[-79.1405,9.0279],[-79.1373,9.0302],[-79.1338,9.0346],[-79.1348,9.038],[-79.1367,9.0401],[-79.1368,9.0435],[-79.136,9.0452],[-79.1294,9.0499],[-79.1283,9.0518],[-79.129,9.0545],[-79.1352,9.0582],[-79.1365,9.06],[-79.1366,9.0648],[-79.139,9.0729],[-79.1435,9.081],[-79.1474,9.0946],[-79.1469,9.0978],[-79.1483,9.1007],[-79.1514,9.1037],[-79.1561,9.1066],[-79.161,9.1081],[-79.1646,9.1079],[-79.1717,9.1038],[-79.1752,9.1034],[-79.1938,9.1089],[-79.1979,9.1117],[-79.2025,9.1176],[-79.2095,9.123],[-79.2138,9.1244],[-79.2291,9.1264],[-79.2406,9.1347],[-79.2436,9.1383],[-79.2472,9.1536],[-79.2517,9.1615],[-79.2527,9.165],[-79.2529,9.1749],[-79.2499,9.1821],[-79.246,9.1882],[-79.2482,9.1899],[-79.2521,9.1885],[-79.2524,9.187],[-79.2545,9.1859],[-79.2546,9.1838],[-79.2619,9.1771],[-79.2609,9.1666],[-79.2637,9.1608],[-79.2665,9.157],[-79.2686,9.1497],[-79.2694,9.1457],[-79.268,9.1386],[-79.2687,9.1357],[-79.2717,9.1327],[-79.2825,9.1257],[-79.2853,9.1182],[-79.2868,9.1177],[-79.2888,9.1187],[-79.2908,9.1228],[-79.2893,9.1314],[-79.2923,9.1375],[-79.296,9.1402],[-79.2982,9.1444],[-79.299,9.1477],[-79.299,9.1554],[-79.3021,9.1603],[-79.3026,9.1625],[-79.3009,9.1758],[-79.2984,9.179],[-79.2943,9.1808],[-79.292,9.1831],[-79.2892,9.1883],[-79.2896,9.1921],[-79.292,9.1964],[-79.2996,9.2008],[-79.3004,9.2026],[-79.2983,9.2078],[-79.2936,9.2133],[-79.2919,9.221],[-79.2952,9.2261],[-79.3016,9.2304],[-79.3039,9.2354],[-79.3097,9.2423],[-79.3119,9.2471],[-79.3184,9.2497],[-79.3245,9.2544],[-79.3258,9.2809]]],[[[-79.1865,9.0099],[-79.1896,9.0087],[-79.1899,9.0076],[-79.1849,9.0087],[-79.1865,9.0099]]]]}},{"type":"Feature","id":"pa120411","properties":{"name":"Parque Lefevre","province":"Panamá","department":"Panamá","type":"Corregimiento","country":"Panamá","iso":"PA"},"geometry":{"type":"Polygon","coordinates":[[[-79.5061,9.0047],[-79.4972,9.0054],[-79.494,9.0026],[-79.4921,9.0043],[-79.4899,9.0043],[-79.4857,9.0037],[-79.4851,9.0021],[-79.4807,9.0049],[-79.4807,9.0063],[-79.4796,9.0068],[-79.4765,9.0065],[-79.4743,9.0082],[-79.4713,9.0082],[-79.4699,9.009],[-79.4656,9.0087],[-79.4614,9.0177],[-79.4616,9.0202],[-79.4623,9.022],[-79.4693,9.027],[-79.4759,9.0275],[-79.4795,9.0265],[-79.4889,9.0177],[-79.4951,9.0151],[-79.5061,9.0047]]]}},{"type":"Feature","id":"pa120412","properties":{"name":"Pedregal","province":"Panamá","department":"Panamá","type":"Corregimiento","country":"Panamá","iso":"PA"},"geometry":{"type":"Polygon","coordinates":[[[-79.4134,9.0708],[-79.4136,9.0771],[-79.4098,9.0911],[-79.4101,9.1013],[-79.4117,9.1064],[-79.4164,9.1108],[-79.422,9.1129],[-79.4249,9.1149],[-79.4343,9.1248],[-79.4362,9.1291],[-79.4408,9.132],[-79.4445,9.136],[-79.4487,9.1386],[-79.4537,9.1388],[-79.4562,9.1289],[-79.4596,9.1215],[-79.46,9.1185],[-79.4596,9.1139],[-79.4569,9.1069],[-79.4574,9.1007],[-79.4558,9.0961],[-79.4485,9.0873],[-79.4406,9.0826],[-79.4376,9.0753],[-79.4332,9.0722],[-79.4293,9.0595],[-79.4205,9.0629],[-79.4134,9.0708]]]}},{"type":"Feature","id":"pa120413","properties":{"name":"Pueblo Nuevo","province":"Panamá","department":"Panamá","type":"Corregimiento","country":"Panamá","iso":"PA"},"geometry":{"type":"Polygon","coordinates":[[[-79.5058,9.0264],[-79.5174,9.0212],[-79.5215,9.0122],[-79.5203,8.9993],[-79.5277,8.9853],[-79.5265,8.9797],[-79.5112,8.9934],[-79.5142,8.9989],[-79.5154,9.0064],[-79.5131,9.0088],[-79.5118,9.0122],[-79.5117,9.0196],[-79.4972,9.0231],[-79.5017,9.024],[-79.5023,9.0286],[-79.5058,9.0264]]]}},{"type":"Feature","id":"pa120414","properties":{"name":"Río Abajo","province":"Panamá","department":"Panamá","type":"Corregimiento","country":"Panamá","iso":"PA"},"geometry":{"type":"Polygon","coordinates":[[[-79.5061,9.0047],[-79.4951,9.0151],[-79.4913,9.0166],[-79.4952,9.0228],[-79.4972,9.0231],[-79.5117,9.0196],[-79.5118,9.0122],[-79.5131,9.0088],[-79.5154,9.0064],[-79.5142,8.9989],[-79.5061,9.0047]]]}},{"type":"Feature","id":"pa120415","properties":{"name":"San Felipe","province":"Panamá","department":"Panamá","type":"Corregimiento","country":"Panamá","iso":"PA"},"geometry":{"type":"Polygon","coordinates":[[[-79.5336,8.9549],[-79.5335,8.9501],[-79.5318,8.949],[-79.5318,8.9524],[-79.5307,8.9532],[-79.5336,8.9549]]]}},{"type":"Feature","id":"pa120416","properties":{"name":"San Francisco","province":"Panamá","department":"Panamá","type":"Corregimiento","country":"Panamá","iso":"PA"},"geometry":{"type":"Polygon","coordinates":[[[-79.5193,8.9751],[-79.5182,8.9746],[-79.5179,8.9696],[-79.5168,8.969],[-79.5118,8.9738],[-79.5079,8.974],[-79.506,8.9754],[-79.506,8.9762],[-79.5088,8.9768],[-79.509,8.9779],[-79.5079,8.9804],[-79.5065,8.9804],[-79.504,8.9832],[-79.5013,8.9843],[-79.4985,8.9876],[-79.4976,8.9876],[-79.491,8.9968],[-79.4943,8.9985],[-79.4946,9.0021],[-79.494,9.0026],[-79.4972,9.0054],[-79.5061,9.0047],[-79.5142,8.9989],[-79.5112,8.9934],[-79.5087,8.991],[-79.5082,8.9875],[-79.5108,8.9838],[-79.5109,8.9823],[-79.5193,8.9751]]]}},{"type":"Feature","id":"pa120417","properties":{"name":"San Martín","province":"Panamá","department":"Panamá","type":"Corregimiento","country":"Panamá","iso":"PA"},"geometry":{"type":"Polygon","coordinates":[[[-79.1759,9.2378],[-79.1951,9.2563],[-79.2158,9.264],[-79.2183,9.2645],[-79.2201,9.2639],[-79.225,9.2576],[-79.2274,9.256],[-79.2383,9.2568],[-79.2437,9.2586],[-79.2516,9.2641],[-79.2815,9.2734],[-79.2869,9.2786],[-79.2915,9.2867],[-79.2938,9.2935],[-79.2943,9.3028],[-79.3002,9.2955],[-79.3055,9.2903],[-79.3139,9.2876],[-79.3258,9.2809],[-79.3245,9.2544],[-79.3184,9.2497],[-79.3119,9.2471],[-79.3097,9.2423],[-79.3039,9.2354],[-79.3016,9.2304],[-79.2952,9.2261],[-79.2919,9.221],[-79.2936,9.2133],[-79.2983,9.2078],[-79.3004,9.2026],[-79.2996,9.2008],[-79.292,9.1964],[-79.2896,9.1921],[-79.2892,9.1883],[-79.292,9.1831],[-79.2943,9.1808],[-79.2984,9.179],[-79.3009,9.1758],[-79.3026,9.1625],[-79.3021,9.1603],[-79.299,9.1554],[-79.299,9.1477],[-79.2982,9.1444],[-79.296,9.1402],[-79.2923,9.1375],[-79.2893,9.1314],[-79.2908,9.1228],[-79.2888,9.1187],[-79.2868,9.1177],[-79.2853,9.1182],[-79.2825,9.1257],[-79.2717,9.1327],[-79.2687,9.1357],[-79.268,9.1386],[-79.2694,9.1457],[-79.2686,9.1497],[-79.2665,9.157],[-79.2637,9.1608],[-79.2609,9.1666],[-79.2619,9.1771],[-79.2546,9.1838],[-79.2545,9.1859],[-79.2524,9.187],[-79.2521,9.1885],[-79.2482,9.1899],[-79.246,9.1882],[-79.244,9.1899],[-79.2414,9.1996],[-79.2377,9.2053],[-79.2337,9.2088],[-79.2251,9.2116],[-79.2116,9.2208],[-79.2073,9.2274],[-79.2011,9.2312],[-79.1886,9.2368],[-79.1759,9.2378]]]}},{"type":"Feature","id":"pa120418","properties":{"name":"Santa Ana","province":"Panamá","department":"Panamá","type":"Corregimiento","country":"Panamá","iso":"PA"},"geometry":{"type":"Polygon","coordinates":[[[-79.5365,8.9576],[-79.5371,8.9596],[-79.5346,8.9641],[-79.5395,8.9624],[-79.5394,8.9573],[-79.5365,8.9576]]]}},{"type":"Feature","id":"pa120419","properties":{"name":"Tocumen","province":"Panamá","department":"Panamá","type":"Corregimiento","country":"Panamá","iso":"PA"},"geometry":{"type":"Polygon","coordinates":[[[-79.4412,9.1976],[-79.4507,9.2005],[-79.4553,9.1986],[-79.4574,9.1986],[-79.4594,9.2004],[-79.4607,9.2038],[-79.4634,9.2071],[-79.4673,9.2069],[-79.4672,9.2037],[-79.4656,9.201],[-79.4656,9.1959],[-79.4609,9.1902],[-79.4626,9.1845],[-79.4624,9.1694],[-79.4614,9.1645],[-79.464,9.1574],[-79.4647,9.1527],[-79.4634,9.1475],[-79.4569,9.1407],[-79.4537,9.1388],[-79.4487,9.1386],[-79.4445,9.136],[-79.4408,9.132],[-79.4362,9.1291],[-79.4343,9.1248],[-79.4249,9.1149],[-79.422,9.1129],[-79.4164,9.1108],[-79.4113,9.1056],[-79.4101,9.1013],[-79.4098,9.0911],[-79.4136,9.0771],[-79.4134,9.0708],[-79.4048,9.0603],[-79.4005,9.0536],[-79.3962,9.0494],[-79.3959,9.0473],[-79.397,9.0429],[-79.397,9.039],[-79.3937,9.0279],[-79.3871,9.0333],[-79.375,9.0349],[-79.3691,9.035],[-79.3575,9.0466],[-79.3525,9.0507],[-79.3503,9.0629],[-79.3465,9.0713],[-79.347,9.0767],[-79.3546,9.0881],[-79.3604,9.0933],[-79.3687,9.1038],[-79.3702,9.1149],[-79.3746,9.1194],[-79.3783,9.1265],[-79.3851,9.13],[-79.4041,9.1429],[-79.4297,9.1535],[-79.4353,9.1587],[-79.4462,9.18],[-79.4461,9.1858],[-79.4412,9.1976]]]}}]}