{"type":"FeatureCollection","features":[{"type":"Feature","id":"bydel-cph-1","properties":{"name":"Indre By","province":"Hovedstaden","department":"Region Hovedstaden","type":"Bydel","country":"Dinamarca","iso":"DK"},"geometry":{"type":"MultiPolygon","coordinates":[[[[12.6115,55.6976],[12.6098,55.6973],[12.6095,55.6978],[12.6098,55.6973],[12.6092,55.6972],[12.6132,55.6962],[12.6127,55.6953],[12.6104,55.6957],[12.6082,55.6973],[12.5997,55.6954],[12.5959,55.6934],[12.5954,55.6945],[12.5935,55.6949],[12.594,55.6957],[12.5928,55.6994],[12.5799,55.6963],[12.5789,55.6978],[12.5739,55.6955],[12.5617,55.6863],[12.5573,55.6817],[12.5552,55.6737],[12.5604,55.6746],[12.5611,55.6735],[12.5645,55.6746],[12.5728,55.6677],[12.5741,55.6678],[12.5781,55.6708],[12.5823,55.6686],[12.5903,55.6676],[12.6004,55.6694],[12.6045,55.6711],[12.6101,55.6738],[12.6118,55.676],[12.6133,55.6766],[12.6129,55.6775],[12.6136,55.679],[12.6149,55.6798],[12.6142,55.6806],[12.6143,55.6823],[12.6166,55.6832],[12.6179,55.6869],[12.6137,55.6871],[12.6135,55.6886],[12.6193,55.6891],[12.6197,55.6884],[12.6202,55.6885],[12.6197,55.6898],[12.6233,55.6904],[12.6252,55.69],[12.6241,55.6904],[12.6254,55.6927],[12.6306,55.6947],[12.6295,55.6974],[12.6196,55.6981],[12.6115,55.6976]]]]}},{"type":"Feature","id":"bydel-cph-2","properties":{"name":"Østerbro","province":"Hovedstaden","department":"Region Hovedstaden","type":"Bydel","country":"Dinamarca","iso":"DK"},"geometry":{"type":"MultiPolygon","coordinates":[[[[12.6159,55.7207],[12.6023,55.7257],[12.602,55.7249],[12.6025,55.7253],[12.6065,55.7238],[12.6061,55.7231],[12.6019,55.7239],[12.6024,55.7247],[12.6012,55.7235],[12.6003,55.7205],[12.6048,55.7196],[12.604,55.7183],[12.5956,55.7197],[12.5901,55.7126],[12.5927,55.7104],[12.5916,55.71],[12.5912,55.7108],[12.5902,55.7107],[12.5904,55.7098],[12.5884,55.7124],[12.5898,55.7147],[12.5869,55.7144],[12.5857,55.7161],[12.5844,55.7158],[12.584,55.717],[12.5908,55.7179],[12.5921,55.7176],[12.5911,55.718],[12.5913,55.7184],[12.5923,55.7178],[12.5927,55.7184],[12.5908,55.7187],[12.5841,55.7173],[12.5835,55.7196],[12.5855,55.7199],[12.5842,55.7199],[12.5831,55.7218],[12.5777,55.7222],[12.578,55.7229],[12.5761,55.7276],[12.5765,55.7289],[12.5682,55.7301],[12.5677,55.7318],[12.5658,55.7327],[12.5661,55.7313],[12.5636,55.7315],[12.5614,55.7239],[12.5616,55.7224],[12.5634,55.7219],[12.5622,55.7207],[12.5645,55.7193],[12.5531,55.7114],[12.5555,55.7095],[12.558,55.7035],[12.5589,55.7032],[12.563,55.7064],[12.5615,55.6964],[12.5694,55.692],[12.5739,55.6955],[12.5789,55.6978],[12.5799,55.6963],[12.5928,55.6994],[12.594,55.6957],[12.5935,55.6949],[12.5951,55.6946],[12.5963,55.6934],[12.6005,55.6956],[12.6014,55.7039],[12.5997,55.7028],[12.5988,55.6956],[12.5976,55.6957],[12.5984,55.6987],[12.5975,55.699],[12.5964,55.6958],[12.595,55.6959],[12.5967,55.7011],[12.5962,55.7013],[12.5978,55.7026],[12.5952,55.7014],[12.5947,55.7028],[12.5977,55.7035],[12.6003,55.7053],[12.5965,55.7038],[12.5994,55.7054],[12.5925,55.7046],[12.592,55.706],[12.599,55.7064],[12.5991,55.7069],[12.6029,55.7065],[12.599,55.7083],[12.5949,55.7091],[12.5955,55.7101],[12.6053,55.7081],[12.6057,55.7075],[12.6033,55.7098],[12.5954,55.7114],[12.5963,55.7126],[12.6104,55.7097],[12.6108,55.7089],[12.6114,55.709],[12.6158,55.7119],[12.6059,55.714],[12.6062,55.7145],[12.6177,55.7122],[12.6398,55.7224],[12.6325,55.7251],[12.6277,55.7251],[12.6208,55.7238],[12.6159,55.7207]]]]}},{"type":"Feature","id":"bydel-cph-5","properties":{"name":"Valby","province":"Hovedstaden","department":"Region Hovedstaden","type":"Bydel","country":"Dinamarca","iso":"DK"},"geometry":{"type":"MultiPolygon","coordinates":[[[[12.5243,55.6667],[12.511,55.6696],[12.4965,55.6689],[12.4954,55.6723],[12.4933,55.6726],[12.4926,55.6776],[12.4913,55.6791],[12.4848,55.6759],[12.4842,55.6738],[12.4819,55.6727],[12.4743,55.6728],[12.4747,55.6722],[12.4786,55.672],[12.4781,55.666],[12.4785,55.664],[12.4773,55.6594],[12.4778,55.657],[12.4817,55.6541],[12.4834,55.6537],[12.4873,55.6513],[12.4905,55.6465],[12.4943,55.6454],[12.4972,55.643],[12.501,55.6414],[12.5027,55.639],[12.5092,55.6344],[12.5223,55.6375],[12.5212,55.6414],[12.5226,55.6421],[12.5224,55.6444],[12.5234,55.6457],[12.5166,55.6521],[12.5205,55.6511],[12.5205,55.6516],[12.5275,55.6519],[12.5244,55.6625],[12.5306,55.6633],[12.5305,55.6639],[12.5282,55.6674],[12.5243,55.6667]]]]}},{"type":"Feature","id":"bydel-cph-4","properties":{"name":"Vesterbro-Kongens Enghave","province":"Hovedstaden","department":"Region Hovedstaden","type":"Bydel","country":"Dinamarca","iso":"DK"},"geometry":{"type":"MultiPolygon","coordinates":[[[[12.5445,55.6404],[12.5415,55.6405],[12.5409,55.6427],[12.5413,55.6431],[12.5455,55.6423],[12.5491,55.6401],[12.5498,55.6405],[12.5487,55.6417],[12.5495,55.6427],[12.549,55.6431],[12.5499,55.643],[12.5526,55.6441],[12.5521,55.6444],[12.5544,55.6455],[12.5559,55.6472],[12.5531,55.6462],[12.5471,55.6484],[12.5466,55.6473],[12.5475,55.647],[12.5449,55.6457],[12.5444,55.6459],[12.5453,55.6467],[12.5433,55.6494],[12.5411,55.6502],[12.5433,55.6499],[12.5452,55.6516],[12.5472,55.6515],[12.5476,55.6509],[12.5462,55.6498],[12.548,55.6507],[12.5469,55.6496],[12.5532,55.6476],[12.5586,55.6517],[12.5584,55.6522],[12.5532,55.6535],[12.5515,55.652],[12.5508,55.6523],[12.5524,55.6537],[12.5489,55.6547],[12.5502,55.6551],[12.5586,55.6531],[12.5631,55.6591],[12.5585,55.6588],[12.5582,55.6593],[12.5598,55.6595],[12.5605,55.6604],[12.5603,55.6599],[12.5611,55.6597],[12.5641,55.6602],[12.5665,55.6633],[12.5641,55.6622],[12.5636,55.6633],[12.5662,55.6637],[12.5654,55.6643],[12.5728,55.6677],[12.5645,55.6746],[12.5611,55.6735],[12.5604,55.6746],[12.5541,55.6735],[12.5499,55.6744],[12.5499,55.6727],[12.5475,55.6731],[12.5394,55.6702],[12.5348,55.6693],[12.5349,55.6688],[12.5282,55.6674],[12.5306,55.6633],[12.5244,55.6625],[12.5275,55.6519],[12.5205,55.6516],[12.5205,55.6511],[12.5166,55.6521],[12.5234,55.6457],[12.5224,55.6444],[12.5226,55.6421],[12.5212,55.6414],[12.5226,55.637],[12.5255,55.6373],[12.5279,55.6365],[12.5324,55.6366],[12.5325,55.6362],[12.5293,55.6362],[12.5312,55.6354],[12.531,55.6319],[12.5332,55.6318],[12.5328,55.6323],[12.5332,55.6326],[12.5367,55.6343],[12.5374,55.634],[12.5369,55.6344],[12.5374,55.6349],[12.5413,55.6361],[12.5408,55.6365],[12.546,55.6393],[12.5467,55.639],[12.5445,55.6404]]]]}},{"type":"Feature","id":"bydel-cph-9","properties":{"name":"Amager Øst","province":"Hovedstaden","department":"Region Hovedstaden","type":"Bydel","country":"Dinamarca","iso":"DK"},"geometry":{"type":"MultiPolygon","coordinates":[[[[12.6309,55.6705],[12.633,55.671],[12.634,55.6702],[12.6367,55.6702],[12.6367,55.6695],[12.6387,55.668],[12.6369,55.6668],[12.6418,55.6671],[12.6432,55.6691],[12.6459,55.6711],[12.6448,55.6719],[12.6466,55.6743],[12.6484,55.6752],[12.6478,55.6759],[12.6482,55.6761],[12.6448,55.6792],[12.6404,55.6791],[12.6395,55.6765],[12.6364,55.677],[12.6346,55.6757],[12.633,55.6757],[12.6349,55.6777],[12.634,55.6792],[12.6347,55.6788],[12.6342,55.6793],[12.6352,55.6795],[12.6355,55.6787],[12.6354,55.6797],[12.6397,55.6804],[12.6392,55.6804],[12.6356,55.685],[12.6273,55.6821],[12.625,55.6805],[12.6304,55.6742],[12.6335,55.672],[12.6326,55.6713],[12.6305,55.6709],[12.6287,55.672],[12.6216,55.6801],[12.6208,55.6796],[12.6202,55.6801],[12.6215,55.6802],[12.6208,55.681],[12.6249,55.6838],[12.6359,55.6878],[12.6329,55.6905],[12.6281,55.6889],[12.6261,55.6898],[12.626,55.6881],[12.6248,55.6887],[12.6179,55.6869],[12.6166,55.6832],[12.6143,55.6823],[12.6142,55.6806],[12.6149,55.6798],[12.6136,55.679],[12.6129,55.6775],[12.6133,55.6766],[12.6118,55.676],[12.6102,55.6739],[12.6006,55.6694],[12.5963,55.6687],[12.6016,55.6632],[12.6087,55.6574],[12.6172,55.6404],[12.6181,55.6406],[12.6194,55.6393],[12.6273,55.6414],[12.626,55.6438],[12.634,55.6451],[12.6343,55.6444],[12.6478,55.6463],[12.6485,55.6475],[12.6508,55.6477],[12.6487,55.6488],[12.648,55.652],[12.6498,55.6542],[12.6521,55.6546],[12.6499,55.6548],[12.6434,55.6592],[12.6388,55.6643],[12.6396,55.6655],[12.637,55.6628],[12.6354,55.6626],[12.6349,55.6648],[12.635,55.6643],[12.6327,55.6637],[12.6323,55.6647],[12.6306,55.6645],[12.6344,55.6653],[12.6348,55.6649],[12.6317,55.6685],[12.6315,55.6694],[12.6322,55.6696],[12.6309,55.6705]]]]}},{"type":"Feature","id":"bydel-cph-7","properties":{"name":"Brønshøj-Husum","province":"Hovedstaden","department":"Region Hovedstaden","type":"Bydel","country":"Dinamarca","iso":"DK"},"geometry":{"type":"MultiPolygon","coordinates":[[[[12.4689,55.6998],[12.4774,55.6978],[12.4903,55.6986],[12.4902,55.6974],[12.5029,55.6982],[12.5052,55.6966],[12.5058,55.6968],[12.512,55.702],[12.5143,55.7065],[12.5159,55.7066],[12.5117,55.7084],[12.5127,55.7099],[12.5121,55.7118],[12.5158,55.7141],[12.5166,55.7171],[12.513,55.7177],[12.513,55.7198],[12.5083,55.7203],[12.5044,55.7199],[12.5,55.7207],[12.4941,55.723],[12.4923,55.7227],[12.4887,55.7245],[12.4843,55.7248],[12.4775,55.7221],[12.4771,55.721],[12.4729,55.7189],[12.4662,55.7189],[12.4633,55.7176],[12.4587,55.7168],[12.4579,55.7145],[12.453,55.7122],[12.4537,55.7071],[12.4566,55.7045],[12.4636,55.703],[12.4643,55.7022],[12.4642,55.7009],[12.4689,55.6998]]]]}},{"type":"Feature","id":"bydel-cph-3","properties":{"name":"Nørrebro","province":"Hovedstaden","department":"Region Hovedstaden","type":"Bydel","country":"Dinamarca","iso":"DK"},"geometry":{"type":"MultiPolygon","coordinates":[[[[12.5616,55.6967],[12.563,55.7064],[12.5589,55.7032],[12.558,55.7035],[12.5555,55.7095],[12.5531,55.7114],[12.5445,55.7084],[12.5416,55.7066],[12.5392,55.7041],[12.536,55.6975],[12.5385,55.6977],[12.5384,55.697],[12.5361,55.6959],[12.5348,55.6944],[12.5357,55.6938],[12.5355,55.6924],[12.5373,55.6902],[12.5418,55.6874],[12.5468,55.6853],[12.5544,55.6845],[12.5552,55.6838],[12.5537,55.6816],[12.5573,55.6817],[12.5626,55.6871],[12.5694,55.692],[12.5616,55.6967]]]]}},{"type":"Feature","id":"bydel-cph-8","properties":{"name":"Bispebjerg","province":"Hovedstaden","department":"Region Hovedstaden","type":"Bydel","country":"Dinamarca","iso":"DK"},"geometry":{"type":"MultiPolygon","coordinates":[[[[12.5159,55.7066],[12.5178,55.7037],[12.5223,55.6995],[12.5276,55.6956],[12.5297,55.6958],[12.5306,55.6967],[12.5323,55.6967],[12.5321,55.6971],[12.5361,55.6976],[12.5392,55.7041],[12.5417,55.7067],[12.5445,55.7084],[12.5531,55.7114],[12.5645,55.7193],[12.5622,55.7207],[12.5634,55.7219],[12.5614,55.7227],[12.5544,55.7229],[12.554,55.7234],[12.5453,55.7242],[12.5419,55.7237],[12.5408,55.7243],[12.5395,55.7261],[12.5354,55.7271],[12.5256,55.7268],[12.5237,55.7276],[12.5196,55.7276],[12.5179,55.7263],[12.5153,55.7229],[12.5146,55.7229],[12.5145,55.7216],[12.513,55.7198],[12.513,55.7177],[12.5166,55.7171],[12.5158,55.7141],[12.5121,55.7118],[12.5127,55.7099],[12.5117,55.7084],[12.5159,55.7066]]]]}},{"type":"Feature","id":"bydel-cph-6","properties":{"name":"Vanløse","province":"Hovedstaden","department":"Region Hovedstaden","type":"Bydel","country":"Dinamarca","iso":"DK"},"geometry":{"type":"MultiPolygon","coordinates":[[[[12.4689,55.6998],[12.4638,55.7008],[12.4641,55.6991],[12.4635,55.6964],[12.4664,55.6934],[12.4672,55.6915],[12.4664,55.6915],[12.466,55.6902],[12.4678,55.6824],[12.4694,55.6813],[12.4704,55.6788],[12.472,55.6776],[12.473,55.6745],[12.4743,55.6728],[12.4819,55.6727],[12.4842,55.6738],[12.4848,55.6759],[12.4915,55.6792],[12.493,55.6821],[12.4957,55.6845],[12.4959,55.6841],[12.499,55.6862],[12.504,55.6883],[12.5175,55.6908],[12.5224,55.6942],[12.5276,55.6956],[12.5194,55.702],[12.5159,55.7066],[12.5143,55.7065],[12.512,55.702],[12.5068,55.6974],[12.5052,55.6966],[12.5029,55.6982],[12.4902,55.6974],[12.4903,55.6986],[12.4778,55.6978],[12.4689,55.6998]]]]}},{"type":"Feature","id":"bydel-cph-10","properties":{"name":"Amager Vest","province":"Hovedstaden","department":"Region Hovedstaden","type":"Bydel","country":"Dinamarca","iso":"DK"},"geometry":{"type":"MultiPolygon","coordinates":[[[[12.5827,55.6685],[12.5796,55.6699],[12.5683,55.6613],[12.5542,55.6437],[12.5542,55.6424],[12.5526,55.6427],[12.5519,55.6422],[12.554,55.6414],[12.5515,55.6415],[12.5521,55.6409],[12.5517,55.64],[12.5348,55.6309],[12.5137,55.6142],[12.5111,55.6141],[12.5111,55.615],[12.5063,55.6152],[12.5047,55.6141],[12.5056,55.6141],[12.5061,55.613],[12.5135,55.6138],[12.513,55.6134],[12.5162,55.6135],[12.5161,55.6129],[12.5163,55.6134],[12.5235,55.6155],[12.5675,55.6153],[12.5718,55.6158],[12.592,55.6229],[12.5934,55.6337],[12.5923,55.638],[12.5991,55.6379],[12.6172,55.6404],[12.6087,55.6574],[12.6016,55.6632],[12.5963,55.6687],[12.5903,55.6676],[12.5827,55.6685]]]]}}]}