{"type":"FeatureCollection","features":[{"type":"Feature","id":"district-dublin-1","properties":{"name":"Donaghmede, Sutton and Howth","province":"Dublin","department":"County Dublin","type":"District","country":"Irlanda","iso":"IE"},"geometry":{"type":"MultiPolygon","coordinates":[[[[-6.0453,53.3833],[-6.045,53.3824],[-6.0455,53.3822],[-6.0446,53.3822],[-6.044,53.3806],[-6.0455,53.379],[-6.0439,53.3789],[-6.0453,53.3768],[-6.0443,53.3766],[-6.0452,53.3765],[-6.0461,53.3737],[-6.0486,53.3723],[-6.0496,53.3711],[-6.0495,53.3702],[-6.0518,53.369],[-6.0545,53.3662],[-6.054,53.365],[-6.0528,53.365],[-6.0545,53.364],[-6.0524,53.3637],[-6.052,53.3626],[-6.0525,53.3624],[-6.052,53.362],[-6.0529,53.3619],[-6.0516,53.3613],[-6.0537,53.3616],[-6.0574,53.364],[-6.0597,53.364],[-6.0613,53.3631],[-6.0648,53.3644],[-6.0694,53.3643],[-6.0767,53.3602],[-6.078,53.3609],[-6.0818,53.361],[-6.0828,53.3623],[-6.085,53.3626],[-6.0911,53.3675],[-6.0966,53.3692],[-6.0986,53.3708],[-6.099,53.3728],[-6.1022,53.3754],[-6.1035,53.3779],[-6.1034,53.3801],[-6.1014,53.3834],[-6.1015,53.3849],[-6.1056,53.3871],[-6.1163,53.3887],[-6.121,53.3887],[-6.1307,53.3875],[-6.1427,53.3848],[-6.1512,53.3885],[-6.1498,53.3919],[-6.154,53.3916],[-6.1574,53.3902],[-6.1606,53.3908],[-6.1784,53.3914],[-6.1783,53.3929],[-6.1791,53.3932],[-6.179,53.3938],[-6.1803,53.3938],[-6.1804,53.3929],[-6.1843,53.3926],[-6.1842,53.3911],[-6.1912,53.3904],[-6.1923,53.3909],[-6.1934,53.3903],[-6.1954,53.3913],[-6.1893,53.3943],[-6.1846,53.3994],[-6.1797,53.4026],[-6.1782,53.4043],[-6.1775,53.4063],[-6.1781,53.4089],[-6.1716,53.4092],[-6.1674,53.4109],[-6.1641,53.4111],[-6.1433,53.409],[-6.1378,53.409],[-6.1365,53.4096],[-6.1353,53.4072],[-6.1334,53.4065],[-6.1315,53.4043],[-6.1305,53.4018],[-6.127,53.3994],[-6.125,53.3963],[-6.1222,53.3943],[-6.1169,53.3922],[-6.113,53.3921],[-6.1135,53.3937],[-6.1156,53.396],[-6.1149,53.3965],[-6.111,53.3943],[-6.1022,53.3926],[-6.0953,53.3931],[-6.0853,53.3923],[-6.0805,53.3902],[-6.0757,53.3895],[-6.075,53.3906],[-6.0723,53.3908],[-6.0684,53.3932],[-6.0679,53.3923],[-6.0688,53.3926],[-6.0712,53.3899],[-6.0702,53.3888],[-6.0689,53.3889],[-6.0697,53.3907],[-6.0684,53.3917],[-6.068,53.3913],[-6.0691,53.3904],[-6.0663,53.3886],[-6.0639,53.3888],[-6.0635,53.3901],[-6.0647,53.391],[-6.0667,53.3911],[-6.063,53.3917],[-6.0668,53.3929],[-6.0673,53.3934],[-6.0667,53.3943],[-6.0624,53.3919],[-6.0628,53.389],[-6.0623,53.3866],[-6.0475,53.386],[-6.0472,53.3854],[-6.0451,53.3849],[-6.0455,53.3846],[-6.0448,53.384],[-6.0453,53.3833]]]]}},{"type":"Feature","id":"district-dublin-23","properties":{"name":"Stillorgan, Dún Laoghaire and Dalkey","province":"Dublin","department":"County Dublin","type":"District","country":"Irlanda","iso":"IE"},"geometry":{"type":"MultiPolygon","coordinates":[[[[-6.2324,53.3115],[-6.2308,53.3117],[-6.2327,53.3131],[-6.2299,53.3141],[-6.2269,53.3112],[-6.2228,53.3116],[-6.2203,53.311],[-6.218,53.3094],[-6.2161,53.3113],[-6.2143,53.3121],[-6.2136,53.3122],[-6.2136,53.3111],[-6.2121,53.3105],[-6.2069,53.3122],[-6.2037,53.3118],[-6.1993,53.3128],[-6.1931,53.3089],[-6.1792,53.3032],[-6.1715,53.3009],[-6.1706,53.3012],[-6.1641,53.2989],[-6.16,53.2984],[-6.1593,53.2972],[-6.1537,53.2956],[-6.151,53.2955],[-6.1507,53.2966],[-6.1482,53.2978],[-6.147,53.2971],[-6.1397,53.3028],[-6.1349,53.3042],[-6.1313,53.3038],[-6.1309,53.303],[-6.1351,53.3038],[-6.1375,53.3031],[-6.1358,53.3001],[-6.1378,53.303],[-6.1393,53.3025],[-6.1468,53.2963],[-6.1432,53.2962],[-6.1441,53.2974],[-6.1432,53.2969],[-6.1412,53.2979],[-6.1424,53.2988],[-6.1385,53.2966],[-6.1348,53.2963],[-6.1337,53.297],[-6.1345,53.298],[-6.1381,53.2997],[-6.1331,53.2971],[-6.1314,53.2971],[-6.1325,53.2955],[-6.1321,53.2954],[-6.1308,53.2948],[-6.1295,53.2959],[-6.1312,53.294],[-6.1296,53.2932],[-6.1247,53.2979],[-6.1242,53.3002],[-6.1262,53.3022],[-6.1274,53.3024],[-6.1261,53.3026],[-6.1235,53.3004],[-6.1235,53.299],[-6.1292,53.2923],[-6.1283,53.2922],[-6.1282,53.2914],[-6.1274,53.2914],[-6.1238,53.289],[-6.1207,53.2879],[-6.1154,53.2878],[-6.1146,53.2886],[-6.115,53.289],[-6.1137,53.2896],[-6.1133,53.2886],[-6.111,53.2876],[-6.1107,53.2866],[-6.1074,53.2847],[-6.1073,53.2855],[-6.1082,53.2855],[-6.1075,53.2861],[-6.1048,53.2855],[-6.1004,53.2821],[-6.0981,53.2788],[-6.0931,53.2751],[-6.094,53.2751],[-6.093,53.2749],[-6.0911,53.272],[-6.0911,53.2704],[-6.0919,53.2699],[-6.0946,53.2705],[-6.098,53.2687],[-6.0989,53.2689],[-6.1029,53.2674],[-6.1062,53.2657],[-6.1094,53.2619],[-6.1113,53.2589],[-6.1117,53.2567],[-6.1118,53.243],[-6.1123,53.2459],[-6.1139,53.246],[-6.1179,53.243],[-6.1219,53.2425],[-6.1314,53.2436],[-6.1418,53.2511],[-6.1451,53.255],[-6.1465,53.2594],[-6.1487,53.2615],[-6.1671,53.2708],[-6.178,53.2749],[-6.1934,53.2824],[-6.197,53.2802],[-6.1985,53.2776],[-6.1989,53.2754],[-6.2015,53.2732],[-6.2038,53.2739],[-6.2035,53.2759],[-6.2049,53.2777],[-6.2198,53.2824],[-6.2249,53.2831],[-6.2253,53.2847],[-6.2224,53.2854],[-6.2208,53.2871],[-6.2209,53.2887],[-6.2163,53.2889],[-6.2178,53.2913],[-6.217,53.2921],[-6.2176,53.2931],[-6.2196,53.2934],[-6.2206,53.2949],[-6.22,53.2958],[-6.2202,53.2977],[-6.2192,53.2992],[-6.2225,53.3002],[-6.2224,53.3017],[-6.2215,53.3018],[-6.2212,53.3025],[-6.2219,53.3034],[-6.225,53.304],[-6.2246,53.3044],[-6.2318,53.3045],[-6.2355,53.3062],[-6.2351,53.3072],[-6.2356,53.3076],[-6.2345,53.309],[-6.2373,53.3089],[-6.2355,53.3094],[-6.2355,53.3101],[-6.2367,53.3101],[-6.2373,53.3112],[-6.2361,53.3123],[-6.2324,53.3115]]]]}},{"type":"Feature","id":"district-dublin-3","properties":{"name":"City Centre South","province":"Dublin","department":"County Dublin","type":"District","country":"Irlanda","iso":"IE"},"geometry":{"type":"MultiPolygon","coordinates":[[[[-6.2679,53.3457],[-6.2549,53.3478],[-6.2297,53.3459],[-6.2308,53.3431],[-6.2375,53.3435],[-6.2379,53.3406],[-6.2391,53.34],[-6.2392,53.3391],[-6.2386,53.3387],[-6.2453,53.3343],[-6.2528,53.332],[-6.2644,53.3301],[-6.2664,53.3389],[-6.266,53.341],[-6.2648,53.3425],[-6.2674,53.3417],[-6.2701,53.3434],[-6.2682,53.3441],[-6.2679,53.3457]]]]}},{"type":"Feature","id":"district-dublin-7","properties":{"name":"Ballyfermot and Cherry Orchard","province":"Dublin","department":"County Dublin","type":"District","country":"Irlanda","iso":"IE"},"geometry":{"type":"MultiPolygon","coordinates":[[[[-6.386,53.341],[-6.3837,53.3403],[-6.3832,53.339],[-6.3795,53.3393],[-6.38,53.3418],[-6.3835,53.3428],[-6.3802,53.344],[-6.3798,53.3452],[-6.3701,53.3436],[-6.3689,53.3461],[-6.3629,53.3453],[-6.3625,53.3468],[-6.361,53.3469],[-6.3598,53.3527],[-6.3559,53.3504],[-6.3498,53.3489],[-6.3462,53.3451],[-6.34,53.344],[-6.34,53.3421],[-6.3369,53.3439],[-6.3386,53.3444],[-6.3332,53.345],[-6.3262,53.3437],[-6.3254,53.3419],[-6.3246,53.3416],[-6.3539,53.336],[-6.3827,53.3337],[-6.3866,53.3387],[-6.387,53.3412],[-6.386,53.341]]]]}},{"type":"Feature","id":"district-dublin-18","properties":{"name":"North Inner City","province":"Dublin","department":"County Dublin","type":"District","country":"Irlanda","iso":"IE"},"geometry":{"type":"MultiPolygon","coordinates":[[[[-6.1888,53.3436],[-6.2128,53.3445],[-6.252,53.3478],[-6.2567,53.3476],[-6.2679,53.3457],[-6.2701,53.351],[-6.2709,53.3507],[-6.2717,53.352],[-6.2733,53.352],[-6.2726,53.3541],[-6.2685,53.3529],[-6.2598,53.3615],[-6.2493,53.3591],[-6.2436,53.3562],[-6.2405,53.3533],[-6.2401,53.3506],[-6.2396,53.3506],[-6.2267,53.3498],[-6.2248,53.3524],[-6.221,53.3549],[-6.2194,53.3574],[-6.2102,53.3567],[-6.2103,53.3537],[-6.196,53.3532],[-6.1959,53.3504],[-6.1889,53.3505],[-6.1888,53.3436]]]]}},{"type":"Feature","id":"district-dublin-21","properties":{"name":"Blanchardstown, Castleknock and Clonsilla","province":"Dublin","department":"County Dublin","type":"District","country":"Irlanda","iso":"IE"},"geometry":{"type":"MultiPolygon","coordinates":[[[[-6.3416,53.4203],[-6.3457,53.4136],[-6.3448,53.4124],[-6.3458,53.4092],[-6.3443,53.4081],[-6.3431,53.4058],[-6.3406,53.4047],[-6.3337,53.4],[-6.3326,53.3988],[-6.3343,53.3973],[-6.3333,53.3953],[-6.3254,53.3915],[-6.3245,53.39],[-6.321,53.3887],[-6.3198,53.3855],[-6.3219,53.3829],[-6.322,53.3796],[-6.3256,53.3795],[-6.3255,53.3756],[-6.331,53.3756],[-6.3305,53.3735],[-6.3319,53.3732],[-6.3318,53.3721],[-6.3335,53.3709],[-6.337,53.3712],[-6.3491,53.3695],[-6.3563,53.3585],[-6.3511,53.3549],[-6.3524,53.3537],[-6.3622,53.3539],[-6.3618,53.3547],[-6.3592,53.3558],[-6.3592,53.3572],[-6.3611,53.3593],[-6.3681,53.362],[-6.3815,53.3625],[-6.3907,53.3607],[-6.4022,53.3616],[-6.4081,53.3628],[-6.4119,53.3676],[-6.4132,53.3681],[-6.4176,53.3676],[-6.4223,53.3655],[-6.4243,53.3652],[-6.4299,53.3679],[-6.4405,53.369],[-6.4544,53.3719],[-6.4429,53.382],[-6.4353,53.3853],[-6.4449,53.3877],[-6.4517,53.3911],[-6.4497,53.3938],[-6.447,53.3941],[-6.4467,53.3944],[-6.4475,53.3948],[-6.4445,53.3975],[-6.4435,53.3997],[-6.4397,53.4002],[-6.4406,53.4011],[-6.4397,53.4014],[-6.4411,53.4024],[-6.4394,53.4037],[-6.4412,53.4063],[-6.4389,53.4075],[-6.4394,53.4084],[-6.4346,53.4105],[-6.4395,53.4117],[-6.4373,53.4125],[-6.4344,53.4126],[-6.4342,53.4137],[-6.433,53.4147],[-6.4292,53.4143],[-6.4289,53.4149],[-6.4211,53.4169],[-6.4215,53.4232],[-6.4148,53.4222],[-6.4153,53.4216],[-6.4141,53.4212],[-6.414,53.4188],[-6.399,53.4189],[-6.3986,53.4205],[-6.396,53.4212],[-6.3957,53.4237],[-6.3895,53.4312],[-6.3888,53.4349],[-6.3847,53.4344],[-6.384,53.4363],[-6.3759,53.4349],[-6.3731,53.4314],[-6.3755,53.4309],[-6.3718,53.4278],[-6.3626,53.4242],[-6.357,53.4196],[-6.3565,53.4186],[-6.3529,53.4204],[-6.3449,53.421],[-6.3416,53.4203]]]]}},{"type":"Feature","id":"district-dublin-9","properties":{"name":"Drumcondra, Glasnevin, and Santry","province":"Dublin","department":"County Dublin","type":"District","country":"Irlanda","iso":"IE"},"geometry":{"type":"MultiPolygon","coordinates":[[[[-6.2602,53.3617],[-6.2718,53.3643],[-6.2717,53.3658],[-6.2739,53.3683],[-6.2729,53.3695],[-6.2718,53.3698],[-6.2709,53.3714],[-6.2743,53.3712],[-6.2754,53.3718],[-6.275,53.3731],[-6.2779,53.3736],[-6.2772,53.3753],[-6.2706,53.3758],[-6.2691,53.3774],[-6.27,53.3778],[-6.2676,53.3783],[-6.2661,53.3801],[-6.2655,53.3882],[-6.2632,53.3912],[-6.2631,53.4],[-6.2648,53.4043],[-6.2652,53.4084],[-6.2647,53.4088],[-6.2395,53.41],[-6.227,53.4099],[-6.2386,53.3973],[-6.2346,53.3969],[-6.2344,53.3941],[-6.2298,53.393],[-6.2293,53.3934],[-6.2194,53.3918],[-6.2189,53.3913],[-6.22,53.3898],[-6.223,53.3901],[-6.2237,53.3878],[-6.2269,53.3881],[-6.2275,53.387],[-6.2255,53.3864],[-6.2266,53.3854],[-6.2174,53.3841],[-6.2181,53.3825],[-6.2171,53.3821],[-6.2188,53.3804],[-6.2134,53.3786],[-6.2186,53.3764],[-6.2181,53.376],[-6.2224,53.3728],[-6.2263,53.3743],[-6.2279,53.3713],[-6.225,53.37],[-6.2269,53.3685],[-6.2384,53.3722],[-6.2385,53.3716],[-6.242,53.3722],[-6.2444,53.3684],[-6.247,53.3675],[-6.2489,53.3683],[-6.2495,53.3676],[-6.2546,53.369],[-6.2564,53.3647],[-6.2593,53.3614],[-6.2602,53.3617]]]]}},{"type":"Feature","id":"district-dublin-8","properties":{"name":"Balgriffin, Darndale and Priorswood","province":"Dublin","department":"County Dublin","type":"District","country":"Irlanda","iso":"IE"},"geometry":{"type":"MultiPolygon","coordinates":[[[[-6.1954,53.3913],[-6.199,53.3898],[-6.2174,53.3964],[-6.2222,53.3976],[-6.2372,53.3968],[-6.2386,53.3973],[-6.2265,53.4105],[-6.2239,53.4099],[-6.2189,53.4105],[-6.2153,53.4102],[-6.1966,53.4071],[-6.1923,53.4074],[-6.1862,53.4064],[-6.1799,53.4064],[-6.1775,53.407],[-6.1782,53.4043],[-6.1797,53.4026],[-6.1846,53.3994],[-6.1893,53.3943],[-6.1954,53.3913]]]]}},{"type":"Feature","id":"district-dublin-10","properties":{"name":"Artane, Coolock and Raheny","province":"Dublin","department":"County Dublin","type":"District","country":"Irlanda","iso":"IE"},"geometry":{"type":"MultiPolygon","coordinates":[[[[-6.1483,53.3662],[-6.1497,53.3683],[-6.1482,53.3695],[-6.1513,53.3716],[-6.1532,53.3721],[-6.1521,53.3734],[-6.1503,53.3742],[-6.1493,53.3756],[-6.1462,53.3753],[-6.1382,53.3791],[-6.1319,53.3805],[-6.119,53.3815],[-6.1151,53.3831],[-6.1128,53.3829],[-6.117,53.3798],[-6.1371,53.3724],[-6.1483,53.3662]]],[[[-6.1574,53.3902],[-6.154,53.3916],[-6.1498,53.3919],[-6.1512,53.3885],[-6.1427,53.3848],[-6.1591,53.3776],[-6.1623,53.3748],[-6.1622,53.3736],[-6.1608,53.373],[-6.1647,53.3741],[-6.1709,53.377],[-6.1752,53.3744],[-6.1796,53.3753],[-6.1822,53.3749],[-6.1867,53.3754],[-6.1903,53.3765],[-6.1926,53.3758],[-6.1912,53.3751],[-6.1914,53.3722],[-6.1939,53.3723],[-6.1942,53.3696],[-6.1951,53.3696],[-6.1947,53.3727],[-6.1964,53.3728],[-6.1974,53.372],[-6.2014,53.3723],[-6.203,53.3714],[-6.206,53.371],[-6.2125,53.3735],[-6.2133,53.3725],[-6.2147,53.3728],[-6.2154,53.3721],[-6.2216,53.3733],[-6.2181,53.376],[-6.2186,53.3764],[-6.2134,53.3786],[-6.2188,53.3804],[-6.2171,53.3821],[-6.2181,53.3825],[-6.2174,53.3841],[-6.2266,53.3854],[-6.2255,53.3864],[-6.2275,53.387],[-6.2269,53.3881],[-6.2237,53.3878],[-6.223,53.3901],[-6.22,53.3898],[-6.2189,53.3913],[-6.2206,53.3922],[-6.2293,53.3934],[-6.2298,53.393],[-6.2344,53.3941],[-6.2346,53.3969],[-6.2262,53.3977],[-6.2205,53.3973],[-6.199,53.3898],[-6.1954,53.3913],[-6.1934,53.3903],[-6.1923,53.3909],[-6.1912,53.3904],[-6.1842,53.3911],[-6.1843,53.3926],[-6.1804,53.3929],[-6.1803,53.3938],[-6.179,53.3938],[-6.1791,53.3932],[-6.1783,53.3929],[-6.1784,53.3914],[-6.1606,53.3908],[-6.1574,53.3902]]]]}},{"type":"Feature","id":"district-dublin-19","properties":{"name":"Clontarf, East Wall and Fairview","province":"Dublin","department":"County Dublin","type":"District","country":"Irlanda","iso":"IE"},"geometry":{"type":"MultiPolygon","coordinates":[[[[-6.2295,53.359],[-6.2271,53.3592],[-6.2194,53.3574],[-6.221,53.3549],[-6.2248,53.3524],[-6.2267,53.3498],[-6.2396,53.3506],[-6.2401,53.3506],[-6.2405,53.3533],[-6.244,53.3564],[-6.2493,53.3591],[-6.2593,53.3614],[-6.2554,53.3662],[-6.2546,53.369],[-6.2495,53.3676],[-6.2489,53.3683],[-6.247,53.3675],[-6.2444,53.3684],[-6.242,53.3722],[-6.2385,53.3716],[-6.2384,53.3722],[-6.2269,53.3685],[-6.225,53.37],[-6.2279,53.3713],[-6.2263,53.3743],[-6.2224,53.3728],[-6.2216,53.3733],[-6.2154,53.3721],[-6.2147,53.3728],[-6.2133,53.3725],[-6.2125,53.3735],[-6.206,53.371],[-6.203,53.3714],[-6.2014,53.3723],[-6.1974,53.372],[-6.1964,53.3728],[-6.1947,53.3727],[-6.1951,53.3696],[-6.1942,53.3696],[-6.1939,53.3723],[-6.1914,53.3722],[-6.1912,53.3751],[-6.1926,53.3758],[-6.1903,53.3765],[-6.1867,53.3754],[-6.1822,53.3749],[-6.1796,53.3753],[-6.1752,53.3744],[-6.1709,53.377],[-6.1627,53.3734],[-6.1513,53.3716],[-6.1482,53.3695],[-6.1497,53.3683],[-6.1483,53.3662],[-6.1582,53.3589],[-6.1646,53.353],[-6.162,53.3507],[-6.1819,53.3604],[-6.1915,53.3575],[-6.2028,53.3597],[-6.2122,53.3601],[-6.2204,53.3626],[-6.2242,53.3606],[-6.2295,53.359]]]]}},{"type":"Feature","id":"district-dublin-20","properties":{"name":"Cabra, Phibsborough and Smithfield","province":"Dublin","department":"County Dublin","type":"District","country":"Irlanda","iso":"IE"},"geometry":{"type":"MultiPolygon","coordinates":[[[[-6.3255,53.3756],[-6.3139,53.3754],[-6.2913,53.3713],[-6.2796,53.3665],[-6.2598,53.3615],[-6.2685,53.3529],[-6.2706,53.3537],[-6.2729,53.3538],[-6.2733,53.352],[-6.2717,53.352],[-6.2709,53.3507],[-6.2701,53.351],[-6.2679,53.3457],[-6.2725,53.3452],[-6.292,53.3473],[-6.2916,53.3478],[-6.2853,53.3479],[-6.2949,53.3484],[-6.2994,53.3539],[-6.3046,53.3587],[-6.3104,53.3617],[-6.3188,53.3649],[-6.3231,53.3658],[-6.3284,53.3693],[-6.3335,53.3709],[-6.3318,53.3721],[-6.3319,53.3732],[-6.3305,53.3735],[-6.331,53.3756],[-6.3255,53.3756]]]]}},{"type":"Feature","id":"district-dublin-5","properties":{"name":"The Liberties, Inchicore and Phoenix Park","province":"Dublin","department":"County Dublin","type":"District","country":"Irlanda","iso":"IE"},"geometry":{"type":"MultiPolygon","coordinates":[[[[-6.2644,53.3301],[-6.2772,53.3298],[-6.2908,53.3316],[-6.2971,53.3333],[-6.3062,53.3369],[-6.3464,53.3322],[-6.3463,53.3343],[-6.3474,53.3373],[-6.3246,53.3416],[-6.3254,53.3419],[-6.3263,53.3442],[-6.3283,53.3463],[-6.3382,53.3469],[-6.3563,53.3585],[-6.3491,53.3695],[-6.337,53.3712],[-6.3335,53.3709],[-6.3284,53.3693],[-6.3231,53.3658],[-6.3188,53.3649],[-6.3104,53.3617],[-6.3046,53.3587],[-6.2994,53.3539],[-6.2949,53.3484],[-6.2853,53.3479],[-6.2916,53.3478],[-6.292,53.3473],[-6.2807,53.3464],[-6.276,53.3455],[-6.2679,53.3457],[-6.2682,53.3441],[-6.2701,53.3434],[-6.2674,53.3417],[-6.2648,53.3425],[-6.266,53.341],[-6.2664,53.3389],[-6.2644,53.3301]]]]}},{"type":"Feature","id":"district-dublin-12","properties":{"name":"Crumlin, Drimnagh and Walkinstown","province":"Dublin","department":"County Dublin","type":"District","country":"Irlanda","iso":"IE"},"geometry":{"type":"MultiPolygon","coordinates":[[[[-6.3666,53.3164],[-6.3599,53.3175],[-6.3633,53.3201],[-6.3692,53.3209],[-6.3715,53.3223],[-6.3827,53.3337],[-6.3545,53.3359],[-6.3474,53.3373],[-6.3463,53.3343],[-6.3464,53.3322],[-6.3062,53.3369],[-6.293,53.3321],[-6.2757,53.3294],[-6.2801,53.3235],[-6.287,53.32],[-6.2911,53.3194],[-6.3001,53.3119],[-6.3062,53.3102],[-6.3075,53.31],[-6.3084,53.3108],[-6.314,53.3092],[-6.313,53.3076],[-6.3177,53.3066],[-6.3183,53.3055],[-6.3208,53.3064],[-6.3223,53.3042],[-6.3271,53.3037],[-6.3291,53.3044],[-6.3432,53.3052],[-6.3422,53.3067],[-6.3463,53.3083],[-6.3499,53.3047],[-6.3592,53.3087],[-6.3666,53.3164]]]]}},{"type":"Feature","id":"district-dublin-11","properties":{"name":"Chapelizod and Palmerstown","province":"Dublin","department":"County Dublin","type":"District","country":"Irlanda","iso":"IE"},"geometry":{"type":"MultiPolygon","coordinates":[[[[-6.3262,53.3437],[-6.3346,53.3449],[-6.3386,53.3444],[-6.3369,53.3439],[-6.34,53.3421],[-6.34,53.344],[-6.3462,53.3451],[-6.3498,53.3489],[-6.3559,53.3504],[-6.3598,53.3527],[-6.361,53.3469],[-6.3625,53.3468],[-6.3629,53.3453],[-6.3689,53.3461],[-6.3701,53.3436],[-6.3798,53.3452],[-6.3802,53.344],[-6.3827,53.3429],[-6.3868,53.3437],[-6.3823,53.3624],[-6.3806,53.3625],[-6.3717,53.3624],[-6.3664,53.3617],[-6.3611,53.3593],[-6.3592,53.3572],[-6.3592,53.3558],[-6.3618,53.3547],[-6.3622,53.3539],[-6.3537,53.3534],[-6.3524,53.3537],[-6.3511,53.3549],[-6.3382,53.3469],[-6.3283,53.3463],[-6.3262,53.3437]]]]}},{"type":"Feature","id":"district-dublin-2","properties":{"name":"Clondalkin, Rowlagh and Liffey Valley","province":"Dublin","department":"County Dublin","type":"District","country":"Irlanda","iso":"IE"},"geometry":{"type":"MultiPolygon","coordinates":[[[[-6.386,53.341],[-6.387,53.3408],[-6.3858,53.3373],[-6.3715,53.3223],[-6.3692,53.3209],[-6.3633,53.3201],[-6.3599,53.3175],[-6.3666,53.3164],[-6.3672,53.3171],[-6.3704,53.3177],[-6.3895,53.3131],[-6.397,53.312],[-6.4004,53.3107],[-6.4078,53.3064],[-6.4196,53.3018],[-6.4241,53.3053],[-6.4256,53.3078],[-6.4252,53.3113],[-6.4257,53.3136],[-6.4312,53.3216],[-6.4328,53.3277],[-6.4321,53.3304],[-6.4066,53.3294],[-6.4083,53.338],[-6.4201,53.3377],[-6.42,53.3396],[-6.4145,53.3413],[-6.412,53.3457],[-6.4115,53.3475],[-6.4148,53.3483],[-6.4087,53.3539],[-6.4043,53.3531],[-6.4022,53.3558],[-6.3837,53.3558],[-6.3868,53.3437],[-6.38,53.3418],[-6.3795,53.3393],[-6.3832,53.339],[-6.3837,53.3403],[-6.386,53.341]]]]}},{"type":"Feature","id":"district-dublin-22","properties":{"name":"Tallaght, Firhouse and Jobstown","province":"Dublin","department":"County Dublin","type":"District","country":"Irlanda","iso":"IE"},"geometry":{"type":"MultiPolygon","coordinates":[[[[-6.3278,53.2666],[-6.3288,53.2679],[-6.3314,53.2691],[-6.3402,53.2687],[-6.3421,53.2693],[-6.341,53.2698],[-6.3428,53.2701],[-6.345,53.2691],[-6.3478,53.2697],[-6.3492,53.2694],[-6.349,53.2687],[-6.3523,53.2681],[-6.3531,53.2691],[-6.3552,53.2685],[-6.3588,53.2686],[-6.3594,53.2675],[-6.3737,53.2654],[-6.3759,53.268],[-6.3799,53.2706],[-6.3796,53.2725],[-6.3914,53.2729],[-6.4005,53.2744],[-6.4011,53.2717],[-6.4031,53.2721],[-6.404,53.2711],[-6.403,53.2709],[-6.4031,53.2694],[-6.4017,53.2693],[-6.4015,53.2674],[-6.4062,53.2665],[-6.4064,53.2673],[-6.4054,53.2677],[-6.4061,53.268],[-6.4061,53.2706],[-6.4067,53.271],[-6.4064,53.2717],[-6.4083,53.2725],[-6.406,53.2739],[-6.4163,53.2749],[-6.4191,53.279],[-6.4193,53.2826],[-6.4189,53.2864],[-6.4181,53.2881],[-6.4055,53.2911],[-6.4114,53.2947],[-6.4154,53.3009],[-6.4196,53.3018],[-6.4078,53.3064],[-6.3983,53.3116],[-6.3895,53.3131],[-6.3704,53.3177],[-6.3672,53.3171],[-6.3592,53.3087],[-6.3411,53.3013],[-6.3368,53.2986],[-6.334,53.2959],[-6.3289,53.2873],[-6.3314,53.2865],[-6.3302,53.2839],[-6.3316,53.2791],[-6.331,53.2741],[-6.3263,53.2698],[-6.3278,53.2666]]]]}},{"type":"Feature","id":"district-dublin-16","properties":{"name":"Harold's Cross, Templeogue and Terenure","province":"Dublin","department":"County Dublin","type":"District","country":"Irlanda","iso":"IE"},"geometry":{"type":"MultiPolygon","coordinates":[[[[-6.3038,53.2971],[-6.3055,53.2963],[-6.3058,53.2949],[-6.3076,53.2957],[-6.3102,53.2958],[-6.3103,53.2936],[-6.3116,53.2922],[-6.3156,53.2936],[-6.3255,53.2895],[-6.3297,53.2886],[-6.334,53.2959],[-6.3368,53.2986],[-6.3411,53.3013],[-6.3499,53.3047],[-6.3463,53.3083],[-6.3422,53.3067],[-6.3432,53.3052],[-6.3291,53.3044],[-6.3271,53.3037],[-6.3221,53.3042],[-6.3208,53.3064],[-6.3183,53.3055],[-6.3177,53.3066],[-6.313,53.3076],[-6.314,53.3092],[-6.3084,53.3108],[-6.3075,53.31],[-6.3062,53.3102],[-6.3001,53.3119],[-6.2911,53.3194],[-6.287,53.32],[-6.2801,53.3235],[-6.279,53.3231],[-6.2794,53.3222],[-6.2788,53.3194],[-6.2838,53.3131],[-6.2853,53.3085],[-6.2844,53.3083],[-6.2834,53.3051],[-6.2866,53.3042],[-6.2865,53.3015],[-6.2915,53.2988],[-6.2965,53.2989],[-6.2976,53.2974],[-6.2997,53.2966],[-6.3021,53.2963],[-6.3038,53.2971]]]]}},{"type":"Feature","id":"district-dublin-14","properties":{"name":"Ranelagh, Rathmines and Rathgar","province":"Dublin","department":"County Dublin","type":"District","country":"Irlanda","iso":"IE"},"geometry":{"type":"MultiPolygon","coordinates":[[[[-6.2783,53.305],[-6.2834,53.3051],[-6.2853,53.3094],[-6.2833,53.3139],[-6.2788,53.3194],[-6.2794,53.3222],[-6.279,53.3231],[-6.2801,53.3235],[-6.2758,53.3297],[-6.2617,53.3302],[-6.2528,53.332],[-6.2517,53.3301],[-6.2469,53.3285],[-6.2478,53.3266],[-6.2501,53.3251],[-6.2475,53.3236],[-6.2469,53.3228],[-6.2476,53.3222],[-6.2427,53.3195],[-6.2415,53.3182],[-6.237,53.3161],[-6.2373,53.3142],[-6.2381,53.3136],[-6.2416,53.3136],[-6.244,53.3125],[-6.2459,53.3125],[-6.2494,53.3082],[-6.2556,53.3078],[-6.2588,53.3084],[-6.2601,53.3061],[-6.2656,53.3067],[-6.267,53.3057],[-6.2676,53.3043],[-6.2689,53.3037],[-6.2741,53.3049],[-6.2783,53.305]]]]}},{"type":"Feature","id":"district-dublin-4","properties":{"name":"Donnybrook, Irishtown and Sandymount","province":"Dublin","department":"County Dublin","type":"District","country":"Irlanda","iso":"IE"},"geometry":{"type":"MultiPolygon","coordinates":[[[[-6.2042,53.3167],[-6.2037,53.3157],[-6.1993,53.3128],[-6.2037,53.3118],[-6.2069,53.3122],[-6.2121,53.3105],[-6.2136,53.3111],[-6.2136,53.3122],[-6.2143,53.3121],[-6.2161,53.3113],[-6.218,53.3094],[-6.2203,53.311],[-6.2228,53.3116],[-6.2269,53.3112],[-6.2299,53.3141],[-6.2327,53.3131],[-6.2308,53.3117],[-6.2324,53.3115],[-6.2325,53.3122],[-6.2345,53.3128],[-6.2343,53.3133],[-6.2373,53.3142],[-6.2377,53.3146],[-6.2369,53.3159],[-6.2375,53.3165],[-6.2415,53.3182],[-6.2427,53.3195],[-6.2475,53.3221],[-6.2469,53.3228],[-6.2475,53.3236],[-6.2501,53.3251],[-6.2478,53.3266],[-6.2469,53.3285],[-6.2517,53.3301],[-6.2528,53.332],[-6.2453,53.3343],[-6.2388,53.3385],[-6.2391,53.34],[-6.2379,53.3406],[-6.2375,53.3435],[-6.2308,53.3431],[-6.2297,53.3459],[-6.2128,53.3445],[-6.1888,53.3436],[-6.1867,53.342],[-6.1866,53.3408],[-6.1597,53.3411],[-6.1512,53.3422],[-6.1597,53.341],[-6.1781,53.3404],[-6.179,53.3408],[-6.1798,53.3405],[-6.1797,53.3391],[-6.1822,53.339],[-6.1827,53.3375],[-6.1933,53.3371],[-6.1947,53.335],[-6.2098,53.337],[-6.2131,53.3343],[-6.2106,53.3327],[-6.2065,53.3254],[-6.2057,53.3235],[-6.2055,53.3195],[-6.2042,53.3167]]]]}},{"type":"Feature","id":"district-dublin-17","properties":{"name":"Churchtown, Clonskeagh and Dundrum","province":"Dublin","department":"County Dublin","type":"District","country":"Irlanda","iso":"IE"},"geometry":{"type":"MultiPolygon","coordinates":[[[[-6.2471,53.3113],[-6.2459,53.3125],[-6.244,53.3125],[-6.2416,53.3136],[-6.2385,53.3135],[-6.2373,53.3142],[-6.2343,53.3133],[-6.2345,53.3128],[-6.2325,53.3122],[-6.2324,53.3115],[-6.2361,53.3123],[-6.2373,53.3112],[-6.2367,53.3101],[-6.2355,53.3101],[-6.2355,53.3094],[-6.2373,53.3089],[-6.2345,53.309],[-6.2356,53.3076],[-6.2351,53.3072],[-6.2355,53.3062],[-6.2318,53.3045],[-6.2246,53.3044],[-6.225,53.304],[-6.2219,53.3034],[-6.2212,53.3025],[-6.2215,53.3018],[-6.2224,53.3017],[-6.2225,53.3002],[-6.2192,53.2992],[-6.2202,53.2977],[-6.22,53.2958],[-6.2206,53.2949],[-6.2196,53.2934],[-6.2176,53.2931],[-6.217,53.2921],[-6.2178,53.2913],[-6.2163,53.2889],[-6.2209,53.2887],[-6.2208,53.2871],[-6.2224,53.2854],[-6.2253,53.2847],[-6.2249,53.2831],[-6.2319,53.2842],[-6.2375,53.286],[-6.2387,53.2855],[-6.2417,53.2879],[-6.2442,53.2883],[-6.2447,53.289],[-6.2528,53.2877],[-6.2735,53.2873],[-6.2824,53.2858],[-6.2833,53.2869],[-6.2868,53.2857],[-6.2898,53.2858],[-6.2907,53.2869],[-6.2924,53.287],[-6.294,53.2863],[-6.2991,53.2884],[-6.2988,53.2889],[-6.3036,53.2898],[-6.3068,53.2911],[-6.3082,53.2939],[-6.3098,53.2941],[-6.31,53.2959],[-6.3058,53.2949],[-6.3055,53.2963],[-6.3042,53.297],[-6.3006,53.2964],[-6.2979,53.2972],[-6.2965,53.2989],[-6.2911,53.2989],[-6.2865,53.3015],[-6.2867,53.3039],[-6.2851,53.3048],[-6.2747,53.3049],[-6.2689,53.3037],[-6.2676,53.3043],[-6.267,53.3057],[-6.2656,53.3067],[-6.2601,53.3061],[-6.2588,53.3084],[-6.2556,53.3078],[-6.2491,53.3083],[-6.2471,53.3113]]]]}},{"type":"Feature","id":"district-dublin-15","properties":{"name":"Ballinteer, Ballyboden and Knocklyon","province":"Dublin","department":"County Dublin","type":"District","country":"Irlanda","iso":"IE"},"geometry":{"type":"MultiPolygon","coordinates":[[[[-6.31,53.2959],[-6.3098,53.2941],[-6.3082,53.2939],[-6.3068,53.2911],[-6.3036,53.2898],[-6.2988,53.2889],[-6.2991,53.2884],[-6.294,53.2863],[-6.2924,53.287],[-6.2907,53.2869],[-6.2898,53.2858],[-6.2868,53.2857],[-6.2833,53.2869],[-6.2824,53.2858],[-6.2735,53.2873],[-6.2528,53.2877],[-6.2447,53.289],[-6.2442,53.2883],[-6.2417,53.2879],[-6.2387,53.2855],[-6.2375,53.286],[-6.2319,53.2842],[-6.2249,53.2831],[-6.2233,53.2792],[-6.2196,53.2735],[-6.2195,53.2722],[-6.2197,53.2718],[-6.2384,53.2717],[-6.2465,53.2697],[-6.2482,53.2688],[-6.2467,53.2656],[-6.2541,53.2553],[-6.256,53.2538],[-6.2592,53.2545],[-6.2652,53.2571],[-6.2917,53.2594],[-6.3112,53.2565],[-6.315,53.2575],[-6.3202,53.2605],[-6.322,53.2608],[-6.3232,53.2646],[-6.3278,53.2666],[-6.3262,53.2692],[-6.331,53.2741],[-6.3316,53.2791],[-6.3302,53.2839],[-6.3314,53.2865],[-6.3289,53.2873],[-6.3297,53.2886],[-6.3255,53.2895],[-6.3162,53.2934],[-6.3147,53.2936],[-6.3116,53.2922],[-6.3106,53.2929],[-6.3106,53.295],[-6.31,53.2959]]]]}},{"type":"Feature","id":"district-dublin-13","properties":{"name":"Foxrock, Stepaside and Cabinteely","province":"Dublin","department":"County Dublin","type":"District","country":"Irlanda","iso":"IE"},"geometry":{"type":"MultiPolygon","coordinates":[[[[-6.2249,53.2831],[-6.2198,53.2824],[-6.2049,53.2777],[-6.2035,53.2759],[-6.2038,53.2739],[-6.2015,53.2732],[-6.1989,53.2754],[-6.1985,53.2776],[-6.197,53.2802],[-6.1934,53.2824],[-6.178,53.2749],[-6.1671,53.2708],[-6.1487,53.2615],[-6.1465,53.2594],[-6.1451,53.255],[-6.1418,53.2511],[-6.1314,53.2436],[-6.1219,53.2425],[-6.1179,53.243],[-6.1139,53.246],[-6.1123,53.2459],[-6.1106,53.2365],[-6.1078,53.2264],[-6.1236,53.2227],[-6.1295,53.2238],[-6.1307,53.2284],[-6.1321,53.2299],[-6.131,53.2351],[-6.1337,53.2357],[-6.14,53.2388],[-6.1423,53.2392],[-6.1443,53.239],[-6.1591,53.2302],[-6.1848,53.2293],[-6.1877,53.2283],[-6.2015,53.2283],[-6.205,53.2277],[-6.2052,53.2218],[-6.2097,53.2217],[-6.2193,53.2199],[-6.2553,53.2226],[-6.255,53.2303],[-6.2345,53.2377],[-6.2259,53.2496],[-6.2359,53.2512],[-6.2508,53.2523],[-6.256,53.2538],[-6.2541,53.2553],[-6.2467,53.2656],[-6.2482,53.2688],[-6.2465,53.2697],[-6.2384,53.2717],[-6.2197,53.2718],[-6.2195,53.2732],[-6.2233,53.2792],[-6.2249,53.2831]]]]}},{"type":"Feature","id":"district-dublin-6","properties":{"name":"Ballymun and Finglas","province":"Dublin","department":"County Dublin","type":"District","country":"Irlanda","iso":"IE"},"geometry":{"type":"MultiPolygon","coordinates":[[[[-6.3334,53.3958],[-6.3042,53.406],[-6.2942,53.4075],[-6.2779,53.4084],[-6.2647,53.4088],[-6.2653,53.4074],[-6.2648,53.4043],[-6.263,53.3987],[-6.2632,53.3912],[-6.2655,53.3882],[-6.2661,53.3801],[-6.2676,53.3783],[-6.27,53.3778],[-6.2691,53.3774],[-6.2706,53.3758],[-6.2772,53.3753],[-6.2779,53.3736],[-6.275,53.3731],[-6.2754,53.3718],[-6.2743,53.3712],[-6.2709,53.3714],[-6.2718,53.3698],[-6.2729,53.3695],[-6.2739,53.3683],[-6.2717,53.3658],[-6.2718,53.3643],[-6.2825,53.3675],[-6.2913,53.3713],[-6.3139,53.3754],[-6.3255,53.3756],[-6.3256,53.3795],[-6.322,53.3796],[-6.3219,53.3829],[-6.32,53.385],[-6.32,53.3871],[-6.321,53.3887],[-6.3245,53.39],[-6.3257,53.3912],[-6.3254,53.3915],[-6.3334,53.3958]]]]}}]}