{"type":"FeatureCollection","features":[{"type":"Feature","id":"70781695b29923564052107","properties":{"name":"Nacka","province":"Stockholm","department":"Stockholms län","type":"Kommun","country":"Suecia","iso":"SE"},"geometry":{"type":"MultiPolygon","coordinates":[[[[18.2699,59.2556],[18.2659,59.2561],[18.2579,59.2596],[18.2542,59.2628],[18.2561,59.2659],[18.2708,59.2658],[18.2835,59.2648],[18.3299,59.2574],[18.3412,59.2605],[18.3416,59.2619],[18.3383,59.2644],[18.3363,59.2675],[18.3243,59.2701],[18.3021,59.2724],[18.2985,59.274],[18.2954,59.2774],[18.2908,59.2837],[18.2905,59.2866],[18.2861,59.2904],[18.2715,59.2939],[18.2652,59.2925],[18.2428,59.293],[18.2238,59.2921],[18.2118,59.2926],[18.2087,59.2966],[18.204,59.2993],[18.2064,59.3024],[18.2071,59.3063],[18.2066,59.309],[18.2042,59.3117],[18.2029,59.317],[18.2029,59.3265],[18.2022,59.3281],[18.1927,59.3282],[18.1813,59.3254],[18.1791,59.3235],[18.168,59.3218],[18.141,59.3148],[18.1287,59.3141],[18.1245,59.3129],[18.1152,59.3123],[18.1072,59.314],[18.1002,59.3145],[18.0991,59.3041],[18.1013,59.3029],[18.1126,59.3012],[18.1171,59.2995],[18.1182,59.2846],[18.1226,59.2829],[18.1458,59.27],[18.1493,59.2661],[18.1557,59.2614],[18.1587,59.2574],[18.1656,59.2539],[18.1711,59.2498],[18.1751,59.2492],[18.1903,59.2442],[18.1924,59.246],[18.2333,59.2564],[18.2441,59.2535],[18.251,59.2531],[18.2575,59.2547],[18.2699,59.2556]]],[[[18.36,59.3547],[18.3423,59.3571],[18.3256,59.3557],[18.3119,59.3565],[18.3071,59.3578],[18.3008,59.3583],[18.2893,59.3573],[18.2688,59.3572],[18.2655,59.3565],[18.2616,59.3519],[18.2496,59.3484],[18.2484,59.347],[18.2263,59.3412],[18.2236,59.3388],[18.2206,59.3133],[18.2218,59.3102],[18.2215,59.3076],[18.2224,59.3058],[18.2281,59.3017],[18.2332,59.3022],[18.2388,59.3008],[18.2502,59.3003],[18.2582,59.299],[18.2818,59.3049],[18.2919,59.3096],[18.2958,59.3131],[18.2985,59.3183],[18.3023,59.3312],[18.3047,59.3323],[18.3122,59.3324],[18.3202,59.3315],[18.3292,59.3301],[18.3393,59.3274],[18.3445,59.3274],[18.3524,59.3393],[18.3575,59.3445],[18.358,59.3528],[18.36,59.3547]]]]}},{"type":"Feature","id":"70781695b5805413017960","properties":{"name":"Stockholm","province":"Stockholm","department":"Stockholms län","type":"Kommun","country":"Suecia","iso":"SE"},"geometry":{"type":"MultiPolygon","coordinates":[[[[18.1903,59.2442],[18.1751,59.2492],[18.1711,59.2498],[18.1656,59.2539],[18.1587,59.2574],[18.1557,59.2614],[18.1493,59.2661],[18.1458,59.27],[18.1226,59.2829],[18.1182,59.2846],[18.1171,59.2995],[18.1126,59.3012],[18.1013,59.3029],[18.0991,59.3041],[18.1002,59.3145],[18.0954,59.3145],[18.0937,59.3155],[18.0775,59.317],[18.0628,59.3206],[18.0515,59.3206],[18.0468,59.3195],[18.0364,59.3191],[18.0126,59.3157],[18.0095,59.3146],[17.9874,59.315],[17.984,59.3135],[17.9827,59.3115],[17.9549,59.3088],[17.9136,59.3014],[17.9106,59.3003],[17.9083,59.2981],[17.9083,59.2959],[17.9063,59.2934],[17.903,59.2926],[17.8946,59.2925],[17.8799,59.2903],[17.8737,59.2855],[17.8691,59.2769],[17.877,59.2712],[17.8959,59.2713],[17.908,59.2774],[17.9247,59.2817],[17.9368,59.282],[17.9438,59.281],[17.9504,59.2763],[17.9592,59.272],[17.9681,59.2646],[18.0035,59.2594],[18.0137,59.2567],[18.0254,59.2529],[18.0324,59.2489],[18.0459,59.2467],[18.0687,59.2403],[18.0842,59.2344],[18.0984,59.2336],[18.1046,59.234],[18.119,59.2392],[18.1457,59.2387],[18.1565,59.2362],[18.1683,59.2307],[18.1816,59.2313],[18.1858,59.2329],[18.1927,59.2369],[18.1929,59.2422],[18.1903,59.2442]]],[[[18.0623,59.3289],[18.0622,59.3229],[18.0593,59.3218],[18.0632,59.3211],[18.0675,59.3223],[18.0725,59.3256],[18.0718,59.3267],[18.0663,59.3295],[18.0623,59.3289]]],[[[17.9481,59.3843],[17.955,59.3876],[17.9591,59.3908],[17.9672,59.3921],[17.9711,59.3937],[17.9627,59.402],[17.9609,59.4052],[17.9588,59.407],[17.932,59.4123],[17.9275,59.4143],[17.9183,59.4201],[17.9147,59.4255],[17.9093,59.4302],[17.9052,59.4322],[17.8992,59.4334],[17.8929,59.4336],[17.8879,59.4324],[17.881,59.429],[17.8813,59.4263],[17.884,59.4243],[17.8837,59.4163],[17.8816,59.4134],[17.8804,59.4101],[17.8694,59.401],[17.867,59.3969],[17.859,59.3943],[17.8458,59.3871],[17.8372,59.3839],[17.833,59.3835],[17.8267,59.3858],[17.8262,59.3874],[17.8223,59.3906],[17.8217,59.3928],[17.8187,59.3956],[17.8139,59.3975],[17.8095,59.3978],[17.7975,59.3944],[17.7858,59.3882],[17.8294,59.3644],[17.8473,59.3558],[17.8536,59.3531],[17.87,59.3487],[17.8816,59.3444],[17.8879,59.3413],[17.8935,59.3362],[17.9046,59.3295],[17.9108,59.3279],[17.9195,59.3277],[17.9284,59.3259],[17.935,59.3201],[17.9412,59.3175],[17.9612,59.3177],[17.969,59.3203],[17.9743,59.3248],[17.9764,59.3285],[17.9767,59.3317],[17.9797,59.3409],[17.9851,59.3447],[17.9893,59.3431],[18.0065,59.3321],[18.0188,59.3292],[18.0259,59.3285],[18.0471,59.3285],[18.065,59.3305],[18.0832,59.33],[18.0862,59.3309],[18.1017,59.3228],[18.1115,59.32],[18.1234,59.3192],[18.13,59.3209],[18.1336,59.3233],[18.1348,59.3273],[18.1336,59.3315],[18.1309,59.3349],[18.1201,59.3419],[18.0951,59.3527],[18.0856,59.358],[18.0799,59.3631],[18.0577,59.3754],[18.054,59.3762],[18.0494,59.3755],[18.0389,59.3711],[18.0364,59.3691],[18.0374,59.3587],[18.0317,59.352],[18.0174,59.3502],[18.0149,59.3483],[18.0057,59.3444],[18.0,59.3439],[17.9859,59.3446],[17.9854,59.346],[17.963,59.3574],[17.9606,59.3609],[17.9538,59.3659],[17.9466,59.3675],[17.9412,59.3675],[17.929,59.3695],[17.9251,59.371],[17.9254,59.3776],[17.9269,59.3812],[17.9481,59.3843]]]]}},{"type":"Feature","id":"70781695b98440364310876","properties":{"name":"Huddinge","province":"Stockholm","department":"Stockholms län","type":"Kommun","country":"Suecia","iso":"SE"},"geometry":{"type":"Polygon","coordinates":[[[18.1785,59.209],[18.1733,59.2222],[18.1708,59.2253],[18.1699,59.2289],[18.1683,59.2307],[18.1565,59.2362],[18.1457,59.2387],[18.119,59.2392],[18.1046,59.234],[18.0984,59.2336],[18.0842,59.2344],[18.0687,59.2403],[18.0459,59.2467],[18.0324,59.2489],[18.0254,59.2529],[18.0137,59.2567],[18.0035,59.2594],[17.9681,59.2646],[17.9592,59.272],[17.9504,59.2763],[17.9438,59.281],[17.9368,59.282],[17.9247,59.2817],[17.908,59.2774],[17.8959,59.2713],[17.877,59.2712],[17.8776,59.267],[17.8767,59.2527],[17.8797,59.2431],[17.901,59.2336],[17.9201,59.2298],[17.9233,59.2267],[17.9247,59.2193],[17.9257,59.2072],[17.9313,59.2031],[17.9364,59.1971],[17.9415,59.1931],[17.9555,59.1902],[17.9615,59.1897],[17.9629,59.1874],[17.9643,59.179],[17.9662,59.1754],[17.9657,59.1711],[17.9685,59.168],[17.9808,59.1574],[17.9876,59.1568],[17.9909,59.1553],[17.9996,59.1536],[18.0129,59.1465],[18.0366,59.1436],[18.0555,59.1494],[18.0675,59.1509],[18.0824,59.1514],[18.0879,59.1529],[18.0916,59.1547],[18.0942,59.157],[18.0941,59.1593],[18.0918,59.1601],[18.0923,59.1617],[18.1064,59.1695],[18.1067,59.1711],[18.0998,59.1775],[18.0983,59.1806],[18.0981,59.1826],[18.1023,59.1867],[18.1105,59.1885],[18.1207,59.1927],[18.1279,59.1939],[18.1785,59.209]]]}},{"type":"Feature","id":"70781695b67027071836241","properties":{"name":"Botkyrka","province":"Stockholm","department":"Stockholms län","type":"Kommun","country":"Suecia","iso":"SE"},"geometry":{"type":"Polygon","coordinates":[[[17.6928,59.1398],[17.6959,59.127],[17.701,59.1145],[17.6997,59.1079],[17.6912,59.0953],[17.6912,59.0707],[17.6935,59.0644],[17.6963,59.0627],[17.707,59.0606],[17.7345,59.0661],[17.737,59.0678],[17.7399,59.0746],[17.7399,59.0805],[17.7365,59.0849],[17.7352,59.0911],[17.7327,59.098],[17.7336,59.0996],[17.7387,59.1045],[17.7698,59.1159],[17.7727,59.1169],[17.7742,59.1153],[17.7732,59.1056],[17.7773,59.0937],[17.8085,59.097],[17.8474,59.0898],[17.8644,59.088],[17.8805,59.0902],[17.8998,59.104],[17.8962,59.1067],[17.8969,59.1139],[17.9033,59.1194],[17.9233,59.1238],[17.9182,59.1342],[17.9184,59.1354],[17.9214,59.1371],[17.9377,59.1428],[17.9441,59.1443],[17.9505,59.1476],[17.9535,59.1478],[17.9611,59.1517],[17.9664,59.1524],[17.974,59.156],[17.9808,59.1574],[17.9657,59.1711],[17.9662,59.1754],[17.9643,59.179],[17.9629,59.1874],[17.9615,59.1897],[17.9555,59.1902],[17.9415,59.1931],[17.9364,59.1971],[17.9313,59.2031],[17.9257,59.2072],[17.9247,59.2193],[17.9233,59.2267],[17.9201,59.2298],[17.901,59.2336],[17.8797,59.2431],[17.8745,59.2405],[17.87,59.2367],[17.8671,59.2365],[17.8651,59.2381],[17.8653,59.241],[17.8636,59.2437],[17.8551,59.2542],[17.8432,59.259],[17.8355,59.261],[17.7832,59.2591],[17.7736,59.2593],[17.7611,59.2621],[17.7532,59.2624],[17.7444,59.2606],[17.7371,59.257],[17.7322,59.2556],[17.7316,59.2536],[17.7337,59.2508],[17.7546,59.2398],[17.7585,59.2371],[17.7594,59.2298],[17.7585,59.2168],[17.7597,59.2145],[17.7653,59.2084],[17.7823,59.1912],[17.7823,59.1896],[17.7764,59.1867],[17.7343,59.1763],[17.7303,59.1769],[17.7323,59.1572],[17.7222,59.1522],[17.6928,59.1398]]]}},{"type":"Feature","id":"70781695b91357499899745","properties":{"name":"Sundbyberg","province":"Stockholm","department":"Stockholms län","type":"Kommun","country":"Suecia","iso":"SE"},"geometry":{"type":"Polygon","coordinates":[[[17.9658,59.3558],[17.9819,59.3698],[17.9846,59.3743],[17.9841,59.377],[17.9789,59.3825],[17.9747,59.3886],[17.9709,59.3913],[17.9708,59.3936],[17.9672,59.3921],[17.9591,59.3908],[17.955,59.3876],[17.9481,59.3843],[17.9269,59.3812],[17.9254,59.3776],[17.9251,59.371],[17.929,59.3695],[17.9412,59.3675],[17.9466,59.3675],[17.9538,59.3659],[17.9559,59.365],[17.9576,59.3627],[17.9606,59.3609],[17.963,59.3574],[17.9658,59.3558]]]}},{"type":"Feature","id":"70781695b78362616734409","properties":{"name":"Solna","province":"Stockholm","department":"Stockholms län","type":"Kommun","country":"Suecia","iso":"SE"},"geometry":{"type":"Polygon","coordinates":[[[18.054,59.3762],[18.0513,59.3786],[18.0465,59.3809],[18.0238,59.3877],[18.0191,59.3902],[17.9956,59.3983],[17.9903,59.398],[17.9746,59.3926],[17.9708,59.3936],[17.9709,59.3913],[17.9747,59.3886],[17.9789,59.3825],[17.9841,59.377],[17.9846,59.3743],[17.9819,59.3698],[17.9658,59.3558],[17.9854,59.346],[17.9859,59.3446],[18.0,59.3439],[18.0057,59.3444],[18.0149,59.3483],[18.0174,59.3502],[18.0317,59.352],[18.0374,59.3587],[18.0364,59.3691],[18.0389,59.3711],[18.0494,59.3755],[18.054,59.3762]]]}},{"type":"Feature","id":"70781695b54178975412741","properties":{"name":"Sollentuna","province":"Stockholm","department":"Stockholms län","type":"Kommun","country":"Suecia","iso":"SE"},"geometry":{"type":"Polygon","coordinates":[[[17.9708,59.3936],[17.9746,59.3926],[17.9903,59.398],[17.9946,59.3983],[17.9941,59.4092],[17.9958,59.4137],[17.9985,59.416],[17.9983,59.4188],[18.0053,59.4251],[18.016,59.4322],[18.0175,59.4353],[18.0177,59.4415],[18.0076,59.4536],[18.0032,59.4567],[17.9999,59.4625],[17.9963,59.4649],[17.9951,59.4675],[17.9869,59.4671],[17.9824,59.4684],[17.9755,59.4692],[17.9588,59.4749],[17.9627,59.4787],[17.9642,59.4819],[17.9556,59.4914],[17.9496,59.4936],[17.9344,59.4961],[17.9245,59.5016],[17.9129,59.498],[17.901,59.4927],[17.8882,59.493],[17.881,59.4945],[17.8745,59.4939],[17.87,59.4883],[17.8697,59.4858],[17.8664,59.4842],[17.8271,59.4767],[17.8227,59.4724],[17.8195,59.4713],[17.8179,59.4691],[17.835,59.4656],[17.8378,59.4618],[17.8387,59.4586],[17.8427,59.4563],[17.8494,59.4543],[17.86,59.4527],[17.8636,59.4508],[17.8688,59.4458],[17.8681,59.4369],[17.8696,59.4355],[17.8708,59.4295],[17.8811,59.4283],[17.881,59.429],[17.884,59.431],[17.8929,59.4336],[17.8992,59.4334],[17.9052,59.4322],[17.9093,59.4302],[17.9129,59.4274],[17.9183,59.4201],[17.9275,59.4143],[17.932,59.4123],[17.9588,59.407],[17.9708,59.3936]]]}},{"type":"Feature","id":"70781695b44466819558577","properties":{"name":"Täby","province":"Stockholm","department":"Stockholms län","type":"Kommun","country":"Suecia","iso":"SE"},"geometry":{"type":"Polygon","coordinates":[[[18.0257,59.516],[17.9907,59.4984],[17.9934,59.4934],[17.9961,59.491],[17.9997,59.484],[17.9994,59.4766],[17.9964,59.4725],[17.9951,59.4675],[17.9956,59.466],[17.9999,59.4625],[18.0032,59.4567],[18.0076,59.4536],[18.0178,59.4406],[18.0334,59.443],[18.041,59.4468],[18.0496,59.4427],[18.0536,59.4385],[18.0542,59.4356],[18.053,59.4329],[18.0509,59.4307],[18.05,59.425],[18.0943,59.4179],[18.0996,59.4242],[18.1145,59.4304],[18.1136,59.4321],[18.1094,59.4357],[18.1428,59.4491],[18.1406,59.4508],[18.1395,59.4542],[18.1349,59.458],[18.1347,59.4599],[18.1448,59.466],[18.1471,59.4684],[18.1486,59.4758],[18.1475,59.4802],[18.1483,59.4921],[18.1481,59.494],[18.1462,59.4947],[18.1468,59.4957],[18.1357,59.497],[18.1318,59.4987],[18.1219,59.4992],[18.1133,59.506],[18.1118,59.5093],[18.1091,59.5105],[18.0897,59.5085],[18.056,59.5131],[18.0343,59.5141],[18.0257,59.516]]]}},{"type":"Feature","id":"70781695b902417386827","properties":{"name":"Danderyd","province":"Stockholm","department":"Stockholms län","type":"Kommun","country":"Suecia","iso":"SE"},"geometry":{"type":"Polygon","coordinates":[[[18.0577,59.3754],[18.0668,59.3826],[18.0724,59.3847],[18.0835,59.3909],[18.0879,59.3956],[18.0921,59.4005],[18.0933,59.4164],[18.0943,59.4179],[18.05,59.425],[18.0509,59.4307],[18.053,59.4329],[18.0542,59.4356],[18.0536,59.4385],[18.0496,59.4427],[18.041,59.4468],[18.0334,59.443],[18.0178,59.4406],[18.0175,59.4353],[18.016,59.4322],[18.0053,59.4251],[17.9983,59.4188],[17.9985,59.416],[17.9958,59.4137],[17.9941,59.4092],[17.9946,59.3983],[17.9979,59.3978],[18.0191,59.3902],[18.0238,59.3877],[18.0465,59.3809],[18.0513,59.3786],[18.054,59.3762],[18.0577,59.3754]]]}},{"type":"Feature","id":"70781695b7495287433606","properties":{"name":"Lidingö","province":"Stockholm","department":"Stockholms län","type":"Kommun","country":"Suecia","iso":"SE"},"geometry":{"type":"Polygon","coordinates":[[[18.1432,59.3856],[18.1202,59.39],[18.1074,59.3901],[18.1027,59.3885],[18.1021,59.385],[18.1036,59.3833],[18.103,59.38],[18.1088,59.378],[18.1189,59.3763],[18.1231,59.3687],[18.1229,59.3635],[18.1271,59.3573],[18.1347,59.3495],[18.1397,59.3461],[18.1591,59.3421],[18.1809,59.3414],[18.1878,59.3405],[18.2107,59.3459],[18.2196,59.3501],[18.2215,59.354],[18.2183,59.3603],[18.2187,59.3636],[18.2208,59.3645],[18.2416,59.3652],[18.2441,59.3661],[18.242,59.3711],[18.2401,59.3724],[18.2315,59.3749],[18.2246,59.3747],[18.2128,59.372],[18.2097,59.372],[18.2074,59.3736],[18.203,59.374],[18.1965,59.3743],[18.1931,59.3731],[18.1859,59.3741],[18.1843,59.3756],[18.1794,59.3769],[18.1715,59.3777],[18.1591,59.3817],[18.1563,59.3842],[18.1432,59.3856]]]}}]}