{"type":"FeatureCollection","features":[{"type":"Feature","id":"alue-helsinki-457","properties":{"name":"Itäkeskus","province":"Uusimaa","department":"Uusimaa","type":"Kaupunginosa","country":"Finlandia","iso":"FI"},"geometry":{"type":"Polygon","coordinates":[[[25.0643,60.2077,0.0],[25.0751,60.2086,0.0],[25.0748,60.21,0.0],[25.0787,60.2111,0.0],[25.077,60.2127,0.0],[25.0829,60.2148,0.0],[25.084,60.2137,0.0],[25.0862,60.2144,0.0],[25.0885,60.2116,0.0],[25.0944,60.2087,0.0],[25.091,60.2065,0.0],[25.0812,60.2058,0.0],[25.0726,60.2028,0.0],[25.0643,60.2024,0.0],[25.0643,60.2077,0.0]]]}},{"type":"Feature","id":"alue-helsinki-010","properties":{"name":"Kruununhaka","province":"Uusimaa","department":"Uusimaa","type":"Kaupunginosa","country":"Finlandia","iso":"FI"},"geometry":{"type":"Polygon","coordinates":[[[24.9504,60.1764,0.0],[24.9581,60.1773,0.0],[24.9768,60.175,0.0],[24.9786,60.1699,0.0],[24.9662,60.1706,0.0],[24.9591,60.1693,0.0],[24.9577,60.1681,0.0],[24.9512,60.168,0.0],[24.9504,60.1764,0.0]]]}},{"type":"Feature","id":"alue-helsinki-020","properties":{"name":"Kluuvi","province":"Uusimaa","department":"Uusimaa","type":"Kaupunginosa","country":"Finlandia","iso":"FI"},"geometry":{"type":"Polygon","coordinates":[[[24.9321,60.1789,0.0],[24.935,60.18,0.0],[24.9435,60.1797,0.0],[24.9434,60.1777,0.0],[24.9504,60.1764,0.0],[24.9512,60.168,0.0],[24.9412,60.1677,0.0],[24.934,60.1721,0.0],[24.9334,60.1738,0.0],[24.935,60.1745,0.0],[24.9321,60.1789,0.0]]]}},{"type":"Feature","id":"alue-helsinki-030","properties":{"name":"Kaartinkaupunki","province":"Uusimaa","department":"Uusimaa","type":"Kaupunginosa","country":"Finlandia","iso":"FI"},"geometry":{"type":"Polygon","coordinates":[[[24.9412,60.1677,0.0],[24.9577,60.1681,0.0],[24.958,60.1647,0.0],[24.9545,60.1646,0.0],[24.9529,60.164,0.0],[24.953,60.163,0.0],[24.9458,60.1629,0.0],[24.9426,60.1652,0.0],[24.9434,60.1663,0.0],[24.9412,60.1677,0.0]]]}},{"type":"Feature","id":"alue-helsinki-040","properties":{"name":"Kamppi","province":"Uusimaa","department":"Uusimaa","type":"Kaupunginosa","country":"Finlandia","iso":"FI"},"geometry":{"type":"Polygon","coordinates":[[[24.9206,60.1648,0.0],[24.9209,60.1675,0.0],[24.935,60.1721,0.0],[24.9435,60.1655,0.0],[24.9342,60.1623,0.0],[24.9331,60.1631,0.0],[24.9273,60.1605,0.0],[24.9216,60.1624,0.0],[24.9206,60.1648,0.0]]]}},{"type":"Feature","id":"alue-helsinki-050","properties":{"name":"Punavuori","province":"Uusimaa","department":"Uusimaa","type":"Kaupunginosa","country":"Finlandia","iso":"FI"},"geometry":{"type":"Polygon","coordinates":[[[24.9273,60.1605,0.0],[24.9331,60.1631,0.0],[24.9342,60.1623,0.0],[24.9426,60.1652,0.0],[24.9451,60.1634,0.0],[24.9428,60.1626,0.0],[24.9425,60.1591,0.0],[24.9414,60.158,0.0],[24.9315,60.1573,0.0],[24.9303,60.1598,0.0],[24.9273,60.1605,0.0]]]}},{"type":"Feature","id":"alue-helsinki-060","properties":{"name":"Eira","province":"Uusimaa","department":"Uusimaa","type":"Kaupunginosa","country":"Finlandia","iso":"FI"},"geometry":{"type":"Polygon","coordinates":[[[24.9333,60.1576,0.0],[24.9414,60.158,0.0],[24.9437,60.1532,0.0],[24.9366,60.1532,0.0],[24.936,60.1554,0.0],[24.9333,60.1576,0.0]]]}},{"type":"Feature","id":"alue-helsinki-070","properties":{"name":"Ullanlinna","province":"Uusimaa","department":"Uusimaa","type":"Kaupunginosa","country":"Finlandia","iso":"FI"},"geometry":{"type":"Polygon","coordinates":[[[24.9375,60.1532,0.0],[24.9437,60.1532,0.0],[24.9413,60.1582,0.0],[24.9425,60.1591,0.0],[24.9428,60.1626,0.0],[24.9451,60.1634,0.0],[24.953,60.163,0.0],[24.9529,60.164,0.0],[24.9545,60.1646,0.0],[24.958,60.1647,0.0],[24.9604,60.1637,0.0],[24.9559,60.162,0.0],[24.9547,60.1589,0.0],[24.9501,60.1561,0.0],[24.9506,60.1551,0.0],[24.9563,60.1533,0.0],[24.9534,60.1513,0.0],[24.9524,60.1466,0.0],[24.9386,60.1466,0.0],[24.9366,60.1532,0.0],[24.9375,60.1532,0.0]]]}},{"type":"Feature","id":"alue-helsinki-080","properties":{"name":"Katajanokka","province":"Uusimaa","department":"Uusimaa","type":"Kaupunginosa","country":"Finlandia","iso":"FI"},"geometry":{"type":"Polygon","coordinates":[[[24.9577,60.1681,0.0],[24.9591,60.1693,0.0],[24.9662,60.1706,0.0],[24.9786,60.1699,0.0],[24.9791,60.1686,0.0],[25.0032,60.1686,0.0],[25.0045,60.1626,0.0],[24.9632,60.1626,0.0],[24.958,60.1647,0.0],[24.9577,60.1681,0.0]]]}},{"type":"Feature","id":"alue-helsinki-090","properties":{"name":"Kaivopuisto","province":"Uusimaa","department":"Uusimaa","type":"Kaupunginosa","country":"Finlandia","iso":"FI"},"geometry":{"type":"Polygon","coordinates":[[[24.9501,60.1561,0.0],[24.9547,60.1589,0.0],[24.9559,60.162,0.0],[24.9604,60.1637,0.0],[24.9632,60.1626,0.0],[25.0045,60.1626,0.0],[25.0052,60.159,0.0],[24.9618,60.1516,0.0],[24.9506,60.1551,0.0],[24.9501,60.1561,0.0]]]}},{"type":"Feature","id":"alue-helsinki-111","properties":{"name":"Siltasaari","province":"Uusimaa","department":"Uusimaa","type":"Kaupunginosa","country":"Finlandia","iso":"FI"},"geometry":{"type":"Polygon","coordinates":[[[24.9435,60.1797,0.0],[24.9495,60.1813,0.0],[24.9587,60.1798,0.0],[24.9581,60.1773,0.0],[24.9494,60.1764,0.0],[24.9434,60.1777,0.0],[24.9435,60.1797,0.0]]]}},{"type":"Feature","id":"alue-helsinki-112","properties":{"name":"Linjat","province":"Uusimaa","department":"Uusimaa","type":"Kaupunginosa","country":"Finlandia","iso":"FI"},"geometry":{"type":"Polygon","coordinates":[[[24.9335,60.1832,0.0],[24.936,60.1851,0.0],[24.9516,60.1865,0.0],[24.9518,60.184,0.0],[24.9566,60.1821,0.0],[24.9518,60.1804,0.0],[24.9495,60.1813,0.0],[24.9435,60.1797,0.0],[24.935,60.18,0.0],[24.9335,60.1832,0.0]]]}},{"type":"Feature","id":"alue-helsinki-113","properties":{"name":"Torkkelinmäki","province":"Uusimaa","department":"Uusimaa","type":"Kaupunginosa","country":"Finlandia","iso":"FI"},"geometry":{"type":"Polygon","coordinates":[[[24.9516,60.1865,0.0],[24.9619,60.1874,0.0],[24.9609,60.185,0.0],[24.9565,60.1821,0.0],[24.9518,60.184,0.0],[24.9516,60.1865,0.0]]]}},{"type":"Feature","id":"alue-helsinki-121","properties":{"name":"Harju","province":"Uusimaa","department":"Uusimaa","type":"Kaupunginosa","country":"Finlandia","iso":"FI"},"geometry":{"type":"Polygon","coordinates":[[[24.9401,60.1857,0.0],[24.9493,60.1905,0.0],[24.9537,60.1893,0.0],[24.9642,60.189,0.0],[24.9619,60.1874,0.0],[24.9401,60.1857,0.0]]]}},{"type":"Feature","id":"alue-helsinki-122","properties":{"name":"Alppila","province":"Uusimaa","department":"Uusimaa","type":"Kaupunginosa","country":"Finlandia","iso":"FI"},"geometry":{"type":"Polygon","coordinates":[[[24.9326,60.1928,0.0],[24.9338,60.1929,0.0],[24.9344,60.1953,0.0],[24.9367,60.1958,0.0],[24.9493,60.1905,0.0],[24.9439,60.1871,0.0],[24.9362,60.1852,0.0],[24.9326,60.1928,0.0]]]}},{"type":"Feature","id":"alue-helsinki-130","properties":{"name":"Etu-Töölö","province":"Uusimaa","department":"Uusimaa","type":"Kaupunginosa","country":"Finlandia","iso":"FI"},"geometry":{"type":"Polygon","coordinates":[[[24.8822,60.1721,0.0],[24.899,60.1817,0.0],[24.9121,60.176,0.0],[24.9292,60.1778,0.0],[24.9321,60.1789,0.0],[24.935,60.1745,0.0],[24.9333,60.1733,0.0],[24.9344,60.172,0.0],[24.9216,60.1675,0.0],[24.9209,60.1675,0.0],[24.9206,60.1697,0.0],[24.9079,60.1733,0.0],[24.9045,60.1723,0.0],[24.8952,60.1667,0.0],[24.8822,60.1721,0.0]]]}},{"type":"Feature","id":"alue-helsinki-140","properties":{"name":"Taka-Töölö","province":"Uusimaa","department":"Uusimaa","type":"Kaupunginosa","country":"Finlandia","iso":"FI"},"geometry":{"type":"Polygon","coordinates":[[[24.899,60.1817,0.0],[24.9055,60.1855,0.0],[24.9082,60.1849,0.0],[24.9147,60.1892,0.0],[24.921,60.1898,0.0],[24.9326,60.1928,0.0],[24.9362,60.1852,0.0],[24.9335,60.1832,0.0],[24.935,60.18,0.0],[24.9297,60.178,0.0],[24.9121,60.176,0.0],[24.899,60.1817,0.0]]]}},{"type":"Feature","id":"alue-helsinki-150","properties":{"name":"Meilahti","province":"Uusimaa","department":"Uusimaa","type":"Kaupunginosa","country":"Finlandia","iso":"FI"},"geometry":{"type":"Polygon","coordinates":[[[24.8767,60.1859,0.0],[24.882,60.1915,0.0],[24.8888,60.1958,0.0],[24.8943,60.1938,0.0],[24.8995,60.1974,0.0],[24.9011,60.1975,0.0],[24.9013,60.1951,0.0],[24.9163,60.1896,0.0],[24.912,60.1879,0.0],[24.9082,60.1849,0.0],[24.9055,60.1855,0.0],[24.8822,60.1721,0.0],[24.8688,60.1777,0.0],[24.8767,60.1859,0.0]]]}},{"type":"Feature","id":"alue-helsinki-171","properties":{"name":"Länsi-Pasila","province":"Uusimaa","department":"Uusimaa","type":"Kaupunginosa","country":"Finlandia","iso":"FI"},"geometry":{"type":"Polygon","coordinates":[[[24.9075,60.2086,0.0],[24.9106,60.2128,0.0],[24.9267,60.2044,0.0],[24.9258,60.2029,0.0],[24.9299,60.1943,0.0],[24.9293,60.1922,0.0],[24.9244,60.1911,0.0],[24.9222,60.1934,0.0],[24.9225,60.1944,0.0],[24.9179,60.1966,0.0],[24.917,60.2025,0.0],[24.9161,60.2033,0.0],[24.9168,60.2039,0.0],[24.9158,60.2042,0.0],[24.9164,60.2048,0.0],[24.9075,60.2086,0.0]]]}},{"type":"Feature","id":"alue-helsinki-172","properties":{"name":"Pohjois-Pasila","province":"Uusimaa","department":"Uusimaa","type":"Kaupunginosa","country":"Finlandia","iso":"FI"},"geometry":{"type":"Polygon","coordinates":[[[24.9108,60.2131,0.0],[24.9146,60.2184,0.0],[24.9137,60.2196,0.0],[24.9228,60.2202,0.0],[24.9214,60.2173,0.0],[24.9427,60.2192,0.0],[24.9438,60.2184,0.0],[24.9382,60.2148,0.0],[24.9333,60.2066,0.0],[24.9191,60.2085,0.0],[24.9108,60.2131,0.0]]]}},{"type":"Feature","id":"alue-helsinki-173","properties":{"name":"Itä-Pasila","province":"Uusimaa","department":"Uusimaa","type":"Kaupunginosa","country":"Finlandia","iso":"FI"},"geometry":{"type":"Polygon","coordinates":[[[24.9327,60.2043,0.0],[24.9341,60.2073,0.0],[24.9371,60.2069,0.0],[24.9452,60.2089,0.0],[24.9449,60.2006,0.0],[24.9477,60.1984,0.0],[24.9444,60.1969,0.0],[24.9361,60.1965,0.0],[24.9365,60.1958,0.0],[24.9358,60.1956,0.0],[24.9327,60.2043,0.0]]]}},{"type":"Feature","id":"alue-helsinki-174","properties":{"name":"Keski-Pasila","province":"Uusimaa","department":"Uusimaa","type":"Kaupunginosa","country":"Finlandia","iso":"FI"},"geometry":{"type":"Polygon","coordinates":[[[24.9191,60.2085,0.0],[24.9331,60.2066,0.0],[24.9328,60.2024,0.0],[24.9358,60.1956,0.0],[24.9344,60.1953,0.0],[24.9338,60.1929,0.0],[24.9293,60.1922,0.0],[24.9299,60.1943,0.0],[24.9258,60.2029,0.0],[24.9267,60.2044,0.0],[24.9191,60.2085,0.0]]]}},{"type":"Feature","id":"alue-helsinki-180","properties":{"name":"Laakso","province":"Uusimaa","department":"Uusimaa","type":"Kaupunginosa","country":"Finlandia","iso":"FI"},"geometry":{"type":"Polygon","coordinates":[[[24.9011,60.1975,0.0],[24.9179,60.1966,0.0],[24.9225,60.1944,0.0],[24.9222,60.1934,0.0],[24.9244,60.1911,0.0],[24.921,60.1898,0.0],[24.9163,60.1896,0.0],[24.9013,60.1951,0.0],[24.9011,60.1975,0.0]]]}},{"type":"Feature","id":"alue-helsinki-190","properties":{"name":"Mustikkamaa-Korkeasaari","province":"Uusimaa","department":"Uusimaa","type":"Kaupunginosa","country":"Finlandia","iso":"FI"},"geometry":{"type":"Polygon","coordinates":[[[24.9768,60.175,0.0],[24.9785,60.1788,0.0],[24.9872,60.1861,0.0],[25.0037,60.1808,0.0],[25.002,60.1743,0.0],[25.0032,60.1686,0.0],[24.9791,60.1686,0.0],[24.9768,60.175,0.0]]]}},{"type":"Feature","id":"alue-helsinki-201","properties":{"name":"Ruoholahti","province":"Uusimaa","department":"Uusimaa","type":"Kaupunginosa","country":"Finlandia","iso":"FI"},"geometry":{"type":"Polygon","coordinates":[[[24.8959,60.1672,0.0],[24.9006,60.1699,0.0],[24.9058,60.1672,0.0],[24.9145,60.166,0.0],[24.9147,60.1646,0.0],[24.9206,60.1648,0.0],[24.9209,60.1628,0.0],[24.9225,60.1625,0.0],[24.8972,60.1588,0.0],[24.8972,60.1659,0.0],[24.8952,60.1667,0.0],[24.8959,60.1672,0.0]]]}},{"type":"Feature","id":"alue-helsinki-202","properties":{"name":"Lapinlahti","province":"Uusimaa","department":"Uusimaa","type":"Kaupunginosa","country":"Finlandia","iso":"FI"},"geometry":{"type":"Polygon","coordinates":[[[24.904,60.1719,0.0],[24.9079,60.1733,0.0],[24.9206,60.1697,0.0],[24.9209,60.1651,0.0],[24.9147,60.1646,0.0],[24.9145,60.166,0.0],[24.9058,60.1672,0.0],[24.9006,60.1699,0.0],[24.904,60.1719,0.0]]]}},{"type":"Feature","id":"alue-helsinki-203","properties":{"name":"Jätkäsaari","province":"Uusimaa","department":"Uusimaa","type":"Kaupunginosa","country":"Finlandia","iso":"FI"},"geometry":{"type":"Polygon","coordinates":[[[24.8972,60.1477,0.0],[24.8972,60.1588,0.0],[24.914,60.1617,0.0],[24.9222,60.1621,0.0],[24.925,60.1607,0.0],[24.9249,60.1547,0.0],[24.9166,60.1466,0.0],[24.9166,60.1427,0.0],[24.8972,60.1426,0.0],[24.8972,60.1477,0.0]]]}},{"type":"Feature","id":"alue-helsinki-204","properties":{"name":"Hernesaari","province":"Uusimaa","department":"Uusimaa","type":"Kaupunginosa","country":"Finlandia","iso":"FI"},"geometry":{"type":"Polygon","coordinates":[[[24.9166,60.1466,0.0],[24.9249,60.1547,0.0],[24.925,60.1607,0.0],[24.9273,60.1605,0.0],[24.9303,60.1598,0.0],[24.9315,60.1573,0.0],[24.9333,60.1576,0.0],[24.936,60.1554,0.0],[24.9386,60.1466,0.0],[24.9386,60.1426,0.0],[24.9166,60.1427,0.0],[24.9166,60.1466,0.0]]]}},{"type":"Feature","id":"alue-helsinki-220","properties":{"name":"Vallila","province":"Uusimaa","department":"Uusimaa","type":"Kaupunginosa","country":"Finlandia","iso":"FI"},"geometry":{"type":"Polygon","coordinates":[[[24.9361,60.1965,0.0],[24.9457,60.1973,0.0],[24.9477,60.1984,0.0],[24.9449,60.2007,0.0],[24.9491,60.1997,0.0],[24.9557,60.2013,0.0],[24.9636,60.201,0.0],[24.9623,60.1977,0.0],[24.9649,60.1933,0.0],[24.9648,60.1905,0.0],[24.9642,60.189,0.0],[24.9523,60.1895,0.0],[24.9361,60.1965,0.0]]]}},{"type":"Feature","id":"alue-helsinki-231","properties":{"name":"Toukola","province":"Uusimaa","department":"Uusimaa","type":"Kaupunginosa","country":"Finlandia","iso":"FI"},"geometry":{"type":"Polygon","coordinates":[[[24.964,60.2015,0.0],[24.9677,60.2061,0.0],[24.9692,60.2108,0.0],[24.9709,60.2127,0.0],[24.9754,60.2108,0.0],[24.9764,60.2118,0.0],[24.978,60.2115,0.0],[24.9728,60.2058,0.0],[24.964,60.2015,0.0]]]}},{"type":"Feature","id":"alue-helsinki-232","properties":{"name":"Arabianranta","province":"Uusimaa","department":"Uusimaa","type":"Kaupunginosa","country":"Finlandia","iso":"FI"},"geometry":{"type":"Polygon","coordinates":[[[24.9636,60.201,0.0],[24.9728,60.2058,0.0],[24.9783,60.212,0.0],[24.9838,60.212,0.0],[24.9829,60.2111,0.0],[24.9878,60.2102,0.0],[24.9852,60.2058,0.0],[24.998,60.1983,0.0],[24.9746,60.2012,0.0],[24.9678,60.2003,0.0],[24.9636,60.201,0.0]]]}},{"type":"Feature","id":"alue-helsinki-240","properties":{"name":"Kumpula","province":"Uusimaa","department":"Uusimaa","type":"Kaupunginosa","country":"Finlandia","iso":"FI"},"geometry":{"type":"Polygon","coordinates":[[[24.9448,60.2008,0.0],[24.9455,60.2068,0.0],[24.9473,60.207,0.0],[24.9505,60.2048,0.0],[24.9502,60.2055,0.0],[24.9529,60.2065,0.0],[24.9495,60.2088,0.0],[24.9635,60.2137,0.0],[24.9625,60.2147,0.0],[24.9765,60.217,0.0],[24.9728,60.2147,0.0],[24.9692,60.2108,0.0],[24.9677,60.2061,0.0],[24.9636,60.201,0.0],[24.9557,60.2013,0.0],[24.9491,60.1997,0.0],[24.9448,60.2008,0.0]]]}},{"type":"Feature","id":"alue-helsinki-250","properties":{"name":"Käpylä","province":"Uusimaa","department":"Uusimaa","type":"Kaupunginosa","country":"Finlandia","iso":"FI"},"geometry":{"type":"Polygon","coordinates":[[[24.9337,60.2072,0.0],[24.9382,60.2148,0.0],[24.9438,60.2184,0.0],[24.9427,60.2192,0.0],[24.95,60.2217,0.0],[24.9495,60.2222,0.0],[24.9605,60.2235,0.0],[24.9614,60.2205,0.0],[24.9584,60.2158,0.0],[24.9635,60.2137,0.0],[24.9495,60.2088,0.0],[24.9529,60.2065,0.0],[24.9502,60.2055,0.0],[24.9505,60.2048,0.0],[24.9473,60.207,0.0],[24.9455,60.2068,0.0],[24.9452,60.2089,0.0],[24.9371,60.2069,0.0],[24.9337,60.2072,0.0]]]}},{"type":"Feature","id":"alue-helsinki-260","properties":{"name":"Koskela","province":"Uusimaa","department":"Uusimaa","type":"Kaupunginosa","country":"Finlandia","iso":"FI"},"geometry":{"type":"Polygon","coordinates":[[[24.9586,60.216,0.0],[24.9614,60.2205,0.0],[24.9605,60.2235,0.0],[24.9644,60.224,0.0],[24.9798,60.221,0.0],[24.9792,60.2195,0.0],[24.98,60.217,0.0],[24.9774,60.2175,0.0],[24.9626,60.2147,0.0],[24.9586,60.216,0.0]]]}},{"type":"Feature","id":"alue-helsinki-270","properties":{"name":"Vanhakaupunki","province":"Uusimaa","department":"Uusimaa","type":"Kaupunginosa","country":"Finlandia","iso":"FI"},"geometry":{"type":"Polygon","coordinates":[[[24.9717,60.2135,0.0],[24.9769,60.2173,0.0],[24.9812,60.2176,0.0],[24.9856,60.2154,0.0],[24.9841,60.2136,0.0],[24.9878,60.2102,0.0],[24.9829,60.2111,0.0],[24.9838,60.212,0.0],[24.9764,60.2118,0.0],[24.9754,60.2108,0.0],[24.9726,60.2114,0.0],[24.9709,60.2127,0.0],[24.9717,60.2135,0.0]]]}},{"type":"Feature","id":"alue-helsinki-281","properties":{"name":"Pirkkola","province":"Uusimaa","department":"Uusimaa","type":"Kaupunginosa","country":"Finlandia","iso":"FI"},"geometry":{"type":"Polygon","coordinates":[[[24.9008,60.2353,0.0],[24.9143,60.2386,0.0],[24.9157,60.2345,0.0],[24.9297,60.2359,0.0],[24.9315,60.2341,0.0],[24.9259,60.2339,0.0],[24.9198,60.2307,0.0],[24.907,60.2277,0.0],[24.8994,60.235,0.0],[24.9008,60.2353,0.0]]]}},{"type":"Feature","id":"alue-helsinki-282","properties":{"name":"Maunula","province":"Uusimaa","department":"Uusimaa","type":"Kaupunginosa","country":"Finlandia","iso":"FI"},"geometry":{"type":"Polygon","coordinates":[[[24.9208,60.2311,0.0],[24.9257,60.2338,0.0],[24.9315,60.2341,0.0],[24.9296,60.2359,0.0],[24.9404,60.2366,0.0],[24.9419,60.2354,0.0],[24.9445,60.2357,0.0],[24.9457,60.2369,0.0],[24.9453,60.2377,0.0],[24.9474,60.238,0.0],[24.9429,60.2321,0.0],[24.9427,60.229,0.0],[24.9319,60.2251,0.0],[24.9245,60.2243,0.0],[24.9221,60.2269,0.0],[24.9228,60.2271,0.0],[24.9213,60.2276,0.0],[24.9209,60.2296,0.0],[24.9217,60.23,0.0],[24.9208,60.2311,0.0]]]}},{"type":"Feature","id":"alue-helsinki-283","properties":{"name":"Metsälä","province":"Uusimaa","department":"Uusimaa","type":"Kaupunginosa","country":"Finlandia","iso":"FI"},"geometry":{"type":"Polygon","coordinates":[[[24.9338,60.2213,0.0],[24.9341,60.2261,0.0],[24.9427,60.229,0.0],[24.9447,60.2219,0.0],[24.9423,60.2214,0.0],[24.9448,60.2199,0.0],[24.9348,60.2182,0.0],[24.9338,60.2213,0.0]]]}},{"type":"Feature","id":"alue-helsinki-284","properties":{"name":"Patola","province":"Uusimaa","department":"Uusimaa","type":"Kaupunginosa","country":"Finlandia","iso":"FI"},"geometry":{"type":"Polygon","coordinates":[[[24.9424,60.2217,0.0],[24.9447,60.2219,0.0],[24.9426,60.2297,0.0],[24.9429,60.2321,0.0],[24.9474,60.238,0.0],[24.9611,60.2399,0.0],[24.96,60.2408,0.0],[24.963,60.2409,0.0],[24.9652,60.2395,0.0],[24.9691,60.2392,0.0],[24.9726,60.2414,0.0],[24.984,60.2379,0.0],[24.9585,60.2246,0.0],[24.9492,60.2222,0.0],[24.95,60.2217,0.0],[24.9448,60.2199,0.0],[24.9424,60.2217,0.0]]]}},{"type":"Feature","id":"alue-helsinki-285","properties":{"name":"Veräjämäki","province":"Uusimaa","department":"Uusimaa","type":"Kaupunginosa","country":"Finlandia","iso":"FI"},"geometry":{"type":"Polygon","coordinates":[[[24.9578,60.2244,0.0],[24.9774,60.2342,0.0],[24.9786,60.2332,0.0],[24.9769,60.2313,0.0],[24.9898,60.2312,0.0],[24.9861,60.2278,0.0],[24.9835,60.2272,0.0],[24.983,60.2239,0.0],[24.9798,60.221,0.0],[24.9644,60.224,0.0],[24.9529,60.2226,0.0],[24.9578,60.2244,0.0]]]}},{"type":"Feature","id":"alue-helsinki-286","properties":{"name":"Maunulanpuisto","province":"Uusimaa","department":"Uusimaa","type":"Kaupunginosa","country":"Finlandia","iso":"FI"},"geometry":{"type":"Polygon","coordinates":[[[24.9079,60.2279,0.0],[24.9205,60.231,0.0],[24.9217,60.23,0.0],[24.9209,60.2296,0.0],[24.9213,60.2276,0.0],[24.9228,60.2271,0.0],[24.9221,60.2269,0.0],[24.9245,60.2243,0.0],[24.9261,60.2239,0.0],[24.9341,60.2261,0.0],[24.9337,60.2211,0.0],[24.9348,60.2182,0.0],[24.9214,60.2173,0.0],[24.9228,60.2202,0.0],[24.9137,60.2196,0.0],[24.907,60.2277,0.0],[24.9079,60.2279,0.0]]]}},{"type":"Feature","id":"alue-helsinki-287","properties":{"name":"Veräjälaakso","province":"Uusimaa","department":"Uusimaa","type":"Kaupunginosa","country":"Finlandia","iso":"FI"},"geometry":{"type":"Polygon","coordinates":[[[24.9769,60.2313,0.0],[24.9786,60.2332,0.0],[24.9774,60.2342,0.0],[24.984,60.2379,0.0],[24.9883,60.2357,0.0],[24.9899,60.2322,0.0],[24.9898,60.2312,0.0],[24.9769,60.2313,0.0]]]}},{"type":"Feature","id":"alue-helsinki-291","properties":{"name":"Etelä-Haaga","province":"Uusimaa","department":"Uusimaa","type":"Kaupunginosa","country":"Finlandia","iso":"FI"},"geometry":{"type":"Polygon","coordinates":[[[24.8777,60.2126,0.0],[24.884,60.2144,0.0],[24.8784,60.2233,0.0],[24.8863,60.2237,0.0],[24.9059,60.2203,0.0],[24.9056,60.2195,0.0],[24.9074,60.2191,0.0],[24.9054,60.2153,0.0],[24.9004,60.2122,0.0],[24.902,60.212,0.0],[24.8999,60.21,0.0],[24.8995,60.2078,0.0],[24.8903,60.2088,0.0],[24.8894,60.2086,0.0],[24.8898,60.2069,0.0],[24.8843,60.2071,0.0],[24.8777,60.2126,0.0]]]}},{"type":"Feature","id":"alue-helsinki-292","properties":{"name":"Kivihaka","province":"Uusimaa","department":"Uusimaa","type":"Kaupunginosa","country":"Finlandia","iso":"FI"},"geometry":{"type":"Polygon","coordinates":[[[24.8996,60.2082,0.0],[24.9,60.2102,0.0],[24.902,60.212,0.0],[24.9004,60.2122,0.0],[24.9053,60.2153,0.0],[24.9075,60.2185,0.0],[24.9146,60.2184,0.0],[24.9075,60.2086,0.0],[24.9086,60.2082,0.0],[24.8996,60.2082,0.0]]]}},{"type":"Feature","id":"alue-helsinki-293","properties":{"name":"Pohjois-Haaga","province":"Uusimaa","department":"Uusimaa","type":"Kaupunginosa","country":"Finlandia","iso":"FI"},"geometry":{"type":"Polygon","coordinates":[[[24.8851,60.2271,0.0],[24.8866,60.2287,0.0],[24.8865,60.2318,0.0],[24.89,60.2324,0.0],[24.8886,60.2347,0.0],[24.8989,60.2355,0.0],[24.9068,60.2279,0.0],[24.9146,60.2184,0.0],[24.9075,60.2185,0.0],[24.9055,60.2196,0.0],[24.9059,60.2203,0.0],[24.8863,60.2237,0.0],[24.8851,60.2271,0.0]]]}},{"type":"Feature","id":"alue-helsinki-294","properties":{"name":"Lassila","province":"Uusimaa","department":"Uusimaa","type":"Kaupunginosa","country":"Finlandia","iso":"FI"},"geometry":{"type":"Polygon","coordinates":[[[24.8666,60.2346,0.0],[24.8886,60.2347,0.0],[24.89,60.2324,0.0],[24.8865,60.2318,0.0],[24.8866,60.2287,0.0],[24.8851,60.2271,0.0],[24.8863,60.2237,0.0],[24.8784,60.2233,0.0],[24.8718,60.2277,0.0],[24.8736,60.2299,0.0],[24.8695,60.2314,0.0],[24.8666,60.2346,0.0]]]}},{"type":"Feature","id":"alue-helsinki-301","properties":{"name":"Vanha Munkkiniemi","province":"Uusimaa","department":"Uusimaa","type":"Kaupunginosa","country":"Finlandia","iso":"FI"},"geometry":{"type":"Polygon","coordinates":[[[24.8431,60.1964,0.0],[24.8469,60.2037,0.0],[24.8467,60.2059,0.0],[24.8621,60.203,0.0],[24.8775,60.2035,0.0],[24.8912,60.2002,0.0],[24.8906,60.197,0.0],[24.882,60.1915,0.0],[24.8767,60.1859,0.0],[24.871,60.1879,0.0],[24.867,60.1943,0.0],[24.8431,60.1964,0.0]]]}},{"type":"Feature","id":"alue-helsinki-302","properties":{"name":"Kuusisaari","province":"Uusimaa","department":"Uusimaa","type":"Kaupunginosa","country":"Finlandia","iso":"FI"},"geometry":{"type":"Polygon","coordinates":[[[24.8428,60.1958,0.0],[24.867,60.1943,0.0],[24.871,60.1879,0.0],[24.8767,60.1859,0.0],[24.8688,60.1777,0.0],[24.8586,60.1819,0.0],[24.8434,60.1854,0.0],[24.8428,60.1958,0.0]]]}},{"type":"Feature","id":"alue-helsinki-303","properties":{"name":"Lehtisaari","province":"Uusimaa","department":"Uusimaa","type":"Kaupunginosa","country":"Finlandia","iso":"FI"},"geometry":{"type":"Polygon","coordinates":[[[24.8434,60.1854,0.0],[24.8586,60.1819,0.0],[24.8822,60.1721,0.0],[24.8757,60.1696,0.0],[24.863,60.1689,0.0],[24.8632,60.1711,0.0],[24.8571,60.1719,0.0],[24.8574,60.1733,0.0],[24.8441,60.1736,0.0],[24.8434,60.1854,0.0]]]}},{"type":"Feature","id":"alue-helsinki-304","properties":{"name":"Munkkivuori","province":"Uusimaa","department":"Uusimaa","type":"Kaupunginosa","country":"Finlandia","iso":"FI"},"geometry":{"type":"Polygon","coordinates":[[[24.8617,60.2099,0.0],[24.8644,60.2123,0.0],[24.8643,60.2146,0.0],[24.8679,60.2161,0.0],[24.8711,60.2133,0.0],[24.8757,60.2143,0.0],[24.8805,60.2102,0.0],[24.8797,60.2079,0.0],[24.8823,60.2027,0.0],[24.8748,60.2036,0.0],[24.867,60.2029,0.0],[24.8636,60.2037,0.0],[24.8626,60.2045,0.0],[24.8617,60.2099,0.0]]]}},{"type":"Feature","id":"alue-helsinki-305","properties":{"name":"Niemenmäki","province":"Uusimaa","department":"Uusimaa","type":"Kaupunginosa","country":"Finlandia","iso":"FI"},"geometry":{"type":"Polygon","coordinates":[[[24.8797,60.2084,0.0],[24.8805,60.2102,0.0],[24.8914,60.2014,0.0],[24.8912,60.2002,0.0],[24.8823,60.2027,0.0],[24.8797,60.2084,0.0]]]}},{"type":"Feature","id":"alue-helsinki-306","properties":{"name":"Talinranta","province":"Uusimaa","department":"Uusimaa","type":"Kaupunginosa","country":"Finlandia","iso":"FI"},"geometry":{"type":"Polygon","coordinates":[[[24.8497,60.2053,0.0],[24.8516,60.2064,0.0],[24.8514,60.2081,0.0],[24.8561,60.209,0.0],[24.8591,60.2108,0.0],[24.8617,60.2099,0.0],[24.8626,60.2045,0.0],[24.8668,60.2029,0.0],[24.8497,60.2053,0.0]]]}},{"type":"Feature","id":"alue-helsinki-320","properties":{"name":"Konala","province":"Uusimaa","department":"Uusimaa","type":"Kaupunginosa","country":"Finlandia","iso":"FI"},"geometry":{"type":"Polygon","coordinates":[[[24.8314,60.2541,0.0],[24.8337,60.2547,0.0],[24.8581,60.2394,0.0],[24.8661,60.236,0.0],[24.8654,60.2353,0.0],[24.8628,60.2359,0.0],[24.8606,60.2338,0.0],[24.8481,60.2305,0.0],[24.838,60.2296,0.0],[24.836,60.2367,0.0],[24.8369,60.2368,0.0],[24.8314,60.2541,0.0]]]}},{"type":"Feature","id":"alue-helsinki-331","properties":{"name":"Kannelmäki","province":"Uusimaa","department":"Uusimaa","type":"Kaupunginosa","country":"Finlandia","iso":"FI"},"geometry":{"type":"Polygon","coordinates":[[[24.8647,60.2396,0.0],[24.8777,60.2475,0.0],[24.8874,60.2477,0.0],[24.8989,60.2355,0.0],[24.8903,60.2347,0.0],[24.8669,60.235,0.0],[24.8669,60.2364,0.0],[24.8647,60.2396,0.0]]]}},{"type":"Feature","id":"alue-helsinki-332","properties":{"name":"Maununneva","province":"Uusimaa","department":"Uusimaa","type":"Kaupunginosa","country":"Finlandia","iso":"FI"},"geometry":{"type":"Polygon","coordinates":[[[24.8877,60.2473,0.0],[24.8944,60.2487,0.0],[24.8959,60.2509,0.0],[24.9056,60.2564,0.0],[24.9117,60.2463,0.0],[24.9143,60.2386,0.0],[24.8994,60.235,0.0],[24.8877,60.2473,0.0]]]}},{"type":"Feature","id":"alue-helsinki-333","properties":{"name":"Malminkartano","province":"Uusimaa","department":"Uusimaa","type":"Kaupunginosa","country":"Finlandia","iso":"FI"},"geometry":{"type":"Polygon","coordinates":[[[24.8387,60.2514,0.0],[24.8484,60.2544,0.0],[24.8625,60.2531,0.0],[24.8643,60.2539,0.0],[24.879,60.2486,0.0],[24.8649,60.2399,0.0],[24.8669,60.2364,0.0],[24.8667,60.235,0.0],[24.8654,60.2353,0.0],[24.8656,60.2366,0.0],[24.8581,60.2394,0.0],[24.8387,60.2514,0.0]]]}},{"type":"Feature","id":"alue-helsinki-334","properties":{"name":"Hakuninmaa","province":"Uusimaa","department":"Uusimaa","type":"Kaupunginosa","country":"Finlandia","iso":"FI"},"geometry":{"type":"Polygon","coordinates":[[[24.8679,60.2524,0.0],[24.8724,60.2541,0.0],[24.877,60.26,0.0],[24.8798,60.2564,0.0],[24.8862,60.2578,0.0],[24.8974,60.2573,0.0],[24.8983,60.2598,0.0],[24.9032,60.2607,0.0],[24.9056,60.2564,0.0],[24.8959,60.2509,0.0],[24.8944,60.2487,0.0],[24.8877,60.2473,0.0],[24.8782,60.2473,0.0],[24.879,60.2486,0.0],[24.8783,60.2493,0.0],[24.8679,60.2524,0.0]]]}},{"type":"Feature","id":"alue-helsinki-335","properties":{"name":"Kuninkaantammi","province":"Uusimaa","department":"Uusimaa","type":"Kaupunginosa","country":"Finlandia","iso":"FI"},"geometry":{"type":"Polygon","coordinates":[[[24.8772,60.2603,0.0],[24.8914,60.2664,0.0],[24.8928,60.2685,0.0],[24.8993,60.2689,0.0],[24.8979,60.2672,0.0],[24.9032,60.2607,0.0],[24.8983,60.2598,0.0],[24.8974,60.2573,0.0],[24.8862,60.2578,0.0],[24.8798,60.2564,0.0],[24.8772,60.2603,0.0]]]}},{"type":"Feature","id":"alue-helsinki-341","properties":{"name":"Länsi-Pakila","province":"Uusimaa","department":"Uusimaa","type":"Kaupunginosa","country":"Finlandia","iso":"FI"},"geometry":{"type":"Polygon","coordinates":[[[24.9122,60.2448,0.0],[24.9448,60.249,0.0],[24.9472,60.2485,0.0],[24.948,60.2462,0.0],[24.9472,60.238,0.0],[24.9453,60.2377,0.0],[24.9457,60.2369,0.0],[24.9445,60.2357,0.0],[24.9419,60.2354,0.0],[24.9404,60.2366,0.0],[24.9351,60.2366,0.0],[24.9157,60.2345,0.0],[24.9134,60.2395,0.0],[24.9122,60.2448,0.0]]]}},{"type":"Feature","id":"alue-helsinki-342","properties":{"name":"Itä-Pakila","province":"Uusimaa","department":"Uusimaa","type":"Kaupunginosa","country":"Finlandia","iso":"FI"},"geometry":{"type":"Polygon","coordinates":[[[24.9471,60.2429,0.0],[24.948,60.2462,0.0],[24.9475,60.2509,0.0],[24.9667,60.2507,0.0],[24.9682,60.2514,0.0],[24.976,60.2505,0.0],[24.9744,60.2489,0.0],[24.9717,60.2426,0.0],[24.9726,60.2414,0.0],[24.9691,60.2392,0.0],[24.9652,60.2395,0.0],[24.963,60.2409,0.0],[24.96,60.2408,0.0],[24.9611,60.2399,0.0],[24.9472,60.238,0.0],[24.9471,60.2429,0.0]]]}},{"type":"Feature","id":"alue-helsinki-351","properties":{"name":"Paloheinä","province":"Uusimaa","department":"Uusimaa","type":"Kaupunginosa","country":"Finlandia","iso":"FI"},"geometry":{"type":"Polygon","coordinates":[[[24.9155,60.2533,0.0],[24.9241,60.2554,0.0],[24.9363,60.2559,0.0],[24.942,60.2571,0.0],[24.9509,60.2554,0.0],[24.948,60.2535,0.0],[24.9472,60.2485,0.0],[24.9448,60.249,0.0],[24.9165,60.2453,0.0],[24.9161,60.2475,0.0],[24.917,60.248,0.0],[24.9156,60.2511,0.0],[24.9167,60.2519,0.0],[24.9155,60.2533,0.0]]]}},{"type":"Feature","id":"alue-helsinki-352","properties":{"name":"Torpparinmäki","province":"Uusimaa","department":"Uusimaa","type":"Kaupunginosa","country":"Finlandia","iso":"FI"},"geometry":{"type":"Polygon","coordinates":[[[24.9365,60.2562,0.0],[24.9422,60.2617,0.0],[24.9453,60.2639,0.0],[24.9483,60.2641,0.0],[24.9505,60.2661,0.0],[24.9584,60.265,0.0],[24.9637,60.262,0.0],[24.96,60.2592,0.0],[24.9509,60.2554,0.0],[24.9428,60.2571,0.0],[24.9365,60.2562,0.0]]]}},{"type":"Feature","id":"alue-helsinki-353","properties":{"name":"Tuomarinkartano","province":"Uusimaa","department":"Uusimaa","type":"Kaupunginosa","country":"Finlandia","iso":"FI"},"geometry":{"type":"Polygon","coordinates":[[[24.9475,60.2509,0.0],[24.948,60.2535,0.0],[24.9604,60.2594,0.0],[24.9684,60.2657,0.0],[24.9732,60.2644,0.0],[24.9729,60.2628,0.0],[24.9784,60.2536,0.0],[24.9781,60.2522,0.0],[24.976,60.2505,0.0],[24.9682,60.2514,0.0],[24.9667,60.2507,0.0],[24.9475,60.2509,0.0]]]}},{"type":"Feature","id":"alue-helsinki-354","properties":{"name":"Haltiala","province":"Uusimaa","department":"Uusimaa","type":"Kaupunginosa","country":"Finlandia","iso":"FI"},"geometry":{"type":"Polygon","coordinates":[[[24.8984,60.2682,0.0],[24.9123,60.272,0.0],[24.9205,60.2731,0.0],[24.9246,60.2748,0.0],[24.932,60.2751,0.0],[24.9477,60.2785,0.0],[24.9525,60.2782,0.0],[24.9536,60.2769,0.0],[24.9564,60.2763,0.0],[24.9559,60.2728,0.0],[24.9602,60.2684,0.0],[24.9684,60.2657,0.0],[24.9636,60.2616,0.0],[24.9615,60.2638,0.0],[24.9584,60.265,0.0],[24.9505,60.2661,0.0],[24.9483,60.2641,0.0],[24.9453,60.2639,0.0],[24.9422,60.2617,0.0],[24.9367,60.256,0.0],[24.9164,60.2541,0.0],[24.9155,60.2531,0.0],[24.9167,60.2519,0.0],[24.9156,60.2511,0.0],[24.917,60.248,0.0],[24.9161,60.2475,0.0],[24.9165,60.2453,0.0],[24.9122,60.2448,0.0],[24.9046,60.259,0.0],[24.9006,60.2649,0.0],[24.8979,60.2672,0.0],[24.8984,60.2682,0.0]]]}},{"type":"Feature","id":"alue-helsinki-361","properties":{"name":"Viikinranta","province":"Uusimaa","department":"Uusimaa","type":"Kaupunginosa","country":"Finlandia","iso":"FI"},"geometry":{"type":"Polygon","coordinates":[[[24.9792,60.2196,0.0],[24.9826,60.2216,0.0],[25.0023,60.2279,0.0],[25.0138,60.2242,0.0],[25.0151,60.223,0.0],[25.0142,60.222,0.0],[25.0157,60.2207,0.0],[25.018,60.2206,0.0],[25.0205,60.2221,0.0],[25.0241,60.222,0.0],[25.0247,60.2229,0.0],[25.0423,60.2189,0.0],[25.0288,60.211,0.0],[25.0188,60.2139,0.0],[24.998,60.1983,0.0],[24.9852,60.2058,0.0],[24.9878,60.2102,0.0],[24.9841,60.2136,0.0],[24.9856,60.2154,0.0],[24.9799,60.2175,0.0],[24.9792,60.2196,0.0]]]}},{"type":"Feature","id":"alue-helsinki-362","properties":{"name":"Latokartano","province":"Uusimaa","department":"Uusimaa","type":"Kaupunginosa","country":"Finlandia","iso":"FI"},"geometry":{"type":"Polygon","coordinates":[[[25.0215,60.224,0.0],[25.0234,60.2254,0.0],[25.0254,60.2288,0.0],[25.0272,60.2296,0.0],[25.0244,60.2306,0.0],[25.026,60.2315,0.0],[25.0244,60.2324,0.0],[25.0352,60.2363,0.0],[25.0437,60.2356,0.0],[25.0506,60.2316,0.0],[25.0423,60.2189,0.0],[25.0215,60.224,0.0]]]}},{"type":"Feature","id":"alue-helsinki-363","properties":{"name":"Viikin tiedepuisto","province":"Uusimaa","department":"Uusimaa","type":"Kaupunginosa","country":"Finlandia","iso":"FI"},"geometry":{"type":"Polygon","coordinates":[[[25.0013,60.2285,0.0],[25.0056,60.2302,0.0],[25.0125,60.2293,0.0],[25.0244,60.2324,0.0],[25.026,60.2315,0.0],[25.0244,60.2306,0.0],[25.0272,60.2296,0.0],[25.0254,60.2288,0.0],[25.0234,60.2254,0.0],[25.021,60.2237,0.0],[25.0247,60.2229,0.0],[25.0241,60.222,0.0],[25.0205,60.2221,0.0],[25.0179,60.2206,0.0],[25.0149,60.2213,0.0],[25.0141,60.2222,0.0],[25.0151,60.223,0.0],[25.0138,60.2242,0.0],[25.0013,60.2285,0.0]]]}},{"type":"Feature","id":"alue-helsinki-364","properties":{"name":"Viikinmäki","province":"Uusimaa","department":"Uusimaa","type":"Kaupunginosa","country":"Finlandia","iso":"FI"},"geometry":{"type":"Polygon","coordinates":[[[24.9793,60.2202,0.0],[24.983,60.2239,0.0],[24.9835,60.2272,0.0],[24.9861,60.2278,0.0],[24.9898,60.2313,0.0],[24.997,60.2307,0.0],[25.0026,60.228,0.0],[24.9793,60.2202,0.0]]]}},{"type":"Feature","id":"alue-helsinki-370","properties":{"name":"Pukinmäki","province":"Uusimaa","department":"Uusimaa","type":"Kaupunginosa","country":"Finlandia","iso":"FI"},"geometry":{"type":"Polygon","coordinates":[[[24.9716,60.2425,0.0],[24.9748,60.2496,0.0],[24.9776,60.2516,0.0],[24.9924,60.2519,0.0],[24.9952,60.2513,0.0],[25.0027,60.2467,0.0],[24.9932,60.2417,0.0],[24.9962,60.2412,0.0],[24.9958,60.2406,0.0],[24.9969,60.2401,0.0],[24.99,60.2366,0.0],[24.9912,60.2349,0.0],[24.9895,60.2335,0.0],[24.9874,60.2362,0.0],[24.9823,60.2386,0.0],[24.9739,60.2406,0.0],[24.9716,60.2425,0.0]]]}},{"type":"Feature","id":"alue-helsinki-381","properties":{"name":"Ylä-Malmi","province":"Uusimaa","department":"Uusimaa","type":"Kaupunginosa","country":"Finlandia","iso":"FI"},"geometry":{"type":"Polygon","coordinates":[[[24.9927,60.252,0.0],[24.9944,60.2543,0.0],[25.0012,60.2585,0.0],[25.0065,60.2573,0.0],[25.0123,60.2589,0.0],[25.0139,60.2558,0.0],[25.0159,60.2545,0.0],[25.0022,60.247,0.0],[24.9927,60.252,0.0]]]}},{"type":"Feature","id":"alue-helsinki-382","properties":{"name":"Ala-Malmi","province":"Uusimaa","department":"Uusimaa","type":"Kaupunginosa","country":"Finlandia","iso":"FI"},"geometry":{"type":"Polygon","coordinates":[[[24.9932,60.2417,0.0],[25.0229,60.259,0.0],[25.0255,60.2583,0.0],[25.0267,60.2567,0.0],[25.0297,60.2564,0.0],[25.0275,60.2507,0.0],[25.0326,60.2492,0.0],[25.0356,60.2442,0.0],[25.0384,60.2441,0.0],[25.0407,60.2402,0.0],[25.0377,60.2405,0.0],[25.0361,60.2391,0.0],[25.037,60.2377,0.0],[25.0359,60.2366,0.0],[25.0183,60.2306,0.0],[25.0221,60.2361,0.0],[25.0213,60.2398,0.0],[25.0196,60.2415,0.0],[25.0006,60.2413,0.0],[24.9969,60.2401,0.0],[24.9958,60.2406,0.0],[24.9962,60.2412,0.0],[24.9932,60.2417,0.0]]]}},{"type":"Feature","id":"alue-helsinki-383","properties":{"name":"Pihlajamäki","province":"Uusimaa","department":"Uusimaa","type":"Kaupunginosa","country":"Finlandia","iso":"FI"},"geometry":{"type":"Polygon","coordinates":[[[24.9974,60.2401,0.0],[25.0006,60.2413,0.0],[25.0196,60.2415,0.0],[25.0213,60.2398,0.0],[25.0221,60.2361,0.0],[25.0183,60.2306,0.0],[25.0109,60.2291,0.0],[25.0097,60.2301,0.0],[25.0056,60.2301,0.0],[25.0063,60.2302,0.0],[25.0053,60.2306,0.0],[25.0059,60.232,0.0],[24.999,60.2361,0.0],[24.9974,60.2401,0.0]]]}},{"type":"Feature","id":"alue-helsinki-384","properties":{"name":"Tattariharju","province":"Uusimaa","department":"Uusimaa","type":"Kaupunginosa","country":"Finlandia","iso":"FI"},"geometry":{"type":"Polygon","coordinates":[[[25.0384,60.2441,0.0],[25.0563,60.2479,0.0],[25.059,60.2495,0.0],[25.0594,60.251,0.0],[25.0619,60.2508,0.0],[25.0606,60.2481,0.0],[25.0572,60.2457,0.0],[25.0443,60.2403,0.0],[25.0407,60.2402,0.0],[25.0384,60.2441,0.0]]]}},{"type":"Feature","id":"alue-helsinki-385","properties":{"name":"Malmin lentokenttä","province":"Uusimaa","department":"Uusimaa","type":"Kaupunginosa","country":"Finlandia","iso":"FI"},"geometry":{"type":"Polygon","coordinates":[[[25.0274,60.2508,0.0],[25.0289,60.2551,0.0],[25.0355,60.2652,0.0],[25.0383,60.2654,0.0],[25.0416,60.2654,0.0],[25.0445,60.2641,0.0],[25.0457,60.2553,0.0],[25.0532,60.2523,0.0],[25.0596,60.2517,0.0],[25.0591,60.2497,0.0],[25.0572,60.2482,0.0],[25.0382,60.2441,0.0],[25.0356,60.2442,0.0],[25.0326,60.2492,0.0],[25.0274,60.2508,0.0]]]}},{"type":"Feature","id":"alue-helsinki-386","properties":{"name":"Pihlajisto","province":"Uusimaa","department":"Uusimaa","type":"Kaupunginosa","country":"Finlandia","iso":"FI"},"geometry":{"type":"Polygon","coordinates":[[[24.9895,60.2335,0.0],[24.9912,60.2349,0.0],[24.99,60.2366,0.0],[24.9974,60.2401,0.0],[24.999,60.2361,0.0],[25.0059,60.232,0.0],[25.0053,60.2306,0.0],[25.0063,60.2302,0.0],[25.0013,60.2285,0.0],[24.9965,60.2308,0.0],[24.9898,60.2313,0.0],[24.9895,60.2335,0.0]]]}},{"type":"Feature","id":"alue-helsinki-391","properties":{"name":"Tapaninvainio","province":"Uusimaa","department":"Uusimaa","type":"Kaupunginosa","country":"Finlandia","iso":"FI"},"geometry":{"type":"Polygon","coordinates":[[[24.9732,60.2644,0.0],[24.9758,60.2652,0.0],[24.9943,60.2642,0.0],[24.9986,60.2656,0.0],[25.0136,60.2678,0.0],[25.0155,60.2664,0.0],[25.0113,60.2624,0.0],[25.0128,60.2591,0.0],[25.0065,60.2573,0.0],[25.0012,60.2585,0.0],[24.9944,60.2543,0.0],[24.9926,60.2519,0.0],[24.9776,60.2516,0.0],[24.9783,60.2538,0.0],[24.9729,60.2628,0.0],[24.9732,60.2644,0.0]]]}},{"type":"Feature","id":"alue-helsinki-392","properties":{"name":"Tapanila","province":"Uusimaa","department":"Uusimaa","type":"Kaupunginosa","country":"Finlandia","iso":"FI"},"geometry":{"type":"Polygon","coordinates":[[[25.0112,60.2623,0.0],[25.0155,60.2662,0.0],[25.0136,60.2678,0.0],[25.0183,60.2695,0.0],[25.0287,60.2689,0.0],[25.0317,60.2664,0.0],[25.0355,60.2652,0.0],[25.0297,60.2564,0.0],[25.0267,60.2567,0.0],[25.0255,60.2583,0.0],[25.0229,60.259,0.0],[25.0159,60.2545,0.0],[25.0131,60.2569,0.0],[25.0112,60.2623,0.0]]]}},{"type":"Feature","id":"alue-helsinki-401","properties":{"name":"Siltamäki","province":"Uusimaa","department":"Uusimaa","type":"Kaupunginosa","country":"Finlandia","iso":"FI"},"geometry":{"type":"Polygon","coordinates":[[[24.9755,60.2661,0.0],[24.9781,60.2678,0.0],[24.9755,60.2697,0.0],[24.9771,60.2716,0.0],[24.9775,60.2739,0.0],[24.9804,60.2756,0.0],[24.9823,60.2789,0.0],[24.9956,60.2814,0.0],[24.9996,60.2847,0.0],[25.0005,60.2865,0.0],[25.0143,60.2864,0.0],[25.0235,60.2837,0.0],[25.0176,60.279,0.0],[25.0168,60.2763,0.0],[25.0189,60.2756,0.0],[25.0152,60.273,0.0],[25.0145,60.2739,0.0],[25.0122,60.2738,0.0],[25.0103,60.2755,0.0],[25.0025,60.2756,0.0],[25.0017,60.2747,0.0],[25.0011,60.2753,0.0],[24.9974,60.2744,0.0],[24.9923,60.2717,0.0],[24.9941,60.2681,0.0],[24.9919,60.2645,0.0],[24.9782,60.2648,0.0],[24.9758,60.2652,0.0],[24.9755,60.2661,0.0]]]}},{"type":"Feature","id":"alue-helsinki-402","properties":{"name":"Tapulikaupunki","province":"Uusimaa","department":"Uusimaa","type":"Kaupunginosa","country":"Finlandia","iso":"FI"},"geometry":{"type":"Polygon","coordinates":[[[25.0081,60.2871,0.0],[25.0209,60.2893,0.0],[25.0328,60.285,0.0],[25.0345,60.2854,0.0],[25.0353,60.2872,0.0],[25.0379,60.288,0.0],[25.0405,60.2852,0.0],[25.0319,60.2668,0.0],[25.0287,60.2689,0.0],[25.0244,60.2697,0.0],[25.0183,60.2695,0.0],[25.0136,60.2678,0.0],[25.0124,60.2683,0.0],[25.0121,60.2698,0.0],[25.0135,60.2698,0.0],[25.0143,60.271,0.0],[25.0165,60.2709,0.0],[25.0153,60.2731,0.0],[25.0189,60.2756,0.0],[25.0168,60.2763,0.0],[25.0176,60.279,0.0],[25.0235,60.2837,0.0],[25.0143,60.2864,0.0],[25.0081,60.2871,0.0]]]}},{"type":"Feature","id":"alue-helsinki-403","properties":{"name":"Töyrynummi","province":"Uusimaa","department":"Uusimaa","type":"Kaupunginosa","country":"Finlandia","iso":"FI"},"geometry":{"type":"Polygon","coordinates":[[[24.9932,60.2663,0.0],[24.9941,60.2681,0.0],[24.9923,60.2717,0.0],[24.9974,60.2744,0.0],[25.0011,60.2753,0.0],[25.0017,60.2747,0.0],[25.0025,60.2756,0.0],[25.0103,60.2755,0.0],[25.0122,60.2738,0.0],[25.0145,60.2739,0.0],[25.0165,60.2709,0.0],[25.0143,60.271,0.0],[25.0135,60.2698,0.0],[25.0121,60.2698,0.0],[25.0124,60.2683,0.0],[25.0136,60.2678,0.0],[24.9986,60.2656,0.0],[24.9943,60.2642,0.0],[24.9919,60.2645,0.0],[24.9932,60.2663,0.0]]]}},{"type":"Feature","id":"alue-helsinki-411","properties":{"name":"Puistola","province":"Uusimaa","department":"Uusimaa","type":"Kaupunginosa","country":"Finlandia","iso":"FI"},"geometry":{"type":"Polygon","coordinates":[[[25.0318,60.2665,0.0],[25.0405,60.2852,0.0],[25.0434,60.2819,0.0],[25.0425,60.2811,0.0],[25.0452,60.2785,0.0],[25.046,60.2789,0.0],[25.0471,60.2777,0.0],[25.0507,60.2783,0.0],[25.0534,60.276,0.0],[25.0595,60.2761,0.0],[25.0626,60.2722,0.0],[25.0644,60.2663,0.0],[25.0703,60.2631,0.0],[25.0538,60.2639,0.0],[25.043,60.2657,0.0],[25.0343,60.2652,0.0],[25.0318,60.2665,0.0]]]}},{"type":"Feature","id":"alue-helsinki-412","properties":{"name":"Heikinlaakso","province":"Uusimaa","department":"Uusimaa","type":"Kaupunginosa","country":"Finlandia","iso":"FI"},"geometry":{"type":"Polygon","coordinates":[[[25.0595,60.2761,0.0],[25.0685,60.275,0.0],[25.0766,60.2755,0.0],[25.0842,60.2727,0.0],[25.0819,60.2697,0.0],[25.0729,60.2629,0.0],[25.0703,60.2631,0.0],[25.0644,60.2663,0.0],[25.0626,60.2722,0.0],[25.0595,60.2761,0.0]]]}},{"type":"Feature","id":"alue-helsinki-413","properties":{"name":"Tattarisuo","province":"Uusimaa","department":"Uusimaa","type":"Kaupunginosa","country":"Finlandia","iso":"FI"},"geometry":{"type":"Polygon","coordinates":[[[25.0416,60.2654,0.0],[25.0624,60.2635,0.0],[25.0646,60.2595,0.0],[25.0619,60.2508,0.0],[25.0532,60.2523,0.0],[25.0457,60.2553,0.0],[25.0445,60.2641,0.0],[25.0416,60.2654,0.0]]]}},{"type":"Feature","id":"alue-helsinki-414","properties":{"name":"Jakomäki","province":"Uusimaa","department":"Uusimaa","type":"Kaupunginosa","country":"Finlandia","iso":"FI"},"geometry":{"type":"Polygon","coordinates":[[[25.0621,60.2518,0.0],[25.0661,60.254,0.0],[25.0726,60.2627,0.0],[25.0819,60.2697,0.0],[25.0842,60.2727,0.0],[25.088,60.2713,0.0],[25.0891,60.2678,0.0],[25.0864,60.2606,0.0],[25.0875,60.2593,0.0],[25.0824,60.2497,0.0],[25.0619,60.2508,0.0],[25.0621,60.2518,0.0]]]}},{"type":"Feature","id":"alue-helsinki-420","properties":{"name":"Kulosaari","province":"Uusimaa","department":"Uusimaa","type":"Kaupunginosa","country":"Finlandia","iso":"FI"},"geometry":{"type":"Polygon","coordinates":[[[24.9875,60.1863,0.0],[24.998,60.1983,0.0],[25.0068,60.2049,0.0],[25.0196,60.2006,0.0],[25.0216,60.1977,0.0],[25.0143,60.1911,0.0],[25.0228,60.1885,0.0],[25.0214,60.179,0.0],[25.002,60.1743,0.0],[25.0037,60.1808,0.0],[24.9875,60.1863,0.0]]]}},{"type":"Feature","id":"alue-helsinki-431","properties":{"name":"Länsi-Herttoniemi","province":"Uusimaa","department":"Uusimaa","type":"Kaupunginosa","country":"Finlandia","iso":"FI"},"geometry":{"type":"Polygon","coordinates":[[[25.0068,60.2049,0.0],[25.0188,60.2139,0.0],[25.0288,60.211,0.0],[25.043,60.2193,0.0],[25.046,60.2097,0.0],[25.0536,60.2078,0.0],[25.0496,60.2068,0.0],[25.0432,60.2035,0.0],[25.0311,60.1937,0.0],[25.0179,60.19,0.0],[25.0143,60.1911,0.0],[25.0216,60.1977,0.0],[25.0196,60.2006,0.0],[25.0068,60.2049,0.0]]]}},{"type":"Feature","id":"alue-helsinki-432","properties":{"name":"Roihuvuori","province":"Uusimaa","department":"Uusimaa","type":"Kaupunginosa","country":"Finlandia","iso":"FI"},"geometry":{"type":"Polygon","coordinates":[[[25.0441,60.1927,0.0],[25.0472,60.1936,0.0],[25.0476,60.1991,0.0],[25.0491,60.1993,0.0],[25.0488,60.2026,0.0],[25.0539,60.2061,0.0],[25.0573,60.2062,0.0],[25.0546,60.2075,0.0],[25.0643,60.2077,0.0],[25.0643,60.2024,0.0],[25.0698,60.2028,0.0],[25.0704,60.2006,0.0],[25.073,60.1976,0.0],[25.0743,60.1977,0.0],[25.0765,60.194,0.0],[25.0761,60.1935,0.0],[25.0667,60.1968,0.0],[25.0609,60.1932,0.0],[25.0488,60.1918,0.0],[25.0477,60.1907,0.0],[25.0482,60.1899,0.0],[25.0461,60.1901,0.0],[25.0441,60.1927,0.0]]]}},{"type":"Feature","id":"alue-helsinki-433","properties":{"name":"Herttoniemen yritysalue","province":"Uusimaa","department":"Uusimaa","type":"Kaupunginosa","country":"Finlandia","iso":"FI"},"geometry":{"type":"Polygon","coordinates":[[[25.0327,60.1948,0.0],[25.0414,60.2023,0.0],[25.0496,60.2068,0.0],[25.0536,60.2078,0.0],[25.0573,60.2062,0.0],[25.0539,60.2061,0.0],[25.0485,60.2023,0.0],[25.0491,60.1993,0.0],[25.0476,60.1991,0.0],[25.0472,60.1936,0.0],[25.0393,60.1925,0.0],[25.0321,60.1943,0.0],[25.0327,60.1948,0.0]]]}},{"type":"Feature","id":"alue-helsinki-434","properties":{"name":"Herttoniemenranta","province":"Uusimaa","department":"Uusimaa","type":"Kaupunginosa","country":"Finlandia","iso":"FI"},"geometry":{"type":"Polygon","coordinates":[[[25.0179,60.19,0.0],[25.0321,60.1943,0.0],[25.039,60.1925,0.0],[25.044,60.1927,0.0],[25.0461,60.1901,0.0],[25.0487,60.189,0.0],[25.0556,60.1887,0.0],[25.0406,60.185,0.0],[25.022,60.1831,0.0],[25.0228,60.1885,0.0],[25.0179,60.19,0.0]]]}},{"type":"Feature","id":"alue-helsinki-440","properties":{"name":"Tammisalo","province":"Uusimaa","department":"Uusimaa","type":"Kaupunginosa","country":"Finlandia","iso":"FI"},"geometry":{"type":"Polygon","coordinates":[[[25.0481,60.1913,0.0],[25.0609,60.1932,0.0],[25.0667,60.1968,0.0],[25.0761,60.1935,0.0],[25.0743,60.1907,0.0],[25.0698,60.1869,0.0],[25.0658,60.1865,0.0],[25.0607,60.1868,0.0],[25.056,60.1887,0.0],[25.0487,60.189,0.0],[25.0481,60.1913,0.0]]]}},{"type":"Feature","id":"alue-helsinki-451","properties":{"name":"Vartioharju","province":"Uusimaa","department":"Uusimaa","type":"Kaupunginosa","country":"Finlandia","iso":"FI"},"geometry":{"type":"Polygon","coordinates":[[[25.0876,60.2224,0.0],[25.0946,60.227,0.0],[25.098,60.2276,0.0],[25.1021,60.2267,0.0],[25.1034,60.2282,0.0],[25.1098,60.2285,0.0],[25.1199,60.2263,0.0],[25.1188,60.2255,0.0],[25.1213,60.2254,0.0],[25.1221,60.2233,0.0],[25.1247,60.2216,0.0],[25.1228,60.2196,0.0],[25.1226,60.217,0.0],[25.116,60.2105,0.0],[25.1018,60.2147,0.0],[25.0989,60.217,0.0],[25.0968,60.2164,0.0],[25.0876,60.2224,0.0]]]}},{"type":"Feature","id":"alue-helsinki-452","properties":{"name":"Puotila","province":"Uusimaa","department":"Uusimaa","type":"Kaupunginosa","country":"Finlandia","iso":"FI"},"geometry":{"type":"Polygon","coordinates":[[[25.088,60.2129,0.0],[25.0989,60.217,0.0],[25.1018,60.2147,0.0],[25.116,60.2105,0.0],[25.114,60.208,0.0],[25.1062,60.2032,0.0],[25.0957,60.2084,0.0],[25.092,60.2093,0.0],[25.0885,60.2116,0.0],[25.088,60.2129,0.0]]]}},{"type":"Feature","id":"alue-helsinki-453","properties":{"name":"Puotinharju","province":"Uusimaa","department":"Uusimaa","type":"Kaupunginosa","country":"Finlandia","iso":"FI"},"geometry":{"type":"Polygon","coordinates":[[[25.0662,60.2089,0.0],[25.0708,60.2091,0.0],[25.07,60.2106,0.0],[25.0718,60.2123,0.0],[25.0765,60.215,0.0],[25.0842,60.2174,0.0],[25.0824,60.221,0.0],[25.0873,60.2226,0.0],[25.0968,60.2164,0.0],[25.0876,60.2127,0.0],[25.0862,60.2144,0.0],[25.0802,60.2142,0.0],[25.077,60.2127,0.0],[25.0787,60.2111,0.0],[25.0748,60.21,0.0],[25.0751,60.2086,0.0],[25.0657,60.2079,0.0],[25.0662,60.2089,0.0]]]}},{"type":"Feature","id":"alue-helsinki-454","properties":{"name":"Myllypuro","province":"Uusimaa","department":"Uusimaa","type":"Kaupunginosa","country":"Finlandia","iso":"FI"},"geometry":{"type":"Polygon","coordinates":[[[25.043,60.2194,0.0],[25.0512,60.2319,0.0],[25.068,60.2286,0.0],[25.0768,60.2285,0.0],[25.0771,60.2271,0.0],[25.0801,60.227,0.0],[25.0802,60.225,0.0],[25.0863,60.2222,0.0],[25.0824,60.221,0.0],[25.0842,60.2174,0.0],[25.0765,60.215,0.0],[25.0718,60.2123,0.0],[25.07,60.2106,0.0],[25.0708,60.2091,0.0],[25.0662,60.2089,0.0],[25.0675,60.2137,0.0],[25.0628,60.2158,0.0],[25.0452,60.2124,0.0],[25.043,60.2194,0.0]]]}},{"type":"Feature","id":"alue-helsinki-455","properties":{"name":"Marjaniemi","province":"Uusimaa","department":"Uusimaa","type":"Kaupunginosa","country":"Finlandia","iso":"FI"},"geometry":{"type":"Polygon","coordinates":[[[25.0698,60.2028,0.0],[25.078,60.2042,0.0],[25.0798,60.2056,0.0],[25.091,60.2065,0.0],[25.0944,60.2087,0.0],[25.1062,60.2032,0.0],[25.0966,60.1956,0.0],[25.0891,60.1916,0.0],[25.0831,60.1945,0.0],[25.0761,60.1935,0.0],[25.0743,60.1977,0.0],[25.073,60.1976,0.0],[25.0704,60.2006,0.0],[25.0698,60.2028,0.0]]]}},{"type":"Feature","id":"alue-helsinki-456","properties":{"name":"Roihupelto","province":"Uusimaa","department":"Uusimaa","type":"Kaupunginosa","country":"Finlandia","iso":"FI"},"geometry":{"type":"Polygon","coordinates":[[[25.0451,60.2113,0.0],[25.0452,60.2124,0.0],[25.048,60.2135,0.0],[25.0509,60.2129,0.0],[25.0624,60.2158,0.0],[25.0662,60.2148,0.0],[25.0676,60.2133,0.0],[25.0657,60.2079,0.0],[25.0643,60.2077,0.0],[25.0503,60.2081,0.0],[25.046,60.2097,0.0],[25.0451,60.2113,0.0]]]}},{"type":"Feature","id":"alue-helsinki-461","properties":{"name":"Pajamäki","province":"Uusimaa","department":"Uusimaa","type":"Kaupunginosa","country":"Finlandia","iso":"FI"},"geometry":{"type":"Polygon","coordinates":[[[24.8507,60.2201,0.0],[24.8533,60.2207,0.0],[24.8536,60.2216,0.0],[24.861,60.2211,0.0],[24.8619,60.2201,0.0],[24.8568,60.2164,0.0],[24.8552,60.2163,0.0],[24.8527,60.2168,0.0],[24.8523,60.2189,0.0],[24.8507,60.2201,0.0]]]}},{"type":"Feature","id":"alue-helsinki-462","properties":{"name":"Tali","province":"Uusimaa","department":"Uusimaa","type":"Kaupunginosa","country":"Finlandia","iso":"FI"},"geometry":{"type":"Polygon","coordinates":[[[24.8459,60.2133,0.0],[24.8461,60.2154,0.0],[24.8481,60.2186,0.0],[24.8477,60.2201,0.0],[24.8508,60.2207,0.0],[24.8507,60.2196,0.0],[24.8523,60.2189,0.0],[24.8533,60.2165,0.0],[24.8568,60.2164,0.0],[24.8619,60.2201,0.0],[24.8685,60.2176,0.0],[24.8667,60.2166,0.0],[24.8678,60.2161,0.0],[24.8643,60.2146,0.0],[24.8644,60.2123,0.0],[24.8617,60.2099,0.0],[24.8591,60.2108,0.0],[24.8561,60.209,0.0],[24.8514,60.2081,0.0],[24.8516,60.2064,0.0],[24.8497,60.2053,0.0],[24.8467,60.2059,0.0],[24.8459,60.2133,0.0]]]}},{"type":"Feature","id":"alue-helsinki-463","properties":{"name":"Reimarla","province":"Uusimaa","department":"Uusimaa","type":"Kaupunginosa","country":"Finlandia","iso":"FI"},"geometry":{"type":"Polygon","coordinates":[[[24.838,60.2296,0.0],[24.8481,60.2305,0.0],[24.8606,60.2338,0.0],[24.8628,60.2359,0.0],[24.8667,60.235,0.0],[24.868,60.2332,0.0],[24.8619,60.2272,0.0],[24.8628,60.2256,0.0],[24.8619,60.2248,0.0],[24.8623,60.2236,0.0],[24.8501,60.2249,0.0],[24.8419,60.2212,0.0],[24.84,60.2291,0.0],[24.838,60.2296,0.0]]]}},{"type":"Feature","id":"alue-helsinki-464","properties":{"name":"Marttila","province":"Uusimaa","department":"Uusimaa","type":"Kaupunginosa","country":"Finlandia","iso":"FI"},"geometry":{"type":"Polygon","coordinates":[[[24.862,60.2272,0.0],[24.868,60.2332,0.0],[24.8696,60.2313,0.0],[24.8736,60.2298,0.0],[24.8699,60.2262,0.0],[24.8657,60.2241,0.0],[24.8626,60.2238,0.0],[24.862,60.2272,0.0]]]}},{"type":"Feature","id":"alue-helsinki-465","properties":{"name":"Pitäjänmäen yritysalue","province":"Uusimaa","department":"Uusimaa","type":"Kaupunginosa","country":"Finlandia","iso":"FI"},"geometry":{"type":"Polygon","coordinates":[[[24.8476,60.2205,0.0],[24.8512,60.2249,0.0],[24.8641,60.2238,0.0],[24.8674,60.2247,0.0],[24.8718,60.2277,0.0],[24.8784,60.2233,0.0],[24.884,60.2144,0.0],[24.8777,60.2126,0.0],[24.8757,60.2143,0.0],[24.8711,60.2133,0.0],[24.8667,60.2166,0.0],[24.8685,60.2176,0.0],[24.8621,60.2199,0.0],[24.861,60.2211,0.0],[24.8536,60.2216,0.0],[24.8533,60.2207,0.0],[24.8476,60.2205,0.0]]]}},{"type":"Feature","id":"alue-helsinki-471","properties":{"name":"Kontula","province":"Uusimaa","department":"Uusimaa","type":"Kaupunginosa","country":"Finlandia","iso":"FI"},"geometry":{"type":"Polygon","coordinates":[[[25.0675,60.2365,0.0],[25.0803,60.2478,0.0],[25.0837,60.2463,0.0],[25.0827,60.2456,0.0],[25.0903,60.2425,0.0],[25.0862,60.2404,0.0],[25.0884,60.237,0.0],[25.0973,60.2374,0.0],[25.097,60.2361,0.0],[25.0936,60.233,0.0],[25.1098,60.2285,0.0],[25.1034,60.2282,0.0],[25.1021,60.2267,0.0],[25.098,60.2276,0.0],[25.0946,60.227,0.0],[25.0863,60.2222,0.0],[25.0802,60.225,0.0],[25.0799,60.2298,0.0],[25.078,60.2306,0.0],[25.0794,60.2322,0.0],[25.0661,60.2352,0.0],[25.0675,60.2365,0.0]]]}},{"type":"Feature","id":"alue-helsinki-472","properties":{"name":"Vesala","province":"Uusimaa","department":"Uusimaa","type":"Kaupunginosa","country":"Finlandia","iso":"FI"},"geometry":{"type":"Polygon","coordinates":[[[25.0803,60.2478,0.0],[25.0824,60.2497,0.0],[25.0914,60.2452,0.0],[25.1091,60.242,0.0],[25.1068,60.239,0.0],[25.109,60.2363,0.0],[25.1097,60.2339,0.0],[25.1093,60.2286,0.0],[25.0936,60.233,0.0],[25.097,60.2361,0.0],[25.0973,60.2374,0.0],[25.0884,60.237,0.0],[25.0862,60.2404,0.0],[25.0903,60.2425,0.0],[25.0827,60.2456,0.0],[25.0837,60.2463,0.0],[25.0803,60.2478,0.0]]]}},{"type":"Feature","id":"alue-helsinki-473","properties":{"name":"Mellunmäki","province":"Uusimaa","department":"Uusimaa","type":"Kaupunginosa","country":"Finlandia","iso":"FI"},"geometry":{"type":"Polygon","coordinates":[[[25.1068,60.239,0.0],[25.1091,60.242,0.0],[25.1362,60.2371,0.0],[25.1374,60.2323,0.0],[25.1342,60.2269,0.0],[25.1247,60.2216,0.0],[25.1221,60.2233,0.0],[25.1213,60.2254,0.0],[25.1188,60.2255,0.0],[25.1199,60.2263,0.0],[25.1093,60.2286,0.0],[25.1097,60.2339,0.0],[25.109,60.2363,0.0],[25.1068,60.239,0.0]]]}},{"type":"Feature","id":"alue-helsinki-474","properties":{"name":"Kivikko","province":"Uusimaa","department":"Uusimaa","type":"Kaupunginosa","country":"Finlandia","iso":"FI"},"geometry":{"type":"Polygon","coordinates":[[[25.0359,60.2365,0.0],[25.037,60.2377,0.0],[25.0361,60.2391,0.0],[25.0377,60.2405,0.0],[25.0441,60.2402,0.0],[25.0552,60.2446,0.0],[25.0604,60.2478,0.0],[25.0619,60.2508,0.0],[25.0824,60.2497,0.0],[25.061,60.2303,0.0],[25.0506,60.2316,0.0],[25.0442,60.2354,0.0],[25.0397,60.2362,0.0],[25.036,60.2357,0.0],[25.0352,60.2363,0.0],[25.0359,60.2365,0.0]]]}},{"type":"Feature","id":"alue-helsinki-475","properties":{"name":"Kurkimäki","province":"Uusimaa","department":"Uusimaa","type":"Kaupunginosa","country":"Finlandia","iso":"FI"},"geometry":{"type":"Polygon","coordinates":[[[25.0607,60.2302,0.0],[25.0661,60.2352,0.0],[25.0794,60.2322,0.0],[25.078,60.2306,0.0],[25.0799,60.2298,0.0],[25.0801,60.227,0.0],[25.0771,60.2271,0.0],[25.0768,60.2285,0.0],[25.0698,60.2284,0.0],[25.0607,60.2302,0.0]]]}},{"type":"Feature","id":"alue-helsinki-480","properties":{"name":"Vartiosaari","province":"Uusimaa","department":"Uusimaa","type":"Kaupunginosa","country":"Finlandia","iso":"FI"},"geometry":{"type":"Polygon","coordinates":[[[25.0621,60.1867,0.0],[25.0698,60.1869,0.0],[25.0743,60.1907,0.0],[25.0761,60.1935,0.0],[25.0831,60.1945,0.0],[25.0891,60.1916,0.0],[25.0875,60.1896,0.0],[25.0872,60.1866,0.0],[25.1126,60.176,0.0],[25.1114,60.1719,0.0],[25.1062,60.1676,0.0],[25.0952,60.1725,0.0],[25.0861,60.1725,0.0],[25.0774,60.1749,0.0],[25.0661,60.1806,0.0],[25.0621,60.1867,0.0]]]}},{"type":"Feature","id":"alue-helsinki-491","properties":{"name":"Yliskylä","province":"Uusimaa","department":"Uusimaa","type":"Kaupunginosa","country":"Finlandia","iso":"FI"},"geometry":{"type":"Polygon","coordinates":[[[25.0287,60.1685,0.0],[25.0306,60.171,0.0],[25.0383,60.1743,0.0],[25.0358,60.1774,0.0],[25.0391,60.1788,0.0],[25.0392,60.1818,0.0],[25.0406,60.185,0.0],[25.0556,60.1887,0.0],[25.0621,60.1867,0.0],[25.0661,60.1806,0.0],[25.0774,60.1749,0.0],[25.0716,60.1716,0.0],[25.0748,60.1692,0.0],[25.0746,60.1683,0.0],[25.0692,60.1677,0.0],[25.0671,60.1662,0.0],[25.0545,60.166,0.0],[25.0481,60.1684,0.0],[25.0475,60.167,0.0],[25.0486,60.1654,0.0],[25.048,60.1648,0.0],[25.0405,60.1659,0.0],[25.04,60.165,0.0],[25.0338,60.1675,0.0],[25.0321,60.1665,0.0],[25.0287,60.1685,0.0]]]}},{"type":"Feature","id":"alue-helsinki-492","properties":{"name":"Jollas","province":"Uusimaa","department":"Uusimaa","type":"Kaupunginosa","country":"Finlandia","iso":"FI"},"geometry":{"type":"Polygon","coordinates":[[[25.0539,60.1656,0.0],[25.0555,60.1666,0.0],[25.0671,60.1662,0.0],[25.0692,60.1677,0.0],[25.0746,60.1683,0.0],[25.0748,60.1692,0.0],[25.0716,60.1716,0.0],[25.0774,60.1749,0.0],[25.0861,60.1725,0.0],[25.0952,60.1725,0.0],[25.1062,60.1676,0.0],[25.0961,60.1589,0.0],[25.0918,60.157,0.0],[25.0918,60.1528,0.0],[25.0793,60.1528,0.0],[25.0585,60.158,0.0],[25.0568,60.16,0.0],[25.0572,60.1633,0.0],[25.0539,60.1656,0.0]]]}},{"type":"Feature","id":"alue-helsinki-493","properties":{"name":"Tullisaari","province":"Uusimaa","department":"Uusimaa","type":"Kaupunginosa","country":"Finlandia","iso":"FI"},"geometry":{"type":"Polygon","coordinates":[[[25.0182,60.1783,0.0],[25.0214,60.179,0.0],[25.022,60.1831,0.0],[25.0406,60.185,0.0],[25.0392,60.1818,0.0],[25.0391,60.1788,0.0],[25.0358,60.1774,0.0],[25.0383,60.1743,0.0],[25.0298,60.1702,0.0],[25.0279,60.1731,0.0],[25.0265,60.1737,0.0],[25.0265,60.175,0.0],[25.0221,60.1768,0.0],[25.0196,60.1767,0.0],[25.0182,60.1783,0.0]]]}},{"type":"Feature","id":"alue-helsinki-494","properties":{"name":"Kruunuvuorenranta","province":"Uusimaa","department":"Uusimaa","type":"Kaupunginosa","country":"Finlandia","iso":"FI"},"geometry":{"type":"Polygon","coordinates":[[[25.002,60.1743,0.0],[25.0182,60.1783,0.0],[25.0196,60.1767,0.0],[25.0255,60.1757,0.0],[25.0298,60.1702,0.0],[25.0287,60.1693,0.0],[25.0288,60.1681,0.0],[25.0351,60.1647,0.0],[25.034,60.1633,0.0],[25.0375,60.16,0.0],[25.0374,60.1578,0.0],[25.0052,60.159,0.0],[25.002,60.1743,0.0]]]}},{"type":"Feature","id":"alue-helsinki-495","properties":{"name":"Hevossalmi","province":"Uusimaa","department":"Uusimaa","type":"Kaupunginosa","country":"Finlandia","iso":"FI"},"geometry":{"type":"Polygon","coordinates":[[[25.0326,60.1675,0.0],[25.0388,60.1652,0.0],[25.04,60.165,0.0],[25.0405,60.1659,0.0],[25.0479,60.1647,0.0],[25.0486,60.1654,0.0],[25.0475,60.167,0.0],[25.0481,60.1684,0.0],[25.0545,60.1661,0.0],[25.0539,60.1656,0.0],[25.0572,60.1633,0.0],[25.0568,60.16,0.0],[25.0585,60.158,0.0],[25.0374,60.1578,0.0],[25.0375,60.16,0.0],[25.034,60.1633,0.0],[25.0351,60.1647,0.0],[25.0321,60.1665,0.0],[25.0326,60.1675,0.0]]]}},{"type":"Feature","id":"alue-helsinki-500","properties":{"name":"Villinki","province":"Uusimaa","department":"Uusimaa","type":"Kaupunginosa","country":"Finlandia","iso":"FI"},"geometry":{"type":"Polygon","coordinates":[[[25.0918,60.157,0.0],[25.0961,60.1589,0.0],[25.1062,60.1676,0.0],[25.1234,60.1651,0.0],[25.1575,60.1656,0.0],[25.1609,60.1542,0.0],[25.1482,60.1522,0.0],[25.1144,60.1506,0.0],[25.0918,60.1528,0.0],[25.0918,60.157,0.0]]]}},{"type":"Feature","id":"alue-helsinki-510","properties":{"name":"Santahamina","province":"Uusimaa","department":"Uusimaa","type":"Kaupunginosa","country":"Finlandia","iso":"FI"},"geometry":{"type":"Polygon","coordinates":[[[25.0222,60.1467,0.0],[25.0222,60.1582,0.0],[25.0602,60.158,0.0],[25.0793,60.1528,0.0],[25.0982,60.1527,0.0],[25.1144,60.1506,0.0],[25.124,60.151,0.0],[25.1238,60.1295,0.0],[25.0295,60.1188,0.0],[25.028,60.1376,0.0],[25.0222,60.141,0.0],[25.0222,60.1467,0.0]]]}},{"type":"Feature","id":"alue-helsinki-520","properties":{"name":"Suomenlinna","province":"Uusimaa","department":"Uusimaa","type":"Kaupunginosa","country":"Finlandia","iso":"FI"},"geometry":{"type":"Polygon","coordinates":[[[24.9524,60.1466,0.0],[24.9534,60.1513,0.0],[24.9563,60.1533,0.0],[24.9618,60.1516,0.0],[25.0052,60.159,0.0],[25.0222,60.1582,0.0],[25.0222,60.141,0.0],[25.028,60.1376,0.0],[25.0295,60.1188,0.0],[25.0104,60.1176,0.0],[24.9524,60.1466,0.0]]]}},{"type":"Feature","id":"alue-helsinki-531","properties":{"name":"Länsisaaret","province":"Uusimaa","department":"Uusimaa","type":"Kaupunginosa","country":"Finlandia","iso":"FI"},"geometry":{"type":"Polygon","coordinates":[[[24.7828,60.1,0.0],[24.8357,60.1304,0.0],[24.838,60.1428,0.0],[24.8972,60.1397,0.0],[24.8972,60.1426,0.0],[24.9386,60.1426,0.0],[24.9386,60.1466,0.0],[24.9524,60.1466,0.0],[25.0104,60.1176,0.0],[25.008,60.1174,0.0],[24.9692,60.0537,0.0],[24.8917,60.036,0.0],[24.8481,60.0276,0.0],[24.7828,60.1,0.0]]]}},{"type":"Feature","id":"alue-helsinki-532","properties":{"name":"Itäsaaret","province":"Uusimaa","department":"Uusimaa","type":"Kaupunginosa","country":"Finlandia","iso":"FI"},"geometry":{"type":"Polygon","coordinates":[[[24.9692,60.0537,0.0],[25.008,60.1174,0.0],[25.0295,60.1188,0.0],[25.1238,60.1295,0.0],[25.124,60.151,0.0],[25.1482,60.1522,0.0],[25.1609,60.1542,0.0],[25.1575,60.1656,0.0],[25.1605,60.1646,0.0],[25.2013,60.2006,0.0],[25.2195,60.198,0.0],[25.1942,60.1467,0.0],[25.1768,60.0935,0.0],[25.1337,60.0912,0.0],[24.9692,60.0537,0.0]]]}},{"type":"Feature","id":"alue-helsinki-533","properties":{"name":"Aluemeri","province":"Uusimaa","department":"Uusimaa","type":"Kaupunginosa","country":"Finlandia","iso":"FI"},"geometry":{"type":"Polygon","coordinates":[[[24.8481,60.0276,0.0],[24.8917,60.036,0.0],[25.1337,60.0912,0.0],[25.1768,60.0935,0.0],[25.1586,59.9424,0.0],[24.9423,59.9225,0.0],[24.8481,60.0276,0.0]]]}},{"type":"Feature","id":"alue-helsinki-541","properties":{"name":"Keski-Vuosaari","province":"Uusimaa","department":"Uusimaa","type":"Kaupunginosa","country":"Finlandia","iso":"FI"},"geometry":{"type":"Polygon","coordinates":[[[25.1228,60.2196,0.0],[25.1258,60.2227,0.0],[25.1321,60.2253,0.0],[25.1351,60.2279,0.0],[25.1389,60.2245,0.0],[25.1462,60.2239,0.0],[25.1553,60.2213,0.0],[25.1519,60.2163,0.0],[25.1501,60.2162,0.0],[25.1506,60.2151,0.0],[25.1471,60.2143,0.0],[25.1516,60.2125,0.0],[25.1515,60.2112,0.0],[25.1585,60.2084,0.0],[25.134,60.2056,0.0],[25.133,60.2065,0.0],[25.1363,60.2095,0.0],[25.1354,60.2119,0.0],[25.1322,60.2117,0.0],[25.1299,60.2153,0.0],[25.1227,60.2184,0.0],[25.1228,60.2196,0.0]]]}},{"type":"Feature","id":"alue-helsinki-542","properties":{"name":"Nordsjön kartano","province":"Uusimaa","department":"Uusimaa","type":"Kaupunginosa","country":"Finlandia","iso":"FI"},"geometry":{"type":"Polygon","coordinates":[[[25.1472,60.2148,0.0],[25.1506,60.2151,0.0],[25.1501,60.2162,0.0],[25.1519,60.2163,0.0],[25.1553,60.2213,0.0],[25.1608,60.2208,0.0],[25.1653,60.2156,0.0],[25.1708,60.2123,0.0],[25.1721,60.2101,0.0],[25.175,60.2085,0.0],[25.1737,60.2073,0.0],[25.1656,60.2056,0.0],[25.1616,60.2082,0.0],[25.1585,60.2084,0.0],[25.1515,60.2112,0.0],[25.1516,60.2125,0.0],[25.1475,60.2137,0.0],[25.1472,60.2148,0.0]]]}},{"type":"Feature","id":"alue-helsinki-543","properties":{"name":"Uutela","province":"Uusimaa","department":"Uusimaa","type":"Kaupunginosa","country":"Finlandia","iso":"FI"},"geometry":{"type":"Polygon","coordinates":[[[25.1626,60.2003,0.0],[25.1656,60.2022,0.0],[25.1656,60.2056,0.0],[25.1754,60.2076,0.0],[25.1817,60.2071,0.0],[25.1825,60.2056,0.0],[25.184,60.2052,0.0],[25.1951,60.2056,0.0],[25.2013,60.2006,0.0],[25.1802,60.182,0.0],[25.1533,60.1966,0.0],[25.1626,60.2003,0.0]]]}},{"type":"Feature","id":"alue-helsinki-544","properties":{"name":"Meri-Rastila","province":"Uusimaa","department":"Uusimaa","type":"Kaupunginosa","country":"Finlandia","iso":"FI"},"geometry":{"type":"Polygon","coordinates":[[[25.0875,60.1896,0.0],[25.0891,60.1916,0.0],[25.0966,60.1956,0.0],[25.1048,60.2023,0.0],[25.1119,60.2067,0.0],[25.122,60.2044,0.0],[25.1284,60.2043,0.0],[25.1304,60.2021,0.0],[25.1326,60.2018,0.0],[25.1299,60.1973,0.0],[25.1011,60.1808,0.0],[25.0872,60.1866,0.0],[25.0875,60.1896,0.0]]]}},{"type":"Feature","id":"alue-helsinki-545","properties":{"name":"Kallahti","province":"Uusimaa","department":"Uusimaa","type":"Kaupunginosa","country":"Finlandia","iso":"FI"},"geometry":{"type":"Polygon","coordinates":[[[25.1019,60.1813,0.0],[25.1299,60.1973,0.0],[25.1326,60.2018,0.0],[25.1304,60.2021,0.0],[25.1284,60.2043,0.0],[25.1444,60.2069,0.0],[25.146,60.2038,0.0],[25.144,60.2035,0.0],[25.1533,60.1966,0.0],[25.1802,60.182,0.0],[25.1605,60.1646,0.0],[25.1575,60.1656,0.0],[25.1234,60.1651,0.0],[25.1062,60.1676,0.0],[25.1114,60.1719,0.0],[25.1126,60.176,0.0],[25.1011,60.1808,0.0],[25.1019,60.1813,0.0]]]}},{"type":"Feature","id":"alue-helsinki-546","properties":{"name":"Aurinkolahti","province":"Uusimaa","department":"Uusimaa","type":"Kaupunginosa","country":"Finlandia","iso":"FI"},"geometry":{"type":"Polygon","coordinates":[[[25.1442,60.2035,0.0],[25.146,60.2038,0.0],[25.1447,60.2063,0.0],[25.1599,60.2087,0.0],[25.1656,60.2056,0.0],[25.1652,60.2017,0.0],[25.1533,60.1966,0.0],[25.1442,60.2035,0.0]]]}},{"type":"Feature","id":"alue-helsinki-547","properties":{"name":"Rastila","province":"Uusimaa","department":"Uusimaa","type":"Kaupunginosa","country":"Finlandia","iso":"FI"},"geometry":{"type":"Polygon","coordinates":[[[25.1119,60.2067,0.0],[25.1187,60.2128,0.0],[25.1226,60.217,0.0],[25.1227,60.2184,0.0],[25.1299,60.2153,0.0],[25.1322,60.2117,0.0],[25.1352,60.2121,0.0],[25.1363,60.2095,0.0],[25.133,60.2065,0.0],[25.134,60.2056,0.0],[25.1286,60.2043,0.0],[25.122,60.2044,0.0],[25.1119,60.2067,0.0]]]}},{"type":"Feature","id":"alue-helsinki-548","properties":{"name":"Niinisaari","province":"Uusimaa","department":"Uusimaa","type":"Kaupunginosa","country":"Finlandia","iso":"FI"},"geometry":{"type":"Polygon","coordinates":[[[25.1498,60.2363,0.0],[25.1518,60.2364,0.0],[25.1552,60.2326,0.0],[25.1604,60.2333,0.0],[25.1902,60.2269,0.0],[25.2046,60.2307,0.0],[25.2014,60.2182,0.0],[25.2204,60.1997,0.0],[25.2195,60.198,0.0],[25.2013,60.2006,0.0],[25.1951,60.2056,0.0],[25.184,60.2052,0.0],[25.1825,60.2056,0.0],[25.1817,60.2071,0.0],[25.1737,60.2073,0.0],[25.1749,60.2087,0.0],[25.1656,60.2153,0.0],[25.1608,60.2208,0.0],[25.1586,60.2209,0.0],[25.1596,60.2216,0.0],[25.1588,60.2225,0.0],[25.1543,60.2231,0.0],[25.1497,60.2261,0.0],[25.1496,60.228,0.0],[25.1521,60.2285,0.0],[25.1498,60.2301,0.0],[25.1498,60.2363,0.0]]]}},{"type":"Feature","id":"alue-helsinki-549","properties":{"name":"Mustavuori","province":"Uusimaa","department":"Uusimaa","type":"Kaupunginosa","country":"Finlandia","iso":"FI"},"geometry":{"type":"Polygon","coordinates":[[[25.1355,60.2372,0.0],[25.139,60.2409,0.0],[25.1451,60.2411,0.0],[25.1469,60.2379,0.0],[25.1497,60.2365,0.0],[25.1498,60.2301,0.0],[25.1521,60.2285,0.0],[25.1496,60.228,0.0],[25.1497,60.2261,0.0],[25.1543,60.2231,0.0],[25.1588,60.2225,0.0],[25.1593,60.2212,0.0],[25.1534,60.2215,0.0],[25.1466,60.2238,0.0],[25.1383,60.2249,0.0],[25.1351,60.2279,0.0],[25.1375,60.2326,0.0],[25.1362,60.2371,0.0],[25.1355,60.2372,0.0]]]}},{"type":"Feature","id":"alue-helsinki-550","properties":{"name":"Östersundom","province":"Uusimaa","department":"Uusimaa","type":"Kaupunginosa","country":"Finlandia","iso":"FI"},"geometry":{"type":"Polygon","coordinates":[[[25.144,60.2603,0.0],[25.1441,60.2613,0.0],[25.1555,60.2629,0.0],[25.1719,60.2622,0.0],[25.1736,60.2624,0.0],[25.1733,60.2639,0.0],[25.1756,60.2626,0.0],[25.1898,60.2652,0.0],[25.2029,60.2654,0.0],[25.2078,60.2663,0.0],[25.209,60.2681,0.0],[25.2197,60.2707,0.0],[25.2521,60.2755,0.0],[25.2509,60.2735,0.0],[25.2433,60.2718,0.0],[25.2348,60.272,0.0],[25.2319,60.2672,0.0],[25.2326,60.2625,0.0],[25.2273,60.2611,0.0],[25.2335,60.2566,0.0],[25.2252,60.2568,0.0],[25.2218,60.2563,0.0],[25.2218,60.2555,0.0],[25.2215,60.2563,0.0],[25.2162,60.2564,0.0],[25.2031,60.2529,0.0],[25.2028,60.2521,0.0],[25.2016,60.2525,0.0],[25.2026,60.2519,0.0],[25.1997,60.2507,0.0],[25.2061,60.2487,0.0],[25.2069,60.2494,0.0],[25.209,60.247,0.0],[25.1961,60.2464,0.0],[25.1875,60.2471,0.0],[25.1817,60.244,0.0],[25.1776,60.2442,0.0],[25.172,60.248,0.0],[25.1724,60.249,0.0],[25.1693,60.2502,0.0],[25.1601,60.2486,0.0],[25.1591,60.2507,0.0],[25.1574,60.2511,0.0],[25.1577,60.2539,0.0],[25.1546,60.2551,0.0],[25.154,60.2566,0.0],[25.1505,60.2582,0.0],[25.1468,60.2583,0.0],[25.144,60.2603,0.0]]]}},{"type":"Feature","id":"alue-helsinki-560","properties":{"name":"Salmenkallio","province":"Uusimaa","department":"Uusimaa","type":"Kaupunginosa","country":"Finlandia","iso":"FI"},"geometry":{"type":"Polygon","coordinates":[[[25.1397,60.2415,0.0],[25.1432,60.2447,0.0],[25.1507,60.2455,0.0],[25.1588,60.2486,0.0],[25.1693,60.2502,0.0],[25.1724,60.249,0.0],[25.172,60.248,0.0],[25.1756,60.2453,0.0],[25.1802,60.2438,0.0],[25.1987,60.2292,0.0],[25.1902,60.2269,0.0],[25.1604,60.2333,0.0],[25.1552,60.2326,0.0],[25.1518,60.2364,0.0],[25.1498,60.2363,0.0],[25.1469,60.2379,0.0],[25.1448,60.2413,0.0],[25.139,60.2409,0.0],[25.1397,60.2415,0.0]]]}},{"type":"Feature","id":"alue-helsinki-570","properties":{"name":"Talosaari","province":"Uusimaa","department":"Uusimaa","type":"Kaupunginosa","country":"Finlandia","iso":"FI"},"geometry":{"type":"Polygon","coordinates":[[[25.1803,60.2438,0.0],[25.1875,60.2471,0.0],[25.2119,60.2469,0.0],[25.2216,60.2443,0.0],[25.2266,60.2394,0.0],[25.2044,60.2299,0.0],[25.2046,60.2307,0.0],[25.1987,60.2292,0.0],[25.1803,60.2438,0.0]]]}},{"type":"Feature","id":"alue-helsinki-580","properties":{"name":"Karhusaari","province":"Uusimaa","department":"Uusimaa","type":"Kaupunginosa","country":"Finlandia","iso":"FI"},"geometry":{"type":"Polygon","coordinates":[[[25.2003,60.2507,0.0],[25.2026,60.2519,0.0],[25.2016,60.2525,0.0],[25.2028,60.2521,0.0],[25.2031,60.2529,0.0],[25.2162,60.2564,0.0],[25.2215,60.2563,0.0],[25.2218,60.2555,0.0],[25.2218,60.2563,0.0],[25.2268,60.257,0.0],[25.2375,60.2563,0.0],[25.2408,60.2505,0.0],[25.2409,60.2463,0.0],[25.2271,60.2451,0.0],[25.2231,60.2428,0.0],[25.2216,60.2443,0.0],[25.209,60.247,0.0],[25.2069,60.2494,0.0],[25.2061,60.2487,0.0],[25.2003,60.2507,0.0]]]}},{"type":"Feature","id":"alue-helsinki-591","properties":{"name":"Landbo","province":"Uusimaa","department":"Uusimaa","type":"Kaupunginosa","country":"Finlandia","iso":"FI"},"geometry":{"type":"Polygon","coordinates":[[[25.1417,60.2648,0.0],[25.1431,60.2658,0.0],[25.1419,60.2683,0.0],[25.1425,60.2698,0.0],[25.1724,60.2764,0.0],[25.1738,60.2783,0.0],[25.1788,60.2778,0.0],[25.1877,60.2799,0.0],[25.1903,60.2857,0.0],[25.1963,60.282,0.0],[25.1967,60.2832,0.0],[25.2049,60.2864,0.0],[25.2257,60.276,0.0],[25.2264,60.2717,0.0],[25.209,60.2681,0.0],[25.2078,60.2663,0.0],[25.2029,60.2654,0.0],[25.1898,60.2652,0.0],[25.1756,60.2626,0.0],[25.1733,60.2639,0.0],[25.1736,60.2624,0.0],[25.1725,60.2622,0.0],[25.1555,60.2629,0.0],[25.1441,60.2613,0.0],[25.1417,60.2648,0.0]]]}},{"type":"Feature","id":"alue-helsinki-592","properties":{"name":"Puroniitty","province":"Uusimaa","department":"Uusimaa","type":"Kaupunginosa","country":"Finlandia","iso":"FI"},"geometry":{"type":"Polygon","coordinates":[[[25.2015,60.288,0.0],[25.2226,60.292,0.0],[25.2291,60.296,0.0],[25.227,60.2966,0.0],[25.2295,60.2978,0.0],[25.2382,60.2953,0.0],[25.2529,60.2975,0.0],[25.2545,60.2952,0.0],[25.2456,60.2935,0.0],[25.2513,60.2896,0.0],[25.2539,60.2896,0.0],[25.2439,60.2849,0.0],[25.2473,60.283,0.0],[25.2471,60.2785,0.0],[25.2441,60.2783,0.0],[25.2521,60.2755,0.0],[25.2296,60.2721,0.0],[25.2264,60.2717,0.0],[25.2257,60.276,0.0],[25.2015,60.288,0.0]]]}},{"type":"Feature","id":"alue-helsinki-311","properties":{"name":"Kotkavuori","province":"Uusimaa","department":"Uusimaa","type":"Kaupunginosa","country":"Finlandia","iso":"FI"},"geometry":{"type":"Polygon","coordinates":[[[24.8737,60.1574,0.0],[24.8767,60.1649,0.0],[24.8757,60.1696,0.0],[24.8822,60.1721,0.0],[24.8972,60.1659,0.0],[24.8972,60.1576,0.0],[24.8861,60.1576,0.0],[24.8807,60.1553,0.0],[24.8725,60.1545,0.0],[24.8737,60.1574,0.0]]]}},{"type":"Feature","id":"alue-helsinki-312","properties":{"name":"Vattuniemi","province":"Uusimaa","department":"Uusimaa","type":"Kaupunginosa","country":"Finlandia","iso":"FI"},"geometry":{"type":"Polygon","coordinates":[[[24.8723,60.1539,0.0],[24.8807,60.1553,0.0],[24.8861,60.1576,0.0],[24.8972,60.1576,0.0],[24.8972,60.1397,0.0],[24.8674,60.1413,0.0],[24.8723,60.1539,0.0]]]}},{"type":"Feature","id":"alue-helsinki-313","properties":{"name":"Myllykallio","province":"Uusimaa","department":"Uusimaa","type":"Kaupunginosa","country":"Finlandia","iso":"FI"},"geometry":{"type":"Polygon","coordinates":[[[24.8383,60.1442,0.0],[24.8394,60.1503,0.0],[24.8409,60.1511,0.0],[24.8413,60.158,0.0],[24.8515,60.1576,0.0],[24.8538,60.1637,0.0],[24.8546,60.1703,0.0],[24.8571,60.1719,0.0],[24.8632,60.1711,0.0],[24.863,60.1689,0.0],[24.8757,60.1696,0.0],[24.8767,60.1649,0.0],[24.8674,60.1413,0.0],[24.838,60.1428,0.0],[24.8383,60.1442,0.0]]]}},{"type":"Feature","id":"alue-helsinki-314","properties":{"name":"Koivusaari","province":"Uusimaa","department":"Uusimaa","type":"Kaupunginosa","country":"Finlandia","iso":"FI"},"geometry":{"type":"Polygon","coordinates":[[[24.8417,60.159,0.0],[24.8444,60.1656,0.0],[24.8441,60.1736,0.0],[24.8574,60.1733,0.0],[24.8571,60.1719,0.0],[24.8546,60.1703,0.0],[24.8538,60.1637,0.0],[24.8515,60.1576,0.0],[24.8413,60.158,0.0],[24.8417,60.159,0.0]]]}},{"type":"Feature","id":"alue-helsinki-101","properties":{"name":"Vilhonvuori","province":"Uusimaa","department":"Uusimaa","type":"Kaupunginosa","country":"Finlandia","iso":"FI"},"geometry":{"type":"Polygon","coordinates":[[[24.9536,60.181,0.0],[24.9604,60.1846,0.0],[24.9618,60.1873,0.0],[24.9635,60.1878,0.0],[24.9643,60.1892,0.0],[24.9701,60.1883,0.0],[24.9661,60.1851,0.0],[24.9609,60.1826,0.0],[24.9633,60.1816,0.0],[24.9665,60.1763,0.0],[24.9581,60.1773,0.0],[24.9587,60.1798,0.0],[24.9552,60.1799,0.0],[24.9536,60.181,0.0]]]}},{"type":"Feature","id":"alue-helsinki-102","properties":{"name":"Kalasatama","province":"Uusimaa","department":"Uusimaa","type":"Kaupunginosa","country":"Finlandia","iso":"FI"},"geometry":{"type":"Polygon","coordinates":[[[24.9687,60.187,0.0],[24.9701,60.1883,0.0],[24.9682,60.1886,0.0],[24.9697,60.1901,0.0],[24.9744,60.1889,0.0],[24.9776,60.1922,0.0],[24.9875,60.1934,0.0],[24.998,60.1983,0.0],[24.987,60.1859,0.0],[24.9827,60.1822,0.0],[24.9753,60.1833,0.0],[24.9681,60.1865,0.0],[24.9687,60.187,0.0]]]}},{"type":"Feature","id":"alue-helsinki-103","properties":{"name":"Sompasaari","province":"Uusimaa","department":"Uusimaa","type":"Kaupunginosa","country":"Finlandia","iso":"FI"},"geometry":{"type":"Polygon","coordinates":[[[24.9721,60.1808,0.0],[24.9753,60.1833,0.0],[24.9827,60.1822,0.0],[24.9785,60.1788,0.0],[24.9768,60.175,0.0],[24.9665,60.1763,0.0],[24.9721,60.1808,0.0]]]}},{"type":"Feature","id":"alue-helsinki-104","properties":{"name":"Hanasaari","province":"Uusimaa","department":"Uusimaa","type":"Kaupunginosa","country":"Finlandia","iso":"FI"},"geometry":{"type":"Polygon","coordinates":[[[24.961,60.1827,0.0],[24.9681,60.1865,0.0],[24.9753,60.1833,0.0],[24.9665,60.1763,0.0],[24.9633,60.1816,0.0],[24.961,60.1827,0.0]]]}},{"type":"Feature","id":"alue-helsinki-211","properties":{"name":"Hermanninmäki","province":"Uusimaa","department":"Uusimaa","type":"Kaupunginosa","country":"Finlandia","iso":"FI"},"geometry":{"type":"Polygon","coordinates":[[[24.9623,60.1978,0.0],[24.9636,60.201,0.0],[24.9654,60.2007,0.0],[24.9782,60.1922,0.0],[24.9744,60.1889,0.0],[24.9697,60.1901,0.0],[24.9682,60.1886,0.0],[24.9643,60.1892,0.0],[24.9649,60.1931,0.0],[24.9623,60.1978,0.0]]]}},{"type":"Feature","id":"alue-helsinki-212","properties":{"name":"Hermanninranta","province":"Uusimaa","department":"Uusimaa","type":"Kaupunginosa","country":"Finlandia","iso":"FI"},"geometry":{"type":"Polygon","coordinates":[[[24.9738,60.1956,0.0],[24.9841,60.2,0.0],[24.998,60.1983,0.0],[24.9875,60.1934,0.0],[24.9788,60.1923,0.0],[24.9738,60.1956,0.0]]]}},{"type":"Feature","id":"alue-helsinki-213","properties":{"name":"Kyläsaari","province":"Uusimaa","department":"Uusimaa","type":"Kaupunginosa","country":"Finlandia","iso":"FI"},"geometry":{"type":"Polygon","coordinates":[[[24.9678,60.2003,0.0],[24.9746,60.2012,0.0],[24.9841,60.2,0.0],[24.9738,60.1956,0.0],[24.9654,60.2007,0.0],[24.9678,60.2003,0.0]]]}},{"type":"Feature","id":"alue-helsinki-161","properties":{"name":"Vanha Ruskeasuo","province":"Uusimaa","department":"Uusimaa","type":"Kaupunginosa","country":"Finlandia","iso":"FI"},"geometry":{"type":"Polygon","coordinates":[[[24.8994,60.2057,0.0],[24.8995,60.2078,0.0],[24.9095,60.2083,0.0],[24.9164,60.2048,0.0],[24.9158,60.2042,0.0],[24.9168,60.2039,0.0],[24.9161,60.2033,0.0],[24.917,60.2025,0.0],[24.9179,60.1966,0.0],[24.9017,60.1975,0.0],[24.8998,60.2011,0.0],[24.8994,60.2057,0.0]]]}},{"type":"Feature","id":"alue-helsinki-162","properties":{"name":"Pikku Huopalahti","province":"Uusimaa","department":"Uusimaa","type":"Kaupunginosa","country":"Finlandia","iso":"FI"},"geometry":{"type":"Polygon","coordinates":[[[24.8847,60.2071,0.0],[24.8898,60.2069,0.0],[24.8894,60.2086,0.0],[24.8903,60.2088,0.0],[24.8995,60.2078,0.0],[24.8997,60.2013,0.0],[24.9017,60.1975,0.0],[24.8995,60.1974,0.0],[24.8943,60.1938,0.0],[24.8888,60.1958,0.0],[24.8906,60.197,0.0],[24.8914,60.2014,0.0],[24.8847,60.2071,0.0]]]}},{"type":"Feature","id":"alue-helsinki-336","properties":{"name":"Honkasuo","province":"Uusimaa","department":"Uusimaa","type":"Kaupunginosa","country":"Finlandia","iso":"FI"},"geometry":{"type":"Polygon","coordinates":[[[24.8337,60.2547,0.0],[24.8347,60.2585,0.0],[24.8386,60.2591,0.0],[24.8552,60.2543,0.0],[24.8484,60.2544,0.0],[24.8387,60.2514,0.0],[24.8337,60.2547,0.0]]]}},{"type":"Feature","id":"alue-helsinki-415","properties":{"name":"Alppikylä","province":"Uusimaa","department":"Uusimaa","type":"Kaupunginosa","country":"Finlandia","iso":"FI"},"geometry":{"type":"Polygon","coordinates":[[[25.0618,60.252,0.0],[25.0646,60.2595,0.0],[25.0624,60.2635,0.0],[25.0729,60.2629,0.0],[25.0661,60.254,0.0],[25.0618,60.252,0.0]]]}}]}