{"type":"FeatureCollection","features":[{"type":"Feature","id":"raion-kyiv-1","properties":{"name":"Holosiivskyi","province":"Kyiv","department":"Kyiv City","type":"Raion","country":"Ucrania","iso":"UA"},"geometry":{"type":"MultiPolygon","coordinates":[[[[30.4303,50.3719],[30.4387,50.379],[30.4424,50.3813],[30.4422,50.3817],[30.4427,50.382],[30.4415,50.3829],[30.4457,50.3859],[30.4465,50.3857],[30.4485,50.387],[30.4539,50.3842],[30.4567,50.3887],[30.4586,50.3882],[30.4593,50.3893],[30.4604,50.3891],[30.4607,50.3914],[30.4641,50.3913],[30.4654,50.3905],[30.4715,50.3921],[30.4705,50.3965],[30.4729,50.3971],[30.4732,50.3981],[30.4717,50.399],[30.4735,50.3984],[30.4789,50.3982],[30.4788,50.3973],[30.4841,50.3985],[30.4887,50.4013],[30.4909,50.4069],[30.493,50.4094],[30.4975,50.4106],[30.5074,50.4107],[30.5013,50.4138],[30.4986,50.416],[30.499,50.4174],[30.5035,50.4221],[30.5049,50.4215],[30.5077,50.4224],[30.5092,50.4214],[30.5111,50.4216],[30.5148,50.4179],[30.5154,50.4181],[30.5097,50.4264],[30.5095,50.4289],[30.5057,50.4325],[30.5012,50.4339],[30.494,50.4386],[30.5015,50.4419],[30.5162,50.4393],[30.5161,50.4281],[30.5269,50.4109],[30.5228,50.409],[30.5273,50.4064],[30.5333,50.4052],[30.5441,50.4048],[30.5545,50.4027],[30.5596,50.4027],[30.5629,50.4037],[30.5672,50.4068],[30.5701,50.4106],[30.573,50.4127],[30.5902,50.4172],[30.5961,50.4089],[30.596,50.4043],[30.5957,50.4002],[30.5934,50.3949],[30.5868,50.3877],[30.5838,50.3803],[30.5833,50.3744],[30.5869,50.3609],[30.5926,50.3527],[30.5985,50.3499],[30.6021,50.3472],[30.6071,50.3408],[30.6129,50.3373],[30.6224,50.3278],[30.6258,50.3197],[30.6274,50.3174],[30.6312,50.3137],[30.6371,50.3096],[30.6419,50.3045],[30.6436,50.3014],[30.6462,50.2984],[30.647,50.295],[30.6493,50.2916],[30.6519,50.2902],[30.6423,50.2878],[30.6426,50.2893],[30.642,50.2909],[30.6396,50.2937],[30.6346,50.2967],[30.6309,50.2971],[30.6293,50.2905],[30.6258,50.2826],[30.6233,50.2807],[30.6103,50.2807],[30.6096,50.2787],[30.6113,50.2768],[30.6108,50.2756],[30.6112,50.275],[30.6128,50.2745],[30.6145,50.2723],[30.6159,50.2718],[30.6164,50.2667],[30.6175,50.2655],[30.6184,50.2648],[30.6264,50.2629],[30.6249,50.2609],[30.6255,50.2596],[30.6253,50.2562],[30.6278,50.2546],[30.6287,50.2548],[30.6327,50.2512],[30.6329,50.2488],[30.6339,50.2466],[30.6454,50.2398],[30.6449,50.2393],[30.6454,50.2374],[30.6369,50.2354],[30.6436,50.2261],[30.5927,50.2132],[30.591,50.2222],[30.5906,50.2301],[30.5862,50.2454],[30.5755,50.2595],[30.5699,50.2593],[30.5698,50.2625],[30.5679,50.2656],[30.5639,50.2695],[30.5638,50.2773],[30.5538,50.2772],[30.554,50.2696],[30.5536,50.2697],[30.5426,50.2759],[30.5479,50.2826],[30.5464,50.291],[30.5334,50.2902],[30.5276,50.2907],[30.5333,50.2958],[30.5334,50.3016],[30.5317,50.3023],[30.5329,50.3125],[30.5327,50.3159],[30.5336,50.3171],[30.5163,50.321],[30.5091,50.3262],[30.4962,50.3219],[30.4883,50.3268],[30.4887,50.3279],[30.4956,50.3303],[30.4947,50.3316],[30.4974,50.3325],[30.4929,50.3337],[30.4913,50.3354],[30.4859,50.3361],[30.4848,50.3357],[30.4851,50.3339],[30.4847,50.3336],[30.4822,50.3345],[30.4798,50.3334],[30.4751,50.3333],[30.4744,50.335],[30.475,50.3367],[30.4766,50.3367],[30.4766,50.3374],[30.4777,50.3374],[30.4781,50.3395],[30.4745,50.3397],[30.4741,50.3404],[30.4746,50.3408],[30.4743,50.3425],[30.4733,50.3428],[30.4739,50.3434],[30.4728,50.3514],[30.4682,50.3526],[30.4685,50.3539],[30.4702,50.3555],[30.4696,50.3578],[30.4672,50.3585],[30.4683,50.3601],[30.4577,50.361],[30.4549,50.3598],[30.4532,50.3556],[30.4521,50.3546],[30.4375,50.357],[30.4377,50.3602],[30.4357,50.361],[30.4377,50.3669],[30.4303,50.3719]]]]}},{"type":"Feature","id":"raion-kyiv-2","properties":{"name":"Solomianskyi","province":"Kyiv","department":"Kyiv City","type":"Raion","country":"Ucrania","iso":"UA"},"geometry":{"type":"MultiPolygon","coordinates":[[[[30.3983,50.4396],[30.3976,50.4418],[30.3997,50.4469],[30.414,50.4549],[30.4154,50.457],[30.4158,50.4594],[30.4668,50.4511],[30.4661,50.4485],[30.4675,50.446],[30.4766,50.4471],[30.4852,50.4447],[30.49,50.4416],[30.4921,50.4415],[30.4913,50.4406],[30.5,50.4345],[30.5057,50.4325],[30.5095,50.4289],[30.5097,50.4264],[30.5154,50.4181],[30.5148,50.4179],[30.5111,50.4216],[30.5092,50.4214],[30.5077,50.4224],[30.5049,50.4215],[30.5035,50.4221],[30.499,50.4174],[30.4986,50.416],[30.5013,50.4138],[30.5074,50.4107],[30.4975,50.4106],[30.493,50.4094],[30.4909,50.4069],[30.4887,50.4013],[30.4854,50.399],[30.4788,50.3973],[30.4789,50.3982],[30.4735,50.3984],[30.4717,50.399],[30.4732,50.3981],[30.4729,50.3971],[30.4705,50.3965],[30.4715,50.3921],[30.4654,50.3905],[30.4641,50.3913],[30.4607,50.3914],[30.4604,50.3891],[30.4593,50.3893],[30.4586,50.3882],[30.4567,50.3887],[30.4541,50.3843],[30.4485,50.387],[30.4465,50.3857],[30.4457,50.3859],[30.4415,50.3829],[30.4427,50.382],[30.4422,50.3817],[30.4286,50.3918],[30.4264,50.3911],[30.422,50.3934],[30.4221,50.3946],[30.4231,50.3956],[30.417,50.3964],[30.4191,50.3971],[30.4172,50.398],[30.4216,50.4],[30.4254,50.403],[30.4275,50.4063],[30.4276,50.408],[30.4194,50.4169],[30.414,50.4211],[30.4072,50.4278],[30.3983,50.4396]]]]}},{"type":"Feature","id":"raion-kyiv-3","properties":{"name":"Sviatoshynskyi","province":"Kyiv","department":"Kyiv City","type":"Raion","country":"Ucrania","iso":"UA"},"geometry":{"type":"MultiPolygon","coordinates":[[[[30.2387,50.4257],[30.2414,50.4246],[30.2421,50.425],[30.2447,50.4232],[30.2509,50.4265],[30.2553,50.4311],[30.2601,50.4312],[30.2693,50.4263],[30.2762,50.4307],[30.2747,50.4317],[30.2816,50.4427],[30.2814,50.4473],[30.3146,50.4424],[30.3222,50.4424],[30.3335,50.4448],[30.3489,50.4459],[30.3499,50.4467],[30.3475,50.4499],[30.3482,50.4512],[30.3499,50.4513],[30.3501,50.4504],[30.3509,50.4504],[30.3516,50.4457],[30.3581,50.4452],[30.3599,50.4344],[30.3609,50.4322],[30.3666,50.4249],[30.3655,50.4242],[30.3705,50.4204],[30.3927,50.4065],[30.4172,50.398],[30.4205,50.3993],[30.424,50.4017],[30.4277,50.4068],[30.4274,50.4084],[30.424,50.4124],[30.4072,50.4278],[30.3977,50.4406],[30.3977,50.4424],[30.3997,50.4469],[30.414,50.4549],[30.4154,50.457],[30.4158,50.4594],[30.3961,50.458],[30.3959,50.4867],[30.3651,50.4987],[30.362,50.5157],[30.3527,50.5189],[30.303,50.5477],[30.3018,50.5472],[30.3044,50.5439],[30.3025,50.5334],[30.3005,50.5339],[30.3002,50.5332],[30.2927,50.5327],[30.2902,50.529],[30.2909,50.5273],[30.2815,50.5222],[30.274,50.5214],[30.2719,50.5197],[30.2687,50.5185],[30.2641,50.5151],[30.2602,50.51],[30.2641,50.5062],[30.2702,50.5024],[30.2703,50.4988],[30.2652,50.4938],[30.2665,50.4926],[30.2626,50.4887],[30.2633,50.4884],[30.2627,50.4877],[30.2611,50.4878],[30.2582,50.4866],[30.2535,50.4868],[30.2526,50.4864],[30.2517,50.4848],[30.2515,50.4803],[30.2497,50.4773],[30.2491,50.4743],[30.2559,50.4722],[30.2582,50.4721],[30.2577,50.4698],[30.2569,50.4684],[30.2531,50.4663],[30.2508,50.4637],[30.2484,50.4625],[30.2464,50.4606],[30.2414,50.4552],[30.2399,50.4524],[30.2394,50.4501],[30.2402,50.4486],[30.2416,50.4477],[30.2435,50.4449],[30.2456,50.4434],[30.2465,50.4405],[30.2461,50.4394],[30.243,50.4385],[30.2423,50.4348],[30.24,50.4338],[30.2373,50.4315],[30.2363,50.4294],[30.2361,50.4268],[30.2387,50.4257]]],[[[30.3184,50.4949],[30.3193,50.4959],[30.3252,50.4927],[30.3347,50.4934],[30.3347,50.4946],[30.3371,50.4943],[30.3372,50.4964],[30.339,50.4966],[30.3394,50.4983],[30.3403,50.4982],[30.34,50.4967],[30.341,50.4963],[30.3412,50.4976],[30.3454,50.4987],[30.3464,50.4941],[30.3456,50.4918],[30.3448,50.4914],[30.3461,50.4894],[30.3491,50.4889],[30.3481,50.4859],[30.3452,50.4862],[30.3456,50.4872],[30.3443,50.4874],[30.3439,50.4865],[30.3424,50.4867],[30.3412,50.4856],[30.3419,50.4851],[30.3413,50.4845],[30.3382,50.4859],[30.3367,50.4847],[30.3364,50.4832],[30.3273,50.4847],[30.3209,50.4867],[30.32,50.4907],[30.3188,50.4906],[30.3174,50.492],[30.3184,50.4949]]]]}},{"type":"Feature","id":"raion-kyiv-4","properties":{"name":"Darnytskyi","province":"Kyiv","department":"Kyiv City","type":"Raion","country":"Ucrania","iso":"UA"},"geometry":{"type":"MultiPolygon","coordinates":[[[[30.5902,50.4172],[30.5961,50.4089],[30.5957,50.4002],[30.5934,50.3949],[30.5868,50.3877],[30.5838,50.3803],[30.5833,50.3744],[30.5842,50.3698],[30.5869,50.3609],[30.5926,50.3527],[30.5985,50.3499],[30.6021,50.3472],[30.6071,50.3408],[30.6129,50.3373],[30.6162,50.3399],[30.6154,50.3416],[30.6144,50.3422],[30.6149,50.3425],[30.6146,50.3431],[30.6113,50.3464],[30.6167,50.3485],[30.6171,50.3478],[30.6227,50.3488],[30.6265,50.3487],[30.6275,50.3452],[30.6297,50.3446],[30.6305,50.3419],[30.6336,50.3405],[30.6356,50.3383],[30.642,50.3378],[30.6401,50.3391],[30.6362,50.3403],[30.6348,50.3419],[30.6374,50.3453],[30.639,50.3562],[30.6382,50.357],[30.6391,50.3592],[30.6359,50.3611],[30.6519,50.3627],[30.662,50.3664],[30.6685,50.3671],[30.6706,50.3699],[30.6737,50.3703],[30.6753,50.3697],[30.6797,50.3713],[30.6774,50.3685],[30.6723,50.3666],[30.673,50.3657],[30.6714,50.3649],[30.6686,50.3598],[30.67,50.3588],[30.6739,50.3605],[30.6759,50.3573],[30.6738,50.355],[30.6761,50.3537],[30.6774,50.3538],[30.6778,50.353],[30.6853,50.3529],[30.6933,50.3499],[30.6952,50.3497],[30.6965,50.3491],[30.6968,50.3473],[30.7114,50.3523],[30.712,50.3543],[30.7131,50.3546],[30.7137,50.3562],[30.7135,50.3581],[30.7099,50.3626],[30.7073,50.3639],[30.7087,50.3647],[30.7071,50.3657],[30.7077,50.367],[30.7094,50.3671],[30.7096,50.3679],[30.7134,50.3677],[30.7149,50.3688],[30.7149,50.3705],[30.7117,50.3729],[30.713,50.3745],[30.712,50.375],[30.7128,50.3758],[30.7114,50.3766],[30.7116,50.3786],[30.7137,50.379],[30.7133,50.3797],[30.7141,50.38],[30.714,50.3805],[30.7169,50.3824],[30.7205,50.3821],[30.7253,50.38],[30.7289,50.3768],[30.727,50.3755],[30.7408,50.372],[30.7422,50.372],[30.7526,50.3756],[30.7621,50.3751],[30.7635,50.3772],[30.7642,50.3806],[30.7774,50.3826],[30.7806,50.3854],[30.7758,50.3897],[30.7752,50.3942],[30.776,50.3949],[30.7904,50.3979],[30.7972,50.3941],[30.8131,50.3919],[30.8187,50.3944],[30.8215,50.398],[30.8223,50.4006],[30.8213,50.401],[30.8264,50.4041],[30.8215,50.4083],[30.8138,50.4092],[30.8102,50.4108],[30.8087,50.4096],[30.8045,50.4116],[30.8,50.4149],[30.7982,50.4153],[30.7962,50.4176],[30.801,50.4208],[30.8003,50.4218],[30.8022,50.423],[30.7998,50.425],[30.8016,50.4268],[30.7965,50.4298],[30.7922,50.4337],[30.7899,50.4329],[30.7779,50.4381],[30.7762,50.4391],[30.7769,50.4433],[30.759,50.4487],[30.7426,50.4585],[30.7514,50.4603],[30.7547,50.4616],[30.7507,50.4642],[30.7533,50.4665],[30.7516,50.4676],[30.7537,50.469],[30.7517,50.4699],[30.7416,50.4687],[30.7106,50.4489],[30.6963,50.4435],[30.6191,50.425],[30.5902,50.4172]]]]}},{"type":"Feature","id":"raion-kyiv-5","properties":{"name":"Dniprovskyi","province":"Kyiv","department":"Kyiv City","type":"Raion","country":"Ucrania","iso":"UA"},"geometry":{"type":"MultiPolygon","coordinates":[[[[30.5367,50.4909],[30.545,50.4934],[30.5613,50.4954],[30.608,50.4952],[30.6105,50.4891],[30.6129,50.4851],[30.6104,50.4852],[30.6076,50.4785],[30.6124,50.4723],[30.623,50.4687],[30.6252,50.4671],[30.6332,50.4556],[30.6305,50.4515],[30.6368,50.45],[30.6431,50.4517],[30.645,50.4499],[30.6482,50.4507],[30.6505,50.4473],[30.6587,50.4492],[30.6598,50.4503],[30.6598,50.4579],[30.6564,50.4597],[30.6561,50.4603],[30.657,50.4604],[30.656,50.4635],[30.6545,50.4631],[30.6537,50.4643],[30.6514,50.4647],[30.6563,50.4663],[30.6562,50.4673],[30.6572,50.4682],[30.7401,50.4911],[30.7419,50.4912],[30.7425,50.4904],[30.7469,50.492],[30.7491,50.4876],[30.7516,50.4879],[30.7544,50.4902],[30.7598,50.4836],[30.7557,50.4829],[30.7487,50.4838],[30.7463,50.4778],[30.7499,50.4744],[30.7116,50.4495],[30.7061,50.4468],[30.696,50.4434],[30.639,50.4299],[30.5902,50.4172],[30.588,50.4232],[30.5866,50.4253],[30.576,50.4328],[30.5698,50.4363],[30.5615,50.4449],[30.5517,50.4498],[30.5349,50.4563],[30.5327,50.4577],[30.5305,50.4601],[30.5291,50.4636],[30.5292,50.4673],[30.5302,50.4689],[30.5364,50.4738],[30.5415,50.4791],[30.5424,50.4826],[30.5414,50.4861],[30.5367,50.4909]]]]}},{"type":"Feature","id":"raion-kyiv-6","properties":{"name":"Desnianskyi","province":"Kyiv","department":"Kyiv City","type":"Raion","country":"Ucrania","iso":"UA"},"geometry":{"type":"MultiPolygon","coordinates":[[[[30.5367,50.4909],[30.5313,50.4969],[30.5258,50.5011],[30.5254,50.504],[30.5272,50.5097],[30.538,50.5245],[30.5422,50.5222],[30.555,50.522],[30.5583,50.5191],[30.5596,50.5173],[30.5596,50.5165],[30.5657,50.5158],[30.567,50.5167],[30.567,50.5189],[30.568,50.5201],[30.568,50.521],[30.5651,50.5244],[30.5599,50.5285],[30.5553,50.5298],[30.5541,50.5307],[30.5535,50.5337],[30.5526,50.5343],[30.553,50.5364],[30.5555,50.538],[30.557,50.5403],[30.5716,50.5386],[30.5718,50.5378],[30.5941,50.5363],[30.654,50.5342],[30.6558,50.5389],[30.6623,50.5466],[30.6629,50.5498],[30.6641,50.5515],[30.67,50.5537],[30.6723,50.5537],[30.6811,50.5558],[30.6976,50.562],[30.6981,50.5565],[30.699,50.5547],[30.714,50.5556],[30.7109,50.5718],[30.7083,50.5728],[30.7214,50.5859],[30.7192,50.5872],[30.7177,50.5895],[30.7198,50.5908],[30.7228,50.5906],[30.7536,50.5833],[30.7664,50.5839],[30.771,50.5756],[30.7832,50.5774],[30.7822,50.5787],[30.7839,50.58],[30.7871,50.577],[30.7885,50.5771],[30.791,50.5741],[30.7974,50.5701],[30.8122,50.5661],[30.8118,50.5656],[30.8142,50.5642],[30.8158,50.564],[30.816,50.5632],[30.8144,50.5628],[30.8142,50.5604],[30.8151,50.56],[30.814,50.5583],[30.8176,50.5579],[30.8214,50.5388],[30.8233,50.5371],[30.817,50.535],[30.808,50.5335],[30.8025,50.531],[30.7985,50.53],[30.7953,50.5298],[30.7831,50.5269],[30.7649,50.5209],[30.7525,50.5185],[30.755,50.5159],[30.7612,50.5123],[30.7618,50.5107],[30.7612,50.5103],[30.7619,50.509],[30.7598,50.5084],[30.7593,50.5092],[30.7572,50.5088],[30.7577,50.5078],[30.7493,50.5046],[30.7507,50.5023],[30.7462,50.5021],[30.7458,50.5031],[30.7455,50.5019],[30.7407,50.4999],[30.74,50.499],[30.7379,50.4992],[30.7419,50.4918],[30.6572,50.4682],[30.6562,50.4673],[30.6563,50.4663],[30.6514,50.4647],[30.6537,50.4643],[30.6545,50.4631],[30.656,50.4635],[30.657,50.4604],[30.6561,50.4603],[30.6564,50.4597],[30.6598,50.4579],[30.6598,50.4503],[30.6587,50.4492],[30.6505,50.4473],[30.6482,50.4507],[30.645,50.4499],[30.6431,50.4517],[30.6368,50.45],[30.6305,50.4515],[30.6332,50.4556],[30.6252,50.4671],[30.623,50.4687],[30.6124,50.4723],[30.6076,50.4785],[30.6104,50.4852],[30.6129,50.4851],[30.6105,50.4891],[30.608,50.4952],[30.5613,50.4954],[30.545,50.4934],[30.5367,50.4909]]],[[[30.7217,50.522],[30.7236,50.5112],[30.7349,50.5132],[30.7409,50.5162],[30.7521,50.5188],[30.7511,50.5245],[30.7217,50.522]]]]}},{"type":"Feature","id":"raion-kyiv-7","properties":{"name":"Obolonskyi","province":"Kyiv","department":"Kyiv City","type":"Raion","country":"Ucrania","iso":"UA"},"geometry":{"type":"MultiPolygon","coordinates":[[[[30.2993,50.5502],[30.2975,50.5516],[30.298,50.5544],[30.3011,50.5533],[30.3111,50.5552],[30.3265,50.5462],[30.326,50.5501],[30.3294,50.5495],[30.3327,50.5513],[30.3297,50.5528],[30.332,50.5532],[30.3308,50.5543],[30.3317,50.5546],[30.3307,50.5558],[30.3317,50.5558],[30.3315,50.5567],[30.3334,50.5571],[30.3371,50.5562],[30.3404,50.5563],[30.3412,50.5564],[30.3416,50.5573],[30.338,50.5587],[30.3316,50.5593],[30.3256,50.5629],[30.3269,50.5646],[30.3072,50.5705],[30.3392,50.5738],[30.3706,50.5736],[30.3708,50.5865],[30.4471,50.5858],[30.4622,50.584],[30.4631,50.5843],[30.4646,50.5717],[30.4817,50.5723],[30.485,50.5693],[30.4835,50.5685],[30.4841,50.5677],[30.4874,50.5689],[30.4904,50.5671],[30.4938,50.5668],[30.4951,50.5599],[30.4963,50.5569],[30.502,50.5516],[30.5082,50.5486],[30.5239,50.5428],[30.5273,50.5409],[30.5321,50.5403],[30.5344,50.5383],[30.5415,50.5344],[30.5437,50.532],[30.5445,50.5293],[30.5444,50.5271],[30.543,50.5248],[30.5409,50.5232],[30.538,50.5245],[30.5272,50.5097],[30.5254,50.504],[30.5258,50.5011],[30.5313,50.4969],[30.5414,50.4861],[30.5423,50.4838],[30.5314,50.4836],[30.5261,50.4827],[30.5017,50.4835],[30.4988,50.4821],[30.4981,50.479],[30.4966,50.4772],[30.4955,50.4772],[30.4884,50.4815],[30.4812,50.4874],[30.4666,50.4897],[30.4518,50.5003],[30.4494,50.5205],[30.4467,50.5266],[30.4345,50.5254],[30.4284,50.5221],[30.4252,50.5212],[30.372,50.5172],[30.3659,50.5156],[30.3628,50.5156],[30.3527,50.5189],[30.2993,50.5502]]]]}},{"type":"Feature","id":"raion-kyiv-8","properties":{"name":"Podilskyi","province":"Kyiv","department":"Kyiv City","type":"Raion","country":"Ucrania","iso":"UA"},"geometry":{"type":"MultiPolygon","coordinates":[[[[30.362,50.5157],[30.3659,50.5156],[30.372,50.5172],[30.4252,50.5212],[30.4284,50.5221],[30.4345,50.5254],[30.4467,50.5266],[30.4494,50.5205],[30.4518,50.5004],[30.4666,50.4897],[30.4812,50.4874],[30.4884,50.4815],[30.4956,50.4772],[30.4966,50.4772],[30.4982,50.4791],[30.4988,50.4821],[30.5017,50.4835],[30.5261,50.4827],[30.5314,50.4836],[30.5423,50.4838],[30.5415,50.4791],[30.5364,50.4738],[30.5302,50.4689],[30.5292,50.4673],[30.5291,50.4636],[30.5305,50.4601],[30.5327,50.4577],[30.5383,50.455],[30.5343,50.4523],[30.5311,50.4534],[30.5304,50.4546],[30.5276,50.4545],[30.5279,50.4566],[30.5251,50.4589],[30.5232,50.4573],[30.5183,50.4595],[30.5173,50.4594],[30.5183,50.4583],[30.5177,50.4583],[30.5163,50.4592],[30.5137,50.4589],[30.5138,50.4573],[30.5146,50.4569],[30.5142,50.4566],[30.5129,50.4573],[30.5124,50.4591],[30.5113,50.4595],[30.5112,50.4579],[30.5087,50.4574],[30.5083,50.4577],[30.5093,50.4584],[30.5093,50.4592],[30.5086,50.4605],[30.5059,50.4618],[30.5102,50.4646],[30.506,50.4674],[30.5028,50.4687],[30.5014,50.4677],[30.5008,50.4658],[30.4995,50.466],[30.5,50.4672],[30.4988,50.4674],[30.4959,50.4663],[30.4959,50.4658],[30.4934,50.4663],[30.4947,50.4679],[30.4934,50.4707],[30.4944,50.4711],[30.4948,50.4723],[30.4922,50.4729],[30.4922,50.4734],[30.4903,50.4741],[30.4875,50.4728],[30.4862,50.4732],[30.4867,50.475],[30.4838,50.4762],[30.4842,50.4764],[30.4836,50.477],[30.4845,50.4776],[30.481,50.4792],[30.4766,50.4794],[30.4751,50.4811],[30.476,50.4819],[30.4724,50.4806],[30.4725,50.4791],[30.4713,50.4782],[30.4634,50.4762],[30.4569,50.4809],[30.4546,50.484],[30.4535,50.4838],[30.4523,50.4845],[30.4478,50.4832],[30.4459,50.4847],[30.4442,50.4841],[30.4434,50.4848],[30.4424,50.4846],[30.4408,50.4868],[30.4383,50.4858],[30.4355,50.4862],[30.4297,50.4801],[30.4291,50.4783],[30.4295,50.4767],[30.4127,50.4776],[30.3956,50.4869],[30.3651,50.4987],[30.362,50.5157]]]]}},{"type":"Feature","id":"raion-kyiv-9","properties":{"name":"Pecherskyi","province":"Kyiv","department":"Kyiv City","type":"Raion","country":"Ucrania","iso":"UA"},"geometry":{"type":"MultiPolygon","coordinates":[[[[30.516,50.4359],[30.5162,50.4393],[30.5196,50.4406],[30.5203,50.4422],[30.5224,50.4419],[30.5221,50.4426],[30.5206,50.443],[30.5223,50.4479],[30.5233,50.4494],[30.5261,50.4487],[30.527,50.4495],[30.5246,50.4504],[30.5267,50.4519],[30.5282,50.4518],[30.5276,50.4545],[30.5304,50.4546],[30.5311,50.4534],[30.5343,50.4523],[30.5383,50.455],[30.5517,50.4498],[30.5615,50.4449],[30.5698,50.4363],[30.576,50.4328],[30.5866,50.4253],[30.588,50.4232],[30.5902,50.4172],[30.573,50.4127],[30.5701,50.4106],[30.5672,50.4068],[30.5629,50.4037],[30.5596,50.4027],[30.5545,50.4027],[30.5441,50.4048],[30.5333,50.4052],[30.5278,50.4063],[30.5228,50.409],[30.5269,50.4109],[30.5161,50.4281],[30.516,50.4359]]]]}},{"type":"Feature","id":"raion-kyiv-10","properties":{"name":"Shevchenkivskyi","province":"Kyiv","department":"Kyiv City","type":"Raion","country":"Ucrania","iso":"UA"},"geometry":{"type":"MultiPolygon","coordinates":[[[[30.3957,50.4858],[30.3961,50.458],[30.4163,50.4594],[30.4668,50.4511],[30.4661,50.4485],[30.4675,50.446],[30.4736,50.4471],[30.4789,50.4467],[30.4857,50.4445],[30.49,50.4416],[30.4921,50.4415],[30.4913,50.4406],[30.494,50.4386],[30.5015,50.4419],[30.5171,50.4394],[30.5196,50.4406],[30.5203,50.4422],[30.5224,50.4419],[30.5221,50.4426],[30.5206,50.443],[30.5224,50.4483],[30.5233,50.4494],[30.5261,50.4487],[30.527,50.4495],[30.5246,50.4504],[30.5267,50.4519],[30.5282,50.4519],[30.5276,50.4545],[30.528,50.4564],[30.5251,50.4589],[30.5232,50.4573],[30.5183,50.4595],[30.5173,50.4594],[30.5183,50.4583],[30.5177,50.4583],[30.5163,50.4592],[30.5137,50.4589],[30.5138,50.4573],[30.5146,50.4569],[30.5142,50.4566],[30.5129,50.4573],[30.5124,50.4591],[30.5113,50.4595],[30.5112,50.4579],[30.5087,50.4574],[30.5083,50.4577],[30.5093,50.4584],[30.5093,50.4592],[30.5086,50.4605],[30.5059,50.4618],[30.5102,50.4646],[30.506,50.4674],[30.5028,50.4687],[30.5014,50.4677],[30.5008,50.4658],[30.4995,50.466],[30.5,50.4672],[30.4988,50.4674],[30.4959,50.4663],[30.4959,50.4658],[30.4934,50.4663],[30.4947,50.4679],[30.4934,50.4707],[30.4944,50.4711],[30.4948,50.4723],[30.4922,50.4729],[30.4922,50.4734],[30.4903,50.4741],[30.4875,50.4728],[30.4862,50.4732],[30.4867,50.475],[30.4838,50.4762],[30.4842,50.4764],[30.4836,50.477],[30.4845,50.4776],[30.481,50.4792],[30.4766,50.4794],[30.4751,50.4811],[30.476,50.4819],[30.4724,50.4806],[30.4725,50.4791],[30.4713,50.4782],[30.4634,50.4762],[30.4569,50.4809],[30.4546,50.484],[30.4535,50.4838],[30.4523,50.4845],[30.4478,50.4832],[30.4459,50.4847],[30.4442,50.4841],[30.4434,50.4848],[30.4424,50.4846],[30.441,50.4868],[30.4383,50.4858],[30.4355,50.4862],[30.4297,50.4801],[30.4291,50.4783],[30.4295,50.4767],[30.4274,50.4766],[30.413,50.4776],[30.3959,50.4867],[30.3957,50.4858]]]]}}]}