{"type":"FeatureCollection","features":[{"type":"Feature","id":"cu0901","properties":{"name":"Arroyo Naranjo","province":"Ciudad de la Habana","department":"La Habana","type":"Municipio","country":"Cuba","iso":"CU"},"geometry":{"type":"Polygon","coordinates":[[[-82.2469,22.9488],[-82.2431,22.9607],[-82.2438,22.9673],[-82.2629,22.9877],[-82.2664,22.9944],[-82.2654,23.0017],[-82.2581,23.0122],[-82.3018,23.0345],[-82.3072,23.0394],[-82.3505,23.0401],[-82.3358,23.0008],[-82.3265,22.9859],[-82.3123,22.9781],[-82.2929,22.973],[-82.2756,22.9613],[-82.2469,22.9488]]]}},{"type":"Feature","id":"cu0902","properties":{"name":"Boyeros","province":"Ciudad de la Habana","department":"La Habana","type":"Municipio","country":"Cuba","iso":"CU"},"geometry":{"type":"Polygon","coordinates":[[[-82.3505,23.0401],[-82.3654,23.0533],[-82.3913,23.0363],[-82.3949,23.0286],[-82.4071,23.0162],[-82.4269,23.0047],[-82.4391,22.9945],[-82.4416,22.9796],[-82.4411,22.9759],[-82.4349,22.9762],[-82.4277,22.9739],[-82.4235,22.9699],[-82.4184,22.9608],[-82.4105,22.9556],[-82.3983,22.9514],[-82.3845,22.9451],[-82.3756,22.9385],[-82.3678,22.9353],[-82.3609,22.9352],[-82.3542,22.9382],[-82.3518,22.9435],[-82.3536,22.9562],[-82.3524,22.9589],[-82.3437,22.9608],[-82.335,22.9597],[-82.3053,22.9522],[-82.2933,22.9412],[-82.2876,22.9383],[-82.2754,22.9365],[-82.2501,22.9357],[-82.2469,22.9488],[-82.2756,22.9613],[-82.2929,22.973],[-82.3123,22.9781],[-82.3265,22.9859],[-82.3358,23.0008],[-82.3505,23.0401]]]}},{"type":"Feature","id":"cu0903","properties":{"name":"Centro Habana","province":"Ciudad de la Habana","department":"La Habana","type":"Municipio","country":"Cuba","iso":"CU"},"geometry":{"type":"MultiPolygon","coordinates":[[[[-82.3796,23.111],[-82.3638,23.1203],[-82.3529,23.1227],[-82.354,23.124],[-82.3546,23.1226],[-82.356,23.1232],[-82.3562,23.1224],[-82.3571,23.1224],[-82.3574,23.1243],[-82.3549,23.1251],[-82.3543,23.1262],[-82.3496,23.1268],[-82.3463,23.1304],[-82.3463,23.134],[-82.3451,23.1343],[-82.3449,23.1371],[-82.3457,23.1382],[-82.3471,23.1385],[-82.3476,23.141],[-82.3535,23.1451],[-82.3562,23.1451],[-82.3576,23.1468],[-82.3593,23.1462],[-82.3635,23.1421],[-82.3676,23.1424],[-82.3685,23.1418],[-82.3737,23.1421],[-82.3793,23.1451],[-82.3851,23.1457],[-82.3868,23.1468],[-82.3913,23.1471],[-82.3951,23.146],[-82.3839,23.1295],[-82.3796,23.111]]],[[[-82.3377,23.141],[-82.3388,23.1604],[-82.3446,23.1588],[-82.3457,23.1576],[-82.3493,23.1571],[-82.3501,23.1549],[-82.3515,23.1551],[-82.3532,23.1543],[-82.356,23.151],[-82.3576,23.1513],[-82.3576,23.1499],[-82.3551,23.1488],[-82.3549,23.1479],[-82.3512,23.1468],[-82.3507,23.1454],[-82.349,23.1451],[-82.349,23.1435],[-82.3463,23.1424],[-82.346,23.1413],[-82.3421,23.1415],[-82.3396,23.1399],[-82.3388,23.141],[-82.3377,23.141]]]]}},{"type":"Feature","id":"cu0904","properties":{"name":"Cerro","province":"Ciudad de la Habana","department":"La Habana","type":"Municipio","country":"Cuba","iso":"CU"},"geometry":{"type":"Polygon","coordinates":[[[-82.347,23.0896],[-82.3486,23.1236],[-82.3478,23.1249],[-82.3507,23.1238],[-82.3515,23.1226],[-82.3638,23.1203],[-82.388,23.1059],[-82.3952,23.0967],[-82.3556,23.0814],[-82.347,23.0896]]]}},{"type":"Feature","id":"cu0905","properties":{"name":"Cotorro","province":"Ciudad de la Habana","department":"La Habana","type":"Municipio","country":"Cuba","iso":"CU"},"geometry":{"type":"Polygon","coordinates":[[[-82.2469,22.9488],[-82.2501,22.9357],[-82.2366,22.9368],[-82.2322,22.9395],[-82.2308,22.9451],[-82.2316,22.9554],[-82.2308,22.9625],[-82.2235,22.9676],[-82.2127,22.9722],[-82.2022,22.9783],[-82.1986,22.9845],[-82.2007,22.9945],[-82.2061,23.0018],[-82.2082,23.0103],[-82.208,23.0277],[-82.2435,23.0455],[-82.2581,23.0122],[-82.2654,23.0017],[-82.2664,22.9944],[-82.2629,22.9877],[-82.2438,22.9673],[-82.2431,22.9607],[-82.2469,22.9488]]]}},{"type":"Feature","id":"cu0906","properties":{"name":"Diez de Octubre","province":"Ciudad de la Habana","department":"La Habana","type":"Municipio","country":"Cuba","iso":"CU"},"geometry":{"type":"Polygon","coordinates":[[[-82.3505,23.0401],[-82.3072,23.0394],[-82.32,23.0619],[-82.3193,23.0897],[-82.347,23.0896],[-82.3556,23.0814],[-82.3654,23.0533],[-82.3505,23.0401]]]}},{"type":"Feature","id":"cu0907","properties":{"name":"Guanabacoa","province":"Ciudad de la Habana","department":"La Habana","type":"Municipio","country":"Cuba","iso":"CU"},"geometry":{"type":"Polygon","coordinates":[[[-82.2435,23.0455],[-82.2526,23.0647],[-82.2575,23.0702],[-82.2955,23.0877],[-82.3193,23.0897],[-82.32,23.0619],[-82.3072,23.0394],[-82.3018,23.0345],[-82.2581,23.0122],[-82.2435,23.0455]]]}},{"type":"Feature","id":"cu0908","properties":{"name":"La Habana del Este","province":"Ciudad de la Habana","department":"La Habana","type":"Municipio","country":"Cuba","iso":"CU"},"geometry":{"type":"Polygon","coordinates":[[[-82.1816,23.0445],[-82.1712,23.0448],[-82.1563,23.0482],[-82.1455,23.0487],[-82.1327,23.0454],[-82.1238,23.0384],[-82.1127,23.0265],[-82.108,23.0239],[-82.1014,23.0252],[-82.097,23.0341],[-82.0945,23.051],[-82.0882,23.0637],[-82.0803,23.0718],[-82.0695,23.0788],[-82.0638,23.0874],[-82.0622,23.1007],[-82.0678,23.1168],[-82.0819,23.149],[-82.0832,23.1688],[-82.0824,23.179],[-82.0879,23.1793],[-82.0912,23.1768],[-82.0929,23.1768],[-82.0976,23.1721],[-82.1057,23.1749],[-82.1113,23.1737],[-82.1185,23.1737],[-82.1207,23.1726],[-82.1296,23.174],[-82.1343,23.1712],[-82.1368,23.1707],[-82.1421,23.1701],[-82.1468,23.171],[-82.1501,23.1701],[-82.151,23.171],[-82.1612,23.1721],[-82.1715,23.1749],[-82.1746,23.1751],[-82.176,23.174],[-82.1765,23.1754],[-82.179,23.1746],[-82.1799,23.1754],[-82.194,23.1765],[-82.1963,23.1779],[-82.1971,23.1776],[-82.1971,23.176],[-82.1979,23.1785],[-82.2032,23.179],[-82.2051,23.181],[-82.2096,23.1807],[-82.2121,23.179],[-82.2126,23.1771],[-82.2115,23.1763],[-82.2115,23.1726],[-82.2121,23.1724],[-82.2121,23.1751],[-82.2135,23.1765],[-82.2143,23.179],[-82.2293,23.1807],[-82.2304,23.1799],[-82.2351,23.1796],[-82.2401,23.1776],[-82.2404,23.1771],[-82.239,23.1763],[-82.2387,23.1749],[-82.2407,23.1735],[-82.2449,23.1779],[-82.2515,23.1779],[-82.2535,23.1765],[-82.2582,23.1765],[-82.2604,23.1754],[-82.274,23.1763],[-82.2743,23.1754],[-82.2793,23.1743],[-82.2796,23.1732],[-82.2849,23.1724],[-82.2857,23.1712],[-82.2893,23.1699],[-82.2918,23.1674],[-82.291,23.1657],[-82.2921,23.1635],[-82.2935,23.1637],[-82.2943,23.1685],[-82.2954,23.169],[-82.299,23.1699],[-82.2996,23.1707],[-82.3082,23.1704],[-82.2892,23.1396],[-82.2865,23.1223],[-82.2566,23.1217],[-82.2296,23.1127],[-82.1898,23.0733],[-82.1819,23.059],[-82.1816,23.0445]]]}},{"type":"Feature","id":"cu0909","properties":{"name":"La Habana Vieja","province":"Ciudad de la Habana","department":"La Habana","type":"Municipio","country":"Cuba","iso":"CU"},"geometry":{"type":"Polygon","coordinates":[[[-82.2865,23.1223],[-82.2892,23.1396],[-82.3082,23.1704],[-82.3163,23.1674],[-82.3246,23.1668],[-82.3388,23.1607],[-82.3376,23.1407],[-82.3349,23.141],[-82.3337,23.1399],[-82.3318,23.1407],[-82.3313,23.1404],[-82.3315,23.1388],[-82.3307,23.1385],[-82.3288,23.1413],[-82.3274,23.1415],[-82.3254,23.1401],[-82.3282,23.139],[-82.3288,23.1378],[-82.3203,23.1362],[-82.2952,23.1223],[-82.2865,23.1223]]]}},{"type":"Feature","id":"cu0910","properties":{"name":"La Lisa","province":"Ciudad de la Habana","department":"La Habana","type":"Municipio","country":"Cuba","iso":"CU"},"geometry":{"type":"Polygon","coordinates":[[[-82.4071,23.0162],[-82.4405,23.0362],[-82.4425,23.05],[-82.4397,23.0679],[-82.4804,23.0557],[-82.4836,23.0528],[-82.4795,23.0469],[-82.4807,22.997],[-82.4783,22.9844],[-82.4747,22.9771],[-82.4693,22.9718],[-82.4618,22.9708],[-82.4439,22.9758],[-82.4411,22.9759],[-82.4416,22.9796],[-82.4391,22.9945],[-82.4269,23.0047],[-82.4071,23.0162]]]}},{"type":"Feature","id":"cu0911","properties":{"name":"Marianao","province":"Ciudad de la Habana","department":"La Habana","type":"Municipio","country":"Cuba","iso":"CU"},"geometry":{"type":"Polygon","coordinates":[[[-82.3654,23.0533],[-82.3556,23.0814],[-82.3952,23.0967],[-82.4043,23.0914],[-82.4126,23.0812],[-82.4008,23.0643],[-82.3913,23.0363],[-82.3654,23.0533]]]}},{"type":"Feature","id":"cu0912","properties":{"name":"Playa","province":"Ciudad de la Habana","department":"La Habana","type":"Municipio","country":"Cuba","iso":"CU"},"geometry":{"type":"Polygon","coordinates":[[[-82.3913,23.0363],[-82.4008,23.0643],[-82.4126,23.0812],[-82.4397,23.0679],[-82.4425,23.05],[-82.4405,23.0362],[-82.4071,23.0162],[-82.3949,23.0286],[-82.3913,23.0363]]]}},{"type":"Feature","id":"cu0913","properties":{"name":"Plaza de la Revolución","province":"Ciudad de la Habana","department":"La Habana","type":"Municipio","country":"Cuba","iso":"CU"},"geometry":{"type":"Polygon","coordinates":[[[-82.4126,23.0812],[-82.4043,23.0914],[-82.3952,23.0967],[-82.388,23.1059],[-82.3796,23.111],[-82.3839,23.1295],[-82.3951,23.146],[-82.3968,23.1443],[-82.4004,23.1432],[-82.4076,23.1382],[-82.4085,23.1368],[-82.4079,23.1329],[-82.411,23.1321],[-82.4107,23.1346],[-82.4112,23.1349],[-82.4146,23.134],[-82.4221,23.1293],[-82.4282,23.1235],[-82.4304,23.1226],[-82.431,23.1215],[-82.4357,23.1185],[-82.4471,23.1076],[-82.4493,23.1046],[-82.4504,23.1043],[-82.4512,23.1024],[-82.4538,23.1015],[-82.4538,23.1004],[-82.4554,23.0996],[-82.454,23.0979],[-82.4543,23.0957],[-82.4607,23.0965],[-82.4621,23.0951],[-82.461,23.0937],[-82.4613,23.0929],[-82.4635,23.094],[-82.4662,23.0929],[-82.4699,23.0929],[-82.4715,23.0937],[-82.474,23.0918],[-82.4793,23.0912],[-82.4796,23.0899],[-82.4804,23.0899],[-82.4807,23.0921],[-82.4832,23.0921],[-82.4835,23.0932],[-82.4863,23.0929],[-82.4882,23.094],[-82.4899,23.0904],[-82.491,23.0912],[-82.4912,23.0932],[-82.4929,23.0935],[-82.4946,23.0921],[-82.5021,23.0899],[-82.5043,23.0871],[-82.5043,23.0854],[-82.5035,23.0851],[-82.504,23.0837],[-82.5032,23.0826],[-82.5021,23.0829],[-82.5021,23.0821],[-82.5029,23.0824],[-82.5065,23.0801],[-82.5079,23.081],[-82.5082,23.0824],[-82.5062,23.0824],[-82.506,23.0835],[-82.5101,23.0832],[-82.5104,23.0812],[-82.5126,23.0812],[-82.5168,23.0796],[-82.5199,23.0765],[-82.5251,23.0735],[-82.5251,23.0565],[-82.5235,23.0536],[-82.5163,23.0516],[-82.4915,23.0532],[-82.4836,23.0528],[-82.4804,23.0557],[-82.4397,23.0679],[-82.4126,23.0812]]]}},{"type":"Feature","id":"cu0914","properties":{"name":"Regla","province":"Ciudad de la Habana","department":"La Habana","type":"Municipio","country":"Cuba","iso":"CU"},"geometry":{"type":"Polygon","coordinates":[[[-82.347,23.0896],[-82.3193,23.0897],[-82.2955,23.0877],[-82.2952,23.1223],[-82.3203,23.1362],[-82.329,23.1376],[-82.3301,23.1346],[-82.3282,23.1332],[-82.3285,23.1315],[-82.3301,23.1324],[-82.3321,23.1315],[-82.3335,23.1324],[-82.3335,23.1332],[-82.3363,23.1335],[-82.3368,23.1349],[-82.3376,23.1349],[-82.3371,23.1313],[-82.3385,23.1296],[-82.3374,23.1274],[-82.3418,23.1235],[-82.3401,23.1218],[-82.3396,23.1193],[-82.3376,23.1168],[-82.3379,23.1129],[-82.341,23.1132],[-82.3424,23.1151],[-82.3429,23.1182],[-82.346,23.1212],[-82.344,23.1265],[-82.346,23.1268],[-82.3486,23.1236],[-82.347,23.0896]]]}},{"type":"Feature","id":"cu0915","properties":{"name":"San Miguel del Padrón","province":"Ciudad de la Habana","department":"La Habana","type":"Municipio","country":"Cuba","iso":"CU"},"geometry":{"type":"Polygon","coordinates":[[[-82.1816,23.0445],[-82.1819,23.059],[-82.1898,23.0733],[-82.2296,23.1127],[-82.2566,23.1217],[-82.2952,23.1223],[-82.2955,23.0877],[-82.2575,23.0702],[-82.2526,23.0647],[-82.2435,23.0455],[-82.208,23.0277],[-82.2069,23.038],[-82.2051,23.0416],[-82.1992,23.0458],[-82.1816,23.0445]]]}}]}