{"type":"FeatureCollection","features":[{"type":"Feature","id":"bo020104","properties":{"name":"Achocalla","province":"La Paz","department":"La Paz","type":"Municipio","country":"Bolivia","iso":"BO"},"geometry":{"type":"Polygon","coordinates":[[[-68.1534,-16.541],[-68.156,-16.5401],[-68.1607,-16.542],[-68.1611,-16.5437],[-68.1635,-16.5466],[-68.1652,-16.5458],[-68.165,-16.5444],[-68.1679,-16.5443],[-68.1694,-16.5429],[-68.171,-16.5449],[-68.1733,-16.5457],[-68.1743,-16.5468],[-68.1743,-16.5549],[-68.1758,-16.5557],[-68.1778,-16.5586],[-68.1793,-16.5589],[-68.1818,-16.5628],[-68.1804,-16.5626],[-68.1793,-16.5648],[-68.1804,-16.5672],[-68.1835,-16.5696],[-68.1836,-16.5712],[-68.1851,-16.5737],[-68.1848,-16.5749],[-68.1825,-16.5761],[-68.1788,-16.5802],[-68.1752,-16.5809],[-68.1742,-16.5838],[-68.1701,-16.5865],[-68.1707,-16.5907],[-68.1696,-16.5928],[-68.1634,-16.5968],[-68.1586,-16.5974],[-68.1586,-16.5984],[-68.156,-16.6011],[-68.1561,-16.6028],[-68.1553,-16.6022],[-68.1542,-16.6036],[-68.1527,-16.6075],[-68.1507,-16.6085],[-68.1485,-16.611],[-68.1493,-16.6124],[-68.1479,-16.6122],[-68.1464,-16.6137],[-68.1437,-16.6132],[-68.1401,-16.6147],[-68.1401,-16.6165],[-68.1357,-16.6178],[-68.134,-16.6192],[-68.1332,-16.6186],[-68.1312,-16.6191],[-68.1298,-16.6211],[-68.1283,-16.6211],[-68.1279,-16.622],[-68.129,-16.6242],[-68.1285,-16.6254],[-68.1302,-16.6284],[-68.1315,-16.629],[-68.1316,-16.6303],[-68.1303,-16.6313],[-68.1311,-16.6335],[-68.1307,-16.6345],[-68.1811,-16.6332],[-68.1796,-16.6558],[-68.175,-16.6626],[-68.1689,-16.6663],[-68.163,-16.6717],[-68.1603,-16.6794],[-68.1541,-16.6882],[-68.1508,-16.6963],[-68.1499,-16.7043],[-68.1507,-16.7142],[-68.149,-16.724],[-68.1515,-16.7261],[-68.157,-16.7251],[-68.1604,-16.7261],[-68.1577,-16.7288],[-68.1563,-16.741],[-68.1525,-16.7515],[-68.1526,-16.7589],[-68.1462,-16.7575],[-68.1381,-16.7581],[-68.1301,-16.7601],[-68.1128,-16.7684],[-68.0964,-16.7684],[-68.0972,-16.7657],[-68.0963,-16.7641],[-68.0933,-16.7643],[-68.0865,-16.7546],[-68.0846,-16.7529],[-68.081,-16.746],[-68.0801,-16.7411],[-68.0767,-16.7352],[-68.0777,-16.7294],[-68.0776,-16.7222],[-68.0735,-16.7127],[-68.0741,-16.7086],[-68.0766,-16.7081],[-68.0771,-16.7066],[-68.0687,-16.695],[-68.0698,-16.6827],[-68.0755,-16.6765],[-68.0803,-16.6765],[-68.0884,-16.6634],[-68.0946,-16.6498],[-68.0911,-16.6434],[-68.0867,-16.64],[-68.0833,-16.6269],[-68.0852,-16.625],[-68.0864,-16.6222],[-68.085,-16.617],[-68.084,-16.6165],[-68.0842,-16.6151],[-68.0862,-16.6109],[-68.0902,-16.6094],[-68.1035,-16.6114],[-68.107,-16.6051],[-68.1016,-16.5984],[-68.1014,-16.5867],[-68.1229,-16.5658],[-68.1445,-16.5541],[-68.152,-16.542],[-68.1534,-16.541]]]}},{"type":"Feature","id":"bo020105","properties":{"name":"El Alto","province":"La Paz","department":"La Paz","type":"Municipio","country":"Bolivia","iso":"BO"},"geometry":{"type":"Polygon","coordinates":[[[-68.1489,-16.5355],[-68.149,-16.5341],[-68.147,-16.5304],[-68.144,-16.5291],[-68.1477,-16.5252],[-68.1483,-16.5222],[-68.1546,-16.5101],[-68.1577,-16.5066],[-68.161,-16.5043],[-68.1631,-16.5012],[-68.1636,-16.498],[-68.1676,-16.4952],[-68.1709,-16.4907],[-68.1704,-16.4866],[-68.1689,-16.4857],[-68.1673,-16.4824],[-68.1663,-16.4825],[-68.1649,-16.4845],[-68.1611,-16.4841],[-68.1628,-16.4829],[-68.1632,-16.4798],[-68.1649,-16.4793],[-68.1668,-16.4758],[-68.1673,-16.4682],[-68.1634,-16.4592],[-68.1614,-16.4571],[-68.1604,-16.4573],[-68.1603,-16.4564],[-68.159,-16.4554],[-68.1594,-16.4538],[-68.1574,-16.4482],[-68.1583,-16.4463],[-68.1572,-16.4421],[-68.1575,-16.441],[-68.1566,-16.4403],[-68.1574,-16.4376],[-68.1569,-16.4351],[-68.1554,-16.4325],[-68.1494,-16.4288],[-68.1497,-16.4272],[-68.1481,-16.4221],[-68.1509,-16.4132],[-68.1494,-16.4071],[-68.1505,-16.4026],[-68.1496,-16.4004],[-68.1459,-16.3679],[-68.1433,-16.3643],[-68.143,-16.3592],[-68.1435,-16.358],[-68.1394,-16.3549],[-68.1385,-16.3517],[-68.1399,-16.3276],[-68.1456,-16.3203],[-68.1503,-16.3164],[-68.1486,-16.3111],[-68.1496,-16.3103],[-68.1493,-16.3069],[-68.1516,-16.2989],[-68.1508,-16.2941],[-68.1528,-16.2887],[-68.1576,-16.2851],[-68.1556,-16.2787],[-68.153,-16.2767],[-68.1531,-16.2729],[-68.1548,-16.2697],[-68.1531,-16.265],[-68.1537,-16.2626],[-68.1656,-16.2775],[-68.1703,-16.2928],[-68.1853,-16.3026],[-68.1849,-16.3056],[-68.186,-16.3065],[-68.1884,-16.3126],[-68.1909,-16.3153],[-68.1918,-16.3202],[-68.1934,-16.3218],[-68.1931,-16.3246],[-68.1991,-16.3288],[-68.2055,-16.3365],[-68.2163,-16.3835],[-68.2434,-16.3927],[-68.2633,-16.4337],[-68.2662,-16.4379],[-68.2675,-16.4415],[-68.2704,-16.4446],[-68.2698,-16.4538],[-68.2705,-16.4559],[-68.2724,-16.457],[-68.2739,-16.4604],[-68.2766,-16.4622],[-68.2764,-16.4649],[-68.2824,-16.4717],[-68.2847,-16.4774],[-68.2886,-16.4808],[-68.289,-16.4834],[-68.2941,-16.487],[-68.2945,-16.4883],[-68.2974,-16.491],[-68.2977,-16.4931],[-68.2994,-16.4947],[-68.305,-16.5075],[-68.3005,-16.5102],[-68.2874,-16.5105],[-68.2971,-16.5299],[-68.283,-16.5363],[-68.2663,-16.5246],[-68.2367,-16.5435],[-68.2533,-16.5608],[-68.2575,-16.5591],[-68.2608,-16.5627],[-68.2263,-16.5733],[-68.2238,-16.5709],[-68.2212,-16.5722],[-68.2203,-16.5708],[-68.2057,-16.5734],[-68.2197,-16.5894],[-68.2161,-16.5942],[-68.2373,-16.6128],[-68.1811,-16.6332],[-68.1307,-16.6345],[-68.1311,-16.6335],[-68.1303,-16.6313],[-68.1316,-16.6303],[-68.1315,-16.629],[-68.1302,-16.6284],[-68.1285,-16.6254],[-68.129,-16.6242],[-68.1279,-16.622],[-68.1283,-16.6211],[-68.1298,-16.6211],[-68.1314,-16.619],[-68.1332,-16.6186],[-68.134,-16.6192],[-68.1357,-16.6178],[-68.1401,-16.6165],[-68.1402,-16.6147],[-68.1437,-16.6132],[-68.1464,-16.6137],[-68.1479,-16.6122],[-68.1493,-16.6124],[-68.1485,-16.611],[-68.1507,-16.6085],[-68.1527,-16.6075],[-68.1542,-16.6036],[-68.1553,-16.6022],[-68.1561,-16.6028],[-68.156,-16.6011],[-68.1586,-16.5984],[-68.1586,-16.5974],[-68.1634,-16.5968],[-68.1696,-16.5928],[-68.1707,-16.5907],[-68.1701,-16.5865],[-68.1742,-16.5838],[-68.1752,-16.5809],[-68.177,-16.5809],[-68.1799,-16.5794],[-68.1825,-16.5761],[-68.1846,-16.5752],[-68.1851,-16.5737],[-68.1836,-16.5712],[-68.1835,-16.5696],[-68.1804,-16.5672],[-68.1793,-16.5648],[-68.1804,-16.5626],[-68.1818,-16.5628],[-68.1793,-16.5589],[-68.1778,-16.5586],[-68.1758,-16.5557],[-68.1743,-16.5549],[-68.1743,-16.5468],[-68.1733,-16.5457],[-68.171,-16.5449],[-68.1694,-16.5429],[-68.1679,-16.5443],[-68.165,-16.5444],[-68.1652,-16.5458],[-68.1635,-16.5466],[-68.1611,-16.5437],[-68.1607,-16.542],[-68.156,-16.5401],[-68.1532,-16.5409],[-68.1524,-16.5359],[-68.1489,-16.5355]]]}},{"type":"Feature","id":"bo020103","properties":{"name":"Mecapaca","province":"La Paz","department":"La Paz","type":"Municipio","country":"Bolivia","iso":"BO"},"geometry":{"type":"Polygon","coordinates":[[[-67.9923,-16.5819],[-67.9958,-16.5776],[-68.0147,-16.5704],[-68.0173,-16.5676],[-68.0193,-16.5619],[-68.0236,-16.5587],[-68.0245,-16.56],[-68.0411,-16.5709],[-68.0474,-16.5853],[-68.0516,-16.5864],[-68.0558,-16.5892],[-68.0559,-16.5907],[-68.0579,-16.5939],[-68.0588,-16.6026],[-68.0612,-16.6043],[-68.0621,-16.6064],[-68.0653,-16.6066],[-68.0652,-16.6086],[-68.0698,-16.6091],[-68.0914,-16.5958],[-68.1014,-16.5867],[-68.1016,-16.5984],[-68.107,-16.6051],[-68.1035,-16.6114],[-68.0902,-16.6094],[-68.0862,-16.6109],[-68.084,-16.616],[-68.085,-16.617],[-68.0864,-16.6222],[-68.0852,-16.625],[-68.0833,-16.6269],[-68.0867,-16.64],[-68.0911,-16.6434],[-68.0946,-16.6498],[-68.0884,-16.6634],[-68.0803,-16.6765],[-68.0755,-16.6765],[-68.0698,-16.6827],[-68.0687,-16.695],[-68.0771,-16.7066],[-68.0766,-16.7081],[-68.0741,-16.7086],[-68.0735,-16.7127],[-68.0776,-16.7222],[-68.0777,-16.7294],[-68.0767,-16.7352],[-68.0801,-16.7411],[-68.081,-16.746],[-68.0846,-16.7529],[-68.0865,-16.7546],[-68.0786,-16.7604],[-68.0708,-16.7604],[-68.0669,-16.7616],[-68.07,-16.7668],[-68.0701,-16.7704],[-68.0686,-16.7753],[-68.0663,-16.7779],[-68.0587,-16.7795],[-68.0523,-16.7875],[-68.046,-16.7908],[-68.0394,-16.7984],[-68.0372,-16.7999],[-68.0372,-16.8012],[-68.0343,-16.8037],[-68.0332,-16.8063],[-68.0311,-16.8071],[-68.0278,-16.8132],[-68.0241,-16.8177],[-68.025,-16.8213],[-68.017,-16.835],[-68.0125,-16.8362],[-68.0046,-16.8401],[-68.0042,-16.8429],[-68.0014,-16.8443],[-67.9971,-16.8442],[-67.9939,-16.846],[-67.9921,-16.8455],[-67.9823,-16.8542],[-67.9785,-16.8565],[-67.9778,-16.8579],[-67.9736,-16.8595],[-67.9706,-16.8592],[-67.9677,-16.8606],[-67.9661,-16.8595],[-67.9635,-16.86],[-67.9634,-16.8589],[-67.9613,-16.856],[-67.9627,-16.8517],[-67.9606,-16.8466],[-67.9613,-16.8443],[-67.961,-16.8395],[-67.9599,-16.8372],[-67.9534,-16.8347],[-67.9552,-16.8294],[-67.9543,-16.8277],[-67.9485,-16.826],[-67.9439,-16.8275],[-67.9421,-16.8291],[-67.9399,-16.8293],[-67.9339,-16.824],[-67.9312,-16.8234],[-67.9277,-16.8244],[-67.9268,-16.8208],[-67.9234,-16.8166],[-67.9169,-16.818],[-67.9112,-16.8172],[-67.9077,-16.8185],[-67.8969,-16.8264],[-67.8934,-16.8269],[-67.8873,-16.825],[-67.8807,-16.8215],[-67.8759,-16.8167],[-67.869,-16.8043],[-67.8576,-16.8048],[-67.845,-16.8072],[-67.8281,-16.8158],[-67.8283,-16.8024],[-67.8302,-16.7965],[-67.8314,-16.7867],[-67.8344,-16.7805],[-67.8311,-16.7732],[-67.8334,-16.7691],[-67.8355,-16.7681],[-67.8371,-16.7599],[-67.84,-16.7542],[-67.8419,-16.752],[-67.8466,-16.7495],[-67.8496,-16.745],[-67.854,-16.7422],[-67.856,-16.7395],[-67.8601,-16.7372],[-67.865,-16.732],[-67.8691,-16.7301],[-67.8723,-16.7302],[-67.8764,-16.7283],[-67.8771,-16.7265],[-67.8769,-16.7227],[-67.8758,-16.7207],[-67.8779,-16.7169],[-67.8768,-16.7145],[-67.8737,-16.7113],[-67.8742,-16.7088],[-67.8758,-16.7065],[-67.8808,-16.7035],[-67.8842,-16.7026],[-67.8872,-16.7027],[-67.8893,-16.7017],[-67.8906,-16.6982],[-67.8927,-16.6969],[-67.8967,-16.6915],[-67.8989,-16.6911],[-67.9016,-16.6892],[-67.9018,-16.6875],[-67.904,-16.6849],[-67.9083,-16.6858],[-67.909,-16.6822],[-67.9118,-16.6805],[-67.9116,-16.6786],[-67.9129,-16.6767],[-67.9191,-16.678],[-67.9243,-16.6782],[-67.9257,-16.6766],[-67.9349,-16.6723],[-67.9392,-16.6672],[-67.9513,-16.6563],[-67.9515,-16.6546],[-67.9423,-16.6508],[-67.9319,-16.6441],[-67.9318,-16.6401],[-67.9334,-16.6366],[-67.942,-16.6266],[-67.9438,-16.6209],[-67.9422,-16.6147],[-67.943,-16.6141],[-67.9456,-16.6147],[-67.9488,-16.6141],[-67.9498,-16.6125],[-67.9553,-16.6092],[-67.9589,-16.6082],[-67.9613,-16.6081],[-67.9626,-16.6099],[-67.9656,-16.608],[-67.9657,-16.6065],[-67.9673,-16.6057],[-67.967,-16.605],[-67.9691,-16.603],[-67.9693,-16.6014],[-67.9732,-16.5986],[-67.9762,-16.5946],[-67.9801,-16.5924],[-67.9819,-16.5901],[-67.9842,-16.5894],[-67.9875,-16.5866],[-67.9885,-16.5839],[-67.9923,-16.5819]]]}},{"type":"Feature","id":"bo020101","properties":{"name":"Nuestra Señora de La Paz","province":"La Paz","department":"La Paz","type":"Municipio","country":"Bolivia","iso":"BO"},"geometry":{"type":"Polygon","coordinates":[[[-67.6828,-15.7496],[-67.69,-15.7478],[-67.7058,-15.7491],[-67.7065,-15.7498],[-67.7061,-15.7527],[-67.7072,-15.7562],[-67.7069,-15.7575],[-67.7052,-15.7588],[-67.7083,-15.7626],[-67.7089,-15.765],[-67.7125,-15.7648],[-67.7161,-15.7664],[-67.721,-15.7642],[-67.7219,-15.7661],[-67.7214,-15.7702],[-67.7188,-15.7757],[-67.7185,-15.7814],[-67.7173,-15.7848],[-67.7255,-15.7851],[-67.7314,-15.7887],[-67.7325,-15.7901],[-67.7551,-15.7889],[-67.7591,-15.7877],[-67.7634,-15.7886],[-67.7675,-15.7866],[-67.7735,-15.7859],[-67.7762,-15.7835],[-67.7799,-15.7833],[-67.7815,-15.7824],[-67.7848,-15.7849],[-67.7897,-15.7822],[-67.7926,-15.7857],[-67.7951,-15.7837],[-67.7954,-15.7822],[-67.8004,-15.7822],[-67.8056,-15.7832],[-67.8129,-15.7934],[-67.8234,-15.8104],[-67.862,-15.8953],[-67.8801,-15.9247],[-67.8918,-15.9523],[-67.8914,-15.9588],[-67.886,-15.969],[-67.8866,-15.9716],[-67.8891,-15.9747],[-67.8881,-15.976],[-67.8894,-15.9789],[-67.889,-15.9801],[-67.8921,-15.9799],[-67.8941,-15.9816],[-67.8992,-15.9927],[-67.9023,-15.9962],[-67.9031,-16.0003],[-67.9056,-16.0027],[-67.9067,-16.0052],[-67.9113,-16.0068],[-67.9126,-16.0093],[-67.9176,-16.0108],[-67.9186,-16.0103],[-67.9207,-16.0122],[-67.9287,-16.0119],[-67.9326,-16.0176],[-67.9342,-16.0189],[-67.9359,-16.019],[-67.9376,-16.0247],[-67.9378,-16.029],[-67.9419,-16.0342],[-67.9422,-16.0372],[-67.9455,-16.0403],[-67.9467,-16.0401],[-67.9479,-16.0413],[-67.9487,-16.0403],[-67.9504,-16.0402],[-67.9569,-16.0411],[-67.9611,-16.0374],[-67.9638,-16.0361],[-67.9648,-16.0364],[-67.9664,-16.0393],[-67.9677,-16.04],[-67.9867,-16.0431],[-67.991,-16.0448],[-68.0077,-16.0454],[-68.0138,-16.0438],[-68.0203,-16.0434],[-68.0224,-16.0446],[-68.0241,-16.0473],[-68.0209,-16.0522],[-68.0221,-16.0531],[-68.027,-16.0529],[-68.0319,-16.0554],[-68.048,-16.0511],[-68.0612,-16.046],[-68.0697,-16.0413],[-68.0741,-16.0402],[-68.077,-16.0443],[-68.0829,-16.0487],[-68.0873,-16.0479],[-68.0891,-16.0452],[-68.1002,-16.0435],[-68.1026,-16.0392],[-68.1073,-16.0418],[-68.1114,-16.0421],[-68.1128,-16.0417],[-68.1165,-16.038],[-68.122,-16.0374],[-68.123,-16.0435],[-68.1248,-16.0454],[-68.1252,-16.0486],[-68.1301,-16.0467],[-68.138,-16.0487],[-68.1391,-16.0496],[-68.1423,-16.0494],[-68.1446,-16.0526],[-68.1525,-16.0554],[-68.1563,-16.0582],[-68.1604,-16.0593],[-68.1604,-16.0573],[-68.1624,-16.0546],[-68.1621,-16.0508],[-68.1663,-16.0446],[-68.1775,-16.0495],[-68.1796,-16.0526],[-68.2044,-16.0551],[-68.2023,-16.058],[-68.2029,-16.0614],[-68.2044,-16.0629],[-68.2071,-16.0636],[-68.2099,-16.068],[-68.2109,-16.0724],[-68.2129,-16.0754],[-68.2135,-16.0785],[-68.216,-16.0818],[-68.217,-16.0854],[-68.2288,-16.0946],[-68.2369,-16.1111],[-68.2316,-16.1151],[-68.2251,-16.1246],[-68.2176,-16.1538],[-68.2178,-16.1744],[-68.2165,-16.177],[-68.2162,-16.181],[-68.2182,-16.184],[-68.2174,-16.1892],[-68.2143,-16.1913],[-68.2107,-16.1978],[-68.2076,-16.201],[-68.2076,-16.204],[-68.2088,-16.2045],[-68.2098,-16.2068],[-68.21,-16.2111],[-68.2147,-16.2173],[-68.1813,-16.2373],[-68.1537,-16.2626],[-68.1531,-16.265],[-68.1548,-16.2697],[-68.1531,-16.2729],[-68.153,-16.2767],[-68.1556,-16.2787],[-68.1576,-16.2851],[-68.1528,-16.2887],[-68.1508,-16.2941],[-68.1516,-16.2989],[-68.1493,-16.3069],[-68.1496,-16.3103],[-68.1486,-16.3111],[-68.1503,-16.3164],[-68.1456,-16.3203],[-68.1399,-16.3276],[-68.1385,-16.3517],[-68.1394,-16.3549],[-68.1435,-16.358],[-68.143,-16.3592],[-68.1433,-16.3643],[-68.1459,-16.3679],[-68.1496,-16.4004],[-68.1505,-16.4025],[-68.1494,-16.4071],[-68.1509,-16.4132],[-68.1481,-16.4221],[-68.1488,-16.4231],[-68.1488,-16.4261],[-68.1497,-16.4272],[-68.1494,-16.4288],[-68.1554,-16.4325],[-68.1569,-16.4351],[-68.1574,-16.4376],[-68.1566,-16.4403],[-68.1575,-16.441],[-68.1572,-16.4421],[-68.1583,-16.4463],[-68.1574,-16.4482],[-68.1594,-16.4538],[-68.159,-16.4554],[-68.1603,-16.4564],[-68.1604,-16.4573],[-68.1614,-16.4571],[-68.1634,-16.4592],[-68.1673,-16.4682],[-68.1668,-16.4758],[-68.1649,-16.4793],[-68.1632,-16.4798],[-68.1628,-16.4829],[-68.1612,-16.4843],[-68.1649,-16.4845],[-68.1663,-16.4825],[-68.1673,-16.4824],[-68.1689,-16.4857],[-68.1704,-16.4866],[-68.1708,-16.491],[-68.1668,-16.496],[-68.1636,-16.498],[-68.1631,-16.5012],[-68.161,-16.5043],[-68.1577,-16.5066],[-68.1546,-16.5101],[-68.1483,-16.5222],[-68.1477,-16.5252],[-68.144,-16.5291],[-68.147,-16.5304],[-68.149,-16.5341],[-68.149,-16.5358],[-68.1524,-16.5359],[-68.1534,-16.541],[-68.152,-16.542],[-68.1445,-16.5541],[-68.1229,-16.5658],[-68.0914,-16.5958],[-68.0698,-16.6091],[-68.0652,-16.6086],[-68.0653,-16.6066],[-68.0621,-16.6064],[-68.0607,-16.6038],[-68.059,-16.603],[-68.0582,-16.6005],[-68.0579,-16.5939],[-68.0559,-16.5907],[-68.0558,-16.5892],[-68.0516,-16.5864],[-68.0477,-16.5859],[-68.0411,-16.5709],[-68.0245,-16.56],[-68.0069,-16.5259],[-68.0004,-16.5248],[-67.9933,-16.5199],[-67.9745,-16.5047],[-67.967,-16.4964],[-67.9626,-16.4904],[-67.9557,-16.4643],[-67.9381,-16.4539],[-67.9364,-16.4414],[-67.9439,-16.424],[-67.9478,-16.4185],[-67.9477,-16.4115],[-67.9442,-16.4086],[-67.9399,-16.4065],[-67.9386,-16.4023],[-67.941,-16.3926],[-67.9393,-16.3891],[-67.9355,-16.3842],[-67.9362,-16.3783],[-67.9328,-16.374],[-67.9362,-16.3704],[-67.936,-16.366],[-67.9338,-16.3652],[-67.9334,-16.362],[-67.9409,-16.3474],[-67.9497,-16.3398],[-67.9546,-16.3303],[-67.9565,-16.3246],[-67.9555,-16.322],[-67.957,-16.3191],[-67.956,-16.3149],[-67.9579,-16.3137],[-67.9566,-16.3089],[-67.9576,-16.3078],[-67.9569,-16.3025],[-67.9517,-16.293],[-67.9448,-16.2847],[-67.9439,-16.2611],[-67.9491,-16.2518],[-67.944,-16.2426],[-67.9428,-16.2358],[-67.943,-16.2272],[-67.9463,-16.2196],[-67.9473,-16.2133],[-67.9514,-16.2029],[-67.9559,-16.1992],[-67.9581,-16.1962],[-67.9626,-16.1832],[-67.9657,-16.1805],[-67.9649,-16.1766],[-67.962,-16.1723],[-67.9592,-16.1712],[-67.9581,-16.1679],[-67.9558,-16.1663],[-67.9571,-16.1622],[-67.9546,-16.1576],[-67.9561,-16.1525],[-67.9553,-16.1504],[-67.9577,-16.1487],[-67.9578,-16.1442],[-67.9607,-16.1431],[-67.9611,-16.1422],[-67.9604,-16.1395],[-67.9611,-16.1368],[-67.9608,-16.1355],[-67.9588,-16.1345],[-67.96,-16.1294],[-67.957,-16.1309],[-67.9565,-16.1298],[-67.9537,-16.1285],[-67.9526,-16.1259],[-67.9493,-16.1239],[-67.9469,-16.124],[-67.9451,-16.1227],[-67.945,-16.1208],[-67.944,-16.1194],[-67.9443,-16.1161],[-67.9426,-16.117],[-67.94,-16.1153],[-67.9356,-16.1156],[-67.9344,-16.1143],[-67.9342,-16.1096],[-67.9319,-16.1079],[-67.9319,-16.1023],[-67.9313,-16.1008],[-67.9281,-16.101],[-67.926,-16.1031],[-67.9248,-16.1004],[-67.9222,-16.1],[-67.9223,-16.0989],[-67.9237,-16.0977],[-67.9237,-16.096],[-67.9253,-16.0956],[-67.9249,-16.0924],[-67.9265,-16.091],[-67.9266,-16.09],[-67.9247,-16.0891],[-67.9261,-16.086],[-67.9253,-16.0835],[-67.9256,-16.0808],[-67.9217,-16.0784],[-67.9199,-16.0822],[-67.9179,-16.0833],[-67.9183,-16.0852],[-67.9161,-16.0864],[-67.9133,-16.0905],[-67.911,-16.0897],[-67.9095,-16.0911],[-67.9057,-16.0914],[-67.9004,-16.0861],[-67.8962,-16.0868],[-67.8929,-16.0911],[-67.8879,-16.0893],[-67.882,-16.0904],[-67.877,-16.0892],[-67.8756,-16.0898],[-67.8751,-16.0868],[-67.8722,-16.0851],[-67.8702,-16.0898],[-67.8685,-16.0909],[-67.867,-16.0939],[-67.8626,-16.0968],[-67.8617,-16.084],[-67.863,-16.0705],[-67.8599,-16.0628],[-67.859,-16.0507],[-67.8513,-16.0472],[-67.842,-16.0383],[-67.8333,-16.017],[-67.8097,-16.0019],[-67.7788,-15.9994],[-67.742,-16.0077],[-67.7372,-16.0095],[-67.7335,-16.0089],[-67.7291,-16.0113],[-67.7296,-16.013],[-67.7289,-16.0148],[-67.7272,-16.0143],[-67.7249,-16.0121],[-67.722,-16.0118],[-67.7192,-16.013],[-67.7179,-16.0148],[-67.7149,-16.0133],[-67.7132,-16.0148],[-67.7107,-16.0147],[-67.7106,-16.016],[-67.7093,-16.0166],[-67.7056,-16.0145],[-67.7019,-16.0166],[-67.7009,-16.0205],[-67.6997,-16.0216],[-67.6953,-16.0212],[-67.6935,-16.0195],[-67.6892,-16.0207],[-67.6868,-16.0237],[-67.6861,-16.0226],[-67.6844,-16.0221],[-67.6833,-16.0234],[-67.6819,-16.0235],[-67.6806,-16.0205],[-67.6789,-16.0215],[-67.678,-16.0203],[-67.6775,-16.0137],[-67.6736,-16.0066],[-67.6742,-16.0003],[-67.6699,-15.9888],[-67.6636,-15.9582],[-67.6616,-15.958],[-67.6583,-15.955],[-67.6568,-15.955],[-67.6551,-15.9524],[-67.654,-15.9523],[-67.6538,-15.953],[-67.653,-15.9518],[-67.6513,-15.9522],[-67.6493,-15.9501],[-67.6473,-15.9493],[-67.6467,-15.9495],[-67.6466,-15.9508],[-67.6452,-15.9501],[-67.6439,-15.9473],[-67.6424,-15.9467],[-67.6445,-15.9456],[-67.6462,-15.9422],[-67.6454,-15.9381],[-67.6432,-15.9352],[-67.6446,-15.9362],[-67.6451,-15.9357],[-67.6428,-15.9322],[-67.6413,-15.9265],[-67.6357,-15.924],[-67.6339,-15.9217],[-67.6329,-15.9184],[-67.6315,-15.9173],[-67.6292,-15.917],[-67.626,-15.9143],[-67.6249,-15.9147],[-67.6236,-15.9131],[-67.6241,-15.9121],[-67.6283,-15.9118],[-67.6308,-15.9081],[-67.6325,-15.9075],[-67.6339,-15.9033],[-67.6333,-15.9003],[-67.6354,-15.8999],[-67.6347,-15.8955],[-67.6357,-15.895],[-67.6356,-15.8928],[-67.6318,-15.8881],[-67.6344,-15.8841],[-67.6333,-15.883],[-67.6331,-15.8815],[-67.6355,-15.8776],[-67.6377,-15.8771],[-67.6408,-15.8734],[-67.6429,-15.8723],[-67.6444,-15.8672],[-67.6491,-15.8646],[-67.6511,-15.862],[-67.6528,-15.8629],[-67.6543,-15.8615],[-67.6564,-15.8611],[-67.6582,-15.8585],[-67.6599,-15.8576],[-67.659,-15.8531],[-67.6608,-15.852],[-67.6609,-15.8508],[-67.6583,-15.8504],[-67.6578,-15.8519],[-67.656,-15.8521],[-67.6554,-15.8515],[-67.6556,-15.8488],[-67.6538,-15.8482],[-67.6545,-15.8448],[-67.6521,-15.8432],[-67.6525,-15.8414],[-67.6539,-15.8397],[-67.6533,-15.8378],[-67.6557,-15.8382],[-67.6567,-15.8376],[-67.6533,-15.8336],[-67.6543,-15.8329],[-67.6556,-15.834],[-67.6562,-15.8336],[-67.6557,-15.8323],[-67.6582,-15.8285],[-67.6595,-15.8209],[-67.6568,-15.8142],[-67.6573,-15.8088],[-67.6588,-15.8039],[-67.6587,-15.7965],[-67.6537,-15.7856],[-67.6565,-15.7833],[-67.6583,-15.7793],[-67.6637,-15.7748],[-67.6644,-15.7732],[-67.6638,-15.7696],[-67.665,-15.7668],[-67.6678,-15.765],[-67.6735,-15.7586],[-67.6794,-15.758],[-67.6819,-15.7541],[-67.6828,-15.7496]]]}},{"type":"Feature","id":"bo020102","properties":{"name":"Palca","province":"La Paz","department":"La Paz","type":"Municipio","country":"Bolivia","iso":"BO"},"geometry":{"type":"Polygon","coordinates":[[[-67.8281,-16.8158],[-67.8234,-16.8285],[-67.8193,-16.8298],[-67.796,-16.8287],[-67.7939,-16.8308],[-67.7872,-16.834],[-67.7819,-16.8346],[-67.7778,-16.8333],[-67.7744,-16.8334],[-67.7684,-16.8346],[-67.7654,-16.837],[-67.7624,-16.8374],[-67.7581,-16.8411],[-67.755,-16.8458],[-67.7518,-16.8476],[-67.7487,-16.8514],[-67.7451,-16.8514],[-67.7438,-16.8526],[-67.7424,-16.8593],[-67.7411,-16.8608],[-67.7315,-16.8581],[-67.7195,-16.8607],[-67.7109,-16.8595],[-67.703,-16.8529],[-67.7011,-16.8501],[-67.7009,-16.8482],[-67.7088,-16.8268],[-67.7082,-16.8209],[-67.7063,-16.8181],[-67.7025,-16.815],[-67.6982,-16.8087],[-67.6951,-16.8064],[-67.6919,-16.806],[-67.6889,-16.8041],[-67.6838,-16.8047],[-67.6828,-16.8055],[-67.6776,-16.8033],[-67.6678,-16.8025],[-67.6648,-16.7996],[-67.6625,-16.7986],[-67.6605,-16.7956],[-67.6603,-16.7941],[-67.6614,-16.79],[-67.6641,-16.7851],[-67.6624,-16.7825],[-67.6595,-16.7809],[-67.6574,-16.7783],[-67.6524,-16.7774],[-67.649,-16.7691],[-67.6463,-16.7655],[-67.6431,-16.764],[-67.6386,-16.7653],[-67.6339,-16.763],[-67.6326,-16.7606],[-67.6283,-16.7564],[-67.6258,-16.7482],[-67.6238,-16.7458],[-67.6232,-16.7438],[-67.6197,-16.7431],[-67.624,-16.7353],[-67.6265,-16.7327],[-67.6269,-16.7294],[-67.632,-16.7235],[-67.6335,-16.7226],[-67.636,-16.7226],[-67.6452,-16.7152],[-67.6503,-16.7136],[-67.6644,-16.7052],[-67.6748,-16.6961],[-67.6862,-16.69],[-67.6887,-16.6877],[-67.6966,-16.6768],[-67.7049,-16.6743],[-67.7081,-16.6723],[-67.7089,-16.6707],[-67.7121,-16.6692],[-67.729,-16.6689],[-67.7325,-16.6668],[-67.7407,-16.6637],[-67.7625,-16.6568],[-67.7754,-16.6567],[-67.7828,-16.6557],[-67.7841,-16.6538],[-67.7825,-16.6434],[-67.7871,-16.6382],[-67.7972,-16.6352],[-67.8009,-16.6308],[-67.8107,-16.6289],[-67.8123,-16.6277],[-67.8132,-16.6247],[-67.8053,-16.6025],[-67.8084,-16.5977],[-67.8074,-16.5932],[-67.8194,-16.5875],[-67.8238,-16.5841],[-67.8272,-16.5802],[-67.8322,-16.5784],[-67.8428,-16.5768],[-67.849,-16.5787],[-67.8502,-16.5782],[-67.8505,-16.5747],[-67.8551,-16.5699],[-67.8536,-16.5601],[-67.8512,-16.5563],[-67.8505,-16.5532],[-67.8581,-16.5466],[-67.8586,-16.5444],[-67.8484,-16.5387],[-67.8455,-16.5351],[-67.8435,-16.5346],[-67.8433,-16.5303],[-67.8397,-16.5277],[-67.8386,-16.5237],[-67.8464,-16.4995],[-67.8508,-16.4969],[-67.8603,-16.4955],[-67.8621,-16.4934],[-67.8715,-16.492],[-67.8755,-16.4942],[-67.8794,-16.4936],[-67.8872,-16.489],[-67.8867,-16.4855],[-67.8895,-16.4801],[-67.9005,-16.4765],[-67.9086,-16.4749],[-67.9145,-16.4698],[-67.9175,-16.4651],[-67.9224,-16.4618],[-67.9288,-16.4613],[-67.9381,-16.4539],[-67.9557,-16.4643],[-67.9626,-16.4904],[-67.9745,-16.5047],[-68.0004,-16.5248],[-68.0069,-16.5259],[-68.0236,-16.5587],[-68.0193,-16.5619],[-68.0173,-16.5676],[-68.0147,-16.5704],[-67.9958,-16.5776],[-67.9925,-16.5817],[-67.9885,-16.5839],[-67.9873,-16.5867],[-67.9762,-16.5946],[-67.9732,-16.5986],[-67.9693,-16.6014],[-67.9691,-16.603],[-67.967,-16.605],[-67.9673,-16.6057],[-67.9657,-16.6065],[-67.9656,-16.608],[-67.9626,-16.6099],[-67.9613,-16.6081],[-67.9589,-16.6082],[-67.9553,-16.6092],[-67.9498,-16.6125],[-67.9488,-16.6141],[-67.9456,-16.6147],[-67.943,-16.6141],[-67.9422,-16.6147],[-67.9438,-16.6209],[-67.942,-16.6266],[-67.9334,-16.6366],[-67.9318,-16.6401],[-67.9319,-16.6441],[-67.9423,-16.6508],[-67.9515,-16.6546],[-67.9513,-16.6563],[-67.9392,-16.6672],[-67.9349,-16.6723],[-67.9257,-16.6766],[-67.9243,-16.6782],[-67.9191,-16.678],[-67.9129,-16.6767],[-67.9116,-16.6786],[-67.9118,-16.6805],[-67.909,-16.6822],[-67.9083,-16.6858],[-67.904,-16.6849],[-67.9018,-16.6875],[-67.9016,-16.6892],[-67.8989,-16.6911],[-67.8967,-16.6915],[-67.8927,-16.6969],[-67.8906,-16.6982],[-67.8893,-16.7017],[-67.8872,-16.7027],[-67.8842,-16.7026],[-67.8808,-16.7035],[-67.8768,-16.7058],[-67.8745,-16.7083],[-67.8737,-16.7113],[-67.8768,-16.7145],[-67.8779,-16.7169],[-67.8758,-16.7207],[-67.8769,-16.7227],[-67.8771,-16.7265],[-67.8764,-16.7283],[-67.8723,-16.7302],[-67.8691,-16.7301],[-67.865,-16.732],[-67.8601,-16.7372],[-67.856,-16.7395],[-67.854,-16.7422],[-67.8496,-16.745],[-67.8466,-16.7495],[-67.8419,-16.752],[-67.84,-16.7542],[-67.8371,-16.7599],[-67.8355,-16.7681],[-67.8334,-16.7691],[-67.8311,-16.7732],[-67.8344,-16.7805],[-67.8314,-16.7867],[-67.8302,-16.7965],[-67.8283,-16.8024],[-67.8281,-16.8158]]]}}]}