{"type":"FeatureCollection","features":[{"type":"Feature","id":"council-malta-1","properties":{"name":"Ghajnsielem","province":"Valletta","department":"Port Region","type":"Kunsill Lokali","country":"Malta","iso":"MT"},"geometry":{"type":"MultiPolygon","coordinates":[[[[14.3233,36.0124],[14.3233,36.0139],[14.3221,36.015],[14.3204,36.0154],[14.3181,36.0148],[14.318,36.0123],[14.3233,36.0124]]],[[[14.3407,36.0184],[14.339,36.0197],[14.3368,36.0183],[14.3343,36.0194],[14.3328,36.0191],[14.3303,36.0168],[14.3295,36.017],[14.3285,36.0189],[14.3256,36.0184],[14.324,36.0163],[14.3246,36.0142],[14.3244,36.0125],[14.3271,36.0115],[14.3285,36.0092],[14.3305,36.0082],[14.3285,36.006],[14.3291,36.0042],[14.3326,36.0037],[14.3341,36.0051],[14.3356,36.0054],[14.3452,36.0052],[14.3472,36.0064],[14.351,36.0074],[14.3514,36.0094],[14.3495,36.0114],[14.349,36.0132],[14.345,36.0158],[14.3432,36.0152],[14.3418,36.0179],[14.3407,36.0184]]],[[[14.2941,36.0347],[14.2909,36.0362],[14.2839,36.036],[14.2809,36.0365],[14.2761,36.0389],[14.2764,36.0374],[14.2757,36.0336],[14.2732,36.0311],[14.2722,36.0246],[14.2686,36.0217],[14.2719,36.0201],[14.273,36.0166],[14.2752,36.0172],[14.279,36.017],[14.2827,36.0184],[14.2864,36.0179],[14.2884,36.0204],[14.2899,36.0186],[14.2917,36.0197],[14.2956,36.0206],[14.2967,36.0222],[14.3015,36.0253],[14.3004,36.0264],[14.3005,36.0278],[14.3017,36.0281],[14.3051,36.0272],[14.3053,36.0287],[14.3037,36.0303],[14.2983,36.0293],[14.2941,36.0347]]]]}},{"type":"Feature","id":"council-malta-2","properties":{"name":"Qala","province":"Valletta","department":"Port Region","type":"Kunsill Lokali","country":"Malta","iso":"MT"},"geometry":{"type":"Polygon","coordinates":[[[14.3051,36.0272],[14.3132,36.0273],[14.3184,36.0257],[14.3206,36.0257],[14.3248,36.028],[14.3308,36.029],[14.3364,36.0315],[14.3372,36.0321],[14.3373,36.0349],[14.3243,36.045],[14.3233,36.0476],[14.3213,36.0499],[14.3159,36.0503],[14.3151,36.0508],[14.3061,36.0453],[14.3053,36.0403],[14.3036,36.0364],[14.2969,36.0358],[14.2943,36.0347],[14.2983,36.0293],[14.3026,36.0303],[14.3043,36.0302],[14.3052,36.0292],[14.3051,36.0272]]]}},{"type":"Feature","id":"council-malta-3","properties":{"name":"Saint Lawerence","province":"Valletta","department":"Port Region","type":"Kunsill Lokali","country":"Malta","iso":"MT"},"geometry":{"type":"MultiPolygon","coordinates":[[[[14.1902,36.0449],[14.191,36.0454],[14.1907,36.046],[14.1889,36.0465],[14.1892,36.045],[14.1902,36.0449]]],[[[14.2092,36.0552],[14.2066,36.0595],[14.2038,36.0596],[14.2004,36.0587],[14.1947,36.0613],[14.1918,36.0617],[14.1925,36.0597],[14.1914,36.0575],[14.1919,36.0555],[14.1888,36.053],[14.1884,36.0514],[14.1912,36.0493],[14.1898,36.0471],[14.1933,36.047],[14.194,36.0461],[14.1901,36.0431],[14.1894,36.039],[14.1865,36.0367],[14.1869,36.0356],[14.1893,36.0338],[14.194,36.0323],[14.1967,36.0332],[14.1968,36.0352],[14.1992,36.0394],[14.2067,36.0459],[14.2061,36.0471],[14.2064,36.0483],[14.2093,36.0516],[14.2092,36.0552]]]]}},{"type":"Feature","id":"council-malta-4","properties":{"name":"Gharb","province":"Valletta","department":"Port Region","type":"Kunsill Lokali","country":"Malta","iso":"MT"},"geometry":{"type":"Polygon","coordinates":[[[14.2095,36.055],[14.215,36.0548],[14.2158,36.0551],[14.2164,36.0566],[14.2166,36.0609],[14.2146,36.0622],[14.2142,36.0631],[14.2147,36.0663],[14.2137,36.0675],[14.2103,36.0689],[14.2096,36.0699],[14.2101,36.0712],[14.2119,36.0722],[14.2137,36.0755],[14.2135,36.0801],[14.2065,36.0789],[14.2025,36.0765],[14.2013,36.0749],[14.1999,36.0745],[14.1874,36.0732],[14.1849,36.0725],[14.1844,36.0696],[14.1835,36.0689],[14.1849,36.067],[14.1844,36.0651],[14.1847,36.0644],[14.1905,36.0629],[14.1918,36.0617],[14.1947,36.0613],[14.2004,36.0587],[14.2038,36.0596],[14.2066,36.0595],[14.2081,36.0564],[14.2095,36.055]]]}},{"type":"Feature","id":"council-malta-5","properties":{"name":"Ghasri","province":"Valletta","department":"Port Region","type":"Kunsill Lokali","country":"Malta","iso":"MT"},"geometry":{"type":"Polygon","coordinates":[[[14.2159,36.0551],[14.2182,36.0542],[14.2215,36.0517],[14.2235,36.0513],[14.2294,36.0529],[14.2374,36.0531],[14.2373,36.0569],[14.2367,36.0589],[14.2347,36.0601],[14.2311,36.0604],[14.2293,36.0615],[14.2289,36.0643],[14.2277,36.0666],[14.2278,36.0705],[14.2299,36.0748],[14.2324,36.0774],[14.232,36.0785],[14.2281,36.0814],[14.2264,36.0801],[14.2252,36.0811],[14.2233,36.0814],[14.2207,36.0799],[14.2135,36.0801],[14.2137,36.0755],[14.2119,36.0722],[14.2101,36.0712],[14.2096,36.0699],[14.2103,36.0689],[14.2137,36.0675],[14.2147,36.0663],[14.2142,36.0631],[14.2168,36.0602],[14.2159,36.0551]]]}},{"type":"Feature","id":"council-malta-6","properties":{"name":"Żebbuġ Gozo","province":"Valletta","department":"Port Region","type":"Kunsill Lokali","country":"Malta","iso":"MT"},"geometry":{"type":"Polygon","coordinates":[[[14.2374,36.0532],[14.2409,36.0498],[14.2474,36.0494],[14.2513,36.0501],[14.2517,36.0516],[14.2509,36.0563],[14.2527,36.0598],[14.2585,36.0633],[14.2628,36.0636],[14.2644,36.0648],[14.2644,36.067],[14.263,36.0699],[14.2629,36.0729],[14.2609,36.0725],[14.2592,36.0714],[14.2577,36.0715],[14.2571,36.076],[14.2512,36.0788],[14.2508,36.0806],[14.2494,36.0814],[14.2479,36.0802],[14.2456,36.0801],[14.244,36.0813],[14.2385,36.0819],[14.2361,36.083],[14.2281,36.0814],[14.232,36.0785],[14.2324,36.0774],[14.2299,36.0748],[14.2278,36.0705],[14.2277,36.0666],[14.2289,36.0643],[14.2293,36.0615],[14.2311,36.0604],[14.2347,36.0601],[14.2367,36.0589],[14.2374,36.0532]]]}},{"type":"Feature","id":"council-malta-7","properties":{"name":"Kerċem","province":"Valletta","department":"Port Region","type":"Kunsill Lokali","country":"Malta","iso":"MT"},"geometry":{"type":"Polygon","coordinates":[[[14.1967,36.0332],[14.198,36.0338],[14.2039,36.0338],[14.2137,36.03],[14.2192,36.0329],[14.2242,36.0369],[14.2286,36.0355],[14.2337,36.036],[14.2341,36.0374],[14.2337,36.0417],[14.2327,36.0432],[14.2294,36.0456],[14.228,36.0484],[14.2246,36.0514],[14.2222,36.0514],[14.2159,36.0551],[14.2095,36.055],[14.2092,36.0512],[14.2061,36.0477],[14.2067,36.0459],[14.1992,36.0394],[14.1968,36.0352],[14.1967,36.0332]]]}},{"type":"Feature","id":"council-malta-8","properties":{"name":"Munxar","province":"Valletta","department":"Port Region","type":"Kunsill Lokali","country":"Malta","iso":"MT"},"geometry":{"type":"Polygon","coordinates":[[[14.2137,36.03],[14.2154,36.0291],[14.2144,36.0275],[14.2145,36.0263],[14.2183,36.022],[14.2218,36.0198],[14.2229,36.0198],[14.2255,36.0214],[14.2314,36.0218],[14.2339,36.0241],[14.2344,36.0258],[14.2378,36.0303],[14.2395,36.0316],[14.2385,36.0334],[14.2352,36.0342],[14.2331,36.0358],[14.2286,36.0355],[14.2245,36.0369],[14.2192,36.0329],[14.2137,36.03]]]}},{"type":"Feature","id":"council-malta-9","properties":{"name":"Fontana","province":"Valletta","department":"Port Region","type":"Kunsill Lokali","country":"Malta","iso":"MT"},"geometry":{"type":"Polygon","coordinates":[[[14.2331,36.0358],[14.2352,36.0342],[14.2385,36.0334],[14.2392,36.0324],[14.2406,36.0329],[14.2419,36.0363],[14.2413,36.0379],[14.237,36.0412],[14.233,36.0429],[14.2341,36.0383],[14.2341,36.0367],[14.2331,36.0358]]]}},{"type":"Feature","id":"council-malta-10","properties":{"name":"Rabat Gozo","province":"Valletta","department":"Port Region","type":"Kunsill Lokali","country":"Malta","iso":"MT"},"geometry":{"type":"Polygon","coordinates":[[[14.2246,36.0514],[14.228,36.0484],[14.2303,36.0448],[14.237,36.0412],[14.2413,36.0379],[14.2419,36.0357],[14.2494,36.0358],[14.2514,36.0372],[14.2509,36.0389],[14.2528,36.0414],[14.2528,36.0447],[14.2486,36.0475],[14.2479,36.0495],[14.2409,36.0498],[14.2374,36.0532],[14.2294,36.0529],[14.2246,36.0514]]]}},{"type":"Feature","id":"council-malta-11","properties":{"name":"Xgħajra","province":"Valletta","department":"Port Region","type":"Kunsill Lokali","country":"Malta","iso":"MT"},"geometry":{"type":"Polygon","coordinates":[[[14.2479,36.0495],[14.2486,36.0475],[14.2528,36.0447],[14.2528,36.0421],[14.2542,36.0412],[14.2602,36.0406],[14.2693,36.0426],[14.275,36.0398],[14.2786,36.0425],[14.2788,36.0486],[14.2825,36.0515],[14.2816,36.0586],[14.2824,36.0619],[14.2739,36.066],[14.2701,36.0701],[14.2669,36.0722],[14.2647,36.073],[14.2629,36.0729],[14.263,36.0699],[14.2646,36.0659],[14.2642,36.0644],[14.2628,36.0636],[14.2585,36.0633],[14.2535,36.0606],[14.2519,36.0588],[14.2509,36.0563],[14.2516,36.0504],[14.2506,36.0497],[14.2479,36.0495]]]}},{"type":"Feature","id":"council-malta-12","properties":{"name":"Sannat","province":"Valletta","department":"Port Region","type":"Kunsill Lokali","country":"Malta","iso":"MT"},"geometry":{"type":"Polygon","coordinates":[[[14.2686,36.0217],[14.2598,36.0269],[14.2542,36.0276],[14.2489,36.0298],[14.239,36.0312],[14.2344,36.0258],[14.2339,36.0241],[14.2314,36.0218],[14.2375,36.0188],[14.2404,36.0187],[14.2441,36.0196],[14.2472,36.0184],[14.2531,36.0181],[14.2534,36.0156],[14.2557,36.0149],[14.2565,36.0134],[14.2576,36.0132],[14.2593,36.0144],[14.2601,36.0139],[14.2606,36.0116],[14.2614,36.0111],[14.2623,36.0115],[14.2639,36.0139],[14.273,36.0166],[14.2719,36.0201],[14.2686,36.0217]]]}},{"type":"Feature","id":"council-malta-13","properties":{"name":"Xewkija","province":"Valletta","department":"Port Region","type":"Kunsill Lokali","country":"Malta","iso":"MT"},"geometry":{"type":"Polygon","coordinates":[[[14.2761,36.0389],[14.2756,36.04],[14.2741,36.0399],[14.2693,36.0426],[14.2589,36.0406],[14.2542,36.0412],[14.2528,36.0421],[14.2512,36.0398],[14.2514,36.0372],[14.2509,36.0366],[14.2494,36.0358],[14.2419,36.0357],[14.2406,36.0329],[14.2392,36.0324],[14.2395,36.0316],[14.239,36.0312],[14.2489,36.0298],[14.2542,36.0276],[14.2598,36.0269],[14.2686,36.0217],[14.2722,36.0246],[14.2732,36.0311],[14.2757,36.0336],[14.2764,36.0374],[14.2761,36.0389]]]}},{"type":"Feature","id":"council-malta-14","properties":{"name":"Nadur","province":"Valletta","department":"Port Region","type":"Kunsill Lokali","country":"Malta","iso":"MT"},"geometry":{"type":"Polygon","coordinates":[[[14.2943,36.0347],[14.2969,36.0358],[14.3036,36.0364],[14.3053,36.0403],[14.3061,36.0453],[14.3151,36.0508],[14.312,36.0532],[14.311,36.0566],[14.3097,36.058],[14.3038,36.0587],[14.3028,36.0576],[14.2994,36.0576],[14.2985,36.0596],[14.2946,36.0614],[14.2919,36.0648],[14.2891,36.0653],[14.2851,36.0621],[14.2824,36.0619],[14.2816,36.0586],[14.2817,36.0545],[14.2827,36.052],[14.2818,36.0507],[14.2788,36.0486],[14.2786,36.0425],[14.2756,36.04],[14.2761,36.0389],[14.2803,36.0367],[14.2839,36.036],[14.2909,36.0362],[14.2943,36.0347]]]}},{"type":"Feature","id":"council-malta-15","properties":{"name":"Marsaskala","province":"Valletta","department":"Port Region","type":"Kunsill Lokali","country":"Malta","iso":"MT"},"geometry":{"type":"Polygon","coordinates":[[[14.5676,35.8451],[14.5679,35.8466],[14.5697,35.8486],[14.5691,35.8496],[14.5638,35.8518],[14.564,35.8527],[14.569,35.8563],[14.575,35.8595],[14.5764,35.8611],[14.5763,35.8617],[14.5703,35.8645],[14.5673,35.8643],[14.5643,35.8631],[14.5644,35.8638],[14.5664,35.8652],[14.5729,35.8674],[14.5737,35.8682],[14.5733,35.8695],[14.5685,35.8733],[14.5662,35.8774],[14.5636,35.8794],[14.5625,35.8778],[14.5532,35.8709],[14.5518,35.8674],[14.5459,35.8656],[14.5434,35.8636],[14.5453,35.8602],[14.5485,35.8571],[14.5487,35.8517],[14.5501,35.8494],[14.5499,35.8483],[14.5521,35.8473],[14.5602,35.8469],[14.5635,35.8455],[14.5676,35.8451]]]}},{"type":"Feature","id":"council-malta-16","properties":{"name":"Mellieħa","province":"Valletta","department":"Port Region","type":"Kunsill Lokali","country":"Malta","iso":"MT"},"geometry":{"type":"MultiPolygon","coordinates":[[[[14.4071,35.9677],[14.4026,35.9674],[14.3993,35.9649],[14.4005,35.9642],[14.4039,35.9656],[14.4066,35.9659],[14.408,35.9673],[14.4071,35.9677]]],[[[14.3918,35.9576],[14.3925,35.9583],[14.3971,35.959],[14.3972,35.9598],[14.3962,35.9608],[14.3981,35.9627],[14.3981,35.9645],[14.3953,35.9676],[14.3865,35.9693],[14.3847,35.9681],[14.3829,35.9681],[14.3804,35.9704],[14.3782,35.9709],[14.369,35.9682],[14.3574,35.9661],[14.3529,35.9669],[14.3514,35.9675],[14.3501,35.9692],[14.3499,35.9721],[14.3537,35.975],[14.3577,35.9762],[14.3608,35.9789],[14.3629,35.9796],[14.3646,35.981],[14.3669,35.9845],[14.3689,35.9852],[14.3726,35.9841],[14.3775,35.9869],[14.3767,35.9884],[14.3736,35.9911],[14.3727,35.9936],[14.3704,35.9964],[14.3691,35.997],[14.3627,35.9953],[14.3626,35.9945],[14.3646,35.9925],[14.3647,35.9914],[14.3607,35.9891],[14.3544,35.991],[14.3525,35.99],[14.3515,35.9879],[14.3484,35.9872],[14.3468,35.986],[14.3462,35.9867],[14.3427,35.9871],[14.3412,35.9862],[14.3386,35.9858],[14.3355,35.9871],[14.3275,35.9889],[14.3269,35.9881],[14.3273,35.9877],[14.333,35.9843],[14.3326,35.9826],[14.3297,35.9821],[14.3268,35.9796],[14.3236,35.978],[14.3216,35.9763],[14.3186,35.9722],[14.3211,35.9692],[14.3226,35.9685],[14.3245,35.9686],[14.3272,35.97],[14.3306,35.9703],[14.3346,35.9698],[14.3363,35.9681],[14.3378,35.9676],[14.3367,35.9669],[14.3369,35.9657],[14.3378,35.9647],[14.3369,35.9632],[14.3391,35.9614],[14.3385,35.958],[14.3392,35.9558],[14.3415,35.9548],[14.3417,35.9538],[14.3384,35.951],[14.3375,35.9484],[14.3358,35.9468],[14.3353,35.9453],[14.3302,35.9435],[14.3289,35.9415],[14.3309,35.939],[14.3357,35.9382],[14.3395,35.9352],[14.3432,35.9343],[14.3442,35.9331],[14.3428,35.9308],[14.3443,35.9289],[14.3579,35.9326],[14.3633,35.9365],[14.3715,35.9382],[14.3717,35.9395],[14.3703,35.9413],[14.3697,35.9461],[14.3697,35.9475],[14.3712,35.9495],[14.3777,35.9512],[14.3844,35.9539],[14.3893,35.9573],[14.3918,35.9576]]]]}},{"type":"Feature","id":"council-malta-17","properties":{"name":"Gżira","province":"Valletta","department":"Port Region","type":"Kunsill Lokali","country":"Malta","iso":"MT"},"geometry":{"type":"MultiPolygon","coordinates":[[[[14.5072,35.9051],[14.5008,35.9051],[14.4998,35.9033],[14.5024,35.9013],[14.5054,35.901],[14.5085,35.9022],[14.509,35.9029],[14.509,35.9042],[14.5072,35.9051]]],[[[14.4915,35.9092],[14.4883,35.9088],[14.4878,35.9057],[14.4859,35.9045],[14.4856,35.9036],[14.492,35.8991],[14.4942,35.9008],[14.4988,35.9024],[14.4983,35.905],[14.5001,35.9074],[14.498,35.9077],[14.4954,35.909],[14.4915,35.9092]]]]}},{"type":"Feature","id":"council-malta-18","properties":{"name":"Mġarr","province":"Valletta","department":"Port Region","type":"Kunsill Lokali","country":"Malta","iso":"MT"},"geometry":{"type":"Polygon","coordinates":[[[14.3443,35.9289],[14.3438,35.9281],[14.3411,35.928],[14.3393,35.927],[14.3394,35.9252],[14.3422,35.9266],[14.3437,35.9266],[14.3438,35.9227],[14.3432,35.9206],[14.3408,35.9201],[14.338,35.9231],[14.3355,35.9226],[14.3333,35.9207],[14.3327,35.9167],[14.333,35.9151],[14.3357,35.9142],[14.3364,35.9128],[14.3387,35.9108],[14.3398,35.9089],[14.3396,35.907],[14.3422,35.9057],[14.3431,35.901],[14.3441,35.9004],[14.3464,35.8998],[14.3524,35.8998],[14.3554,35.8977],[14.3594,35.8974],[14.3614,35.901],[14.3634,35.9013],[14.3639,35.9008],[14.3664,35.9006],[14.3711,35.9039],[14.3723,35.9037],[14.375,35.9013],[14.3766,35.9011],[14.3785,35.903],[14.3825,35.9055],[14.3903,35.9061],[14.3937,35.907],[14.3968,35.9064],[14.4013,35.9075],[14.4019,35.9082],[14.4018,35.9104],[14.4009,35.9111],[14.3959,35.9115],[14.3913,35.9142],[14.3893,35.9196],[14.3891,35.9229],[14.3881,35.9246],[14.3803,35.9268],[14.3779,35.9265],[14.3772,35.9273],[14.3757,35.9292],[14.3755,35.9316],[14.3773,35.9341],[14.3797,35.9361],[14.3797,35.9373],[14.3789,35.9379],[14.3718,35.939],[14.3715,35.9382],[14.3702,35.9377],[14.3633,35.9365],[14.3579,35.9326],[14.3443,35.9289]]]}},{"type":"Feature","id":"council-malta-19","properties":{"name":"Saint Paul's Bay","province":"Valletta","department":"Port Region","type":"Kunsill Lokali","country":"Malta","iso":"MT"},"geometry":{"type":"Polygon","coordinates":[[[14.3718,35.939],[14.3789,35.9379],[14.3797,35.9373],[14.3797,35.9361],[14.3773,35.9341],[14.3755,35.9316],[14.3757,35.9292],[14.3779,35.9265],[14.3803,35.9268],[14.3881,35.9246],[14.3891,35.9229],[14.3893,35.9196],[14.3913,35.9142],[14.3959,35.9115],[14.4012,35.9109],[14.4092,35.9159],[14.41,35.9172],[14.4074,35.9197],[14.4031,35.9216],[14.4,35.9254],[14.3953,35.9261],[14.3952,35.9272],[14.398,35.9288],[14.4052,35.929],[14.4132,35.9252],[14.4172,35.9205],[14.4202,35.92],[14.4231,35.9224],[14.4239,35.9246],[14.4233,35.926],[14.4198,35.9282],[14.4195,35.9292],[14.4212,35.9312],[14.4213,35.9324],[14.419,35.9357],[14.4181,35.9384],[14.4192,35.9431],[14.4249,35.9493],[14.4241,35.9498],[14.4242,35.9517],[14.425,35.9533],[14.4251,35.9562],[14.4269,35.9579],[14.4268,35.9597],[14.4283,35.9602],[14.4302,35.9596],[14.4287,35.9614],[14.4275,35.9616],[14.427,35.9607],[14.4206,35.959],[14.4143,35.9547],[14.4082,35.9528],[14.4033,35.9501],[14.4004,35.9497],[14.3955,35.9472],[14.3882,35.9451],[14.3841,35.9453],[14.3826,35.9464],[14.3839,35.9487],[14.3912,35.9537],[14.3912,35.9562],[14.3918,35.9576],[14.39,35.9576],[14.3844,35.9539],[14.3756,35.9505],[14.3712,35.9495],[14.3702,35.9485],[14.3697,35.9461],[14.3703,35.9413],[14.3718,35.939]]]}},{"type":"Feature","id":"council-malta-20","properties":{"name":"Naxxar","province":"Valletta","department":"Port Region","type":"Kunsill Lokali","country":"Malta","iso":"MT"},"geometry":{"type":"Polygon","coordinates":[[[14.4239,35.9242],[14.4269,35.9233],[14.4313,35.9197],[14.4322,35.9176],[14.4328,35.9117],[14.4338,35.9102],[14.4418,35.9064],[14.4445,35.9073],[14.4483,35.9072],[14.4498,35.9091],[14.4489,35.9103],[14.4484,35.9135],[14.4495,35.9158],[14.4496,35.9186],[14.4462,35.9222],[14.4464,35.9237],[14.4475,35.9249],[14.4481,35.9303],[14.4499,35.9325],[14.4524,35.933],[14.4554,35.9325],[14.4598,35.9337],[14.4614,35.9355],[14.4617,35.9382],[14.4601,35.9387],[14.4587,35.9414],[14.4563,35.941],[14.4551,35.9419],[14.4555,35.9449],[14.455,35.9462],[14.4539,35.947],[14.4523,35.947],[14.4506,35.9459],[14.4494,35.9462],[14.4475,35.9476],[14.4439,35.9521],[14.4403,35.9528],[14.4357,35.9555],[14.4334,35.9556],[14.4318,35.9529],[14.4291,35.9501],[14.4281,35.9493],[14.4249,35.9493],[14.4192,35.9431],[14.4181,35.9384],[14.419,35.9357],[14.4213,35.9324],[14.4212,35.9312],[14.4195,35.9292],[14.4198,35.9282],[14.4233,35.926],[14.4239,35.9242]]]}},{"type":"Feature","id":"council-malta-21","properties":{"name":"Għargħur","province":"Valletta","department":"Port Region","type":"Kunsill Lokali","country":"Malta","iso":"MT"},"geometry":{"type":"Polygon","coordinates":[[[14.4497,35.9167],[14.4551,35.9169],[14.457,35.9165],[14.46,35.9139],[14.4618,35.9132],[14.463,35.9135],[14.4632,35.9143],[14.463,35.9196],[14.4592,35.9218],[14.4591,35.9281],[14.4547,35.9306],[14.4535,35.933],[14.4499,35.9325],[14.4488,35.9314],[14.4481,35.9303],[14.4475,35.9249],[14.4464,35.9237],[14.4464,35.9213],[14.4496,35.9186],[14.4497,35.9167]]]}},{"type":"Feature","id":"council-malta-22","properties":{"name":"Pembroke","province":"Valletta","department":"Port Region","type":"Kunsill Lokali","country":"Malta","iso":"MT"},"geometry":{"type":"Polygon","coordinates":[[[14.4606,35.9342],[14.4626,35.9333],[14.467,35.933],[14.471,35.9261],[14.4744,35.9242],[14.4811,35.9241],[14.4846,35.9268],[14.486,35.9271],[14.4868,35.9263],[14.4888,35.9263],[14.4922,35.9285],[14.4917,35.9297],[14.4882,35.931],[14.4801,35.9372],[14.4766,35.9384],[14.4739,35.9383],[14.4702,35.9368],[14.4617,35.9382],[14.4614,35.9355],[14.4606,35.9342]]]}},{"type":"Feature","id":"council-malta-23","properties":{"name":"Saint Julian's","province":"Valletta","department":"Port Region","type":"Kunsill Lokali","country":"Malta","iso":"MT"},"geometry":{"type":"Polygon","coordinates":[[[14.4912,35.9092],[14.4937,35.9125],[14.4946,35.9154],[14.4958,35.9169],[14.4948,35.917],[14.4947,35.9181],[14.4964,35.923],[14.495,35.9246],[14.4961,35.9268],[14.4913,35.9265],[14.4904,35.9269],[14.4881,35.9262],[14.4855,35.9271],[14.4829,35.9252],[14.4846,35.9238],[14.4852,35.9211],[14.4842,35.9174],[14.4823,35.917],[14.4813,35.9147],[14.4882,35.9086],[14.4912,35.9092]]]}},{"type":"Feature","id":"council-malta-24","properties":{"name":"Sliema","province":"Valletta","department":"Port Region","type":"Kunsill Lokali","country":"Malta","iso":"MT"},"geometry":{"type":"Polygon","coordinates":[[[14.5001,35.9074],[14.5032,35.9087],[14.5059,35.9088],[14.511,35.9063],[14.513,35.9058],[14.5141,35.9065],[14.5135,35.9085],[14.5088,35.9139],[14.5067,35.9156],[14.5016,35.918],[14.4991,35.9179],[14.4958,35.9169],[14.4946,35.9154],[14.4937,35.9125],[14.4912,35.9092],[14.4954,35.909],[14.498,35.9077],[14.5001,35.9074]]]}},{"type":"Feature","id":"council-malta-25","properties":{"name":"Swieqi","province":"Valletta","department":"Port Region","type":"Kunsill Lokali","country":"Malta","iso":"MT"},"geometry":{"type":"Polygon","coordinates":[[[14.454,35.9327],[14.4547,35.9306],[14.4591,35.9281],[14.4592,35.9218],[14.463,35.9196],[14.4632,35.9148],[14.4674,35.9148],[14.4697,35.9134],[14.4742,35.9133],[14.4787,35.9164],[14.4842,35.9174],[14.4851,35.922],[14.4846,35.9238],[14.4829,35.9252],[14.4811,35.9241],[14.4734,35.9245],[14.47,35.9275],[14.4695,35.9294],[14.467,35.933],[14.4626,35.9333],[14.4606,35.9342],[14.4572,35.9329],[14.454,35.9327]]]}},{"type":"Feature","id":"council-malta-26","properties":{"name":"Saint John","province":"Valletta","department":"Port Region","type":"Kunsill Lokali","country":"Malta","iso":"MT"},"geometry":{"type":"Polygon","coordinates":[[[14.4882,35.9086],[14.4813,35.9147],[14.4823,35.917],[14.4787,35.9164],[14.4742,35.9133],[14.4697,35.9134],[14.4674,35.9148],[14.4632,35.9148],[14.4619,35.9116],[14.4623,35.9102],[14.4635,35.9093],[14.4627,35.9086],[14.4624,35.9068],[14.4632,35.9041],[14.4696,35.9027],[14.4739,35.9027],[14.4789,35.9039],[14.4858,35.9041],[14.4878,35.9057],[14.4882,35.9086]]]}},{"type":"Feature","id":"council-malta-27","properties":{"name":"Iklin","province":"Valletta","department":"Port Region","type":"Kunsill Lokali","country":"Malta","iso":"MT"},"geometry":{"type":"Polygon","coordinates":[[[14.4476,35.907],[14.4484,35.9043],[14.4496,35.9032],[14.4574,35.9025],[14.4629,35.9045],[14.4624,35.9068],[14.4627,35.9086],[14.4635,35.9093],[14.4623,35.9102],[14.4622,35.9132],[14.4607,35.9135],[14.457,35.9165],[14.4501,35.9168],[14.4484,35.9135],[14.4489,35.9103],[14.4498,35.9091],[14.4476,35.907]]]}},{"type":"Feature","id":"council-malta-28","properties":{"name":"Valletta","province":"Valletta","department":"Port Region","type":"Kunsill Lokali","country":"Malta","iso":"MT"},"geometry":{"type":"Polygon","coordinates":[[[14.5126,35.8909],[14.5137,35.8912],[14.5129,35.8925],[14.5136,35.8943],[14.5206,35.8994],[14.5218,35.9014],[14.5207,35.9034],[14.5185,35.9036],[14.5117,35.902],[14.5086,35.8992],[14.5049,35.8971],[14.5126,35.8909]]]}},{"type":"Feature","id":"council-malta-29","properties":{"name":"Ta' Xbiex","province":"Valletta","department":"Port Region","type":"Kunsill Lokali","country":"Malta","iso":"MT"},"geometry":{"type":"Polygon","coordinates":[[[14.492,35.8991],[14.4936,35.8971],[14.4967,35.8966],[14.4997,35.8982],[14.5002,35.9003],[14.4988,35.9024],[14.4942,35.9008],[14.492,35.8991]]]}},{"type":"Feature","id":"council-malta-30","properties":{"name":"Floriana","province":"Valletta","department":"Port Region","type":"Kunsill Lokali","country":"Malta","iso":"MT"},"geometry":{"type":"Polygon","coordinates":[[[14.5049,35.8971],[14.5028,35.8959],[14.5011,35.8933],[14.4981,35.8906],[14.4981,35.8883],[14.4989,35.8869],[14.5003,35.8853],[14.5022,35.8846],[14.5043,35.8856],[14.5061,35.8876],[14.5126,35.8909],[14.5049,35.8971]]]}},{"type":"Feature","id":"council-malta-31","properties":{"name":"Pietà","province":"Valletta","department":"Port Region","type":"Kunsill Lokali","country":"Malta","iso":"MT"},"geometry":{"type":"Polygon","coordinates":[[[14.4941,35.897],[14.4897,35.8935],[14.4893,35.8914],[14.49,35.8901],[14.4932,35.8896],[14.4966,35.8917],[14.4963,35.8928],[14.4976,35.895],[14.4967,35.8966],[14.4941,35.897]]]}},{"type":"Feature","id":"council-malta-32","properties":{"name":"Msida","province":"Valletta","department":"Port Region","type":"Kunsill Lokali","country":"Malta","iso":"MT"},"geometry":{"type":"Polygon","coordinates":[[[14.4858,35.9041],[14.4789,35.9039],[14.472,35.9027],[14.4726,35.9016],[14.4757,35.8995],[14.477,35.8944],[14.4838,35.8931],[14.4862,35.8881],[14.4897,35.8897],[14.4897,35.8935],[14.4941,35.897],[14.492,35.8991],[14.486,35.9029],[14.4858,35.9041]]]}},{"type":"Feature","id":"council-malta-33","properties":{"name":"Ħamrun","province":"Valletta","department":"Port Region","type":"Kunsill Lokali","country":"Malta","iso":"MT"},"geometry":{"type":"Polygon","coordinates":[[[14.4981,35.8906],[14.4966,35.8917],[14.4932,35.8896],[14.49,35.8901],[14.4875,35.8883],[14.4842,35.8882],[14.4813,35.8867],[14.4789,35.884],[14.4853,35.8789],[14.4916,35.8788],[14.492,35.8867],[14.4947,35.8879],[14.4983,35.8879],[14.4981,35.8906]]]}},{"type":"Feature","id":"council-malta-34","properties":{"name":"Santa Venera","province":"Valletta","department":"Port Region","type":"Kunsill Lokali","country":"Malta","iso":"MT"},"geometry":{"type":"Polygon","coordinates":[[[14.4766,35.8952],[14.4739,35.8949],[14.4723,35.8934],[14.4716,35.89],[14.4704,35.8879],[14.4715,35.8865],[14.4766,35.886],[14.479,35.8847],[14.4825,35.8874],[14.4857,35.8884],[14.4851,35.8911],[14.4838,35.8931],[14.478,35.8939],[14.4766,35.8952]]]}},{"type":"Feature","id":"council-malta-35","properties":{"name":"Birkirkara","province":"Valletta","department":"Port Region","type":"Kunsill Lokali","country":"Malta","iso":"MT"},"geometry":{"type":"Polygon","coordinates":[[[14.4629,35.9045],[14.4593,35.903],[14.4536,35.9021],[14.4567,35.8986],[14.4574,35.8964],[14.4586,35.8955],[14.46,35.891],[14.4623,35.8901],[14.4635,35.8885],[14.4704,35.8881],[14.4716,35.89],[14.4723,35.8934],[14.4739,35.8949],[14.4766,35.8952],[14.476,35.8991],[14.472,35.9027],[14.4696,35.9027],[14.4629,35.9045]]]}},{"type":"Feature","id":"council-malta-36","properties":{"name":"Balzan","province":"Valletta","department":"Port Region","type":"Kunsill Lokali","country":"Malta","iso":"MT"},"geometry":{"type":"Polygon","coordinates":[[[14.449,35.9036],[14.4458,35.8993],[14.4458,35.897],[14.4502,35.8935],[14.4545,35.8933],[14.4577,35.8924],[14.4591,35.8927],[14.4586,35.8955],[14.4574,35.8964],[14.4567,35.8986],[14.4542,35.901],[14.4535,35.9025],[14.449,35.9036]]]}},{"type":"Feature","id":"council-malta-37","properties":{"name":"Lija","province":"Valletta","department":"Port Region","type":"Kunsill Lokali","country":"Malta","iso":"MT"},"geometry":{"type":"Polygon","coordinates":[[[14.4346,35.9098],[14.433,35.9081],[14.4323,35.9062],[14.4326,35.901],[14.4336,35.8992],[14.4374,35.8975],[14.4458,35.8978],[14.4458,35.8993],[14.449,35.9036],[14.4476,35.907],[14.4445,35.9073],[14.4418,35.9064],[14.4346,35.9098]]]}},{"type":"Feature","id":"council-malta-38","properties":{"name":"Mosta","province":"Valletta","department":"Port Region","type":"Kunsill Lokali","country":"Malta","iso":"MT"},"geometry":{"type":"Polygon","coordinates":[[[14.4019,35.9082],[14.4124,35.9015],[14.4231,35.9027],[14.4282,35.8992],[14.4336,35.8992],[14.4326,35.901],[14.4323,35.9062],[14.433,35.9081],[14.4346,35.9098],[14.4328,35.9117],[14.4319,35.9188],[14.4306,35.9205],[14.4255,35.924],[14.4239,35.9242],[14.4231,35.9224],[14.4202,35.92],[14.4184,35.9202],[14.4162,35.9212],[14.4132,35.9252],[14.4068,35.9286],[14.4009,35.9292],[14.3962,35.9282],[14.3952,35.9272],[14.3953,35.9261],[14.4,35.9254],[14.4031,35.9216],[14.4074,35.9197],[14.41,35.9172],[14.4092,35.9159],[14.4012,35.9109],[14.4018,35.9104],[14.4019,35.9082]]]}},{"type":"Feature","id":"council-malta-39","properties":{"name":"Mdina","province":"Valletta","department":"Port Region","type":"Kunsill Lokali","country":"Malta","iso":"MT"},"geometry":{"type":"Polygon","coordinates":[[[14.4128,35.8811],[14.4113,35.8865],[14.4058,35.8862],[14.4019,35.8851],[14.404,35.8831],[14.4095,35.8813],[14.4128,35.8811]]]}},{"type":"Feature","id":"council-malta-40","properties":{"name":"Mtarfa","province":"Valletta","department":"Port Region","type":"Kunsill Lokali","country":"Malta","iso":"MT"},"geometry":{"type":"Polygon","coordinates":[[[14.4113,35.8865],[14.4114,35.8898],[14.4096,35.8917],[14.4094,35.8931],[14.4072,35.8934],[14.4045,35.8932],[14.3988,35.891],[14.3962,35.8885],[14.3956,35.8872],[14.3963,35.8857],[14.3988,35.8848],[14.4018,35.885],[14.4058,35.8862],[14.4113,35.8865]]]}},{"type":"Feature","id":"council-malta-41","properties":{"name":"Rabat Malta","province":"Valletta","department":"Port Region","type":"Kunsill Lokali","country":"Malta","iso":"MT"},"geometry":{"type":"Polygon","coordinates":[[[14.3396,35.907],[14.3343,35.9061],[14.3287,35.9066],[14.3281,35.9061],[14.3311,35.9027],[14.3317,35.9011],[14.3288,35.8975],[14.3311,35.8948],[14.3342,35.8928],[14.335,35.8907],[14.3358,35.8904],[14.3379,35.8869],[14.3382,35.8848],[14.3367,35.8812],[14.3417,35.8744],[14.3448,35.8726],[14.348,35.8708],[14.3536,35.8699],[14.3549,35.8683],[14.3552,35.8671],[14.3617,35.8633],[14.3696,35.8685],[14.3735,35.8685],[14.3763,35.8675],[14.3787,35.8686],[14.3872,35.8685],[14.3898,35.8701],[14.3918,35.8702],[14.3949,35.8687],[14.3964,35.8658],[14.398,35.8653],[14.3986,35.8637],[14.4009,35.8616],[14.411,35.8616],[14.4138,35.8627],[14.4153,35.8642],[14.4157,35.8717],[14.4115,35.8771],[14.4126,35.8792],[14.4128,35.8811],[14.4095,35.8813],[14.404,35.8831],[14.4019,35.8851],[14.3972,35.8852],[14.3956,35.8872],[14.3962,35.8885],[14.3988,35.891],[14.4045,35.8932],[14.4094,35.8931],[14.4127,35.8976],[14.4132,35.9015],[14.4019,35.9082],[14.4013,35.9075],[14.3968,35.9064],[14.3937,35.907],[14.3903,35.9061],[14.3825,35.9055],[14.3785,35.903],[14.3766,35.9011],[14.375,35.9013],[14.3723,35.9037],[14.3711,35.9039],[14.3664,35.9006],[14.3639,35.9008],[14.3634,35.9013],[14.3614,35.901],[14.3601,35.8979],[14.358,35.8972],[14.3554,35.8977],[14.3524,35.8998],[14.3464,35.8998],[14.3441,35.9004],[14.3431,35.901],[14.3422,35.9057],[14.3396,35.907]]]}},{"type":"Feature","id":"council-malta-42","properties":{"name":"Dingli","province":"Valletta","department":"Port Region","type":"Kunsill Lokali","country":"Malta","iso":"MT"},"geometry":{"type":"Polygon","coordinates":[[[14.3617,35.8633],[14.3646,35.8591],[14.3709,35.856],[14.3734,35.8533],[14.3766,35.8524],[14.3801,35.8502],[14.3876,35.8474],[14.3912,35.8454],[14.3915,35.8489],[14.3947,35.8529],[14.3986,35.8604],[14.4007,35.8618],[14.3986,35.8637],[14.398,35.8653],[14.3964,35.8658],[14.3953,35.8684],[14.3918,35.8702],[14.3889,35.87],[14.3872,35.8685],[14.3787,35.8686],[14.3763,35.8675],[14.3735,35.8685],[14.3696,35.8685],[14.3617,35.8633]]]}},{"type":"Feature","id":"council-malta-43","properties":{"name":"Attard","province":"Valletta","department":"Port Region","type":"Kunsill Lokali","country":"Malta","iso":"MT"},"geometry":{"type":"Polygon","coordinates":[[[14.4458,35.8978],[14.4374,35.8975],[14.4336,35.8992],[14.4282,35.8992],[14.4241,35.9023],[14.4205,35.9026],[14.4132,35.9015],[14.4127,35.8976],[14.4106,35.8952],[14.4094,35.8924],[14.4114,35.8898],[14.4114,35.8855],[14.4126,35.8828],[14.4188,35.8827],[14.4236,35.8814],[14.4299,35.8812],[14.4353,35.8833],[14.4385,35.8852],[14.4438,35.8854],[14.4467,35.8862],[14.4536,35.8862],[14.4563,35.8886],[14.4566,35.8904],[14.4591,35.8927],[14.4577,35.8924],[14.4545,35.8933],[14.4502,35.8935],[14.4463,35.8964],[14.4458,35.8978]]]}},{"type":"Feature","id":"council-malta-44","properties":{"name":"Xagħra","province":"Valletta","department":"Port Region","type":"Kunsill Lokali","country":"Malta","iso":"MT"},"geometry":{"type":"Polygon","coordinates":[[[14.5563,35.8836],[14.5514,35.888],[14.5441,35.8916],[14.5405,35.887],[14.5406,35.8857],[14.5443,35.8822],[14.5473,35.8807],[14.5522,35.8805],[14.5563,35.8836]]]}},{"type":"Feature","id":"council-malta-45","properties":{"name":"Kalkara","province":"Valletta","department":"Port Region","type":"Kunsill Lokali","country":"Malta","iso":"MT"},"geometry":{"type":"Polygon","coordinates":[[[14.5441,35.8916],[14.5396,35.8943],[14.5259,35.8983],[14.5256,35.8969],[14.5267,35.8945],[14.5242,35.8922],[14.5237,35.8903],[14.5271,35.888],[14.5287,35.888],[14.5317,35.8864],[14.5405,35.8866],[14.5441,35.8916]]]}},{"type":"Feature","id":"council-malta-46","properties":{"name":"Birgu","province":"Valletta","department":"Port Region","type":"Kunsill Lokali","country":"Malta","iso":"MT"},"geometry":{"type":"Polygon","coordinates":[[[14.5237,35.8903],[14.5233,35.8898],[14.5215,35.8898],[14.5189,35.8927],[14.5178,35.8924],[14.5178,35.8916],[14.5218,35.886],[14.5252,35.8841],[14.5266,35.8813],[14.5285,35.8819],[14.529,35.8838],[14.531,35.8868],[14.5287,35.888],[14.5271,35.888],[14.5237,35.8903]]]}},{"type":"Feature","id":"council-malta-47","properties":{"name":"Żebbuġ Malta","province":"Valletta","department":"Port Region","type":"Kunsill Lokali","country":"Malta","iso":"MT"},"geometry":{"type":"Polygon","coordinates":[[[14.4128,35.8811],[14.4126,35.8792],[14.4115,35.8771],[14.4157,35.8717],[14.4157,35.8661],[14.4204,35.8659],[14.426,35.8626],[14.435,35.8602],[14.4407,35.8618],[14.4453,35.8664],[14.4529,35.8675],[14.4562,35.8671],[14.4611,35.864],[14.4625,35.8645],[14.4634,35.8693],[14.4625,35.8727],[14.4604,35.8741],[14.455,35.8749],[14.4517,35.8806],[14.452,35.8821],[14.454,35.8841],[14.4536,35.8862],[14.4467,35.8862],[14.4438,35.8854],[14.4385,35.8852],[14.4353,35.8833],[14.4299,35.8812],[14.4236,35.8814],[14.4188,35.8827],[14.4126,35.8828],[14.4128,35.8811]]]}},{"type":"Feature","id":"council-malta-48","properties":{"name":"Qormi","province":"Valletta","department":"Port Region","type":"Kunsill Lokali","country":"Malta","iso":"MT"},"geometry":{"type":"Polygon","coordinates":[[[14.479,35.8847],[14.4766,35.886],[14.4715,35.8865],[14.4704,35.8881],[14.4635,35.8885],[14.4623,35.8901],[14.4594,35.8916],[14.4591,35.8927],[14.4566,35.8904],[14.4563,35.8886],[14.4536,35.8862],[14.454,35.8841],[14.452,35.8821],[14.4517,35.8806],[14.455,35.8749],[14.4604,35.8741],[14.4625,35.8727],[14.4634,35.8706],[14.4627,35.8657],[14.4668,35.8636],[14.4696,35.8632],[14.4738,35.8665],[14.4766,35.8711],[14.48,35.8736],[14.4804,35.8753],[14.4852,35.879],[14.4791,35.8835],[14.479,35.8847]]]}},{"type":"Feature","id":"council-malta-49","properties":{"name":"Isla","province":"Valletta","department":"Port Region","type":"Kunsill Lokali","country":"Malta","iso":"MT"},"geometry":{"type":"Polygon","coordinates":[[[14.52,35.8888],[14.5168,35.8898],[14.5156,35.889],[14.5178,35.8868],[14.5176,35.8846],[14.5214,35.8863],[14.52,35.8888]]]}},{"type":"Feature","id":"council-malta-50","properties":{"name":"Siġġiewi","province":"Valletta","department":"Port Region","type":"Kunsill Lokali","country":"Malta","iso":"MT"},"geometry":{"type":"Polygon","coordinates":[[[14.4007,35.8618],[14.3986,35.8604],[14.3947,35.8529],[14.3915,35.8489],[14.3912,35.8454],[14.3971,35.8433],[14.3985,35.8415],[14.3985,35.8391],[14.4,35.8383],[14.4014,35.8383],[14.4038,35.8373],[14.4078,35.8366],[14.41,35.8354],[14.4171,35.8338],[14.4169,35.8324],[14.416,35.8316],[14.4172,35.8299],[14.4199,35.8281],[14.4245,35.8266],[14.4284,35.8274],[14.4323,35.8263],[14.4327,35.8278],[14.4352,35.8308],[14.4415,35.8311],[14.4429,35.8325],[14.4419,35.835],[14.4439,35.8387],[14.4522,35.842],[14.4544,35.844],[14.4583,35.8499],[14.4638,35.8516],[14.4651,35.8539],[14.4697,35.8567],[14.471,35.8592],[14.4709,35.8605],[14.469,35.8631],[14.4668,35.8636],[14.4627,35.8657],[14.4625,35.8645],[14.4611,35.864],[14.4562,35.8671],[14.4542,35.8676],[14.4453,35.8664],[14.4407,35.8618],[14.435,35.8602],[14.426,35.8626],[14.4217,35.8654],[14.4188,35.8662],[14.4157,35.8661],[14.4147,35.8633],[14.411,35.8616],[14.4007,35.8618]]]}},{"type":"Feature","id":"council-malta-51","properties":{"name":"Luqa","province":"Valletta","department":"Port Region","type":"Kunsill Lokali","country":"Malta","iso":"MT"},"geometry":{"type":"Polygon","coordinates":[[[14.469,35.8631],[14.471,35.8599],[14.4701,35.8573],[14.4651,35.8539],[14.4638,35.8516],[14.4583,35.8499],[14.458,35.8496],[14.4598,35.8479],[14.4614,35.8473],[14.4647,35.8502],[14.4679,35.8508],[14.4701,35.8508],[14.4773,35.8483],[14.4812,35.8502],[14.4835,35.8503],[14.4857,35.8482],[14.4863,35.8465],[14.4903,35.8443],[14.4923,35.8421],[14.499,35.8369],[14.5012,35.8342],[14.5062,35.8313],[14.5082,35.8316],[14.5081,35.8345],[14.5047,35.8378],[14.5041,35.8394],[14.5002,35.8397],[14.5001,35.8415],[14.4978,35.8432],[14.4978,35.849],[14.4961,35.8502],[14.4954,35.8538],[14.4945,35.8551],[14.4956,35.8579],[14.4957,35.8614],[14.4951,35.8633],[14.4941,35.8642],[14.4911,35.8646],[14.4872,35.8679],[14.4836,35.8689],[14.4821,35.8734],[14.4801,35.8741],[14.4795,35.8731],[14.4766,35.8711],[14.4738,35.8665],[14.469,35.8631]]]}},{"type":"Feature","id":"council-malta-52","properties":{"name":"Marsa","province":"Valletta","department":"Port Region","type":"Kunsill Lokali","country":"Malta","iso":"MT"},"geometry":{"type":"Polygon","coordinates":[[[14.4983,35.8879],[14.4947,35.8879],[14.492,35.8867],[14.4916,35.8788],[14.4852,35.879],[14.4804,35.8753],[14.4801,35.8741],[14.4821,35.8734],[14.4827,35.8726],[14.4836,35.8689],[14.4872,35.8679],[14.4911,35.8646],[14.4935,35.8644],[14.495,35.866],[14.4979,35.8708],[14.4986,35.8733],[14.5006,35.876],[14.5008,35.88],[14.4995,35.8799],[14.4993,35.8807],[14.5013,35.8841],[14.5022,35.8846],[14.5003,35.8853],[14.4983,35.8879]]]}},{"type":"Feature","id":"council-malta-53","properties":{"name":"Qrendi","province":"Valletta","department":"Port Region","type":"Kunsill Lokali","country":"Malta","iso":"MT"},"geometry":{"type":"Polygon","coordinates":[[[14.4323,35.8263],[14.4347,35.826],[14.4392,35.8228],[14.4421,35.8234],[14.4449,35.8226],[14.4497,35.8195],[14.4517,35.8202],[14.4545,35.8195],[14.4594,35.8224],[14.4611,35.8246],[14.4614,35.8265],[14.4627,35.8277],[14.4632,35.8298],[14.4674,35.8313],[14.4677,35.8325],[14.4663,35.8347],[14.467,35.8357],[14.4668,35.8366],[14.466,35.8378],[14.4616,35.8381],[14.4587,35.8397],[14.4534,35.8402],[14.4508,35.8417],[14.4439,35.8387],[14.4419,35.835],[14.4429,35.8325],[14.4422,35.8316],[14.4415,35.8311],[14.4352,35.8308],[14.4327,35.8278],[14.4323,35.8263]]]}},{"type":"Feature","id":"council-malta-54","properties":{"name":"Mqabba","province":"Valletta","department":"Port Region","type":"Kunsill Lokali","country":"Malta","iso":"MT"},"geometry":{"type":"Polygon","coordinates":[[[14.4511,35.8418],[14.4534,35.8402],[14.4587,35.8397],[14.4616,35.8381],[14.466,35.8378],[14.4669,35.8361],[14.469,35.8368],[14.47,35.8397],[14.4774,35.8401],[14.4783,35.8432],[14.4804,35.8452],[14.4805,35.8463],[14.4788,35.8488],[14.4763,35.8484],[14.4701,35.8508],[14.4647,35.8502],[14.4614,35.8473],[14.458,35.8496],[14.4536,35.843],[14.4511,35.8418]]]}},{"type":"Feature","id":"council-malta-55","properties":{"name":"Kirkop","province":"Valletta","department":"Port Region","type":"Kunsill Lokali","country":"Malta","iso":"MT"},"geometry":{"type":"Polygon","coordinates":[[[14.4788,35.8488],[14.4803,35.847],[14.4804,35.8452],[14.4783,35.8432],[14.4776,35.8404],[14.478,35.8401],[14.4842,35.8385],[14.4922,35.8423],[14.4896,35.8449],[14.4863,35.8465],[14.4857,35.8482],[14.4835,35.8503],[14.4812,35.8502],[14.4788,35.8488]]]}},{"type":"Feature","id":"council-malta-56","properties":{"name":"Safi","province":"Valletta","department":"Port Region","type":"Kunsill Lokali","country":"Malta","iso":"MT"},"geometry":{"type":"Polygon","coordinates":[[[14.4922,35.8423],[14.4842,35.8385],[14.4845,35.8371],[14.484,35.8356],[14.4807,35.833],[14.4807,35.8308],[14.4828,35.8281],[14.4852,35.8264],[14.4897,35.8259],[14.4939,35.8281],[14.4961,35.8302],[14.4984,35.8296],[14.4996,35.8284],[14.5011,35.8286],[14.5048,35.8315],[14.5048,35.8324],[14.5003,35.8349],[14.499,35.8369],[14.4922,35.8423]]]}},{"type":"Feature","id":"council-malta-57","properties":{"name":"Żurrieq","province":"Valletta","department":"Port Region","type":"Kunsill Lokali","country":"Malta","iso":"MT"},"geometry":{"type":"Polygon","coordinates":[[[14.5048,35.8324],[14.5043,35.831],[14.5011,35.8286],[14.4996,35.8284],[14.4984,35.8296],[14.4961,35.8302],[14.4939,35.8281],[14.4897,35.8259],[14.4864,35.826],[14.4828,35.8281],[14.4803,35.8314],[14.4807,35.833],[14.484,35.8356],[14.4845,35.8371],[14.4842,35.8385],[14.4776,35.8404],[14.4761,35.8399],[14.47,35.8397],[14.469,35.8368],[14.4669,35.8361],[14.4663,35.8347],[14.4677,35.8325],[14.4674,35.8313],[14.4632,35.8298],[14.4627,35.8277],[14.4611,35.8257],[14.4611,35.8246],[14.4589,35.8219],[14.4646,35.8194],[14.4677,35.8168],[14.4735,35.8151],[14.4754,35.8139],[14.4818,35.815],[14.4861,35.8137],[14.4941,35.8135],[14.4984,35.8122],[14.5007,35.8126],[14.5015,35.8149],[14.5,35.817],[14.4999,35.8193],[14.5012,35.8216],[14.5048,35.8215],[14.5089,35.8197],[14.5139,35.8215],[14.5124,35.8245],[14.5115,35.8251],[14.5102,35.8303],[14.5092,35.8311],[14.5062,35.8313],[14.5048,35.8324]]]}},{"type":"Feature","id":"council-malta-58","properties":{"name":"Paola","province":"Valletta","department":"Port Region","type":"Kunsill Lokali","country":"Malta","iso":"MT"},"geometry":{"type":"Polygon","coordinates":[[[14.4954,35.8625],[14.504,35.8645],[14.5046,35.8665],[14.5062,35.8678],[14.5073,35.8704],[14.5107,35.8726],[14.5114,35.874],[14.5153,35.8769],[14.5158,35.8833],[14.5112,35.8858],[14.5056,35.8816],[14.5008,35.88],[14.5006,35.876],[14.4986,35.8733],[14.4979,35.8708],[14.495,35.866],[14.4935,35.8644],[14.4954,35.8625]]]}},{"type":"Feature","id":"council-malta-59","properties":{"name":"Bormla","province":"Valletta","department":"Port Region","type":"Kunsill Lokali","country":"Malta","iso":"MT"},"geometry":{"type":"Polygon","coordinates":[[[14.5214,35.8863],[14.5158,35.8833],[14.5156,35.8775],[14.5176,35.877],[14.5196,35.8757],[14.5223,35.8757],[14.5254,35.877],[14.5262,35.8774],[14.5267,35.8791],[14.5267,35.8814],[14.5252,35.8841],[14.5214,35.8863]]]}},{"type":"Feature","id":"council-malta-60","properties":{"name":"Tarxien","province":"Valletta","department":"Port Region","type":"Kunsill Lokali","country":"Malta","iso":"MT"},"geometry":{"type":"Polygon","coordinates":[[[14.4956,35.8592],[14.5024,35.8595],[14.5076,35.8575],[14.5096,35.8577],[14.5168,35.8622],[14.516,35.8658],[14.5173,35.8686],[14.5142,35.8715],[14.5104,35.8725],[14.5073,35.8704],[14.5034,35.864],[14.4954,35.8625],[14.4956,35.8592]]]}},{"type":"Feature","id":"council-malta-61","properties":{"name":"Fgura","province":"Valletta","department":"Port Region","type":"Kunsill Lokali","country":"Malta","iso":"MT"},"geometry":{"type":"Polygon","coordinates":[[[14.5104,35.8725],[14.5142,35.8715],[14.5173,35.8686],[14.516,35.8658],[14.5162,35.8637],[14.5169,35.863],[14.5188,35.8639],[14.5202,35.8668],[14.526,35.8687],[14.528,35.8715],[14.5287,35.8758],[14.5261,35.8774],[14.5223,35.8757],[14.5196,35.8757],[14.5176,35.877],[14.5156,35.8775],[14.5148,35.8764],[14.5114,35.874],[14.5104,35.8725]]]}},{"type":"Feature","id":"council-malta-62","properties":{"name":"Saint Lucia's","province":"Valletta","department":"Port Region","type":"Kunsill Lokali","country":"Malta","iso":"MT"},"geometry":{"type":"Polygon","coordinates":[[[14.4956,35.8522],[14.5035,35.8534],[14.5096,35.8527],[14.5108,35.8549],[14.5107,35.8577],[14.5104,35.8582],[14.5076,35.8575],[14.5024,35.8595],[14.4956,35.8592],[14.4956,35.8579],[14.4944,35.8558],[14.4956,35.8522]]]}},{"type":"Feature","id":"council-malta-63","properties":{"name":"Gudja","province":"Valletta","department":"Port Region","type":"Kunsill Lokali","country":"Malta","iso":"MT"},"geometry":{"type":"Polygon","coordinates":[[[14.5041,35.8394],[14.5061,35.8412],[14.5067,35.8454],[14.508,35.8478],[14.5101,35.8498],[14.5098,35.8529],[14.5076,35.8525],[14.5035,35.8534],[14.4956,35.8522],[14.4961,35.8502],[14.4978,35.849],[14.4978,35.8432],[14.5001,35.8415],[14.5002,35.8397],[14.5041,35.8394]]]}},{"type":"Feature","id":"council-malta-64","properties":{"name":"Għaxaq","province":"Valletta","department":"Port Region","type":"Kunsill Lokali","country":"Malta","iso":"MT"},"geometry":{"type":"Polygon","coordinates":[[[14.5079,35.8313],[14.5098,35.8307],[14.5138,35.8316],[14.5178,35.8373],[14.525,35.8388],[14.5263,35.8398],[14.5262,35.8467],[14.5238,35.8487],[14.5211,35.8526],[14.5172,35.8561],[14.5165,35.8579],[14.514,35.8604],[14.5104,35.8582],[14.5108,35.8549],[14.5098,35.8529],[14.5103,35.8504],[14.5067,35.8454],[14.5061,35.8412],[14.5041,35.8394],[14.5047,35.8378],[14.5069,35.8361],[14.5083,35.8339],[14.5079,35.8313]]]}},{"type":"Feature","id":"council-malta-65","properties":{"name":"Birżebbuġa","province":"Valletta","department":"Port Region","type":"Kunsill Lokali","country":"Malta","iso":"MT"},"geometry":{"type":"Polygon","coordinates":[[[14.5007,35.8126],[14.5061,35.8088],[14.5134,35.8064],[14.5192,35.8062],[14.5211,35.8074],[14.5235,35.8076],[14.527,35.8064],[14.5373,35.8074],[14.5389,35.8089],[14.5414,35.8094],[14.543,35.812],[14.5501,35.8164],[14.5488,35.8171],[14.5436,35.815],[14.5462,35.8183],[14.5426,35.821],[14.5401,35.8212],[14.5392,35.8204],[14.5424,35.8177],[14.5424,35.8164],[14.5414,35.8159],[14.5366,35.8184],[14.5361,35.8191],[14.5311,35.8206],[14.5294,35.8218],[14.5299,35.8234],[14.5339,35.8271],[14.5313,35.8304],[14.5321,35.8318],[14.5388,35.8327],[14.5428,35.8298],[14.5442,35.8294],[14.544,35.8304],[14.5399,35.8337],[14.5348,35.8399],[14.5262,35.8432],[14.5263,35.8398],[14.525,35.8388],[14.5178,35.8373],[14.5145,35.8321],[14.5119,35.8308],[14.5098,35.8307],[14.5115,35.8251],[14.5124,35.8245],[14.5139,35.8215],[14.5097,35.8197],[14.5076,35.82],[14.503,35.8219],[14.5005,35.821],[14.4999,35.8193],[14.5,35.817],[14.5015,35.8149],[14.5007,35.8126]]]}},{"type":"Feature","id":"council-malta-66","properties":{"name":"Żejtun","province":"Valletta","department":"Port Region","type":"Kunsill Lokali","country":"Malta","iso":"MT"},"geometry":{"type":"Polygon","coordinates":[[[14.5434,35.8636],[14.5425,35.8642],[14.5366,35.8644],[14.5321,35.8672],[14.5276,35.8677],[14.5258,35.8686],[14.5202,35.8668],[14.5188,35.8639],[14.5169,35.863],[14.5155,35.861],[14.514,35.8604],[14.5165,35.8579],[14.5172,35.8561],[14.5211,35.8526],[14.5238,35.8487],[14.5262,35.8466],[14.5308,35.8466],[14.534,35.8482],[14.5403,35.8481],[14.5424,35.8476],[14.5463,35.8454],[14.548,35.8461],[14.5501,35.8494],[14.5487,35.8517],[14.5485,35.8571],[14.5453,35.8602],[14.5434,35.8636]]]}},{"type":"Feature","id":"council-malta-67","properties":{"name":"Żabbar","province":"Valletta","department":"Port Region","type":"Kunsill Lokali","country":"Malta","iso":"MT"},"geometry":{"type":"Polygon","coordinates":[[[14.5636,35.8794],[14.5563,35.8836],[14.5522,35.8805],[14.5492,35.8804],[14.5443,35.8822],[14.5406,35.8857],[14.5405,35.8866],[14.531,35.8868],[14.529,35.8838],[14.5285,35.8819],[14.5267,35.8814],[14.5261,35.8774],[14.5284,35.8765],[14.5287,35.8739],[14.5276,35.8707],[14.5258,35.8686],[14.5276,35.8677],[14.5321,35.8672],[14.5366,35.8644],[14.5425,35.8642],[14.5434,35.8636],[14.5459,35.8656],[14.5518,35.8674],[14.5532,35.8709],[14.5625,35.8778],[14.5636,35.8794]]]}},{"type":"Feature","id":"council-malta-68","properties":{"name":"Marsaxlokk","province":"Valletta","department":"Port Region","type":"Kunsill Lokali","country":"Malta","iso":"MT"},"geometry":{"type":"Polygon","coordinates":[[[14.5499,35.8483],[14.548,35.8461],[14.5463,35.8454],[14.5424,35.8476],[14.5403,35.8481],[14.534,35.8482],[14.5308,35.8466],[14.5262,35.8466],[14.5262,35.8432],[14.5348,35.8399],[14.5399,35.8337],[14.544,35.8304],[14.5442,35.8294],[14.5452,35.8303],[14.546,35.8336],[14.5444,35.8374],[14.5448,35.8383],[14.5464,35.8397],[14.5485,35.8395],[14.5493,35.8374],[14.5516,35.836],[14.554,35.8326],[14.5545,35.8292],[14.5567,35.8262],[14.5577,35.8224],[14.5594,35.8196],[14.5609,35.8191],[14.5618,35.8203],[14.5611,35.8237],[14.5629,35.8253],[14.5636,35.8275],[14.5636,35.8288],[14.5618,35.8303],[14.5627,35.8312],[14.5629,35.8333],[14.5594,35.8356],[14.5607,35.837],[14.561,35.8394],[14.5632,35.8425],[14.5672,35.8418],[14.5681,35.8401],[14.5702,35.839],[14.5714,35.8392],[14.5719,35.8411],[14.5676,35.8451],[14.5635,35.8455],[14.5602,35.8469],[14.5521,35.8473],[14.5499,35.8483]]]}}]}