{"type":"FeatureCollection","features":[{"type":"Feature","id":"freguesia-lisboa-1","properties":{"name":"","province":"Lisboa","department":"Lisboa","type":"Freguesia","country":"Portugal","iso":"PT"},"geometry":{}},{"type":"Feature","id":"freguesia-lisboa-2","properties":{"name":"","province":"Lisboa","department":"Lisboa","type":"Freguesia","country":"Portugal","iso":"PT"},"geometry":{}},{"type":"Feature","id":"freguesia-lisboa-3","properties":{"name":"","province":"Lisboa","department":"Lisboa","type":"Freguesia","country":"Portugal","iso":"PT"},"geometry":{}},{"type":"Feature","id":"freguesia-lisboa-4","properties":{"name":"","province":"Lisboa","department":"Lisboa","type":"Freguesia","country":"Portugal","iso":"PT"},"geometry":{}},{"type":"Feature","id":"freguesia-lisboa-5","properties":{"name":"","province":"Lisboa","department":"Lisboa","type":"Freguesia","country":"Portugal","iso":"PT"},"geometry":{}},{"type":"Feature","id":"freguesia-lisboa-6","properties":{"name":"","province":"Lisboa","department":"Lisboa","type":"Freguesia","country":"Portugal","iso":"PT"},"geometry":{}},{"type":"Feature","id":"freguesia-lisboa-7","properties":{"name":"","province":"Lisboa","department":"Lisboa","type":"Freguesia","country":"Portugal","iso":"PT"},"geometry":{}},{"type":"Feature","id":"freguesia-lisboa-8","properties":{"name":"","province":"Lisboa","department":"Lisboa","type":"Freguesia","country":"Portugal","iso":"PT"},"geometry":{}},{"type":"Feature","id":"freguesia-lisboa-9","properties":{"name":"","province":"Lisboa","department":"Lisboa","type":"Freguesia","country":"Portugal","iso":"PT"},"geometry":{}},{"type":"Feature","id":"freguesia-lisboa-10","properties":{"name":"","province":"Lisboa","department":"Lisboa","type":"Freguesia","country":"Portugal","iso":"PT"},"geometry":{}},{"type":"Feature","id":"freguesia-lisboa-11","properties":{"name":"","province":"Lisboa","department":"Lisboa","type":"Freguesia","country":"Portugal","iso":"PT"},"geometry":{}},{"type":"Feature","id":"freguesia-lisboa-12","properties":{"name":"","province":"Lisboa","department":"Lisboa","type":"Freguesia","country":"Portugal","iso":"PT"},"geometry":{}},{"type":"Feature","id":"freguesia-lisboa-13","properties":{"name":"","province":"Lisboa","department":"Lisboa","type":"Freguesia","country":"Portugal","iso":"PT"},"geometry":{}},{"type":"Feature","id":"freguesia-lisboa-14","properties":{"name":"","province":"Lisboa","department":"Lisboa","type":"Freguesia","country":"Portugal","iso":"PT"},"geometry":{}},{"type":"Feature","id":"freguesia-lisboa-15","properties":{"name":"","province":"Lisboa","department":"Lisboa","type":"Freguesia","country":"Portugal","iso":"PT"},"geometry":{}},{"type":"Feature","id":"freguesia-lisboa-16","properties":{"name":"","province":"Lisboa","department":"Lisboa","type":"Freguesia","country":"Portugal","iso":"PT"},"geometry":{}},{"type":"Feature","id":"freguesia-lisboa-17","properties":{"name":"","province":"Lisboa","department":"Lisboa","type":"Freguesia","country":"Portugal","iso":"PT"},"geometry":{}},{"type":"Feature","id":"freguesia-lisboa-18","properties":{"name":"","province":"Lisboa","department":"Lisboa","type":"Freguesia","country":"Portugal","iso":"PT"},"geometry":{}},{"type":"Feature","id":"freguesia-lisboa-19","properties":{"name":"","province":"Lisboa","department":"Lisboa","type":"Freguesia","country":"Portugal","iso":"PT"},"geometry":{}},{"type":"Feature","id":"freguesia-lisboa-20","properties":{"name":"","province":"Lisboa","department":"Lisboa","type":"Freguesia","country":"Portugal","iso":"PT"},"geometry":{}},{"type":"Feature","id":"freguesia-lisboa-21","properties":{"name":"","province":"Lisboa","department":"Lisboa","type":"Freguesia","country":"Portugal","iso":"PT"},"geometry":{}},{"type":"Feature","id":"freguesia-lisboa-22","properties":{"name":"","province":"Lisboa","department":"Lisboa","type":"Freguesia","country":"Portugal","iso":"PT"},"geometry":{}},{"type":"Feature","id":"freguesia-lisboa-23","properties":{"name":"","province":"Lisboa","department":"Lisboa","type":"Freguesia","country":"Portugal","iso":"PT"},"geometry":{}},{"type":"Feature","id":"freguesia-lisboa-24","properties":{"name":"","province":"Lisboa","department":"Lisboa","type":"Freguesia","country":"Portugal","iso":"PT"},"geometry":{}}]}