{"type":"FeatureCollection","features":[{"type":"Feature","id":"borough-london-1","properties":{"name":"Barking and Dagenham","province":"Greater London","department":"England","type":"Borough","country":"Reino Unido","iso":"GB"},"geometry":{"type":"MultiPolygon","coordinates":[[[[0.0726,51.5312],[0.0697,51.5361],[0.0679,51.5362],[0.0691,51.5373],[0.0667,51.541],[0.0683,51.5444],[0.0694,51.5441],[0.0685,51.5409],[0.0694,51.5403],[0.0691,51.5388],[0.0705,51.5385],[0.0729,51.5335],[0.0754,51.5312],[0.0757,51.5297],[0.0728,51.5293],[0.0726,51.5312]]],[[[0.166,51.5288],[0.1629,51.5239],[0.1586,51.512],[0.1514,51.5128],[0.1459,51.5143],[0.1443,51.5155],[0.1439,51.5148],[0.1363,51.5185],[0.1271,51.5194],[0.1192,51.5181],[0.1144,51.5157],[0.109,51.5142],[0.1013,51.5144],[0.0956,51.517],[0.0957,51.5206],[0.0928,51.5226],[0.0931,51.5251],[0.092,51.5267],[0.0856,51.5261],[0.0763,51.5299],[0.0704,51.5391],[0.0695,51.5389],[0.0699,51.5409],[0.0689,51.5421],[0.0697,51.5441],[0.0718,51.5436],[0.0769,51.5446],[0.0779,51.5441],[0.086,51.5474],[0.0915,51.5483],[0.0925,51.5496],[0.0935,51.5458],[0.1049,51.5501],[0.1084,51.5527],[0.1119,51.5526],[0.1147,51.5553],[0.1127,51.5565],[0.1133,51.5573],[0.1189,51.5573],[0.1205,51.5585],[0.1175,51.5592],[0.1197,51.5625],[0.119,51.5631],[0.1249,51.5642],[0.1293,51.5664],[0.1305,51.5703],[0.1298,51.5716],[0.1316,51.5718],[0.1309,51.5734],[0.1299,51.5731],[0.1294,51.5739],[0.1292,51.5763],[0.1317,51.5771],[0.1308,51.5794],[0.1335,51.58],[0.1326,51.5813],[0.1276,51.5816],[0.128,51.5833],[0.1264,51.5867],[0.131,51.5875],[0.1295,51.5901],[0.1466,51.5995],[0.1481,51.599],[0.1476,51.5968],[0.1497,51.5971],[0.151,51.5955],[0.1506,51.5913],[0.1512,51.5891],[0.1509,51.5838],[0.1484,51.5808],[0.1474,51.5808],[0.147,51.5764],[0.147,51.5757],[0.1481,51.5756],[0.1479,51.5731],[0.149,51.5732],[0.1498,51.5697],[0.1466,51.5694],[0.1468,51.5688],[0.1514,51.568],[0.1619,51.5616],[0.1734,51.5651],[0.1833,51.5647],[0.1851,51.5655],[0.1826,51.5613],[0.1848,51.5599],[0.1847,51.5564],[0.1869,51.5558],[0.1879,51.5541],[0.1902,51.5527],[0.1875,51.5502],[0.1858,51.5472],[0.1805,51.5441],[0.1792,51.5403],[0.1744,51.5381],[0.1708,51.5327],[0.166,51.5288]],[[0.0801,51.5416],[0.0803,51.5417],[0.0802,51.5417],[0.0801,51.5416]]]]}},{"type":"Feature","id":"borough-london-2","properties":{"name":"Barnet","province":"Greater London","department":"England","type":"Borough","country":"Reino Unido","iso":"GB"},"geometry":{"type":"MultiPolygon","coordinates":[[[[-0.2522,51.588],[-0.2876,51.6172],[-0.304,51.6315],[-0.3056,51.6341],[-0.304,51.6365],[-0.2962,51.6354],[-0.2855,51.6369],[-0.2814,51.6383],[-0.2737,51.6387],[-0.2742,51.6391],[-0.2728,51.6421],[-0.2683,51.6423],[-0.2684,51.6438],[-0.2643,51.6436],[-0.2632,51.6448],[-0.2605,51.6425],[-0.2574,51.6418],[-0.2562,51.6435],[-0.2545,51.6437],[-0.2518,51.6475],[-0.2499,51.6546],[-0.2514,51.6552],[-0.2506,51.6561],[-0.2479,51.6552],[-0.2392,51.6574],[-0.2367,51.6588],[-0.2347,51.659],[-0.2343,51.6582],[-0.2289,51.66],[-0.2265,51.6572],[-0.2198,51.6607],[-0.2189,51.6601],[-0.2135,51.6623],[-0.2122,51.6613],[-0.2079,51.6629],[-0.2112,51.667],[-0.2099,51.6676],[-0.208,51.6666],[-0.2057,51.6686],[-0.2023,51.6678],[-0.2034,51.6701],[-0.1999,51.6702],[-0.199,51.6682],[-0.1949,51.6683],[-0.1967,51.6655],[-0.191,51.6639],[-0.1878,51.6679],[-0.1821,51.6686],[-0.1859,51.6628],[-0.1635,51.6582],[-0.1548,51.6555],[-0.1538,51.6547],[-0.1535,51.6533],[-0.1542,51.653],[-0.1526,51.6515],[-0.1523,51.6498],[-0.151,51.6501],[-0.1499,51.6488],[-0.1523,51.648],[-0.1511,51.6472],[-0.1522,51.6458],[-0.1518,51.6454],[-0.1492,51.6452],[-0.1479,51.6421],[-0.1451,51.6426],[-0.1411,51.6382],[-0.1348,51.6348],[-0.1346,51.6338],[-0.1292,51.6323],[-0.1311,51.6297],[-0.1305,51.6294],[-0.1335,51.6263],[-0.1354,51.6218],[-0.1414,51.6176],[-0.142,51.6162],[-0.1445,51.6155],[-0.1388,51.6102],[-0.1434,51.6088],[-0.142,51.6038],[-0.1445,51.6001],[-0.1514,51.5974],[-0.153,51.5992],[-0.1533,51.6027],[-0.156,51.6054],[-0.1617,51.5977],[-0.1597,51.5923],[-0.1587,51.5921],[-0.1602,51.5897],[-0.1603,51.588],[-0.1586,51.588],[-0.1586,51.5867],[-0.1572,51.5862],[-0.1596,51.5845],[-0.1611,51.5854],[-0.1658,51.5833],[-0.1672,51.5816],[-0.1672,51.5781],[-0.1681,51.5769],[-0.1694,51.5774],[-0.1696,51.5768],[-0.1695,51.574],[-0.1712,51.5736],[-0.1713,51.5724],[-0.1734,51.5712],[-0.1743,51.5693],[-0.1781,51.5704],[-0.1893,51.5655],[-0.1909,51.5618],[-0.1969,51.5606],[-0.1967,51.5592],[-0.1985,51.5588],[-0.1997,51.557],[-0.1994,51.5562],[-0.2058,51.5553],[-0.206,51.5564],[-0.2089,51.5557],[-0.21,51.5568],[-0.2135,51.5551],[-0.2257,51.566],[-0.2334,51.572],[-0.2354,51.5726],[-0.2377,51.5725],[-0.238,51.5718],[-0.2424,51.5728],[-0.246,51.5722],[-0.2467,51.5715],[-0.2461,51.5698],[-0.2474,51.569],[-0.247,51.5685],[-0.2496,51.569],[-0.2531,51.5724],[-0.2514,51.5731],[-0.2546,51.5796],[-0.254,51.5819],[-0.2483,51.5844],[-0.2522,51.588]],[[-0.1349,51.6266],[-0.1349,51.6267],[-0.1349,51.6267],[-0.1349,51.6266]]]]}},{"type":"Feature","id":"borough-london-3","properties":{"name":"Bexley","province":"Greater London","department":"England","type":"Borough","country":"Reino Unido","iso":"GB"},"geometry":{"type":"MultiPolygon","coordinates":[[[[0.1989,51.4582],[0.1989,51.4582],[0.1987,51.4582],[0.1985,51.4583],[0.1985,51.4583],[0.1986,51.4583],[0.1987,51.4584],[0.1987,51.4584],[0.1988,51.4584],[0.1992,51.4584],[0.1992,51.4584],[0.1993,51.4584],[0.1993,51.4584],[0.1993,51.4584],[0.1991,51.4582],[0.1989,51.4582]]],[[[0.1218,51.4138],[0.1131,51.4129],[0.1035,51.4156],[0.0897,51.4235],[0.0831,51.43],[0.0746,51.4322],[0.0761,51.4333],[0.0764,51.4349],[0.075,51.4359],[0.0764,51.4369],[0.0778,51.4365],[0.0808,51.4405],[0.0818,51.44],[0.0844,51.442],[0.0828,51.4433],[0.0847,51.4426],[0.0874,51.4432],[0.0863,51.4453],[0.0873,51.4457],[0.088,51.4475],[0.0857,51.4565],[0.0786,51.4593],[0.0829,51.4598],[0.0822,51.461],[0.0822,51.4666],[0.0833,51.4664],[0.0859,51.4694],[0.0892,51.4704],[0.0933,51.473],[0.0966,51.4733],[0.0983,51.4754],[0.1021,51.4744],[0.1049,51.4755],[0.1062,51.475],[0.1082,51.4761],[0.112,51.4731],[0.1185,51.4789],[0.1242,51.4768],[0.1221,51.4822],[0.1214,51.4876],[0.1202,51.5114],[0.1286,51.5133],[0.1496,51.5059],[0.1518,51.5064],[0.1589,51.5058],[0.1651,51.5042],[0.1673,51.5028],[0.1716,51.4977],[0.1725,51.4891],[0.1735,51.4873],[0.1752,51.4861],[0.1752,51.4853],[0.178,51.4835],[0.1778,51.4831],[0.1835,51.4811],[0.1901,51.4798],[0.1904,51.479],[0.1908,51.4797],[0.1986,51.4793],[0.2015,51.4802],[0.202,51.4791],[0.2008,51.4787],[0.2021,51.479],[0.2022,51.4806],[0.2055,51.4804],[0.2063,51.4813],[0.2096,51.4816],[0.2117,51.4827],[0.2176,51.4804],[0.2159,51.4794],[0.216,51.4771],[0.2118,51.4758],[0.2113,51.4732],[0.2081,51.4708],[0.211,51.4683],[0.21,51.4657],[0.2102,51.4626],[0.2044,51.46],[0.2026,51.4583],[0.199,51.4586],[0.1974,51.4578],[0.1988,51.458],[0.1984,51.4573],[0.1996,51.4584],[0.2031,51.458],[0.2026,51.4561],[0.2038,51.456],[0.2033,51.4543],[0.198,51.4518],[0.1959,51.4518],[0.1958,51.4524],[0.193,51.4517],[0.191,51.4488],[0.1876,51.4487],[0.1874,51.4469],[0.1842,51.4447],[0.181,51.4442],[0.1795,51.4431],[0.1787,51.4435],[0.176,51.442],[0.1728,51.4432],[0.167,51.4356],[0.1668,51.4319],[0.1661,51.4314],[0.1667,51.4313],[0.1643,51.4286],[0.1607,51.4297],[0.1598,51.4292],[0.1591,51.4302],[0.1558,51.4309],[0.1553,51.429],[0.1537,51.4275],[0.153,51.422],[0.1511,51.4204],[0.1546,51.4185],[0.1541,51.4178],[0.151,51.4176],[0.1511,51.4151],[0.1491,51.4124],[0.1497,51.4117],[0.1537,51.4113],[0.1529,51.4087],[0.1493,51.4091],[0.1488,51.4085],[0.1296,51.4149],[0.1257,51.4149],[0.1218,51.4138]],[[0.1453,51.4408],[0.1453,51.4408],[0.1453,51.4408],[0.1453,51.4408]],[[0.145,51.4351],[0.1451,51.4351],[0.1451,51.4351],[0.145,51.4351]],[[0.1441,51.423],[0.1445,51.423],[0.1445,51.423],[0.1441,51.423]],[[0.1474,51.4893],[0.1477,51.4894],[0.1476,51.4894],[0.1474,51.4893]],[[0.1477,51.4895],[0.1475,51.4896],[0.1476,51.4895],[0.1477,51.4895]],[[0.1475,51.4896],[0.1477,51.4898],[0.1476,51.4897],[0.1475,51.4896]],[[0.1476,51.4899],[0.1477,51.49],[0.1476,51.4899],[0.1476,51.4899]],[[0.1469,51.4746],[0.1469,51.4746],[0.147,51.4746],[0.1469,51.4746]],[[0.1472,51.492],[0.148,51.492],[0.1472,51.492],[0.1472,51.492]]]]}},{"type":"Feature","id":"borough-london-4","properties":{"name":"Brent","province":"Greater London","department":"England","type":"Borough","country":"Reino Unido","iso":"GB"},"geometry":{"type":"MultiPolygon","coordinates":[[[[-0.2905,51.5357],[-0.2935,51.5349],[-0.2966,51.5352],[-0.3027,51.532],[-0.3075,51.5331],[-0.3063,51.5342],[-0.306,51.5394],[-0.3047,51.5399],[-0.3086,51.5432],[-0.3081,51.5445],[-0.309,51.5452],[-0.3072,51.5453],[-0.3078,51.5459],[-0.3115,51.5476],[-0.3127,51.5492],[-0.3186,51.5518],[-0.328,51.5553],[-0.3356,51.5567],[-0.3349,51.5578],[-0.334,51.5577],[-0.3339,51.5589],[-0.3314,51.5615],[-0.3283,51.5625],[-0.3287,51.5659],[-0.3296,51.5662],[-0.3297,51.5671],[-0.3222,51.5697],[-0.3248,51.5732],[-0.3267,51.5788],[-0.3202,51.5804],[-0.3131,51.5843],[-0.3048,51.5871],[-0.3008,51.5872],[-0.2824,51.5851],[-0.2847,51.591],[-0.2904,51.5936],[-0.2841,51.5956],[-0.2765,51.5965],[-0.277,51.5969],[-0.2711,51.5983],[-0.2672,51.6004],[-0.2483,51.5844],[-0.2517,51.5835],[-0.2544,51.5815],[-0.2544,51.5788],[-0.2514,51.5731],[-0.2531,51.5724],[-0.2513,51.5704],[-0.2474,51.5684],[-0.2461,51.5698],[-0.2467,51.5715],[-0.246,51.5722],[-0.2424,51.5728],[-0.2381,51.5718],[-0.2376,51.5725],[-0.2334,51.572],[-0.222,51.5629],[-0.1915,51.5363],[-0.193,51.534],[-0.1926,51.5326],[-0.1966,51.5277],[-0.1978,51.5279],[-0.1983,51.5304],[-0.2029,51.5329],[-0.2075,51.5329],[-0.2152,51.5314],[-0.216,51.5279],[-0.2238,51.53],[-0.2277,51.5299],[-0.2345,51.5327],[-0.2435,51.5318],[-0.2508,51.5342],[-0.256,51.534],[-0.2564,51.5349],[-0.2578,51.5353],[-0.2649,51.5322],[-0.2675,51.5302],[-0.2805,51.5284],[-0.2857,51.5292],[-0.2894,51.5317],[-0.284,51.5335],[-0.2835,51.5328],[-0.2816,51.5332],[-0.2812,51.5326],[-0.2791,51.5333],[-0.2779,51.535],[-0.2826,51.5386],[-0.2905,51.5357]]]]}},{"type":"Feature","id":"borough-london-5","properties":{"name":"Bromley","province":"Greater London","department":"England","type":"Borough","country":"Reino Unido","iso":"GB"},"geometry":{"type":"MultiPolygon","coordinates":[[[[0.0938,51.3202],[0.0878,51.3183],[0.085,51.316],[0.0856,51.3148],[0.085,51.3126],[0.0835,51.3105],[0.0847,51.3084],[0.0841,51.3081],[0.0848,51.306],[0.0829,51.3057],[0.0863,51.3002],[0.0912,51.2968],[0.0853,51.2929],[0.0815,51.2918],[0.0731,51.2915],[0.0585,51.2894],[0.056,51.2924],[0.0544,51.2921],[0.0508,51.294],[0.0457,51.294],[0.0424,51.2927],[0.0442,51.2986],[0.0433,51.299],[0.0428,51.3012],[0.0415,51.303],[0.0329,51.3075],[0.0248,51.3022],[0.0209,51.2968],[0.0191,51.2917],[0.015,51.2918],[0.0084,51.3104],[0.0103,51.3161],[0.0066,51.3157],[0.0022,51.3293],[0.0033,51.3322],[0.0008,51.3336],[-0.0054,51.3528],[-0.0087,51.3558],[-0.0132,51.3572],[-0.0157,51.3589],[-0.0222,51.3659],[-0.0238,51.3654],[-0.0245,51.3668],[-0.0232,51.3674],[-0.0236,51.3722],[-0.0262,51.3764],[-0.0268,51.3794],[-0.028,51.3794],[-0.0283,51.3782],[-0.0298,51.3773],[-0.037,51.377],[-0.0364,51.379],[-0.0369,51.379],[-0.0379,51.3832],[-0.0365,51.3885],[-0.0428,51.3895],[-0.0478,51.393],[-0.0517,51.3936],[-0.0535,51.3949],[-0.0503,51.398],[-0.0521,51.3983],[-0.0507,51.3996],[-0.053,51.4015],[-0.0606,51.3991],[-0.0602,51.3995],[-0.0622,51.4015],[-0.0645,51.4017],[-0.0682,51.4035],[-0.0732,51.4091],[-0.0728,51.4127],[-0.0805,51.4156],[-0.0811,51.4174],[-0.0785,51.4197],[-0.0749,51.4258],[-0.0722,51.4263],[-0.0623,51.4251],[-0.057,51.423],[-0.0519,51.4236],[-0.0518,51.4225],[-0.046,51.4224],[-0.0409,51.4243],[-0.0385,51.4239],[-0.0375,51.425],[-0.0319,51.4247],[-0.0321,51.4255],[-0.0304,51.4257],[-0.021,51.4209],[-0.0216,51.4205],[-0.0208,51.4199],[-0.0214,51.4184],[-0.0226,51.4175],[-0.0217,51.4173],[-0.0222,51.4167],[-0.0178,51.4157],[-0.018,51.4151],[-0.0143,51.4151],[-0.0146,51.4139],[-0.0128,51.4136],[-0.0066,51.4147],[-0.0066,51.416],[-0.005,51.4146],[-0.0034,51.4151],[-0.0037,51.4157],[-0.0009,51.4159],[-0.0002,51.4175],[0.0017,51.4186],[0.0035,51.4174],[0.0057,51.4185],[0.0052,51.4193],[0.0081,51.423],[0.01,51.4225],[0.0144,51.4252],[0.0141,51.4262],[0.0211,51.4268],[0.0251,51.429],[0.0362,51.4224],[0.039,51.4249],[0.0378,51.4278],[0.0377,51.4334],[0.0338,51.4317],[0.0316,51.4326],[0.0312,51.4321],[0.0314,51.4326],[0.0286,51.4341],[0.0286,51.4364],[0.0254,51.4357],[0.0248,51.4372],[0.0247,51.4382],[0.0287,51.4387],[0.0285,51.4406],[0.0303,51.4443],[0.0395,51.4412],[0.0423,51.4395],[0.0429,51.4381],[0.0586,51.4246],[0.0609,51.4251],[0.0617,51.4237],[0.0632,51.4242],[0.0719,51.4297],[0.0733,51.4318],[0.0748,51.4308],[0.0753,51.432],[0.083,51.4301],[0.0893,51.4239],[0.093,51.4214],[0.1033,51.4157],[0.1076,51.4141],[0.1131,51.4129],[0.1296,51.4149],[0.1488,51.4085],[0.1552,51.404],[0.1572,51.4011],[0.159,51.3958],[0.1624,51.3925],[0.148,51.3928],[0.1475,51.3922],[0.1498,51.3909],[0.1486,51.3887],[0.1504,51.386],[0.1498,51.3849],[0.1503,51.3811],[0.1496,51.3811],[0.1496,51.3801],[0.1511,51.3799],[0.1509,51.3791],[0.1532,51.378],[0.1525,51.3752],[0.1517,51.3754],[0.1497,51.3736],[0.1509,51.3729],[0.1501,51.3702],[0.152,51.3697],[0.1516,51.3684],[0.1495,51.3691],[0.1473,51.3669],[0.1483,51.3664],[0.145,51.3629],[0.1448,51.3584],[0.146,51.3582],[0.1428,51.3527],[0.1426,51.3507],[0.1395,51.3485],[0.1386,51.3474],[0.1394,51.347],[0.1362,51.3459],[0.1369,51.3442],[0.1318,51.3455],[0.1252,51.3459],[0.1184,51.3441],[0.1172,51.3432],[0.1167,51.3413],[0.1173,51.3398],[0.1184,51.34],[0.119,51.3387],[0.1183,51.3384],[0.12,51.3347],[0.1217,51.3336],[0.1179,51.3306],[0.1179,51.3297],[0.1157,51.3295],[0.1141,51.3275],[0.1102,51.3281],[0.1097,51.3267],[0.1049,51.3274],[0.1033,51.3261],[0.1008,51.3256],[0.0995,51.3235],[0.0938,51.3202]],[[0.1449,51.3675],[0.1452,51.3673],[0.145,51.3674],[0.1449,51.3675]],[[0.0275,51.3094],[0.0276,51.3094],[0.0275,51.3094],[0.0275,51.3094]],[[-0.063,51.4024],[-0.0632,51.4025],[-0.0635,51.4026],[-0.063,51.4024]],[[-0.0628,51.4209],[-0.0624,51.4208],[-0.0623,51.4208],[-0.0628,51.4209]],[[-0.0623,51.4202],[-0.0625,51.4202],[-0.0627,51.4202],[-0.0623,51.4202]]]]}},{"type":"Feature","id":"borough-london-6","properties":{"name":"Camden","province":"Greater London","department":"England","type":"Borough","country":"Reino Unido","iso":"GB"},"geometry":{"type":"MultiPolygon","coordinates":[[[[-0.1285,51.5132],[-0.1293,51.5135],[-0.1308,51.5171],[-0.1325,51.5167],[-0.1353,51.5189],[-0.137,51.5189],[-0.1435,51.5239],[-0.1435,51.5246],[-0.1452,51.524],[-0.1458,51.5253],[-0.1472,51.525],[-0.1527,51.5375],[-0.1594,51.5364],[-0.1605,51.5373],[-0.165,51.5358],[-0.1695,51.5386],[-0.1735,51.5376],[-0.1739,51.5395],[-0.1788,51.5398],[-0.1845,51.5381],[-0.1888,51.5345],[-0.2135,51.5551],[-0.21,51.5568],[-0.2089,51.5557],[-0.206,51.5564],[-0.2058,51.5553],[-0.1994,51.5562],[-0.1997,51.557],[-0.1985,51.5588],[-0.1967,51.5592],[-0.1969,51.5606],[-0.1909,51.5618],[-0.1893,51.5655],[-0.1781,51.5704],[-0.1743,51.5693],[-0.1731,51.5715],[-0.1699,51.5728],[-0.1606,51.5728],[-0.1504,51.5716],[-0.1424,51.5693],[-0.1407,51.5646],[-0.1409,51.5602],[-0.1373,51.5555],[-0.131,51.5515],[-0.1302,51.5496],[-0.1271,51.5475],[-0.1257,51.5421],[-0.1225,51.5374],[-0.1226,51.5307],[-0.1199,51.5309],[-0.1161,51.5299],[-0.1154,51.5277],[-0.1129,51.5264],[-0.1142,51.5255],[-0.1136,51.5245],[-0.107,51.5222],[-0.1055,51.519],[-0.1079,51.5177],[-0.1138,51.5182],[-0.1116,51.5152],[-0.1138,51.5148],[-0.1147,51.516],[-0.1195,51.5145],[-0.1229,51.5151],[-0.1273,51.5126],[-0.1285,51.5132]],[[-0.208,51.5512],[-0.2078,51.5512],[-0.2076,51.5512],[-0.208,51.5512]],[[-0.2077,51.5541],[-0.2077,51.5541],[-0.2077,51.5541],[-0.2077,51.5541]]]]}},{"type":"Feature","id":"borough-london-7","properties":{"name":"City of London","province":"Greater London","department":"England","type":"Borough","country":"Reino Unido","iso":"GB"},"geometry":{"type":"Polygon","coordinates":[[[-0.0758,51.5158],[-0.0737,51.5141],[-0.0727,51.5102],[-0.0755,51.5097],[-0.0769,51.5105],[-0.0788,51.5094],[-0.0795,51.5078],[-0.0901,51.509],[-0.0952,51.5106],[-0.1116,51.5108],[-0.1125,51.5126],[-0.111,51.5138],[-0.1138,51.5181],[-0.1079,51.5177],[-0.0976,51.5207],[-0.0979,51.5228],[-0.0968,51.5233],[-0.0951,51.5231],[-0.0943,51.5214],[-0.0897,51.5207],[-0.09,51.52],[-0.0862,51.5187],[-0.0852,51.5203],[-0.0833,51.5198],[-0.081,51.522],[-0.0785,51.5215],[-0.0794,51.5188],[-0.0781,51.519],[-0.0758,51.5158]]]}},{"type":"Feature","id":"borough-london-8","properties":{"name":"Ealing","province":"Greater London","department":"England","type":"Borough","country":"Reino Unido","iso":"GB"},"geometry":{"type":"MultiPolygon","coordinates":[[[[-0.2531,51.5023],[-0.2528,51.4999],[-0.2556,51.4963],[-0.2554,51.4949],[-0.27,51.4942],[-0.2773,51.499],[-0.2807,51.5028],[-0.2855,51.5008],[-0.2939,51.5016],[-0.2986,51.5001],[-0.3007,51.499],[-0.2976,51.4949],[-0.3011,51.4944],[-0.3014,51.4952],[-0.3059,51.4962],[-0.3055,51.4946],[-0.312,51.492],[-0.3151,51.494],[-0.3145,51.4944],[-0.3159,51.4959],[-0.3192,51.4943],[-0.3248,51.496],[-0.3262,51.495],[-0.3274,51.496],[-0.33,51.4951],[-0.3347,51.4962],[-0.3421,51.496],[-0.3505,51.4991],[-0.3582,51.4978],[-0.363,51.4959],[-0.3653,51.4934],[-0.3718,51.4905],[-0.3738,51.4919],[-0.3759,51.4954],[-0.3779,51.4954],[-0.3777,51.4966],[-0.3833,51.4949],[-0.3871,51.4947],[-0.4069,51.4997],[-0.4032,51.5034],[-0.3934,51.5071],[-0.39,51.514],[-0.3826,51.5179],[-0.3762,51.5249],[-0.3762,51.5288],[-0.3859,51.5304],[-0.3872,51.5296],[-0.3896,51.5309],[-0.3933,51.5316],[-0.4119,51.5341],[-0.4154,51.5367],[-0.4176,51.5367],[-0.4175,51.5379],[-0.4196,51.5385],[-0.4182,51.5391],[-0.4195,51.5402],[-0.4049,51.5425],[-0.3953,51.5426],[-0.3963,51.5457],[-0.3979,51.5457],[-0.3987,51.548],[-0.3949,51.5477],[-0.395,51.5488],[-0.3853,51.5512],[-0.3776,51.555],[-0.3759,51.5531],[-0.3625,51.556],[-0.3624,51.5573],[-0.3476,51.5597],[-0.343,51.5575],[-0.328,51.5553],[-0.3134,51.5495],[-0.3115,51.5476],[-0.3072,51.5454],[-0.309,51.5452],[-0.3081,51.5445],[-0.3086,51.5432],[-0.3047,51.5399],[-0.306,51.5394],[-0.3063,51.5342],[-0.3075,51.5331],[-0.3027,51.532],[-0.2966,51.5352],[-0.2933,51.535],[-0.2826,51.5386],[-0.2779,51.535],[-0.2791,51.5333],[-0.2812,51.5326],[-0.2816,51.5332],[-0.2835,51.5328],[-0.284,51.5335],[-0.2894,51.5317],[-0.2843,51.529],[-0.2805,51.5284],[-0.269,51.5297],[-0.2578,51.5353],[-0.2564,51.5349],[-0.256,51.534],[-0.2508,51.5342],[-0.2471,51.5334],[-0.2464,51.5328],[-0.2469,51.5318],[-0.2453,51.5313],[-0.2497,51.5291],[-0.2506,51.5279],[-0.2503,51.5272],[-0.2527,51.5246],[-0.2503,51.5202],[-0.2507,51.5192],[-0.2492,51.5141],[-0.2467,51.5112],[-0.2451,51.5067],[-0.2465,51.5067],[-0.2457,51.5047],[-0.2549,51.5044],[-0.2531,51.5023]]]]}},{"type":"Feature","id":"borough-london-9","properties":{"name":"Enfield","province":"Greater London","department":"England","type":"Borough","country":"Reino Unido","iso":"GB"},"geometry":{"type":"MultiPolygon","coordinates":[[[[-0.0355,51.6128],[-0.0343,51.609],[-0.0415,51.6056],[-0.0544,51.6089],[-0.0859,51.6084],[-0.0926,51.6091],[-0.0952,51.6086],[-0.0958,51.6093],[-0.1025,51.608],[-0.1108,51.6086],[-0.1175,51.6082],[-0.1235,51.6087],[-0.1254,51.61],[-0.1282,51.6094],[-0.1353,51.6112],[-0.1388,51.6102],[-0.1445,51.6155],[-0.142,51.6162],[-0.1414,51.6176],[-0.1354,51.6218],[-0.1335,51.6263],[-0.1305,51.6294],[-0.1311,51.6297],[-0.1292,51.6323],[-0.1346,51.6338],[-0.1348,51.6348],[-0.1411,51.6382],[-0.1451,51.6426],[-0.1479,51.6421],[-0.1492,51.6452],[-0.1518,51.6454],[-0.1522,51.6458],[-0.1511,51.6472],[-0.1523,51.648],[-0.1499,51.6488],[-0.151,51.6501],[-0.1523,51.6498],[-0.1526,51.6515],[-0.1542,51.653],[-0.1535,51.6533],[-0.1538,51.6547],[-0.1548,51.6555],[-0.1635,51.6582],[-0.1859,51.6628],[-0.1821,51.6686],[-0.1767,51.6721],[-0.177,51.6727],[-0.1755,51.6726],[-0.1754,51.6734],[-0.1725,51.6731],[-0.1636,51.6824],[-0.1635,51.6881],[-0.1494,51.6855],[-0.1354,51.6887],[-0.1218,51.6886],[-0.118,51.689],[-0.1098,51.6917],[-0.1049,51.6918],[-0.0948,51.6901],[-0.0839,51.69],[-0.079,51.6889],[-0.0664,51.6838],[-0.062,51.683],[-0.0566,51.683],[-0.0492,51.6843],[-0.0425,51.6829],[-0.0111,51.6809],[-0.0103,51.6765],[-0.0114,51.6718],[-0.0106,51.6691],[-0.0115,51.6638],[-0.009,51.6604],[-0.0118,51.653],[-0.0117,51.6498],[-0.0133,51.6396],[-0.0154,51.6355],[-0.0258,51.622],[-0.0324,51.6166],[-0.0355,51.6128]],[[-0.1117,51.6099],[-0.1117,51.6099],[-0.1117,51.6099],[-0.1117,51.6099]],[[-0.054,51.6222],[-0.0539,51.6222],[-0.0538,51.6221],[-0.054,51.6222]],[[-0.0538,51.6237],[-0.0538,51.6237],[-0.0538,51.6237],[-0.0538,51.6237]],[[-0.0537,51.6269],[-0.0537,51.6269],[-0.0537,51.627],[-0.0537,51.6269]],[[-0.0537,51.6283],[-0.0536,51.6284],[-0.0536,51.6283],[-0.0537,51.6283]],[[-0.0523,51.6591],[-0.0523,51.6591],[-0.0523,51.6591],[-0.0523,51.6591]],[[-0.0523,51.6591],[-0.0523,51.6591],[-0.0523,51.6591],[-0.0523,51.6591]],[[-0.0173,51.6698],[-0.0173,51.6699],[-0.0173,51.6699],[-0.0173,51.6698]]]]}},{"type":"Feature","id":"borough-london-10","properties":{"name":"Greenwich","province":"Greater London","department":"England","type":"Borough","country":"Reino Unido","iso":"GB"},"geometry":{"type":"MultiPolygon","coordinates":[[[[-0.0171,51.4804],[-0.0184,51.4808],[-0.0231,51.4796],[-0.0232,51.4807],[-0.0264,51.4815],[-0.0247,51.4856],[-0.0188,51.4835],[-0.0182,51.482],[-0.0165,51.4816],[-0.0171,51.4804]]],[[[-0.0179,51.4695],[-0.0191,51.4699],[-0.0187,51.4706],[-0.0193,51.472],[-0.0202,51.4722],[-0.0201,51.4731],[-0.0227,51.474],[-0.0229,51.4751],[-0.0204,51.4758],[-0.0206,51.4765],[-0.0188,51.4773],[-0.0184,51.4794],[-0.015,51.4818],[-0.0179,51.4825],[-0.018,51.4832],[-0.0122,51.4829],[-0.0073,51.4838],[-0.0034,51.4849],[0.002,51.4885],[0.0024,51.493],[0.0009,51.4955],[-0.0003,51.4952],[-0.0023,51.5001],[-0.0017,51.5029],[0.0008,51.5045],[0.0051,51.5043],[0.0145,51.4965],[0.0216,51.494],[0.0283,51.4938],[0.0402,51.4955],[0.058,51.4941],[0.0767,51.496],[0.0825,51.4989],[0.0876,51.504],[0.0879,51.5056],[0.092,51.509],[0.1069,51.5094],[0.1205,51.511],[0.1214,51.4876],[0.1221,51.4822],[0.1242,51.4768],[0.1185,51.4789],[0.112,51.4731],[0.1082,51.4761],[0.1062,51.475],[0.1049,51.4755],[0.1021,51.4744],[0.0983,51.4754],[0.0966,51.4733],[0.0933,51.473],[0.0892,51.4704],[0.0859,51.4694],[0.0833,51.4664],[0.0822,51.4666],[0.0822,51.461],[0.0829,51.4598],[0.0786,51.4593],[0.0857,51.4565],[0.088,51.4475],[0.0873,51.4457],[0.0863,51.4453],[0.0874,51.4432],[0.0847,51.4426],[0.0828,51.4433],[0.0844,51.442],[0.0818,51.44],[0.0808,51.4405],[0.0778,51.4365],[0.0764,51.4369],[0.075,51.4359],[0.0764,51.4349],[0.0761,51.4333],[0.0746,51.4322],[0.0753,51.432],[0.0748,51.4308],[0.0733,51.4318],[0.0716,51.4294],[0.0617,51.4237],[0.0609,51.4251],[0.0586,51.4246],[0.0565,51.4261],[0.0399,51.441],[0.0303,51.4443],[0.0289,51.4416],[0.0216,51.4427],[0.0206,51.4442],[0.0215,51.4444],[0.0212,51.4467],[0.0229,51.4472],[0.0219,51.449],[0.0151,51.45],[0.0149,51.4506],[0.0198,51.4507],[0.0196,51.4517],[0.0183,51.4516],[0.0175,51.455],[0.0114,51.4567],[0.01,51.4595],[0.0091,51.4659],[0.0133,51.4668],[0.0126,51.4698],[0.0163,51.469],[0.0149,51.4731],[0.0183,51.4739],[-0.0,51.4718],[-0.0141,51.4726],[-0.0151,51.4717],[-0.0131,51.4689],[-0.0151,51.468],[-0.0179,51.4695]],[[0.1081,51.4795],[0.1083,51.4794],[0.1082,51.4795],[0.1081,51.4795]],[[0.0695,51.4765],[0.0695,51.4765],[0.0694,51.4766],[0.0695,51.4765]],[[0.0264,51.4584],[0.0265,51.4581],[0.0264,51.4582],[0.0264,51.4584]],[[0.0468,51.4602],[0.0469,51.4602],[0.0468,51.4602],[0.0468,51.4602]],[[0.0639,51.4576],[0.0639,51.4576],[0.064,51.4575],[0.0639,51.4576]],[[0.0514,51.4509],[0.0515,51.4509],[0.0514,51.4509],[0.0514,51.4509]],[[0.0749,51.4488],[0.0762,51.4491],[0.0749,51.4488],[0.0749,51.4488]],[[0.0719,51.4378],[0.0722,51.4376],[0.0721,51.4377],[0.0719,51.4378]],[[0.0757,51.4429],[0.0765,51.4429],[0.0757,51.4429],[0.0757,51.4429]],[[0.0515,51.4529],[0.0515,51.4529],[0.0517,51.4529],[0.0515,51.4529]],[[0.0733,51.4573],[0.0732,51.4575],[0.0733,51.4574],[0.0733,51.4573]],[[0.0495,51.4578],[0.0495,51.4578],[0.0495,51.4578],[0.0495,51.4578]],[[0.0765,51.4681],[0.077,51.4694],[0.0765,51.4681],[0.0765,51.4681]],[[0.017,51.4771],[0.017,51.4771],[0.0171,51.4771],[0.017,51.4771]],[[0.0174,51.4891],[0.0176,51.4891],[0.0175,51.4891],[0.0174,51.4891]],[[0.1084,51.4851],[0.1084,51.4851],[0.1087,51.485],[0.1084,51.4851]],[[0.1084,51.4908],[0.1088,51.4908],[0.1087,51.4908],[0.1084,51.4908]],[[0.0533,51.4916],[0.0532,51.4915],[0.0533,51.4915],[0.0533,51.4916]],[[0.048,51.4924],[0.0486,51.4923],[0.048,51.4924],[0.048,51.4924]],[[0.0533,51.4921],[0.0533,51.492],[0.0533,51.492],[0.0533,51.4921]]]]}},{"type":"Feature","id":"borough-london-11","properties":{"name":"Hackney","province":"Greater London","department":"England","type":"Borough","country":"Reino Unido","iso":"GB"},"geometry":{"type":"MultiPolygon","coordinates":[[[[-0.0765,51.5246],[-0.0757,51.5236],[-0.0762,51.5222],[-0.0785,51.5215],[-0.081,51.522],[-0.0833,51.5198],[-0.0852,51.5203],[-0.0842,51.5239],[-0.0854,51.5245],[-0.085,51.5262],[-0.0874,51.526],[-0.0888,51.5274],[-0.0954,51.5292],[-0.0951,51.5301],[-0.097,51.533],[-0.0866,51.5373],[-0.0837,51.5451],[-0.0838,51.5466],[-0.0764,51.5464],[-0.0767,51.5481],[-0.0795,51.5517],[-0.0855,51.5522],[-0.0904,51.5541],[-0.0904,51.5578],[-0.0917,51.5602],[-0.096,51.5612],[-0.0986,51.5608],[-0.1045,51.5647],[-0.0961,51.5707],[-0.0979,51.5736],[-0.087,51.5743],[-0.0809,51.5757],[-0.0763,51.5749],[-0.0757,51.5756],[-0.0668,51.5763],[-0.0612,51.5778],[-0.0584,51.5725],[-0.0475,51.5652],[-0.0466,51.5641],[-0.0471,51.5626],[-0.0426,51.5614],[-0.0364,51.5615],[-0.0333,51.5606],[-0.0292,51.5612],[-0.0253,51.5595],[-0.0239,51.5573],[-0.0185,51.5551],[-0.0175,51.5534],[-0.0172,51.5517],[-0.0191,51.5516],[-0.0165,51.5433],[-0.0256,51.5433],[-0.0291,51.5423],[-0.0335,51.5446],[-0.0378,51.5418],[-0.0372,51.5414],[-0.0415,51.5374],[-0.0448,51.5358],[-0.0476,51.5355],[-0.051,51.5365],[-0.0524,51.5359],[-0.0528,51.5349],[-0.0552,51.5351],[-0.0591,51.5341],[-0.0625,51.5355],[-0.0622,51.5332],[-0.0651,51.5332],[-0.0663,51.5312],[-0.074,51.5302],[-0.0773,51.5273],[-0.0763,51.5271],[-0.0765,51.5246]],[[-0.0573,51.5466],[-0.0571,51.5466],[-0.0571,51.5466],[-0.0573,51.5466]],[[-0.0891,51.5708],[-0.0889,51.5707],[-0.0889,51.5707],[-0.0891,51.5708]],[[-0.0697,51.5702],[-0.0697,51.5705],[-0.0697,51.5704],[-0.0697,51.5702]]]]}},{"type":"Feature","id":"borough-london-12","properties":{"name":"Hammersmith and Fulham","province":"Greater London","department":"England","type":"Borough","country":"Reino Unido","iso":"GB"},"geometry":{"type":"MultiPolygon","coordinates":[[[[-0.2108,51.4674],[-0.2162,51.4693],[-0.2219,51.4739],[-0.2235,51.4772],[-0.2237,51.4819],[-0.2286,51.4888],[-0.2346,51.4907],[-0.245,51.4891],[-0.2456,51.4907],[-0.2445,51.4979],[-0.2454,51.4984],[-0.2493,51.4969],[-0.2551,51.5043],[-0.2457,51.5047],[-0.2465,51.5067],[-0.2451,51.5067],[-0.2461,51.51],[-0.2492,51.5141],[-0.2507,51.5192],[-0.2503,51.5202],[-0.2527,51.5247],[-0.2503,51.5272],[-0.2506,51.5279],[-0.2497,51.5291],[-0.2453,51.5313],[-0.2469,51.5318],[-0.2464,51.5328],[-0.2432,51.5318],[-0.2345,51.5327],[-0.2285,51.5304],[-0.2272,51.5248],[-0.2266,51.5248],[-0.2267,51.522],[-0.2283,51.5211],[-0.2227,51.5156],[-0.2193,51.5096],[-0.2172,51.5104],[-0.2158,51.5091],[-0.2152,51.5076],[-0.2162,51.5075],[-0.2159,51.5064],[-0.2179,51.5061],[-0.2142,51.5007],[-0.208,51.496],[-0.2047,51.4947],[-0.2006,51.4901],[-0.1979,51.4879],[-0.194,51.4861],[-0.1841,51.4772],[-0.1794,51.4776],[-0.1823,51.4704],[-0.1864,51.4664],[-0.1934,51.4649],[-0.2001,51.465],[-0.2108,51.4674]]]]}},{"type":"Feature","id":"borough-london-13","properties":{"name":"Haringey","province":"Greater London","department":"England","type":"Borough","country":"Reino Unido","iso":"GB"},"geometry":{"type":"MultiPolygon","coordinates":[[[[-0.0672,51.5763],[-0.0757,51.5756],[-0.0763,51.5749],[-0.0809,51.5757],[-0.087,51.5743],[-0.0979,51.5736],[-0.0961,51.5707],[-0.1049,51.5647],[-0.1151,51.5706],[-0.1161,51.5722],[-0.1157,51.5725],[-0.1176,51.5742],[-0.1195,51.5744],[-0.119,51.5747],[-0.1196,51.5755],[-0.1247,51.5741],[-0.1314,51.5736],[-0.1424,51.5691],[-0.1504,51.5716],[-0.1605,51.5728],[-0.1713,51.5724],[-0.1712,51.5736],[-0.1695,51.574],[-0.1694,51.5774],[-0.1681,51.5769],[-0.1669,51.5787],[-0.1673,51.5812],[-0.1658,51.5833],[-0.1611,51.5854],[-0.1596,51.5845],[-0.1572,51.5862],[-0.1586,51.5867],[-0.1586,51.588],[-0.1603,51.588],[-0.1602,51.5897],[-0.1587,51.5921],[-0.1597,51.5923],[-0.1618,51.5975],[-0.1564,51.6053],[-0.1533,51.6027],[-0.153,51.5992],[-0.1514,51.5974],[-0.1445,51.6001],[-0.1422,51.6032],[-0.1434,51.6088],[-0.1353,51.6112],[-0.1282,51.6094],[-0.1254,51.61],[-0.1235,51.6087],[-0.1175,51.6082],[-0.1108,51.6086],[-0.1025,51.608],[-0.0958,51.6093],[-0.0952,51.6086],[-0.0926,51.6091],[-0.0859,51.6084],[-0.0544,51.6089],[-0.0415,51.6056],[-0.0522,51.5941],[-0.0535,51.5905],[-0.0523,51.5875],[-0.058,51.5824],[-0.0617,51.5803],[-0.0623,51.5793],[-0.0612,51.5778],[-0.0672,51.5763]]]]}},{"type":"Feature","id":"borough-london-14","properties":{"name":"Harrow","province":"Greater London","department":"England","type":"Borough","country":"Reino Unido","iso":"GB"},"geometry":{"type":"MultiPolygon","coordinates":[[[[-0.3378,51.5571],[-0.344,51.5578],[-0.3476,51.5597],[-0.3624,51.5573],[-0.3625,51.556],[-0.3759,51.5531],[-0.3766,51.5535],[-0.3803,51.5591],[-0.3805,51.5608],[-0.3824,51.5629],[-0.3833,51.5672],[-0.3865,51.5716],[-0.3857,51.5721],[-0.3881,51.575],[-0.3875,51.5753],[-0.3886,51.5778],[-0.3916,51.5816],[-0.391,51.5831],[-0.392,51.5883],[-0.3945,51.5904],[-0.3955,51.5902],[-0.3966,51.5953],[-0.3976,51.597],[-0.4003,51.5974],[-0.4,51.5982],[-0.4024,51.602],[-0.4025,51.6052],[-0.4018,51.6066],[-0.4033,51.6091],[-0.4041,51.6132],[-0.3867,51.6156],[-0.382,51.6174],[-0.3759,51.6182],[-0.3663,51.621],[-0.3598,51.6252],[-0.3492,51.6269],[-0.3398,51.6308],[-0.3383,51.6295],[-0.333,51.6338],[-0.3266,51.6367],[-0.3198,51.6382],[-0.3167,51.6405],[-0.3047,51.6367],[-0.3056,51.6341],[-0.304,51.6315],[-0.2672,51.6004],[-0.2711,51.5983],[-0.277,51.5969],[-0.2765,51.5965],[-0.2841,51.5956],[-0.2904,51.5936],[-0.2847,51.591],[-0.2824,51.5851],[-0.3008,51.5872],[-0.3048,51.5871],[-0.3131,51.5843],[-0.3202,51.5804],[-0.3267,51.5788],[-0.3248,51.5732],[-0.3222,51.5697],[-0.3297,51.5671],[-0.3296,51.5662],[-0.3287,51.5659],[-0.3283,51.5625],[-0.3314,51.5615],[-0.3356,51.5565],[-0.3378,51.5571]]]]}},{"type":"Feature","id":"borough-london-15","properties":{"name":"Havering","province":"Greater London","department":"England","type":"Borough","country":"Reino Unido","iso":"GB"},"geometry":{"type":"MultiPolygon","coordinates":[[[[0.1699,51.5641],[0.1619,51.5616],[0.1514,51.568],[0.1468,51.5688],[0.1466,51.5694],[0.1498,51.5697],[0.149,51.5732],[0.1479,51.5731],[0.1481,51.5756],[0.147,51.5757],[0.1474,51.5808],[0.1484,51.5808],[0.1509,51.5838],[0.151,51.5955],[0.1497,51.5971],[0.1476,51.5968],[0.1495,51.6029],[0.1485,51.6043],[0.1486,51.6087],[0.1474,51.6125],[0.1382,51.6235],[0.1559,51.6233],[0.1655,51.6224],[0.1689,51.6214],[0.1803,51.6244],[0.1805,51.6257],[0.1812,51.6258],[0.1858,51.6244],[0.186,51.6255],[0.1883,51.6254],[0.1894,51.6245],[0.1898,51.6251],[0.1947,51.6257],[0.2035,51.6252],[0.222,51.6301],[0.2241,51.6317],[0.2373,51.6241],[0.2526,51.6175],[0.2641,51.6089],[0.2643,51.6078],[0.2631,51.6073],[0.2581,51.6065],[0.258,51.6049],[0.2571,51.6049],[0.2566,51.6036],[0.254,51.6016],[0.2699,51.5996],[0.2703,51.5973],[0.2693,51.5953],[0.2713,51.589],[0.282,51.5788],[0.2851,51.5741],[0.2867,51.5735],[0.2867,51.5715],[0.2903,51.5643],[0.313,51.5658],[0.3152,51.5579],[0.3184,51.5568],[0.3188,51.5552],[0.322,51.5542],[0.3223,51.5528],[0.3251,51.5531],[0.3278,51.551],[0.328,51.5486],[0.3294,51.5466],[0.3289,51.5458],[0.3314,51.5459],[0.3339,51.5425],[0.3333,51.5413],[0.334,51.5405],[0.3215,51.5405],[0.3007,51.5388],[0.3008,51.5381],[0.2972,51.5377],[0.2977,51.5353],[0.2653,51.5321],[0.2654,51.525],[0.2667,51.5245],[0.2667,51.5233],[0.265,51.5229],[0.2642,51.5216],[0.2637,51.5179],[0.2538,51.5179],[0.2508,51.5288],[0.2489,51.5287],[0.2489,51.5274],[0.2462,51.5265],[0.2471,51.5251],[0.2458,51.5235],[0.2428,51.5244],[0.2407,51.522],[0.2407,51.5212],[0.2444,51.5204],[0.2449,51.5188],[0.2371,51.5193],[0.2411,51.5137],[0.24,51.5132],[0.2403,51.5109],[0.2414,51.5105],[0.242,51.508],[0.2334,51.5067],[0.227,51.5067],[0.226,51.5059],[0.2299,51.4994],[0.2243,51.4973],[0.2216,51.4978],[0.215,51.4965],[0.213,51.495],[0.2119,51.491],[0.2096,51.4898],[0.188,51.4878],[0.1838,51.4922],[0.1824,51.4965],[0.1835,51.497],[0.1833,51.4977],[0.1802,51.5013],[0.1786,51.5053],[0.1738,51.5082],[0.1649,51.5117],[0.1587,51.5122],[0.1646,51.5273],[0.1708,51.5327],[0.1744,51.5381],[0.1792,51.5403],[0.1805,51.5441],[0.1858,51.5472],[0.1875,51.5502],[0.1902,51.5527],[0.1879,51.5541],[0.1869,51.5558],[0.1847,51.5564],[0.1848,51.5599],[0.1826,51.5613],[0.1851,51.5655],[0.1835,51.5647],[0.1734,51.5651],[0.1699,51.5641]],[[0.2509,51.5504],[0.251,51.5505],[0.251,51.5505],[0.2509,51.5504]],[[0.2506,51.5432],[0.2507,51.5432],[0.2507,51.5431],[0.2506,51.5432]]]]}},{"type":"Feature","id":"borough-london-16","properties":{"name":"Hillingdon","province":"Greater London","department":"England","type":"Borough","country":"Reino Unido","iso":"GB"},"geometry":{"type":"MultiPolygon","coordinates":[[[[-0.4107,51.4982],[-0.4126,51.4886],[-0.4169,51.4825],[-0.4167,51.4804],[-0.415,51.4767],[-0.4158,51.474],[-0.4112,51.4699],[-0.4217,51.4667],[-0.4336,51.4617],[-0.4365,51.4581],[-0.4351,51.4569],[-0.4415,51.4568],[-0.444,51.4533],[-0.4532,51.4546],[-0.454,51.4555],[-0.4564,51.4554],[-0.4612,51.4572],[-0.4735,51.4586],[-0.4771,51.4613],[-0.4859,51.4613],[-0.4922,51.463],[-0.4939,51.4627],[-0.497,51.4659],[-0.5004,51.4671],[-0.5057,51.4678],[-0.5073,51.4668],[-0.5103,51.4678],[-0.5102,51.4688],[-0.5065,51.4716],[-0.5035,51.4805],[-0.4989,51.4857],[-0.4997,51.4868],[-0.4992,51.4886],[-0.4983,51.4885],[-0.4986,51.4893],[-0.495,51.4913],[-0.4948,51.4927],[-0.4915,51.493],[-0.4905,51.4939],[-0.4887,51.496],[-0.4895,51.4976],[-0.4889,51.4985],[-0.4898,51.499],[-0.4888,51.5002],[-0.4862,51.5009],[-0.4863,51.5018],[-0.4847,51.5036],[-0.4851,51.5051],[-0.4832,51.5066],[-0.484,51.5076],[-0.4835,51.5081],[-0.4856,51.5101],[-0.4898,51.5115],[-0.4896,51.5141],[-0.4924,51.5171],[-0.4904,51.5202],[-0.4912,51.5213],[-0.4903,51.5246],[-0.4908,51.5264],[-0.489,51.5291],[-0.4912,51.5333],[-0.4905,51.5342],[-0.4934,51.5358],[-0.4955,51.5385],[-0.4936,51.541],[-0.4918,51.5416],[-0.4921,51.5424],[-0.4908,51.545],[-0.4916,51.5453],[-0.4914,51.5461],[-0.4894,51.5463],[-0.4895,51.5472],[-0.4882,51.5474],[-0.4866,51.55],[-0.4827,51.5515],[-0.4789,51.5548],[-0.4777,51.5549],[-0.4766,51.558],[-0.4775,51.5603],[-0.4811,51.5608],[-0.4808,51.5618],[-0.4828,51.5628],[-0.4823,51.5639],[-0.4832,51.5651],[-0.4826,51.5657],[-0.4848,51.5668],[-0.484,51.5712],[-0.4856,51.5738],[-0.484,51.5751],[-0.489,51.5773],[-0.4895,51.5783],[-0.4886,51.5796],[-0.4896,51.5818],[-0.4947,51.5846],[-0.4958,51.5881],[-0.4978,51.591],[-0.4988,51.5912],[-0.4986,51.5919],[-0.4996,51.5922],[-0.4986,51.5944],[-0.5009,51.6002],[-0.5003,51.6013],[-0.4971,51.6011],[-0.4963,51.6024],[-0.4993,51.6089],[-0.4983,51.6095],[-0.499,51.6111],[-0.4979,51.6142],[-0.4954,51.6187],[-0.497,51.6205],[-0.4992,51.621],[-0.5002,51.6221],[-0.5,51.6237],[-0.4984,51.6249],[-0.4977,51.6267],[-0.5003,51.6288],[-0.4991,51.6306],[-0.4966,51.6318],[-0.4936,51.6306],[-0.4916,51.6308],[-0.4879,51.6268],[-0.4767,51.6219],[-0.4689,51.6167],[-0.4572,51.6123],[-0.4489,51.6153],[-0.4456,51.6196],[-0.4405,51.6201],[-0.4265,51.617],[-0.417,51.6165],[-0.4112,51.6138],[-0.4041,51.6132],[-0.4033,51.6091],[-0.4018,51.6066],[-0.4025,51.6052],[-0.4024,51.602],[-0.4,51.5982],[-0.4003,51.5974],[-0.3976,51.597],[-0.3966,51.5953],[-0.3955,51.5902],[-0.3945,51.5904],[-0.392,51.5883],[-0.391,51.5831],[-0.3916,51.5816],[-0.3886,51.5778],[-0.3875,51.5753],[-0.3881,51.575],[-0.3857,51.5721],[-0.3865,51.5716],[-0.3833,51.5672],[-0.3824,51.5629],[-0.3804,51.5608],[-0.3803,51.5591],[-0.3778,51.5547],[-0.3853,51.5512],[-0.395,51.5488],[-0.3949,51.5477],[-0.3987,51.548],[-0.3979,51.5457],[-0.3963,51.5457],[-0.3953,51.5426],[-0.4049,51.5425],[-0.4164,51.5402],[-0.4193,51.5404],[-0.4182,51.5391],[-0.4197,51.5386],[-0.4175,51.5379],[-0.4175,51.5367],[-0.4154,51.5367],[-0.4119,51.5341],[-0.3933,51.5316],[-0.3896,51.5309],[-0.3872,51.5296],[-0.3859,51.5304],[-0.3762,51.5288],[-0.3759,51.5254],[-0.3826,51.5179],[-0.39,51.514],[-0.3936,51.507],[-0.4032,51.5034],[-0.407,51.4996],[-0.4093,51.5003],[-0.4107,51.4982]]]]}},{"type":"Feature","id":"borough-london-17","properties":{"name":"Hounslow","province":"Greater London","department":"England","type":"Borough","country":"Reino Unido","iso":"GB"},"geometry":{"type":"MultiPolygon","coordinates":[[[[-0.2472,51.4868],[-0.2445,51.4883],[-0.2472,51.4868],[-0.2472,51.4868]]],[[[-0.2976,51.4852],[-0.2989,51.4843],[-0.2976,51.4852],[-0.2976,51.4852]]],[[[-0.2818,51.4854],[-0.2804,51.4848],[-0.2818,51.4854],[-0.2818,51.4854]]],[[[-0.3211,51.4698],[-0.3195,51.4705],[-0.321,51.4659],[-0.3211,51.4698]]],[[[-0.3955,51.4234],[-0.4059,51.4227],[-0.4085,51.4238],[-0.4109,51.4273],[-0.4131,51.4279],[-0.4125,51.4288],[-0.4144,51.4293],[-0.4138,51.4301],[-0.4179,51.431],[-0.4173,51.4319],[-0.4191,51.4324],[-0.4235,51.4309],[-0.4275,51.4308],[-0.4279,51.4293],[-0.4294,51.4294],[-0.4296,51.4288],[-0.44,51.4306],[-0.4398,51.4346],[-0.4477,51.435],[-0.4463,51.44],[-0.4565,51.4381],[-0.4554,51.4421],[-0.4575,51.443],[-0.4575,51.4491],[-0.4615,51.449],[-0.4613,51.4524],[-0.4593,51.4527],[-0.4587,51.4563],[-0.4502,51.454],[-0.444,51.4533],[-0.4415,51.4568],[-0.4351,51.4569],[-0.4365,51.4581],[-0.4336,51.4617],[-0.4217,51.4667],[-0.4112,51.4699],[-0.4158,51.474],[-0.415,51.4767],[-0.4167,51.4804],[-0.4169,51.4825],[-0.4126,51.4886],[-0.4106,51.4962],[-0.4109,51.4977],[-0.4093,51.5003],[-0.3871,51.4947],[-0.3833,51.4949],[-0.3777,51.4966],[-0.3779,51.4954],[-0.3759,51.4954],[-0.3738,51.4919],[-0.3718,51.4905],[-0.3653,51.4934],[-0.363,51.4959],[-0.3582,51.4978],[-0.3507,51.4991],[-0.3421,51.496],[-0.3347,51.4962],[-0.33,51.4951],[-0.3274,51.496],[-0.3262,51.495],[-0.3248,51.496],[-0.3192,51.4943],[-0.3159,51.4959],[-0.3145,51.4944],[-0.3151,51.494],[-0.312,51.492],[-0.3055,51.4946],[-0.3059,51.4962],[-0.3014,51.4952],[-0.3011,51.4944],[-0.2976,51.4949],[-0.3007,51.499],[-0.2986,51.5001],[-0.2939,51.5016],[-0.2855,51.5008],[-0.2807,51.5028],[-0.2767,51.4985],[-0.2733,51.4968],[-0.2713,51.4947],[-0.269,51.494],[-0.2554,51.4949],[-0.2556,51.4963],[-0.2528,51.4999],[-0.2531,51.5014],[-0.2493,51.4969],[-0.2454,51.4984],[-0.2445,51.4979],[-0.2456,51.4902],[-0.2446,51.4887],[-0.2497,51.4857],[-0.2515,51.4819],[-0.2513,51.4782],[-0.2523,51.4758],[-0.2543,51.4731],[-0.2567,51.472],[-0.2617,51.4713],[-0.2665,51.4722],[-0.2717,51.4755],[-0.2769,51.4833],[-0.2803,51.4856],[-0.2872,51.4878],[-0.2928,51.4875],[-0.299,51.4853],[-0.3005,51.484],[-0.2998,51.4833],[-0.3005,51.4838],[-0.3012,51.4835],[-0.3002,51.4832],[-0.3043,51.4824],[-0.3001,51.4827],[-0.3045,51.4798],[-0.3071,51.4762],[-0.3221,51.4706],[-0.3217,51.4654],[-0.3238,51.4652],[-0.3267,51.4617],[-0.3267,51.46],[-0.3256,51.4581],[-0.3269,51.457],[-0.3284,51.458],[-0.3304,51.4579],[-0.333,51.4554],[-0.3363,51.4556],[-0.337,51.4546],[-0.3406,51.4573],[-0.3398,51.4593],[-0.3487,51.4567],[-0.3526,51.4568],[-0.3536,51.4582],[-0.3564,51.4584],[-0.3685,51.4569],[-0.3731,51.4574],[-0.3838,51.4495],[-0.3878,51.4494],[-0.3863,51.4482],[-0.3863,51.4467],[-0.3798,51.4444],[-0.3796,51.4432],[-0.3782,51.4425],[-0.3729,51.4436],[-0.3669,51.4416],[-0.3779,51.4368],[-0.3761,51.4355],[-0.3829,51.4323],[-0.3879,51.4287],[-0.3871,51.4282],[-0.3884,51.428],[-0.3841,51.4227],[-0.3854,51.4207],[-0.3911,51.4232],[-0.3929,51.4233],[-0.3914,51.4223],[-0.3955,51.4234]]]]}},{"type":"Feature","id":"borough-london-18","properties":{"name":"Islington","province":"Greater London","department":"England","type":"Borough","country":"Reino Unido","iso":"GB"},"geometry":{"type":"MultiPolygon","coordinates":[[[[-0.0925,51.5214],[-0.0943,51.5214],[-0.0951,51.5231],[-0.0968,51.5233],[-0.0979,51.5228],[-0.0976,51.5207],[-0.1053,51.5185],[-0.107,51.5222],[-0.1136,51.5245],[-0.1142,51.5255],[-0.1129,51.5264],[-0.1154,51.5277],[-0.1161,51.5299],[-0.1199,51.5309],[-0.1226,51.5307],[-0.1225,51.5374],[-0.1257,51.5421],[-0.1271,51.5475],[-0.1302,51.5496],[-0.131,51.5515],[-0.1373,51.5555],[-0.1409,51.5602],[-0.1407,51.5646],[-0.1424,51.5691],[-0.1314,51.5736],[-0.1247,51.5741],[-0.1196,51.5755],[-0.119,51.5747],[-0.1195,51.5744],[-0.1176,51.5742],[-0.1157,51.5725],[-0.1161,51.5722],[-0.1151,51.5706],[-0.1103,51.5684],[-0.0986,51.5608],[-0.096,51.5612],[-0.0917,51.5602],[-0.0904,51.5578],[-0.0904,51.5541],[-0.0855,51.5522],[-0.079,51.5513],[-0.0767,51.5481],[-0.0764,51.5464],[-0.0838,51.5466],[-0.0837,51.5451],[-0.0866,51.5373],[-0.097,51.533],[-0.0951,51.5301],[-0.0954,51.5292],[-0.0888,51.5274],[-0.0874,51.526],[-0.085,51.5262],[-0.0854,51.5245],[-0.0842,51.5239],[-0.0844,51.5225],[-0.0862,51.5187],[-0.0925,51.5214]]]]}},{"type":"Feature","id":"borough-london-19","properties":{"name":"Kensington and Chelsea","province":"Greater London","department":"England","type":"Borough","country":"Reino Unido","iso":"GB"},"geometry":{"type":"MultiPolygon","coordinates":[[[[-0.1784,51.4793],[-0.1793,51.478],[-0.1839,51.4774],[-0.1945,51.4865],[-0.1983,51.4881],[-0.2047,51.4947],[-0.208,51.496],[-0.2142,51.5007],[-0.2179,51.5061],[-0.2159,51.5064],[-0.2162,51.5075],[-0.2152,51.5076],[-0.2158,51.5091],[-0.2172,51.5104],[-0.2193,51.5096],[-0.2227,51.5156],[-0.2283,51.5211],[-0.2267,51.522],[-0.2266,51.5248],[-0.2272,51.5248],[-0.2285,51.5304],[-0.218,51.5286],[-0.2158,51.5278],[-0.2155,51.5267],[-0.206,51.5259],[-0.204,51.5236],[-0.2016,51.5227],[-0.2006,51.5206],[-0.2037,51.5206],[-0.2015,51.5178],[-0.2007,51.518],[-0.1992,51.5146],[-0.1951,51.515],[-0.1941,51.5118],[-0.193,51.5118],[-0.1921,51.5099],[-0.1879,51.5102],[-0.1843,51.5018],[-0.1803,51.5015],[-0.1796,51.4978],[-0.1684,51.499],[-0.1676,51.4983],[-0.1658,51.4992],[-0.1655,51.4987],[-0.1609,51.5016],[-0.1585,51.5022],[-0.1579,51.499],[-0.1561,51.4978],[-0.1553,51.4951],[-0.156,51.4945],[-0.155,51.4939],[-0.156,51.4932],[-0.1548,51.492],[-0.1558,51.4915],[-0.1552,51.49],[-0.1559,51.4896],[-0.15,51.4855],[-0.1755,51.4817],[-0.1784,51.4793]]]]}},{"type":"Feature","id":"borough-london-20","properties":{"name":"Kingston upon Thames","province":"Greater London","department":"England","type":"Borough","country":"Reino Unido","iso":"GB"},"geometry":{"type":"MultiPolygon","coordinates":[[[[-0.3275,51.344],[-0.3282,51.344],[-0.3305,51.3484],[-0.328,51.3521],[-0.3238,51.3544],[-0.3198,51.3599],[-0.3183,51.3635],[-0.3185,51.3662],[-0.3173,51.3724],[-0.3143,51.3746],[-0.3087,51.3754],[-0.3074,51.3784],[-0.3085,51.3805],[-0.3093,51.3804],[-0.3106,51.3847],[-0.3118,51.3858],[-0.3109,51.3862],[-0.3117,51.3874],[-0.3132,51.3888],[-0.316,51.3876],[-0.3168,51.3886],[-0.3141,51.3902],[-0.3177,51.3937],[-0.3091,51.401],[-0.3085,51.4146],[-0.306,51.4212],[-0.3086,51.4252],[-0.3145,51.4283],[-0.3138,51.4292],[-0.3107,51.4322],[-0.3068,51.4302],[-0.3058,51.4314],[-0.3017,51.4304],[-0.3016,51.4314],[-0.2955,51.4276],[-0.2949,51.4264],[-0.2934,51.4265],[-0.293,51.429],[-0.2907,51.429],[-0.2866,51.4202],[-0.2805,51.4219],[-0.27,51.4301],[-0.254,51.4372],[-0.251,51.4334],[-0.2511,51.4326],[-0.2542,51.4297],[-0.2523,51.4259],[-0.253,51.4234],[-0.251,51.4219],[-0.2496,51.4184],[-0.2495,51.4149],[-0.2472,51.4097],[-0.2475,51.4086],[-0.2455,51.4074],[-0.2447,51.4044],[-0.2452,51.4019],[-0.2469,51.4005],[-0.2467,51.3987],[-0.2475,51.3976],[-0.2447,51.3947],[-0.2414,51.3934],[-0.2389,51.386],[-0.243,51.3829],[-0.2442,51.3835],[-0.2451,51.38],[-0.2479,51.3802],[-0.254,51.3788],[-0.2612,51.3796],[-0.2625,51.3773],[-0.2647,51.3756],[-0.2722,51.3725],[-0.2766,51.3688],[-0.2798,51.3678],[-0.2855,51.3643],[-0.2883,51.3621],[-0.2851,51.3612],[-0.2911,51.3566],[-0.2929,51.3524],[-0.2992,51.3484],[-0.304,51.343],[-0.3054,51.3395],[-0.3049,51.3375],[-0.3057,51.3354],[-0.319,51.328],[-0.3276,51.3263],[-0.3304,51.3279],[-0.3307,51.329],[-0.3291,51.3303],[-0.3297,51.3328],[-0.3289,51.3408],[-0.3275,51.344]],[[-0.2787,51.4191],[-0.2781,51.4185],[-0.2787,51.4191],[-0.2787,51.4191]],[[-0.2758,51.4188],[-0.2758,51.4189],[-0.2758,51.4189],[-0.2758,51.4188]]]]}},{"type":"Feature","id":"borough-london-21","properties":{"name":"Lambeth","province":"Greater London","department":"England","type":"Borough","country":"Reino Unido","iso":"GB"},"geometry":{"type":"MultiPolygon","coordinates":[[[[-0.0835,51.4242],[-0.0834,51.423],[-0.0817,51.4233],[-0.0808,51.4218],[-0.0789,51.4216],[-0.0793,51.4209],[-0.0783,51.4206],[-0.0791,51.4198],[-0.0864,51.4193],[-0.0939,51.4228],[-0.1127,51.4232],[-0.1157,51.4206],[-0.1198,51.4189],[-0.1226,51.415],[-0.1242,51.4146],[-0.1245,51.4133],[-0.1279,51.412],[-0.1335,51.4129],[-0.1341,51.411],[-0.1426,51.4133],[-0.1447,51.4123],[-0.1481,51.4129],[-0.1379,51.4211],[-0.1389,51.4247],[-0.1384,51.4305],[-0.1354,51.4304],[-0.1366,51.4339],[-0.1383,51.434],[-0.1401,51.4368],[-0.1378,51.4384],[-0.136,51.4419],[-0.1436,51.4418],[-0.1457,51.4458],[-0.1449,51.4484],[-0.1423,51.451],[-0.1477,51.4523],[-0.1483,51.4573],[-0.1512,51.4659],[-0.1505,51.466],[-0.1506,51.4676],[-0.1431,51.4705],[-0.1427,51.4701],[-0.1369,51.4731],[-0.1358,51.4727],[-0.1347,51.4734],[-0.135,51.4747],[-0.1299,51.4811],[-0.1275,51.4819],[-0.1263,51.4845],[-0.1284,51.4851],[-0.1242,51.4878],[-0.1218,51.493],[-0.1192,51.5043],[-0.1161,51.5073],[-0.1089,51.5084],[-0.1065,51.505],[-0.1064,51.5034],[-0.1075,51.503],[-0.1059,51.502],[-0.1084,51.5003],[-0.1103,51.4968],[-0.1114,51.4964],[-0.1108,51.4954],[-0.1049,51.4935],[-0.1031,51.4915],[-0.1085,51.4858],[-0.1063,51.4849],[-0.1072,51.4836],[-0.1057,51.483],[-0.1061,51.4827],[-0.104,51.4809],[-0.1084,51.4803],[-0.1,51.4769],[-0.1006,51.4743],[-0.0989,51.4719],[-0.096,51.4699],[-0.0931,51.4721],[-0.0927,51.4698],[-0.0901,51.4662],[-0.0907,51.4633],[-0.0922,51.4611],[-0.0958,51.4574],[-0.1009,51.4542],[-0.1015,51.4522],[-0.1008,51.4503],[-0.0998,51.4502],[-0.0951,51.4455],[-0.0906,51.4366],[-0.0885,51.4297],[-0.0859,51.4285],[-0.0835,51.4242]],[[-0.1237,51.429],[-0.1237,51.4291],[-0.1238,51.4291],[-0.1237,51.429]],[[-0.1195,51.4291],[-0.1195,51.429],[-0.1196,51.4289],[-0.1195,51.4291]],[[-0.1326,51.4166],[-0.1327,51.4167],[-0.1327,51.4167],[-0.1326,51.4166]]]]}},{"type":"Feature","id":"borough-london-22","properties":{"name":"Lewisham","province":"Greater London","department":"England","type":"Borough","country":"Reino Unido","iso":"GB"},"geometry":{"type":"MultiPolygon","coordinates":[[[[0.0338,51.424],[0.0251,51.429],[0.0211,51.4268],[0.0141,51.4262],[0.0144,51.4252],[0.01,51.4225],[0.0081,51.423],[0.0052,51.4193],[0.0057,51.4185],[0.0035,51.4174],[0.0017,51.4186],[-0.0002,51.4175],[-0.0009,51.4159],[-0.0037,51.4157],[-0.0034,51.4151],[-0.005,51.4146],[-0.0066,51.416],[-0.0066,51.4147],[-0.0128,51.4136],[-0.0146,51.4139],[-0.0143,51.4151],[-0.018,51.4151],[-0.0178,51.4157],[-0.0222,51.4167],[-0.0217,51.4173],[-0.0226,51.4175],[-0.0214,51.4184],[-0.0208,51.4199],[-0.0216,51.4205],[-0.021,51.4209],[-0.0304,51.4257],[-0.0321,51.4255],[-0.0319,51.4247],[-0.0375,51.425],[-0.0385,51.4239],[-0.0409,51.4243],[-0.046,51.4224],[-0.0518,51.4225],[-0.0519,51.4236],[-0.057,51.423],[-0.0623,51.4251],[-0.0739,51.4262],[-0.0751,51.4288],[-0.0727,51.4322],[-0.0667,51.4339],[-0.0635,51.4375],[-0.0641,51.4408],[-0.065,51.4412],[-0.0618,51.4478],[-0.0576,51.4503],[-0.0538,51.4487],[-0.0491,51.4501],[-0.0462,51.4499],[-0.0416,51.455],[-0.0462,51.4569],[-0.0452,51.4594],[-0.0455,51.4627],[-0.0483,51.4659],[-0.051,51.4666],[-0.0523,51.4692],[-0.0517,51.4698],[-0.0528,51.4729],[-0.0527,51.478],[-0.0543,51.4786],[-0.0529,51.4827],[-0.0535,51.4858],[-0.0529,51.4867],[-0.054,51.488],[-0.0504,51.4879],[-0.05,51.4883],[-0.052,51.4891],[-0.0466,51.4907],[-0.0422,51.49],[-0.0403,51.4911],[-0.0411,51.4918],[-0.04,51.4929],[-0.0373,51.4922],[-0.0324,51.493],[-0.0289,51.4882],[-0.0249,51.4857],[-0.0264,51.4815],[-0.0232,51.4807],[-0.0231,51.4796],[-0.0184,51.4808],[-0.0171,51.4804],[-0.0191,51.4798],[-0.0198,51.478],[-0.0194,51.4772],[-0.0228,51.4759],[-0.0208,51.4758],[-0.0228,51.4754],[-0.0228,51.4743],[-0.0201,51.4731],[-0.0202,51.4722],[-0.0193,51.472],[-0.0187,51.4706],[-0.0191,51.4699],[-0.0151,51.468],[-0.0131,51.4689],[-0.0151,51.4717],[-0.0141,51.4726],[-0.0,51.4718],[0.0183,51.4739],[0.0149,51.4731],[0.0163,51.469],[0.0126,51.4698],[0.0133,51.4668],[0.0091,51.4659],[0.0101,51.4591],[0.0115,51.4566],[0.0175,51.455],[0.0183,51.4516],[0.0196,51.4517],[0.0198,51.4507],[0.0149,51.4506],[0.0151,51.45],[0.0219,51.449],[0.0229,51.4472],[0.0212,51.4467],[0.0215,51.4444],[0.0206,51.4442],[0.0216,51.4427],[0.0289,51.4416],[0.0287,51.4387],[0.0247,51.4382],[0.0254,51.4357],[0.0286,51.4364],[0.0286,51.4341],[0.0314,51.4326],[0.0312,51.4321],[0.0316,51.4326],[0.0338,51.4317],[0.0377,51.4334],[0.0378,51.4278],[0.039,51.4261],[0.0389,51.4247],[0.0362,51.4224],[0.0338,51.424]]]]}},{"type":"Feature","id":"borough-london-23","properties":{"name":"Merton","province":"Greater London","department":"England","type":"Borough","country":"Reino Unido","iso":"GB"},"geometry":{"type":"MultiPolygon","coordinates":[[[[-0.1254,51.3983],[-0.1242,51.3976],[-0.1298,51.3937],[-0.129,51.3934],[-0.1344,51.3909],[-0.1419,51.3893],[-0.1444,51.3907],[-0.1579,51.3893],[-0.161,51.3878],[-0.1653,51.388],[-0.1665,51.3897],[-0.1713,51.3925],[-0.1749,51.3934],[-0.1799,51.3895],[-0.1885,51.3855],[-0.194,51.3879],[-0.2005,51.3849],[-0.2035,51.3872],[-0.205,51.3861],[-0.2098,51.3883],[-0.2184,51.3802],[-0.2277,51.384],[-0.2339,51.3877],[-0.2347,51.3905],[-0.2397,51.3893],[-0.2418,51.3939],[-0.2447,51.3947],[-0.2475,51.3976],[-0.2467,51.3987],[-0.2469,51.4005],[-0.2452,51.4019],[-0.2447,51.4044],[-0.2455,51.4074],[-0.2475,51.4086],[-0.2472,51.4097],[-0.2495,51.4149],[-0.2496,51.4185],[-0.2512,51.4225],[-0.253,51.4233],[-0.2523,51.4259],[-0.2542,51.4297],[-0.2511,51.4326],[-0.2313,51.4381],[-0.2243,51.4389],[-0.2122,51.4379],[-0.1901,51.4414],[-0.1898,51.44],[-0.1907,51.439],[-0.1893,51.4382],[-0.1911,51.433],[-0.1898,51.4313],[-0.1858,51.4331],[-0.1842,51.4312],[-0.1844,51.4267],[-0.182,51.4247],[-0.1736,51.4232],[-0.1651,51.4201],[-0.1617,51.4198],[-0.16,51.4227],[-0.1513,51.4199],[-0.1498,51.42],[-0.1446,51.4177],[-0.1404,51.4192],[-0.145,51.4159],[-0.1441,51.4155],[-0.1481,51.4129],[-0.1468,51.4125],[-0.1447,51.4123],[-0.1426,51.4133],[-0.1341,51.411],[-0.1335,51.4129],[-0.1276,51.4123],[-0.1295,51.4096],[-0.1321,51.4092],[-0.1323,51.4069],[-0.1313,51.4041],[-0.1278,51.4015],[-0.1254,51.3983]]]]}},{"type":"Feature","id":"borough-london-24","properties":{"name":"Newham","province":"Greater London","department":"England","type":"Borough","country":"Reino Unido","iso":"GB"},"geometry":{"type":"MultiPolygon","coordinates":[[[[0.0753,51.5299],[0.0753,51.5299],[0.0751,51.5299],[0.0753,51.5299],[0.0753,51.5299]]],[[[0.0746,51.5298],[0.0745,51.5298],[0.0744,51.5297],[0.0745,51.5298],[0.0746,51.5298]]],[[[0.0732,51.5294],[0.0733,51.5294],[0.0735,51.5295],[0.0733,51.5294],[0.0732,51.5294]]],[[[-0.0079,51.5231],[-0.0074,51.526],[-0.0086,51.5276],[-0.0108,51.5294],[-0.0175,51.5315],[-0.0181,51.5334],[-0.0212,51.5369],[-0.0161,51.5425],[-0.0191,51.5516],[-0.0106,51.5526],[-0.0095,51.5522],[-0.0087,51.5499],[0.0052,51.5522],[0.0058,51.5506],[0.0095,51.5512],[0.0108,51.5523],[0.0096,51.5534],[0.0111,51.5544],[0.0116,51.5539],[0.0146,51.555],[0.0169,51.5532],[0.0215,51.5549],[0.0203,51.5563],[0.0225,51.5562],[0.0231,51.5569],[0.0238,51.5555],[0.0253,51.5555],[0.0253,51.5541],[0.0353,51.5553],[0.0461,51.5548],[0.0428,51.5583],[0.0419,51.5615],[0.0503,51.564],[0.0515,51.5622],[0.0541,51.5609],[0.0545,51.5596],[0.0602,51.5564],[0.0636,51.5573],[0.0666,51.5547],[0.0669,51.553],[0.0678,51.5531],[0.0687,51.5463],[0.0667,51.5404],[0.0691,51.5373],[0.0679,51.5362],[0.0696,51.5362],[0.072,51.5328],[0.0728,51.5293],[0.0776,51.5292],[0.0852,51.5256],[0.0888,51.5263],[0.092,51.5256],[0.0921,51.524],[0.0908,51.524],[0.0944,51.5203],[0.094,51.5183],[0.0948,51.5163],[0.0968,51.5151],[0.0903,51.5147],[0.0838,51.5118],[0.0781,51.5052],[0.0771,51.505],[0.0778,51.5046],[0.0763,51.5038],[0.0767,51.5035],[0.074,51.5021],[0.0747,51.5016],[0.0739,51.5006],[0.07,51.4993],[0.0589,51.4984],[0.0391,51.4999],[0.0244,51.4983],[0.0178,51.5006],[0.0138,51.5037],[0.0134,51.5049],[0.0097,51.5067],[0.0105,51.5086],[0.0065,51.5101],[0.0082,51.5126],[0.0073,51.5143],[0.0052,51.5142],[0.0042,51.5132],[0.0037,51.511],[0.0027,51.5109],[0.0045,51.5146],[0.004,51.5153],[-0.0026,51.5186],[-0.0052,51.5169],[-0.0064,51.5188],[-0.0086,51.5201],[-0.0064,51.5259],[0.0007,51.5283],[0.0018,51.5303],[0.0012,51.531],[-0.0023,51.5272],[-0.006,51.5262],[-0.008,51.5272],[-0.0069,51.526],[-0.0079,51.5231]],[[0.0646,51.5232],[0.0648,51.5232],[0.0648,51.5232],[0.0646,51.5232]]]]}},{"type":"Feature","id":"borough-london-25","properties":{"name":"Redbridge","province":"Greater London","department":"England","type":"Borough","country":"Reino Unido","iso":"GB"},"geometry":{"type":"MultiPolygon","coordinates":[[[[0.0419,51.5615],[0.0428,51.5583],[0.0461,51.5548],[0.0353,51.5553],[0.0253,51.5541],[0.0253,51.5555],[0.0238,51.5555],[0.0234,51.5568],[0.0203,51.5563],[0.0171,51.5588],[0.0148,51.5594],[0.0145,51.5603],[0.0144,51.5656],[0.0187,51.5661],[0.019,51.567],[0.0177,51.57],[0.0191,51.5699],[0.0189,51.5723],[0.018,51.572],[0.0163,51.5729],[0.0174,51.5744],[0.0174,51.5775],[0.0152,51.5817],[0.0155,51.5834],[0.0134,51.5838],[0.012,51.5933],[0.0129,51.5992],[0.0194,51.6076],[0.0214,51.612],[0.0163,51.6169],[0.0088,51.6191],[0.0145,51.6189],[0.0143,51.6203],[0.0188,51.6232],[0.0211,51.629],[0.0291,51.6251],[0.0305,51.6233],[0.0409,51.6157],[0.0437,51.6169],[0.0537,51.6183],[0.0542,51.6167],[0.0502,51.6164],[0.0485,51.615],[0.0482,51.6132],[0.0489,51.6136],[0.0526,51.612],[0.063,51.6069],[0.064,51.6072],[0.0728,51.6047],[0.0791,51.607],[0.0844,51.6064],[0.0871,51.6045],[0.0889,51.6049],[0.0926,51.6062],[0.0918,51.6082],[0.0948,51.6108],[0.0923,51.6136],[0.098,51.6154],[0.1001,51.6127],[0.1034,51.6135],[0.1038,51.6125],[0.1096,51.614],[0.1167,51.6169],[0.1193,51.6154],[0.1243,51.6176],[0.1261,51.6196],[0.1292,51.6214],[0.1361,51.6236],[0.1382,51.6235],[0.1474,51.6125],[0.1486,51.6087],[0.1485,51.6043],[0.1495,51.6029],[0.1481,51.599],[0.1466,51.5995],[0.1295,51.5901],[0.131,51.5875],[0.1264,51.5867],[0.128,51.5833],[0.1276,51.5816],[0.1326,51.5813],[0.1335,51.58],[0.1308,51.5794],[0.1317,51.5771],[0.1292,51.5763],[0.1294,51.5739],[0.1299,51.5731],[0.1309,51.5734],[0.1316,51.5718],[0.1298,51.5716],[0.1305,51.5703],[0.1293,51.5664],[0.1249,51.5642],[0.119,51.5631],[0.1197,51.5625],[0.1175,51.5592],[0.1205,51.5585],[0.1172,51.5569],[0.1133,51.5573],[0.1127,51.5565],[0.1147,51.5553],[0.1119,51.5526],[0.1084,51.5527],[0.1049,51.5501],[0.0935,51.5458],[0.0925,51.5496],[0.0915,51.5483],[0.086,51.5474],[0.0779,51.5441],[0.0769,51.5446],[0.0718,51.5436],[0.0697,51.5441],[0.0689,51.549],[0.0694,51.5504],[0.0662,51.5567],[0.0692,51.5503],[0.0691,51.5442],[0.0683,51.5444],[0.0687,51.5475],[0.0678,51.5531],[0.0669,51.553],[0.0666,51.5547],[0.0636,51.5573],[0.06,51.5565],[0.0545,51.5596],[0.0541,51.5609],[0.0515,51.5622],[0.0503,51.564],[0.0419,51.5615]],[[0.0814,51.5689],[0.0815,51.5688],[0.0815,51.5688],[0.0814,51.5689]],[[0.0812,51.5645],[0.0813,51.5645],[0.0815,51.5642],[0.0812,51.5645]],[[0.0611,51.593],[0.0617,51.5933],[0.0611,51.593],[0.0611,51.593]],[[0.0625,51.5933],[0.0625,51.5933],[0.0626,51.5932],[0.0625,51.5933]],[[0.0631,51.5932],[0.0633,51.5932],[0.0633,51.5932],[0.0631,51.5932]],[[0.0539,51.5935],[0.0537,51.5933],[0.0538,51.5934],[0.0539,51.5935]],[[0.0395,51.6061],[0.0396,51.6062],[0.0397,51.6063],[0.0395,51.6061]]]]}},{"type":"Feature","id":"borough-london-26","properties":{"name":"Richmond upon Thames","province":"Greater London","department":"England","type":"Borough","country":"Reino Unido","iso":"GB"},"geometry":{"type":"MultiPolygon","coordinates":[[[[-0.3241,51.4459],[-0.321,51.446],[-0.3281,51.444],[-0.326,51.4456],[-0.3241,51.4459]]],[[[-0.2942,51.4861],[-0.2899,51.4872],[-0.2942,51.4861],[-0.2942,51.4861]]],[[[-0.2975,51.4846],[-0.2948,51.486],[-0.2975,51.4846],[-0.2975,51.4846]]],[[[-0.3466,51.4056],[-0.3551,51.4098],[-0.3554,51.4108],[-0.3598,51.412],[-0.3648,51.4116],[-0.3732,51.4086],[-0.3781,51.4079],[-0.3834,51.4085],[-0.3838,51.4101],[-0.3897,51.4107],[-0.3903,51.4143],[-0.3861,51.4143],[-0.3877,51.4193],[-0.3867,51.4201],[-0.3929,51.4233],[-0.3854,51.4207],[-0.3841,51.4227],[-0.3884,51.428],[-0.3871,51.4282],[-0.3879,51.4287],[-0.3829,51.4323],[-0.3761,51.4355],[-0.3779,51.4368],[-0.3669,51.4416],[-0.3729,51.4436],[-0.3782,51.4425],[-0.3796,51.4432],[-0.3798,51.4444],[-0.3863,51.4467],[-0.3863,51.4482],[-0.3878,51.4494],[-0.3838,51.4495],[-0.3731,51.4574],[-0.3685,51.4569],[-0.3564,51.4584],[-0.3536,51.4582],[-0.3526,51.4568],[-0.3487,51.4567],[-0.3398,51.4593],[-0.3406,51.4573],[-0.3374,51.4547],[-0.3363,51.4556],[-0.3333,51.4553],[-0.3304,51.4579],[-0.3284,51.458],[-0.3273,51.457],[-0.3256,51.458],[-0.3267,51.4617],[-0.3238,51.4651],[-0.3217,51.4654],[-0.3176,51.4618],[-0.3074,51.4571],[-0.308,51.4567],[-0.3066,51.4567],[-0.3038,51.453],[-0.3058,51.4504],[-0.3116,51.4478],[-0.317,51.4465],[-0.3251,51.4465],[-0.3271,51.4456],[-0.3316,51.4413],[-0.3312,51.4398],[-0.3319,51.4391],[-0.3291,51.4368],[-0.3285,51.4339],[-0.326,51.4311],[-0.3186,51.4291],[-0.3193,51.43],[-0.3242,51.4313],[-0.327,51.4334],[-0.3291,51.4381],[-0.3285,51.438],[-0.3302,51.4401],[-0.3298,51.442],[-0.3274,51.4436],[-0.3217,51.4454],[-0.3142,51.4462],[-0.3059,51.4485],[-0.3026,51.4523],[-0.3045,51.4559],[-0.308,51.4589],[-0.3136,51.4606],[-0.3196,51.4645],[-0.3193,51.4684],[-0.3178,51.471],[-0.3073,51.4747],[-0.2975,51.4834],[-0.2942,51.4853],[-0.2902,51.4863],[-0.2854,51.4862],[-0.2806,51.4839],[-0.2773,51.4814],[-0.2724,51.4739],[-0.2678,51.4712],[-0.2641,51.4702],[-0.2569,51.4708],[-0.2516,51.4735],[-0.2497,51.4761],[-0.2489,51.4833],[-0.2413,51.4882],[-0.2381,51.489],[-0.2335,51.4887],[-0.2307,51.4875],[-0.228,51.4851],[-0.2269,51.4811],[-0.2266,51.4762],[-0.2229,51.4719],[-0.2237,51.4716],[-0.2234,51.4708],[-0.2321,51.4728],[-0.233,51.472],[-0.2332,51.464],[-0.243,51.4652],[-0.2529,51.4652],[-0.256,51.463],[-0.258,51.4603],[-0.2568,51.4599],[-0.2591,51.4549],[-0.2473,51.4492],[-0.2416,51.4431],[-0.2427,51.4419],[-0.2662,51.4321],[-0.2709,51.4295],[-0.2805,51.4219],[-0.2866,51.4202],[-0.2907,51.429],[-0.293,51.429],[-0.2934,51.4265],[-0.2949,51.4264],[-0.2955,51.4276],[-0.3016,51.4314],[-0.3017,51.4304],[-0.3058,51.4314],[-0.3068,51.4302],[-0.3107,51.4322],[-0.3145,51.4283],[-0.3093,51.4257],[-0.306,51.4215],[-0.3085,51.4146],[-0.3089,51.4017],[-0.3125,51.3975],[-0.3199,51.3926],[-0.3249,51.3915],[-0.3278,51.3918],[-0.3401,51.4027],[-0.3466,51.4056]],[[-0.3466,51.445],[-0.3465,51.4451],[-0.3465,51.445],[-0.3466,51.445]],[[-0.3465,51.4452],[-0.3465,51.4452],[-0.3465,51.4452],[-0.3465,51.4452]]]]}},{"type":"Feature","id":"borough-london-27","properties":{"name":"Southwark","province":"Greater London","department":"England","type":"Borough","country":"Reino Unido","iso":"GB"},"geometry":{"type":"MultiPolygon","coordinates":[[[[-0.0803,51.422],[-0.0817,51.4233],[-0.0834,51.423],[-0.0838,51.4252],[-0.0861,51.4278],[-0.0859,51.4285],[-0.0883,51.4295],[-0.0907,51.4367],[-0.0951,51.4455],[-0.0998,51.4502],[-0.1008,51.4503],[-0.1014,51.452],[-0.1009,51.4542],[-0.0958,51.4574],[-0.0922,51.4611],[-0.0907,51.4633],[-0.0901,51.4661],[-0.0927,51.4698],[-0.0931,51.4721],[-0.096,51.4699],[-0.0989,51.4719],[-0.1006,51.4743],[-0.1,51.4769],[-0.1084,51.4803],[-0.104,51.4809],[-0.1061,51.4827],[-0.1057,51.483],[-0.1072,51.4836],[-0.1063,51.4849],[-0.1085,51.4858],[-0.1031,51.4915],[-0.1049,51.4935],[-0.1108,51.4954],[-0.1114,51.4964],[-0.1103,51.4968],[-0.1084,51.5003],[-0.1059,51.502],[-0.1075,51.503],[-0.1064,51.5034],[-0.1065,51.505],[-0.1089,51.5084],[-0.0955,51.5083],[-0.0904,51.5066],[-0.0811,51.5059],[-0.0716,51.5031],[-0.0709,51.5025],[-0.0735,51.5005],[-0.0708,51.5022],[-0.0638,51.5006],[-0.0563,51.501],[-0.0508,51.5029],[-0.0486,51.5045],[-0.0478,51.5041],[-0.0475,51.5051],[-0.0462,51.5051],[-0.0452,51.5064],[-0.043,51.5072],[-0.0384,51.5074],[-0.0344,51.5064],[-0.0324,51.5043],[-0.0326,51.4956],[-0.0333,51.4942],[-0.0324,51.493],[-0.0373,51.4922],[-0.04,51.4929],[-0.0411,51.4918],[-0.0403,51.4911],[-0.0422,51.49],[-0.0466,51.4907],[-0.052,51.4891],[-0.05,51.4883],[-0.0504,51.4879],[-0.054,51.488],[-0.0529,51.4867],[-0.0535,51.4858],[-0.0529,51.4827],[-0.0543,51.4786],[-0.0527,51.478],[-0.0528,51.4729],[-0.0517,51.4698],[-0.0523,51.4692],[-0.051,51.4666],[-0.0483,51.4659],[-0.0455,51.4627],[-0.0452,51.4594],[-0.0462,51.4569],[-0.0416,51.455],[-0.0462,51.4499],[-0.0491,51.4501],[-0.0538,51.4487],[-0.0576,51.4503],[-0.0618,51.4478],[-0.065,51.4412],[-0.0641,51.4408],[-0.0635,51.4375],[-0.0667,51.4339],[-0.0728,51.4322],[-0.075,51.4292],[-0.0739,51.4262],[-0.075,51.4257],[-0.0783,51.4206],[-0.0803,51.422]],[[-0.0543,51.4906],[-0.0543,51.4906],[-0.0543,51.4906],[-0.0543,51.4906]],[[-0.0758,51.4909],[-0.0755,51.4911],[-0.0757,51.491],[-0.0758,51.4909]],[[-0.0753,51.491],[-0.0753,51.491],[-0.0752,51.491],[-0.0753,51.491],[-0.0753,51.491]],[[-0.0748,51.491],[-0.0746,51.4909],[-0.0747,51.491],[-0.0748,51.491]]]]}},{"type":"Feature","id":"borough-london-28","properties":{"name":"Sutton","province":"Greater London","department":"England","type":"Borough","country":"Reino Unido","iso":"GB"},"geometry":{"type":"MultiPolygon","coordinates":[[[[-0.1445,51.326],[-0.1455,51.3235],[-0.147,51.3229],[-0.1507,51.3222],[-0.1528,51.3229],[-0.1566,51.3215],[-0.1587,51.324],[-0.1606,51.3232],[-0.1642,51.326],[-0.1636,51.3262],[-0.1643,51.3281],[-0.1623,51.3289],[-0.1631,51.3302],[-0.1701,51.3295],[-0.17,51.3303],[-0.173,51.33],[-0.1749,51.3337],[-0.182,51.3379],[-0.1879,51.3409],[-0.1974,51.3436],[-0.2012,51.3399],[-0.2023,51.3401],[-0.2131,51.3355],[-0.2119,51.3333],[-0.2141,51.3304],[-0.221,51.3299],[-0.2298,51.3365],[-0.2173,51.3434],[-0.2178,51.3456],[-0.2204,51.3514],[-0.2221,51.3513],[-0.2228,51.3571],[-0.2269,51.3626],[-0.2332,51.366],[-0.2338,51.3653],[-0.2371,51.3669],[-0.2409,51.367],[-0.2412,51.3663],[-0.2454,51.3668],[-0.2446,51.3705],[-0.2452,51.3791],[-0.2442,51.3835],[-0.243,51.3829],[-0.2389,51.386],[-0.2397,51.3893],[-0.2347,51.3905],[-0.2339,51.3877],[-0.2277,51.384],[-0.2181,51.3802],[-0.2098,51.3883],[-0.205,51.3861],[-0.2035,51.3872],[-0.2005,51.3849],[-0.194,51.3879],[-0.1885,51.3855],[-0.1799,51.3895],[-0.1749,51.3934],[-0.1713,51.3925],[-0.1665,51.3897],[-0.1653,51.388],[-0.161,51.3878],[-0.1579,51.3893],[-0.1444,51.3907],[-0.1419,51.3893],[-0.1346,51.391],[-0.133,51.3903],[-0.1333,51.3896],[-0.1297,51.3872],[-0.1306,51.3863],[-0.1288,51.3857],[-0.1296,51.3854],[-0.1287,51.3825],[-0.1303,51.3822],[-0.1282,51.3806],[-0.126,51.3756],[-0.1279,51.3747],[-0.1248,51.3736],[-0.1234,51.3712],[-0.1221,51.3658],[-0.1241,51.3653],[-0.1213,51.3647],[-0.1214,51.361],[-0.1219,51.3599],[-0.1229,51.3599],[-0.1219,51.3591],[-0.1247,51.3588],[-0.1242,51.3574],[-0.1214,51.3577],[-0.1202,51.353],[-0.1191,51.3531],[-0.1169,51.3458],[-0.1269,51.3449],[-0.1273,51.3472],[-0.1283,51.3474],[-0.1291,51.3465],[-0.1314,51.346],[-0.1311,51.3455],[-0.1329,51.3455],[-0.1326,51.3443],[-0.1364,51.3448],[-0.1446,51.342],[-0.1435,51.3406],[-0.1445,51.3395],[-0.1475,51.3388],[-0.1456,51.3324],[-0.1441,51.3307],[-0.1493,51.3288],[-0.1445,51.326]],[[-0.1848,51.3565],[-0.1847,51.3563],[-0.1847,51.3563],[-0.1848,51.3565]],[[-0.1447,51.3614],[-0.1446,51.3614],[-0.1446,51.3614],[-0.1447,51.3614]],[[-0.1837,51.3848],[-0.1836,51.3849],[-0.1836,51.3849],[-0.1837,51.3848]]]]}},{"type":"Feature","id":"borough-london-29","properties":{"name":"Tower Hamlets","province":"Greater London","department":"England","type":"Borough","country":"Reino Unido","iso":"GB"},"geometry":{"type":"MultiPolygon","coordinates":[[[[-0.0794,51.5078],[-0.0795,51.5078],[-0.0794,51.5078],[-0.0794,51.5078],[-0.0794,51.5078],[-0.0794,51.5078],[-0.0794,51.5078]]],[[[-0.0547,51.5048],[-0.0579,51.5031],[-0.0611,51.5029],[-0.0793,51.5078],[-0.0788,51.5094],[-0.0769,51.5105],[-0.0755,51.5097],[-0.0727,51.5102],[-0.0737,51.5141],[-0.0768,51.5166],[-0.0781,51.519],[-0.0794,51.5188],[-0.0782,51.5219],[-0.0762,51.5222],[-0.0758,51.5232],[-0.0764,51.5243],[-0.0763,51.5271],[-0.0773,51.5273],[-0.0738,51.5303],[-0.0663,51.5312],[-0.0651,51.5332],[-0.0622,51.5332],[-0.0625,51.5355],[-0.0591,51.5341],[-0.0552,51.5351],[-0.0528,51.5349],[-0.0524,51.5359],[-0.051,51.5365],[-0.0476,51.5355],[-0.0448,51.5358],[-0.0415,51.5374],[-0.0372,51.5414],[-0.0378,51.5418],[-0.0332,51.5446],[-0.0291,51.5423],[-0.0256,51.5433],[-0.0165,51.5433],[-0.0165,51.5414],[-0.0212,51.5369],[-0.0181,51.5334],[-0.0175,51.5315],[-0.0108,51.5294],[-0.0075,51.5262],[-0.0079,51.5229],[-0.0093,51.5218],[-0.0091,51.5197],[-0.0067,51.5182],[-0.0057,51.5163],[-0.0043,51.5164],[-0.0027,51.5178],[0.0033,51.5151],[0.0034,51.5141],[0.0014,51.5111],[0.0022,51.5105],[0.0044,51.5106],[0.0056,51.5136],[0.0068,51.5138],[0.0074,51.5127],[0.0056,51.5099],[0.0092,51.5084],[0.0087,51.5073],[0.0037,51.5084],[-0.0017,51.5074],[-0.0057,51.5051],[-0.0077,51.5015],[-0.009,51.5012],[-0.0078,51.5008],[-0.0073,51.4983],[-0.0057,51.4959],[-0.0062,51.4956],[-0.0033,51.4922],[-0.0033,51.4898],[-0.0065,51.4871],[-0.0132,51.486],[-0.0214,51.4875],[-0.0257,51.4906],[-0.0274,51.4938],[-0.0256,51.4941],[-0.0277,51.4943],[-0.0279,51.4949],[-0.0274,51.5022],[-0.027,51.5031],[-0.0258,51.5032],[-0.0272,51.5037],[-0.0278,51.5056],[-0.0289,51.5063],[-0.028,51.5067],[-0.0291,51.5065],[-0.0316,51.5078],[-0.0299,51.5089],[-0.0327,51.5082],[-0.0416,51.51],[-0.045,51.5095],[-0.0497,51.508],[-0.0494,51.5076],[-0.0547,51.5048]],[[-0.0115,51.526],[-0.0115,51.5261],[-0.0115,51.5261],[-0.0115,51.526]],[[-0.0115,51.5261],[-0.0115,51.5261],[-0.0114,51.526],[-0.0115,51.5261]],[[-0.056,51.5073],[-0.0561,51.5074],[-0.0561,51.5074],[-0.056,51.5073]],[[-0.0182,51.5261],[-0.018,51.5262],[-0.018,51.5262],[-0.0182,51.5261]],[[-0.0145,51.5261],[-0.0145,51.5261],[-0.0145,51.5261],[-0.0145,51.5261]],[[-0.0124,51.526],[-0.012,51.5262],[-0.0123,51.5261],[-0.0124,51.526]],[[-0.0112,51.5261],[-0.0112,51.5261],[-0.0111,51.5261],[-0.0112,51.5261]],[[-0.0398,51.527],[-0.0402,51.5264],[-0.0398,51.527],[-0.0398,51.527]]]]}},{"type":"Feature","id":"borough-london-30","properties":{"name":"Waltham Forest","province":"Greater London","department":"England","type":"Borough","country":"Reino Unido","iso":"GB"},"geometry":{"type":"MultiPolygon","coordinates":[[[[0.0181,51.5581],[0.0215,51.5549],[0.0169,51.5532],[0.0146,51.555],[0.0116,51.5539],[0.0111,51.5544],[0.0096,51.5534],[0.0108,51.5523],[0.0095,51.5512],[0.0055,51.5507],[0.0058,51.5519],[0.0031,51.5521],[-0.0087,51.5499],[-0.0095,51.5522],[-0.0106,51.5526],[-0.0171,51.5514],[-0.0185,51.5551],[-0.0239,51.5573],[-0.0246,51.559],[-0.0278,51.5608],[-0.0298,51.5614],[-0.0333,51.5606],[-0.0364,51.5615],[-0.0425,51.5614],[-0.0471,51.5626],[-0.0466,51.5641],[-0.0475,51.5652],[-0.0584,51.5725],[-0.0622,51.5791],[-0.0615,51.5805],[-0.058,51.5824],[-0.0523,51.5875],[-0.0535,51.5905],[-0.0505,51.5967],[-0.0465,51.5998],[-0.0413,51.6058],[-0.0342,51.6091],[-0.0341,51.6102],[-0.0356,51.612],[-0.0352,51.6133],[-0.0323,51.6167],[-0.0258,51.622],[-0.0154,51.6355],[-0.0133,51.6396],[-0.0123,51.6462],[-0.0074,51.6462],[-0.0085,51.6445],[-0.0082,51.6436],[-0.0046,51.6435],[-0.004,51.6427],[-0.0005,51.6437],[0.0014,51.6417],[0.0099,51.6414],[0.0174,51.6403],[0.0227,51.6411],[0.0231,51.6377],[0.0251,51.6373],[0.0247,51.636],[0.0257,51.6346],[0.0238,51.6308],[0.0218,51.6288],[0.021,51.6289],[0.0185,51.6229],[0.0143,51.6203],[0.0145,51.6189],[0.0088,51.6191],[0.0163,51.6169],[0.0214,51.612],[0.0194,51.6076],[0.0129,51.5992],[0.012,51.5926],[0.0134,51.5838],[0.0155,51.5834],[0.0152,51.5817],[0.0174,51.5775],[0.0174,51.5744],[0.0163,51.5729],[0.018,51.572],[0.0189,51.5723],[0.0191,51.5699],[0.0177,51.57],[0.019,51.567],[0.0187,51.5661],[0.0144,51.5656],[0.0142,51.5613],[0.0148,51.5594],[0.0181,51.5581]]]]}},{"type":"Feature","id":"borough-london-31","properties":{"name":"Wandsworth","province":"Greater London","department":"England","type":"Borough","country":"Reino Unido","iso":"GB"},"geometry":{"type":"MultiPolygon","coordinates":[[[[-0.1389,51.4258],[-0.1379,51.4211],[-0.1404,51.4192],[-0.1446,51.4177],[-0.1498,51.42],[-0.1513,51.4199],[-0.16,51.4227],[-0.1617,51.4198],[-0.1641,51.42],[-0.1761,51.4239],[-0.182,51.4247],[-0.1844,51.4267],[-0.1842,51.4312],[-0.1858,51.4331],[-0.1898,51.4313],[-0.1911,51.433],[-0.1893,51.4382],[-0.1907,51.439],[-0.1898,51.44],[-0.1901,51.4414],[-0.2122,51.4379],[-0.2243,51.4389],[-0.2311,51.4382],[-0.2511,51.4326],[-0.2513,51.4342],[-0.2531,51.4353],[-0.254,51.4372],[-0.2427,51.4419],[-0.2416,51.4431],[-0.2473,51.4492],[-0.2591,51.4549],[-0.2568,51.4599],[-0.258,51.4603],[-0.256,51.463],[-0.2529,51.4652],[-0.243,51.4652],[-0.2332,51.464],[-0.233,51.4721],[-0.2311,51.4728],[-0.2237,51.4708],[-0.2228,51.4717],[-0.2148,51.4665],[-0.2073,51.4639],[-0.1997,51.4627],[-0.1955,51.4629],[-0.1952,51.46],[-0.1941,51.4598],[-0.1949,51.4617],[-0.1939,51.4615],[-0.1948,51.4629],[-0.1873,51.4641],[-0.1814,51.4672],[-0.178,51.4706],[-0.1785,51.4708],[-0.1755,51.4775],[-0.172,51.4801],[-0.1493,51.4837],[-0.1369,51.4825],[-0.1284,51.4851],[-0.1263,51.4845],[-0.1275,51.4819],[-0.1299,51.4811],[-0.1326,51.4779],[-0.135,51.4747],[-0.1344,51.4738],[-0.1352,51.4729],[-0.1369,51.4731],[-0.1427,51.4701],[-0.1431,51.4705],[-0.1506,51.4676],[-0.1505,51.466],[-0.1512,51.4659],[-0.1483,51.4573],[-0.1477,51.4523],[-0.1423,51.451],[-0.1449,51.4484],[-0.1457,51.4458],[-0.1436,51.4418],[-0.136,51.442],[-0.1377,51.4387],[-0.1401,51.4368],[-0.1383,51.434],[-0.1366,51.4339],[-0.1353,51.4303],[-0.1384,51.4305],[-0.1389,51.4258]]]]}},{"type":"Feature","id":"borough-london-32","properties":{"name":"Westminster","province":"Greater London","department":"England","type":"Borough","country":"Reino Unido","iso":"GB"},"geometry":{"type":"MultiPolygon","coordinates":[[[[-0.15,51.4855],[-0.1559,51.4896],[-0.1552,51.49],[-0.1558,51.4915],[-0.1548,51.492],[-0.156,51.4932],[-0.155,51.4939],[-0.156,51.4945],[-0.1553,51.4951],[-0.1561,51.4978],[-0.1579,51.499],[-0.1585,51.5022],[-0.1609,51.5016],[-0.1655,51.4987],[-0.1658,51.4992],[-0.1676,51.4983],[-0.1684,51.499],[-0.1796,51.4978],[-0.1803,51.5015],[-0.1843,51.5018],[-0.1879,51.5102],[-0.1921,51.5099],[-0.193,51.5118],[-0.1941,51.5118],[-0.1951,51.515],[-0.1992,51.5146],[-0.2007,51.518],[-0.2015,51.5178],[-0.2037,51.5206],[-0.2006,51.5206],[-0.2016,51.5227],[-0.2039,51.5236],[-0.2067,51.5262],[-0.2155,51.5267],[-0.216,51.5291],[-0.2151,51.5302],[-0.2154,51.5313],[-0.2075,51.5329],[-0.2029,51.5329],[-0.1983,51.5304],[-0.1978,51.5279],[-0.1966,51.5277],[-0.1926,51.5326],[-0.193,51.534],[-0.1915,51.5363],[-0.1888,51.5345],[-0.1845,51.5381],[-0.1802,51.5396],[-0.1739,51.5395],[-0.1735,51.5376],[-0.1695,51.5386],[-0.165,51.5358],[-0.1605,51.5373],[-0.1594,51.5364],[-0.1527,51.5375],[-0.1472,51.525],[-0.1458,51.5253],[-0.1452,51.524],[-0.1435,51.5246],[-0.1435,51.5239],[-0.137,51.5189],[-0.1353,51.5189],[-0.1325,51.5167],[-0.1308,51.5171],[-0.1293,51.5135],[-0.1273,51.5126],[-0.1229,51.5151],[-0.1195,51.5145],[-0.1147,51.516],[-0.1138,51.5148],[-0.1116,51.5152],[-0.111,51.5138],[-0.1125,51.5126],[-0.1116,51.5108],[-0.1185,51.5095],[-0.1224,51.506],[-0.1249,51.4927],[-0.1285,51.4881],[-0.1321,51.4859],[-0.1366,51.4849],[-0.149,51.4856],[-0.1491,51.4862],[-0.15,51.4855]],[[-0.209,51.5288],[-0.2084,51.5288],[-0.209,51.5288],[-0.209,51.5288]],[[-0.2087,51.5319],[-0.2084,51.5318],[-0.2086,51.5319],[-0.2087,51.5319]]]]}},{"type":"Feature","id":"borough-london-33","properties":{"name":"Croydon","province":"Greater London","department":"England","type":"Borough","country":"Reino Unido","iso":"GB"},"geometry":{"type":"MultiPolygon","coordinates":[[[[-0.0072,51.3337],[-0.0107,51.3338],[-0.0107,51.3331],[-0.0136,51.3315],[-0.0144,51.3298],[-0.0221,51.3381],[-0.026,51.3386],[-0.0328,51.3374],[-0.0379,51.3387],[-0.0398,51.3372],[-0.042,51.3338],[-0.0503,51.3326],[-0.0511,51.3308],[-0.0488,51.3287],[-0.0479,51.3252],[-0.0498,51.3253],[-0.0513,51.3224],[-0.0549,51.3213],[-0.0563,51.3217],[-0.0641,51.3186],[-0.0701,51.3189],[-0.071,51.3212],[-0.0789,51.3198],[-0.0789,51.3181],[-0.0848,51.3159],[-0.0819,51.3128],[-0.082,51.3106],[-0.0889,51.3072],[-0.0887,51.3052],[-0.0912,51.3034],[-0.0912,51.3015],[-0.0944,51.3006],[-0.0957,51.3015],[-0.0974,51.3011],[-0.097,51.3001],[-0.0944,51.2994],[-0.1111,51.2923],[-0.1149,51.2924],[-0.1146,51.2915],[-0.1169,51.2896],[-0.1178,51.2871],[-0.1243,51.2868],[-0.1263,51.2895],[-0.1306,51.2931],[-0.1315,51.2947],[-0.1311,51.2955],[-0.1345,51.2984],[-0.1364,51.2983],[-0.1373,51.3008],[-0.1409,51.2996],[-0.1429,51.3],[-0.1436,51.3013],[-0.1457,51.2998],[-0.1485,51.3007],[-0.1498,51.3002],[-0.1534,51.3017],[-0.1553,51.3013],[-0.1578,51.3044],[-0.1545,51.3064],[-0.1572,51.3067],[-0.1544,51.3103],[-0.1584,51.311],[-0.1572,51.3134],[-0.1596,51.3171],[-0.1612,51.3174],[-0.1619,51.3196],[-0.1528,51.3229],[-0.1505,51.3222],[-0.1455,51.3235],[-0.1445,51.3265],[-0.1493,51.3288],[-0.1441,51.3307],[-0.1456,51.3324],[-0.1475,51.3388],[-0.1445,51.3395],[-0.1435,51.3406],[-0.1442,51.3423],[-0.1364,51.3448],[-0.1326,51.3443],[-0.1329,51.3455],[-0.1311,51.3455],[-0.1314,51.346],[-0.1291,51.3465],[-0.1283,51.3474],[-0.1273,51.3472],[-0.1269,51.3449],[-0.1169,51.3458],[-0.1191,51.3531],[-0.1202,51.353],[-0.1214,51.3577],[-0.1242,51.3574],[-0.1247,51.3588],[-0.1219,51.3591],[-0.1229,51.3599],[-0.1219,51.3599],[-0.121,51.3633],[-0.1213,51.3647],[-0.1241,51.3653],[-0.1221,51.3663],[-0.1248,51.3736],[-0.1279,51.3747],[-0.126,51.3756],[-0.1282,51.3806],[-0.1303,51.3822],[-0.1287,51.3825],[-0.1296,51.3854],[-0.1288,51.3857],[-0.1306,51.3863],[-0.1297,51.3872],[-0.1344,51.3908],[-0.1289,51.3934],[-0.1298,51.3937],[-0.1242,51.3976],[-0.1313,51.4041],[-0.1323,51.4069],[-0.1321,51.4092],[-0.1295,51.4096],[-0.1278,51.4123],[-0.1245,51.4133],[-0.1242,51.4146],[-0.1226,51.415],[-0.1198,51.4189],[-0.1157,51.4206],[-0.1127,51.4232],[-0.0939,51.4228],[-0.0864,51.4193],[-0.0787,51.4198],[-0.0811,51.4174],[-0.0806,51.4157],[-0.0728,51.4127],[-0.0732,51.4091],[-0.0682,51.4035],[-0.0645,51.4017],[-0.0622,51.4015],[-0.0602,51.3995],[-0.0606,51.3991],[-0.053,51.4015],[-0.0507,51.3996],[-0.0521,51.3983],[-0.0503,51.398],[-0.0535,51.3949],[-0.0517,51.3936],[-0.0478,51.393],[-0.0428,51.3895],[-0.0365,51.3885],[-0.0379,51.3832],[-0.0369,51.379],[-0.0364,51.379],[-0.037,51.377],[-0.0298,51.3773],[-0.0283,51.3782],[-0.028,51.3794],[-0.0268,51.3794],[-0.0262,51.3764],[-0.0236,51.3722],[-0.0232,51.3674],[-0.0245,51.3668],[-0.0238,51.3654],[-0.0222,51.3659],[-0.0157,51.3589],[-0.0132,51.3572],[-0.0087,51.3558],[-0.005,51.3521],[0.0008,51.3336],[0.0033,51.3322],[0.0023,51.3291],[-0.0005,51.3288],[-0.0017,51.3303],[-0.0072,51.3337]],[[-0.1024,51.4163],[-0.1021,51.416],[-0.1023,51.4162],[-0.1024,51.4163]]]]}}]}