{"type":"FeatureCollection","features":[{"type":"Feature","id":"quartier-lux-1","properties":{"name":"Beggen","province":"Luxembourg","department":"Canton de Luxembourg","type":"Quartier","country":"Luxemburgo","iso":"LU"},"geometry":{"type":"Polygon","coordinates":[[[6.123,49.6486],[6.1191,49.6481],[6.1175,49.6497],[6.1165,49.6484],[6.1165,49.647],[6.1174,49.645],[6.1228,49.6409],[6.1234,49.6382],[6.1241,49.6374],[6.1278,49.6353],[6.1296,49.6367],[6.1322,49.6353],[6.1337,49.6358],[6.134,49.6361],[6.1321,49.6385],[6.1318,49.6401],[6.1338,49.6413],[6.1362,49.6414],[6.1364,49.6427],[6.139,49.6426],[6.1391,49.6442],[6.1406,49.6445],[6.1393,49.6452],[6.1392,49.6469],[6.1386,49.6468],[6.1394,49.649],[6.1388,49.6491],[6.1384,49.6507],[6.123,49.6486]]]}},{"type":"Feature","id":"quartier-lux-2","properties":{"name":"Belair","province":"Luxembourg","department":"Canton de Luxembourg","type":"Quartier","country":"Luxemburgo","iso":"LU"},"geometry":{"type":"Polygon","coordinates":[[[6.0917,49.6133],[6.0976,49.6123],[6.098,49.6058],[6.1018,49.6062],[6.101,49.6073],[6.1034,49.6075],[6.1048,49.6065],[6.1066,49.6062],[6.112,49.6076],[6.1199,49.606],[6.12,49.6078],[6.1183,49.6114],[6.1201,49.6135],[6.1151,49.6145],[6.1147,49.6153],[6.1111,49.6151],[6.1114,49.6159],[6.1085,49.6164],[6.108,49.6152],[6.1062,49.6158],[6.1063,49.6164],[6.0961,49.6172],[6.095,49.6151],[6.0933,49.6155],[6.0917,49.6133]]]}},{"type":"Feature","id":"quartier-lux-3","properties":{"name":"Bonnevoie-Nord / Verlorenkost","province":"Luxembourg","department":"Canton de Luxembourg","type":"Quartier","country":"Luxemburgo","iso":"LU"},"geometry":{"type":"Polygon","coordinates":[[[6.1364,49.6031],[6.1345,49.5985],[6.1355,49.5987],[6.1365,49.6002],[6.137,49.5994],[6.1415,49.5987],[6.1423,49.6001],[6.1452,49.6016],[6.1436,49.6025],[6.1438,49.6034],[6.15,49.6071],[6.1503,49.6078],[6.1498,49.6083],[6.1479,49.6082],[6.1446,49.6093],[6.1422,49.6095],[6.1391,49.6074],[6.1364,49.6031]]]}},{"type":"Feature","id":"quartier-lux-4","properties":{"name":"Bonnevoie-Sud","province":"Luxembourg","department":"Canton de Luxembourg","type":"Quartier","country":"Luxemburgo","iso":"LU"},"geometry":{"type":"Polygon","coordinates":[[[6.1331,49.5964],[6.133,49.5954],[6.1323,49.5957],[6.132,49.5949],[6.1323,49.5922],[6.1352,49.5861],[6.1396,49.5883],[6.1419,49.589],[6.1425,49.5886],[6.1449,49.5898],[6.1465,49.5888],[6.1503,49.591],[6.149,49.5919],[6.151,49.5921],[6.1538,49.5938],[6.1532,49.5951],[6.1607,49.6014],[6.1676,49.6055],[6.162,49.6084],[6.1609,49.6072],[6.1601,49.6046],[6.1587,49.6036],[6.1472,49.6006],[6.1456,49.6013],[6.1477,49.6012],[6.15,49.6024],[6.1487,49.604],[6.1457,49.6041],[6.1443,49.6028],[6.1452,49.6016],[6.1423,49.6001],[6.1415,49.5987],[6.137,49.5994],[6.1365,49.6002],[6.1331,49.5964]]]}},{"type":"Feature","id":"quartier-lux-5","properties":{"name":"Cents","province":"Luxembourg","department":"Canton de Luxembourg","type":"Quartier","country":"Luxemburgo","iso":"LU"},"geometry":{"type":"Polygon","coordinates":[[[6.1563,49.618],[6.1469,49.6153],[6.1479,49.6138],[6.1469,49.6134],[6.1466,49.6126],[6.1431,49.6114],[6.1436,49.6099],[6.1469,49.6106],[6.1491,49.61],[6.1669,49.6154],[6.1726,49.6159],[6.1728,49.6171],[6.1823,49.6182],[6.1841,49.621],[6.1872,49.6219],[6.1755,49.6225],[6.1715,49.6232],[6.1659,49.6208],[6.161,49.62],[6.1563,49.618]]]}},{"type":"Feature","id":"quartier-lux-6","properties":{"name":"Cessange","province":"Luxembourg","department":"Canton de Luxembourg","type":"Quartier","country":"Luxemburgo","iso":"LU"},"geometry":{"type":"Polygon","coordinates":[[[6.0789,49.5944],[6.0768,49.5935],[6.0743,49.5915],[6.073,49.5893],[6.0743,49.5898],[6.0762,49.5894],[6.0768,49.5875],[6.0763,49.5873],[6.0799,49.5844],[6.0791,49.5842],[6.0782,49.5813],[6.0794,49.5774],[6.0812,49.5777],[6.0849,49.5762],[6.0935,49.5786],[6.0941,49.5774],[6.094,49.5756],[6.0953,49.5752],[6.0981,49.5715],[6.1003,49.5716],[6.1041,49.5703],[6.1063,49.5713],[6.1043,49.5725],[6.1046,49.5733],[6.1074,49.5738],[6.1095,49.5755],[6.1135,49.5763],[6.113,49.5772],[6.1102,49.5779],[6.1132,49.5797],[6.1109,49.5808],[6.1123,49.5832],[6.1131,49.5874],[6.1144,49.5885],[6.116,49.5883],[6.1155,49.5897],[6.1163,49.5897],[6.1161,49.5909],[6.1151,49.5911],[6.1145,49.5927],[6.116,49.5936],[6.1159,49.595],[6.1169,49.5954],[6.1145,49.5954],[6.1146,49.5968],[6.0993,49.5981],[6.0907,49.6002],[6.0862,49.5985],[6.0789,49.5944]]]}},{"type":"Feature","id":"quartier-lux-7","properties":{"name":"Clausen","province":"Luxembourg","department":"Canton de Luxembourg","type":"Quartier","country":"Luxemburgo","iso":"LU"},"geometry":{"type":"Polygon","coordinates":[[[6.1383,49.6133],[6.1394,49.6126],[6.136,49.6117],[6.1372,49.6117],[6.138,49.6105],[6.1421,49.6111],[6.1466,49.6126],[6.1469,49.6134],[6.1479,49.6138],[6.1476,49.6146],[6.1465,49.6159],[6.1452,49.6154],[6.1444,49.6163],[6.1471,49.6184],[6.139,49.6155],[6.1383,49.6142],[6.1371,49.6139],[6.1383,49.6133]]]}},{"type":"Feature","id":"quartier-lux-8","properties":{"name":"Dommeldange","province":"Luxembourg","department":"Canton de Luxembourg","type":"Quartier","country":"Luxemburgo","iso":"LU"},"geometry":{"type":"Polygon","coordinates":[[[6.1361,49.6407],[6.1358,49.6356],[6.135,49.6354],[6.1366,49.6324],[6.1352,49.6303],[6.1356,49.6299],[6.1384,49.6323],[6.1419,49.6338],[6.1463,49.6369],[6.1545,49.6392],[6.1643,49.6406],[6.1631,49.6416],[6.1657,49.645],[6.1636,49.6439],[6.1625,49.6422],[6.1536,49.6413],[6.1528,49.6423],[6.1525,49.6418],[6.1502,49.6414],[6.1487,49.6419],[6.1588,49.6474],[6.1593,49.6493],[6.1605,49.6505],[6.1611,49.6529],[6.1597,49.6549],[6.1572,49.6539],[6.1579,49.6532],[6.1579,49.6522],[6.1535,49.6505],[6.1502,49.6507],[6.1433,49.6492],[6.1436,49.6496],[6.1423,49.6494],[6.1398,49.6508],[6.1384,49.6507],[6.1388,49.6491],[6.1394,49.649],[6.1386,49.6468],[6.1392,49.6469],[6.1393,49.6452],[6.1406,49.6445],[6.1391,49.6442],[6.139,49.6426],[6.1364,49.6427],[6.1361,49.6407]]]}},{"type":"Feature","id":"quartier-lux-9","properties":{"name":"Eich","province":"Luxembourg","department":"Canton de Luxembourg","type":"Quartier","country":"Luxemburgo","iso":"LU"},"geometry":{"type":"Polygon","coordinates":[[[6.1291,49.6292],[6.126,49.6288],[6.1259,49.6279],[6.1243,49.6278],[6.1239,49.627],[6.125,49.6267],[6.1247,49.626],[6.1285,49.6257],[6.1288,49.6229],[6.1303,49.6221],[6.1304,49.6244],[6.1309,49.6245],[6.1307,49.6271],[6.1356,49.6307],[6.1366,49.6324],[6.135,49.6354],[6.1358,49.6356],[6.1362,49.6414],[6.1331,49.6411],[6.1316,49.64],[6.1325,49.6378],[6.134,49.6361],[6.1337,49.6358],[6.1322,49.6353],[6.1296,49.6367],[6.128,49.6354],[6.1325,49.6328],[6.1318,49.6317],[6.1321,49.6311],[6.1291,49.6292]]]}},{"type":"Feature","id":"quartier-lux-10","properties":{"name":"Gare","province":"Luxembourg","department":"Canton de Luxembourg","type":"Quartier","country":"Luxemburgo","iso":"LU"},"geometry":{"type":"Polygon","coordinates":[[[6.1228,49.6042],[6.1226,49.603],[6.1257,49.6017],[6.125,49.6004],[6.1254,49.5998],[6.124,49.5993],[6.1249,49.5988],[6.1242,49.5982],[6.1249,49.5977],[6.1248,49.5954],[6.129,49.595],[6.1317,49.596],[6.133,49.5954],[6.1334,49.5969],[6.135,49.5983],[6.1345,49.5985],[6.1364,49.6031],[6.1386,49.6066],[6.1334,49.6046],[6.131,49.606],[6.1321,49.607],[6.1308,49.6081],[6.1274,49.6086],[6.1246,49.6069],[6.1228,49.6042]]]}},{"type":"Feature","id":"quartier-lux-11","properties":{"name":"Gasperich","province":"Luxembourg","department":"Canton de Luxembourg","type":"Quartier","country":"Luxemburgo","iso":"LU"},"geometry":{"type":"Polygon","coordinates":[[[6.1113,49.5785],[6.1102,49.5779],[6.113,49.5772],[6.1135,49.5763],[6.1095,49.5755],[6.1074,49.5738],[6.1046,49.5733],[6.1043,49.5725],[6.1063,49.5713],[6.1041,49.5703],[6.1037,49.5692],[6.0996,49.5664],[6.1018,49.5647],[6.1063,49.5667],[6.109,49.5664],[6.1081,49.5621],[6.1155,49.561],[6.1192,49.5653],[6.1176,49.565],[6.1173,49.5661],[6.1154,49.5682],[6.1202,49.5686],[6.1256,49.5707],[6.1227,49.5745],[6.1198,49.5743],[6.1229,49.5778],[6.1241,49.5804],[6.1272,49.5821],[6.1304,49.5794],[6.1333,49.5816],[6.1342,49.5834],[6.1359,49.5839],[6.136,49.5849],[6.1349,49.5858],[6.1349,49.5876],[6.1324,49.5917],[6.1323,49.5957],[6.1281,49.595],[6.1149,49.5968],[6.1145,49.5954],[6.1169,49.5954],[6.1159,49.595],[6.116,49.5936],[6.1145,49.5927],[6.1151,49.5911],[6.1161,49.5909],[6.1163,49.5897],[6.1155,49.5897],[6.116,49.5883],[6.1144,49.5885],[6.1131,49.5874],[6.1123,49.5832],[6.1109,49.5808],[6.1132,49.5797],[6.1113,49.5785]]]}},{"type":"Feature","id":"quartier-lux-12","properties":{"name":"Grund","province":"Luxembourg","department":"Canton de Luxembourg","type":"Quartier","country":"Luxemburgo","iso":"LU"},"geometry":{"type":"Polygon","coordinates":[[[6.138,49.6105],[6.1372,49.6117],[6.1355,49.6115],[6.134,49.6093],[6.135,49.6078],[6.1364,49.6072],[6.1362,49.6069],[6.1335,49.6063],[6.1324,49.6071],[6.131,49.606],[6.1334,49.6046],[6.1353,49.605],[6.1386,49.6066],[6.1416,49.6093],[6.1435,49.6095],[6.1431,49.6114],[6.138,49.6105]]]}},{"type":"Feature","id":"quartier-lux-13","properties":{"name":"Hamm","province":"Luxembourg","department":"Canton de Luxembourg","type":"Quartier","country":"Luxemburgo","iso":"LU"},"geometry":{"type":"Polygon","coordinates":[[[6.186,49.6213],[6.1841,49.621],[6.1823,49.6182],[6.1728,49.6171],[6.1726,49.6159],[6.1671,49.6155],[6.1576,49.6124],[6.1583,49.6115],[6.1536,49.61],[6.1519,49.6088],[6.1527,49.6079],[6.1521,49.6072],[6.1516,49.6075],[6.1457,49.6041],[6.1487,49.604],[6.15,49.6024],[6.1477,49.6012],[6.1456,49.6013],[6.1476,49.6007],[6.1587,49.6036],[6.1601,49.6046],[6.1609,49.6072],[6.162,49.6084],[6.168,49.6055],[6.1709,49.6068],[6.1749,49.6076],[6.1811,49.6071],[6.1851,49.6084],[6.1871,49.6078],[6.1884,49.6056],[6.1919,49.6048],[6.2017,49.6106],[6.2024,49.6127],[6.2037,49.6131],[6.2033,49.6138],[6.1995,49.6148],[6.1985,49.6158],[6.199,49.616],[6.1973,49.617],[6.1911,49.6181],[6.191,49.6191],[6.1897,49.6191],[6.1894,49.6204],[6.1914,49.6209],[6.186,49.6213]]]}},{"type":"Feature","id":"quartier-lux-14","properties":{"name":"Hollerich","province":"Luxembourg","department":"Canton de Luxembourg","type":"Quartier","country":"Luxemburgo","iso":"LU"},"geometry":{"type":"Polygon","coordinates":[[[6.0995,49.6],[6.0958,49.5989],[6.0993,49.5981],[6.1246,49.5957],[6.1249,49.5977],[6.1242,49.5982],[6.1249,49.5988],[6.124,49.5993],[6.1254,49.5998],[6.125,49.6004],[6.1257,49.6017],[6.1244,49.6018],[6.1224,49.6036],[6.1246,49.6069],[6.1269,49.6085],[6.1266,49.6089],[6.1233,49.6074],[6.1219,49.6054],[6.112,49.6076],[6.1079,49.6062],[6.1063,49.6063],[6.1067,49.6045],[6.1059,49.6042],[6.1067,49.6033],[6.1075,49.6036],[6.1083,49.6029],[6.1068,49.6002],[6.0995,49.6]]]}},{"type":"Feature","id":"quartier-lux-15","properties":{"name":"Kirchberg","province":"Luxembourg","department":"Canton de Luxembourg","type":"Quartier","country":"Luxemburgo","iso":"LU"},"geometry":{"type":"Polygon","coordinates":[[[6.1414,49.6274],[6.1391,49.6266],[6.1391,49.6258],[6.1365,49.6247],[6.1369,49.6243],[6.1356,49.6236],[6.135,49.6242],[6.134,49.6239],[6.1348,49.6218],[6.1385,49.6226],[6.1368,49.6207],[6.1343,49.6199],[6.134,49.6183],[6.1329,49.6178],[6.1339,49.6158],[6.136,49.616],[6.1349,49.615],[6.1371,49.6139],[6.1383,49.6142],[6.1386,49.6152],[6.1405,49.6162],[6.1478,49.6189],[6.1476,49.6195],[6.1506,49.6206],[6.1502,49.6211],[6.1592,49.6248],[6.1761,49.6351],[6.1797,49.6366],[6.1726,49.6378],[6.169,49.6377],[6.1652,49.6388],[6.1563,49.638],[6.158,49.6342],[6.1495,49.6321],[6.1423,49.6285],[6.1428,49.628],[6.1414,49.6274]]]}},{"type":"Feature","id":"quartier-lux-17","properties":{"name":"Merl","province":"Luxembourg","department":"Canton de Luxembourg","type":"Quartier","country":"Luxemburgo","iso":"LU"},"geometry":{"type":"Polygon","coordinates":[[[6.0778,49.5956],[6.073,49.5918],[6.0694,49.5899],[6.071,49.5877],[6.0765,49.5934],[6.0864,49.5986],[6.0907,49.6002],[6.0958,49.5989],[6.1012,49.6003],[6.1068,49.6002],[6.1083,49.6029],[6.1075,49.6036],[6.1067,49.6033],[6.1059,49.6042],[6.1067,49.6045],[6.1063,49.6063],[6.1048,49.6065],[6.1034,49.6075],[6.101,49.6073],[6.1018,49.6062],[6.098,49.6058],[6.0976,49.6123],[6.0906,49.6133],[6.0878,49.609],[6.0812,49.605],[6.081,49.603],[6.0783,49.6032],[6.0785,49.6016],[6.077,49.6019],[6.0747,49.601],[6.0756,49.6001],[6.0757,49.597],[6.0768,49.5969],[6.0778,49.5956]]]}},{"type":"Feature","id":"quartier-lux-18","properties":{"name":"Muhlenbach","province":"Luxembourg","department":"Canton de Luxembourg","type":"Quartier","country":"Luxemburgo","iso":"LU"},"geometry":{"type":"Polygon","coordinates":[[[6.1279,49.6288],[6.132,49.6309],[6.1325,49.6328],[6.1289,49.6351],[6.126,49.6361],[6.1234,49.6382],[6.1228,49.6409],[6.1174,49.645],[6.1164,49.6475],[6.1175,49.6497],[6.1169,49.6501],[6.113,49.6503],[6.108,49.6489],[6.1059,49.6469],[6.1,49.6462],[6.1024,49.6447],[6.1118,49.63],[6.1135,49.6285],[6.1109,49.6282],[6.1109,49.6268],[6.1134,49.6264],[6.1178,49.6273],[6.1189,49.6268],[6.12,49.6271],[6.1217,49.6249],[6.1246,49.6253],[6.125,49.6267],[6.1239,49.627],[6.1242,49.6278],[6.1259,49.6279],[6.126,49.6288],[6.1279,49.6288]]]}},{"type":"Feature","id":"quartier-lux-19","properties":{"name":"Neudorf / Weimershof","province":"Luxembourg","department":"Canton de Luxembourg","type":"Quartier","country":"Luxemburgo","iso":"LU"},"geometry":{"type":"Polygon","coordinates":[[[6.157,49.6237],[6.1502,49.6211],[6.1506,49.6206],[6.1476,49.6195],[6.1478,49.6189],[6.1444,49.6163],[6.1452,49.6154],[6.1465,49.6159],[6.1469,49.6153],[6.1541,49.617],[6.161,49.62],[6.1659,49.6208],[6.1715,49.6232],[6.1847,49.6218],[6.1902,49.6228],[6.1893,49.6255],[6.1838,49.6241],[6.183,49.6245],[6.1807,49.624],[6.1805,49.6232],[6.1784,49.6242],[6.1795,49.6249],[6.1795,49.6262],[6.1817,49.6276],[6.1811,49.6289],[6.1825,49.6295],[6.1823,49.6301],[6.1833,49.6304],[6.1834,49.6311],[6.1862,49.6324],[6.1853,49.6323],[6.182,49.6351],[6.1828,49.6356],[6.1826,49.6365],[6.1797,49.6366],[6.1761,49.6351],[6.157,49.6237]]]}},{"type":"Feature","id":"quartier-lux-20","properties":{"name":"Pfaffenthal","province":"Luxembourg","department":"Canton de Luxembourg","type":"Quartier","country":"Luxemburgo","iso":"LU"},"geometry":{"type":"Polygon","coordinates":[[[6.1307,49.6195],[6.1306,49.6154],[6.1331,49.6126],[6.1355,49.6115],[6.1394,49.6126],[6.1349,49.615],[6.1361,49.6159],[6.1339,49.6158],[6.1329,49.6177],[6.134,49.6183],[6.1343,49.6199],[6.1368,49.6207],[6.1383,49.6227],[6.1331,49.6216],[6.1331,49.6224],[6.1304,49.6244],[6.1312,49.6214],[6.1307,49.6195]]]}},{"type":"Feature","id":"quartier-lux-21","properties":{"name":"Pulvermuhl","province":"Luxembourg","department":"Canton de Luxembourg","type":"Quartier","country":"Luxemburgo","iso":"LU"},"geometry":{"type":"Polygon","coordinates":[[[6.1512,49.6105],[6.1482,49.6099],[6.148,49.6106],[6.1454,49.6105],[6.1448,49.6104],[6.1449,49.6098],[6.1436,49.6099],[6.1474,49.6082],[6.1498,49.6083],[6.1503,49.6076],[6.1447,49.6042],[6.1437,49.6033],[6.1438,49.6024],[6.1452,49.6016],[6.1443,49.6028],[6.1449,49.6038],[6.1516,49.6075],[6.1521,49.6072],[6.1527,49.6079],[6.1519,49.6088],[6.1536,49.61],[6.1583,49.6115],[6.1576,49.6124],[6.1512,49.6105]]]}},{"type":"Feature","id":"quartier-lux-22","properties":{"name":"Rollingergrund / Belair-Nord","province":"Luxembourg","department":"Canton de Luxembourg","type":"Quartier","country":"Luxemburgo","iso":"LU"},"geometry":{"type":"Polygon","coordinates":[[[6.0737,49.6378],[6.0698,49.6338],[6.0692,49.6322],[6.0707,49.6288],[6.0729,49.6274],[6.0803,49.6287],[6.0876,49.6281],[6.0886,49.6278],[6.0879,49.6271],[6.091,49.6254],[6.0892,49.6244],[6.089,49.6232],[6.0929,49.6248],[6.0988,49.6242],[6.1037,49.6251],[6.103,49.6237],[6.1013,49.6231],[6.1015,49.6226],[6.0979,49.62],[6.0976,49.6186],[6.0971,49.6188],[6.0961,49.6172],[6.1063,49.6164],[6.1062,49.6158],[6.108,49.6152],[6.1085,49.6164],[6.1094,49.6162],[6.1114,49.6159],[6.1111,49.6151],[6.1147,49.6153],[6.1151,49.6145],[6.1197,49.6137],[6.1185,49.6154],[6.1171,49.6161],[6.1173,49.6179],[6.1168,49.6182],[6.1069,49.6203],[6.1075,49.6228],[6.1085,49.6235],[6.1078,49.6244],[6.1069,49.6243],[6.1067,49.6264],[6.113,49.6264],[6.1109,49.6268],[6.1108,49.6277],[6.1109,49.6282],[6.1136,49.6285],[6.1118,49.63],[6.1016,49.6454],[6.1,49.6462],[6.089,49.6461],[6.0784,49.6468],[6.0773,49.6446],[6.0769,49.6416],[6.0737,49.6378]]]}},{"type":"Feature","id":"quartier-lux-24","properties":{"name":"Weimerskirch","province":"Luxembourg","department":"Canton de Luxembourg","type":"Quartier","country":"Luxemburgo","iso":"LU"},"geometry":{"type":"Polygon","coordinates":[[[6.1333,49.6291],[6.1306,49.6268],[6.1311,49.6239],[6.1331,49.6224],[6.1331,49.6216],[6.1338,49.6215],[6.1347,49.6218],[6.134,49.6239],[6.135,49.6242],[6.1356,49.6236],[6.1369,49.6243],[6.1365,49.6247],[6.1391,49.6258],[6.1391,49.6266],[6.1428,49.628],[6.1423,49.6285],[6.1466,49.6309],[6.1515,49.6328],[6.158,49.6342],[6.156,49.6381],[6.1485,49.6359],[6.1428,49.6331],[6.145,49.6354],[6.1484,49.6372],[6.1477,49.6373],[6.1384,49.6323],[6.1356,49.6299],[6.1352,49.6303],[6.1333,49.6291]]]}},{"type":"Feature","id":"quartier-lux-26","properties":{"name":"Ville Haute","province":"Luxembourg","department":"Canton de Luxembourg","type":"Quartier","country":"Luxemburgo","iso":"LU"},"geometry":{"type":"Polygon","coordinates":[[[6.1193,49.6098],[6.1199,49.6057],[6.1218,49.6054],[6.1233,49.6074],[6.1266,49.6089],[6.1306,49.6083],[6.1335,49.6063],[6.1364,49.6072],[6.135,49.6078],[6.134,49.6093],[6.1357,49.6112],[6.1313,49.6142],[6.1315,49.6146],[6.1306,49.6154],[6.1307,49.6176],[6.1261,49.6167],[6.1247,49.6178],[6.1208,49.6157],[6.1194,49.6146],[6.1201,49.6135],[6.1183,49.6115],[6.1193,49.6098]]]}},{"type":"Feature","id":"quartier-lux-27","properties":{"name":"Limpertsberg","province":"Luxembourg","department":"Canton de Luxembourg","type":"Quartier","country":"Luxemburgo","iso":"LU"},"geometry":{"type":"Polygon","coordinates":[[[6.1067,49.6264],[6.1069,49.6243],[6.1078,49.6244],[6.1085,49.6235],[6.1075,49.6228],[6.107,49.6202],[6.1161,49.6185],[6.1173,49.6179],[6.1171,49.6161],[6.1193,49.6146],[6.1247,49.6178],[6.1261,49.6167],[6.1307,49.6176],[6.131,49.6228],[6.1303,49.6229],[6.1303,49.6221],[6.1295,49.6221],[6.1281,49.6259],[6.1247,49.626],[6.1246,49.6253],[6.1217,49.6249],[6.1203,49.6269],[6.1178,49.6273],[6.1128,49.6264],[6.1067,49.6264]]]}}]}