{"type":"FeatureCollection","features":[{"type":"Feature","id":"distrito-madrid-1","properties":{"name":"Centro","province":"Madrid","department":"Comunidad de Madrid","type":"Distrito","country":"España","iso":"ES"},"geometry":{"type":"MultiPolygon","coordinates":[[[[-3.6919,40.4085],[-3.7012,40.4062],[-3.71,40.4077],[-3.7155,40.4099],[-3.717,40.4123],[-3.7156,40.4151],[-3.7216,40.4152],[-3.7207,40.4196],[-3.7189,40.4214],[-3.7142,40.4216],[-3.7096,40.4246],[-3.7149,40.4318],[-3.7006,40.4302],[-3.6945,40.4288],[-3.6891,40.4264],[-3.6918,40.4205],[-3.6923,40.4175],[-3.6905,40.4096],[-3.6919,40.4085]]]]}},{"type":"Feature","id":"distrito-madrid-2","properties":{"name":"Arganzuela","province":"Madrid","department":"Comunidad de Madrid","type":"Distrito","country":"España","iso":"ES"},"geometry":{"type":"MultiPolygon","coordinates":[[[[-3.7026,40.4064],[-3.7012,40.4062],[-3.6928,40.4085],[-3.6919,40.4082],[-3.6905,40.4096],[-3.6834,40.4044],[-3.6777,40.402],[-3.6737,40.3987],[-3.6722,40.3955],[-3.6774,40.3917],[-3.6818,40.3854],[-3.6888,40.3834],[-3.7033,40.3964],[-3.7095,40.3982],[-3.7136,40.4008],[-3.7187,40.4011],[-3.7206,40.4025],[-3.7214,40.4064],[-3.7205,40.4097],[-3.7216,40.4152],[-3.7156,40.4151],[-3.717,40.4123],[-3.7155,40.4099],[-3.7107,40.4079],[-3.7026,40.4064]]]]}},{"type":"Feature","id":"distrito-madrid-3","properties":{"name":"Retiro","province":"Madrid","department":"Comunidad de Madrid","type":"Distrito","country":"España","iso":"ES"},"geometry":{"type":"MultiPolygon","coordinates":[[[[-3.6628,40.4097],[-3.667,40.4008],[-3.6722,40.3955],[-3.6737,40.3987],[-3.6777,40.402],[-3.6834,40.4044],[-3.6905,40.4096],[-3.6923,40.4171],[-3.6918,40.4205],[-3.6777,40.4229],[-3.6677,40.4224],[-3.6574,40.4199],[-3.6628,40.4097]]]]}},{"type":"Feature","id":"distrito-madrid-4","properties":{"name":"Salamanca","province":"Madrid","department":"Comunidad de Madrid","type":"Distrito","country":"España","iso":"ES"},"geometry":{"type":"MultiPolygon","coordinates":[[[[-3.6581,40.4395],[-3.6595,40.4326],[-3.6574,40.4199],[-3.6677,40.4224],[-3.6777,40.4229],[-3.6918,40.4205],[-3.6891,40.4264],[-3.6871,40.4342],[-3.6874,40.4364],[-3.6894,40.4391],[-3.6761,40.4386],[-3.6736,40.4399],[-3.6691,40.441],[-3.664,40.444],[-3.6593,40.4458],[-3.658,40.4433],[-3.6581,40.4395]]]]}},{"type":"Feature","id":"distrito-madrid-5","properties":{"name":"Chamartin","province":"Madrid","department":"Comunidad de Madrid","type":"Distrito","country":"España","iso":"ES"},"geometry":{"type":"MultiPolygon","coordinates":[[[[-3.6723,40.4839],[-3.6731,40.479],[-3.6724,40.4753],[-3.6671,40.4679],[-3.6636,40.4612],[-3.661,40.4503],[-3.6593,40.4458],[-3.664,40.444],[-3.6691,40.441],[-3.6736,40.4399],[-3.6761,40.4386],[-3.6894,40.4391],[-3.6905,40.4424],[-3.688,40.4672],[-3.6839,40.4835],[-3.6746,40.4852],[-3.6722,40.4852],[-3.6723,40.4839]]]]}},{"type":"Feature","id":"distrito-madrid-6","properties":{"name":"Tetuan","province":"Madrid","department":"Comunidad de Madrid","type":"Distrito","country":"España","iso":"ES"},"geometry":{"type":"MultiPolygon","coordinates":[[[[-3.6963,40.4757],[-3.6879,40.4759],[-3.6858,40.4753],[-3.688,40.4672],[-3.6899,40.4474],[-3.707,40.4483],[-3.7104,40.4535],[-3.712,40.4542],[-3.7114,40.4551],[-3.7116,40.4566],[-3.7072,40.4636],[-3.7085,40.466],[-3.712,40.4697],[-3.7101,40.4723],[-3.7031,40.4731],[-3.6992,40.4761],[-3.6963,40.4757]]]]}},{"type":"Feature","id":"distrito-madrid-7","properties":{"name":"Chamberi","province":"Madrid","department":"Comunidad de Madrid","type":"Distrito","country":"España","iso":"ES"},"geometry":{"type":"MultiPolygon","coordinates":[[[[-3.6899,40.4474],[-3.6905,40.4424],[-3.6894,40.4391],[-3.6874,40.4364],[-3.6871,40.4342],[-3.6891,40.4264],[-3.6945,40.4288],[-3.7006,40.4302],[-3.7149,40.4318],[-3.7166,40.4342],[-3.7159,40.4343],[-3.7171,40.436],[-3.7163,40.441],[-3.7186,40.4461],[-3.7169,40.4478],[-3.7134,40.447],[-3.7079,40.4483],[-3.6899,40.4474]]]]}},{"type":"Feature","id":"distrito-madrid-8","properties":{"name":"Fuencarral-El Pardo","province":"Madrid","department":"Comunidad de Madrid","type":"Distrito","country":"España","iso":"ES"},"geometry":{"type":"MultiPolygon","coordinates":[[[[-3.6413,40.6392],[-3.6375,40.6396],[-3.6363,40.6389],[-3.6316,40.6319],[-3.6288,40.6295],[-3.6283,40.628],[-3.6289,40.627],[-3.6275,40.6235],[-3.6282,40.6218],[-3.6273,40.6193],[-3.6256,40.6181],[-3.6213,40.6171],[-3.6186,40.6131],[-3.6167,40.6124],[-3.6171,40.6101],[-3.6155,40.6081],[-3.6158,40.6063],[-3.6148,40.6042],[-3.6151,40.6027],[-3.6039,40.5976],[-3.6035,40.5955],[-3.6006,40.5936],[-3.6006,40.5922],[-3.6017,40.5902],[-3.6037,40.5889],[-3.6051,40.5863],[-3.6106,40.5831],[-3.6151,40.5817],[-3.6237,40.5748],[-3.6267,40.5748],[-3.6298,40.576],[-3.6334,40.5756],[-3.6382,40.5762],[-3.6413,40.5776],[-3.649,40.5786],[-3.6514,40.5822],[-3.6532,40.5872],[-3.655,40.5902],[-3.659,40.5928],[-3.6624,40.5935],[-3.6658,40.5933],[-3.6846,40.5841],[-3.6873,40.5838],[-3.6905,40.5817],[-3.7003,40.5798],[-3.6969,40.5781],[-3.6957,40.576],[-3.6913,40.5728],[-3.6903,40.571],[-3.6893,40.5703],[-3.6881,40.5715],[-3.6877,40.5683],[-3.6844,40.5608],[-3.6811,40.555],[-3.6808,40.554],[-3.6815,40.5531],[-3.6805,40.5511],[-3.6775,40.5482],[-3.6765,40.544],[-3.6745,40.5422],[-3.6727,40.5393],[-3.6705,40.5384],[-3.668,40.5356],[-3.6697,40.5332],[-3.6759,40.5282],[-3.6707,40.5255],[-3.6663,40.5262],[-3.6647,40.5257],[-3.6643,40.5242],[-3.6649,40.5223],[-3.6616,40.5212],[-3.6573,40.5128],[-3.6563,40.5129],[-3.6574,40.5049],[-3.661,40.5005],[-3.6705,40.4924],[-3.6716,40.4899],[-3.6722,40.4852],[-3.6777,40.485],[-3.6839,40.4835],[-3.6858,40.4753],[-3.6879,40.4759],[-3.699,40.4761],[-3.7031,40.4731],[-3.7104,40.4722],[-3.712,40.4697],[-3.7128,40.4707],[-3.7267,40.4741],[-3.7319,40.4739],[-3.7395,40.4755],[-3.7462,40.4757],[-3.7491,40.4742],[-3.749,40.4713],[-3.7503,40.4757],[-3.7502,40.4796],[-3.7531,40.4792],[-3.7529,40.4806],[-3.7559,40.481],[-3.7569,40.4757],[-3.7579,40.4753],[-3.757,40.4747],[-3.757,40.4737],[-3.7621,40.4736],[-3.7622,40.4746],[-3.7672,40.4755],[-3.7797,40.4758],[-3.7933,40.4713],[-3.7989,40.4704],[-3.8353,40.4808],[-3.8349,40.4829],[-3.8338,40.4837],[-3.832,40.4871],[-3.8318,40.489],[-3.8331,40.4952],[-3.8381,40.5006],[-3.8373,40.504],[-3.8358,40.5071],[-3.8512,40.511],[-3.8527,40.5132],[-3.852,40.5157],[-3.8509,40.5166],[-3.85,40.5188],[-3.8531,40.5225],[-3.8524,40.5256],[-3.8564,40.5291],[-3.8568,40.5313],[-3.8617,40.5358],[-3.8626,40.5404],[-3.8644,40.5446],[-3.8681,40.5486],[-3.8681,40.5499],[-3.8715,40.5546],[-3.8725,40.5588],[-3.8741,40.56],[-3.8808,40.5608],[-3.8835,40.562],[-3.8836,40.5629],[-3.8825,40.565],[-3.8858,40.5676],[-3.8876,40.572],[-3.8871,40.5734],[-3.8844,40.5753],[-3.8825,40.5802],[-3.8829,40.5825],[-3.8821,40.5837],[-3.8824,40.5865],[-3.8755,40.5898],[-3.8746,40.5913],[-3.8726,40.5923],[-3.8661,40.5933],[-3.8647,40.593],[-3.8622,40.5907],[-3.8586,40.5894],[-3.8537,40.5892],[-3.8482,40.5919],[-3.8421,40.5935],[-3.8404,40.5938],[-3.8364,40.5925],[-3.832,40.5947],[-3.8263,40.5959],[-3.8214,40.5956],[-3.8131,40.5966],[-3.8114,40.5979],[-3.8047,40.601],[-3.8088,40.6078],[-3.8115,40.6095],[-3.8083,40.611],[-3.8069,40.6103],[-3.8049,40.6107],[-3.8048,40.6091],[-3.7992,40.6071],[-3.799,40.606],[-3.802,40.6001],[-3.7978,40.5997],[-3.7954,40.6011],[-3.794,40.6011],[-3.7886,40.6002],[-3.7837,40.6017],[-3.7822,40.6029],[-3.7803,40.602],[-3.7769,40.6029],[-3.7669,40.6008],[-3.7572,40.5973],[-3.7516,40.5959],[-3.7488,40.5936],[-3.7445,40.5934],[-3.7395,40.5918],[-3.7373,40.5881],[-3.736,40.5872],[-3.7285,40.5863],[-3.7194,40.5834],[-3.7066,40.5849],[-3.7063,40.5843],[-3.7041,40.5842],[-3.7041,40.5859],[-3.695,40.5911],[-3.6862,40.6079],[-3.6837,40.6098],[-3.6779,40.6124],[-3.6734,40.6176],[-3.6655,40.6208],[-3.6657,40.6237],[-3.6672,40.6272],[-3.667,40.63],[-3.6642,40.6353],[-3.6603,40.6407],[-3.6572,40.6432],[-3.6544,40.6444],[-3.6482,40.6429],[-3.6432,40.6393],[-3.6413,40.6392]]]]}},{"type":"Feature","id":"distrito-madrid-9","properties":{"name":"Moncloa-Aravaca","province":"Madrid","department":"Comunidad de Madrid","type":"Distrito","country":"España","iso":"ES"},"geometry":{"type":"MultiPolygon","coordinates":[[[[-3.7997,40.4706],[-3.7933,40.4713],[-3.7797,40.4758],[-3.7672,40.4755],[-3.7622,40.4746],[-3.7621,40.4736],[-3.757,40.4737],[-3.757,40.4747],[-3.7579,40.4753],[-3.7569,40.4757],[-3.7559,40.481],[-3.7529,40.4806],[-3.7531,40.4792],[-3.7502,40.4796],[-3.7503,40.4757],[-3.749,40.4713],[-3.7494,40.4735],[-3.7484,40.4749],[-3.7466,40.4756],[-3.7434,40.4756],[-3.7395,40.4755],[-3.7319,40.4739],[-3.7267,40.4741],[-3.7128,40.4707],[-3.7085,40.466],[-3.7072,40.4637],[-3.7116,40.4566],[-3.7114,40.4551],[-3.712,40.4542],[-3.7104,40.4535],[-3.707,40.4483],[-3.7134,40.447],[-3.7169,40.4478],[-3.7186,40.4461],[-3.7163,40.441],[-3.7171,40.436],[-3.7159,40.4343],[-3.7166,40.4342],[-3.7096,40.4246],[-3.7142,40.4216],[-3.7189,40.4214],[-3.7207,40.4196],[-3.7211,40.4184],[-3.7366,40.4126],[-3.7405,40.4104],[-3.742,40.4107],[-3.7496,40.4095],[-3.7557,40.4068],[-3.7584,40.4052],[-3.763,40.4006],[-3.7693,40.4007],[-3.7732,40.4015],[-3.7731,40.4033],[-3.775,40.4052],[-3.7773,40.4094],[-3.7801,40.4188],[-3.7791,40.4231],[-3.7778,40.4255],[-3.7695,40.4306],[-3.7695,40.4452],[-3.7762,40.4449],[-3.7834,40.4455],[-3.7888,40.4435],[-3.7876,40.4469],[-3.789,40.447],[-3.789,40.4489],[-3.7896,40.4487],[-3.7921,40.4545],[-3.7916,40.455],[-3.7942,40.4577],[-3.7946,40.4591],[-3.7976,40.4603],[-3.8028,40.4642],[-3.8088,40.4655],[-3.8139,40.465],[-3.8161,40.4657],[-3.8235,40.466],[-3.8277,40.4675],[-3.833,40.4656],[-3.8369,40.4689],[-3.8368,40.4721],[-3.8348,40.4761],[-3.8361,40.477],[-3.8353,40.4808],[-3.7997,40.4706]]]]}},{"type":"Feature","id":"distrito-madrid-10","properties":{"name":"Latina","province":"Madrid","department":"Comunidad de Madrid","type":"Distrito","country":"España","iso":"ES"},"geometry":{"type":"MultiPolygon","coordinates":[[[[-3.7213,40.4126],[-3.7205,40.4097],[-3.7214,40.4057],[-3.7235,40.4057],[-3.7233,40.4067],[-3.7242,40.4066],[-3.7283,40.4036],[-3.7358,40.3979],[-3.7377,40.3956],[-3.7415,40.3925],[-3.7434,40.3892],[-3.7517,40.3847],[-3.7573,40.3853],[-3.758,40.3848],[-3.7566,40.3834],[-3.7546,40.3797],[-3.7559,40.3787],[-3.7566,40.3767],[-3.7605,40.3756],[-3.7616,40.3702],[-3.7605,40.3681],[-3.7654,40.3653],[-3.7703,40.361],[-3.779,40.363],[-3.7865,40.3599],[-3.7936,40.363],[-3.8015,40.3645],[-3.8056,40.3676],[-3.8092,40.3649],[-3.8119,40.3708],[-3.8216,40.3819],[-3.8329,40.3972],[-3.8194,40.3978],[-3.8135,40.3952],[-3.8071,40.3936],[-3.7952,40.3934],[-3.7925,40.3948],[-3.7874,40.3951],[-3.7881,40.3936],[-3.7802,40.3954],[-3.7784,40.398],[-3.7768,40.3988],[-3.7763,40.4003],[-3.7745,40.4013],[-3.763,40.4006],[-3.7584,40.4052],[-3.7496,40.4095],[-3.742,40.4107],[-3.7405,40.4104],[-3.7366,40.4126],[-3.7211,40.4184],[-3.7216,40.4152],[-3.7213,40.4126]]]]}},{"type":"Feature","id":"distrito-madrid-11","properties":{"name":"Carabanchel","province":"Madrid","department":"Comunidad de Madrid","type":"Distrito","country":"España","iso":"ES"},"geometry":{"type":"MultiPolygon","coordinates":[[[[-3.7235,40.4062],[-3.7235,40.4057],[-3.7214,40.4057],[-3.7206,40.4025],[-3.719,40.4013],[-3.7136,40.4008],[-3.7095,40.3982],[-3.7033,40.3964],[-3.7066,40.3929],[-3.7116,40.3907],[-3.7162,40.3865],[-3.7177,40.3816],[-3.7196,40.3667],[-3.7564,40.3584],[-3.7703,40.361],[-3.7654,40.3653],[-3.7605,40.3681],[-3.7616,40.3702],[-3.7605,40.3756],[-3.7566,40.3767],[-3.7559,40.3787],[-3.7546,40.3797],[-3.7566,40.3834],[-3.758,40.3848],[-3.7573,40.3853],[-3.7517,40.3847],[-3.7434,40.3892],[-3.7415,40.3925],[-3.7377,40.3956],[-3.7358,40.3979],[-3.7247,40.4063],[-3.7238,40.4067],[-3.7235,40.4062]]]]}},{"type":"Feature","id":"distrito-madrid-12","properties":{"name":"Usera","province":"Madrid","department":"Comunidad de Madrid","type":"Distrito","country":"España","iso":"ES"},"geometry":{"type":"MultiPolygon","coordinates":[[[[-3.6819,40.3659],[-3.6806,40.3624],[-3.6909,40.3656],[-3.6958,40.3656],[-3.7019,40.3647],[-3.7197,40.366],[-3.7177,40.3816],[-3.7162,40.3865],[-3.7116,40.3907],[-3.7066,40.3929],[-3.7033,40.3964],[-3.6878,40.3822],[-3.686,40.3781],[-3.6864,40.3754],[-3.6848,40.3731],[-3.6812,40.3713],[-3.6805,40.368],[-3.6819,40.3659]]]]}},{"type":"Feature","id":"distrito-madrid-13","properties":{"name":"Puente de Vallecas","province":"Madrid","department":"Comunidad de Madrid","type":"Distrito","country":"España","iso":"ES"},"geometry":{"type":"MultiPolygon","coordinates":[[[[-3.6771,40.3618],[-3.6806,40.3624],[-3.6819,40.3656],[-3.6805,40.368],[-3.6812,40.3713],[-3.6852,40.3734],[-3.6864,40.3755],[-3.686,40.3781],[-3.6888,40.3834],[-3.6815,40.3856],[-3.6774,40.3917],[-3.6707,40.3965],[-3.6683,40.399],[-3.6639,40.4075],[-3.6554,40.4069],[-3.6535,40.4062],[-3.6436,40.3978],[-3.6413,40.3966],[-3.6206,40.3921],[-3.624,40.3844],[-3.6233,40.3833],[-3.6402,40.3791],[-3.6511,40.3772],[-3.6534,40.3715],[-3.6631,40.3653],[-3.6688,40.3628],[-3.6771,40.3618]]]]}},{"type":"Feature","id":"distrito-madrid-14","properties":{"name":"Moratalaz","province":"Madrid","department":"Comunidad de Madrid","type":"Distrito","country":"España","iso":"ES"},"geometry":{"type":"MultiPolygon","coordinates":[[[[-3.6416,40.4157],[-3.6301,40.4164],[-3.6229,40.4145],[-3.6191,40.4143],[-3.6243,40.4041],[-3.6281,40.3938],[-3.6425,40.3971],[-3.6527,40.4057],[-3.6548,40.4067],[-3.6639,40.4075],[-3.6574,40.4199],[-3.6464,40.4165],[-3.6416,40.4157]]]]}},{"type":"Feature","id":"distrito-madrid-15","properties":{"name":"Ciudad Lineal","province":"Madrid","department":"Comunidad de Madrid","type":"Distrito","country":"España","iso":"ES"},"geometry":{"type":"MultiPolygon","coordinates":[[[[-3.6206,40.4167],[-3.6191,40.4143],[-3.6229,40.4145],[-3.6301,40.4164],[-3.6416,40.4157],[-3.6464,40.4165],[-3.6574,40.4199],[-3.6595,40.4326],[-3.658,40.4401],[-3.658,40.4433],[-3.6608,40.4497],[-3.6636,40.4612],[-3.6671,40.4679],[-3.6724,40.4753],[-3.6731,40.479],[-3.6722,40.4852],[-3.6659,40.4853],[-3.658,40.4841],[-3.6599,40.4832],[-3.6644,40.478],[-3.6612,40.4652],[-3.655,40.4606],[-3.6452,40.4489],[-3.6379,40.4449],[-3.6342,40.4398],[-3.6367,40.4391],[-3.6206,40.4167]]]]}},{"type":"Feature","id":"distrito-madrid-16","properties":{"name":"Hortaleza","province":"Madrid","department":"Comunidad de Madrid","type":"Distrito","country":"España","iso":"ES"},"geometry":{"type":"MultiPolygon","coordinates":[[[[-3.6511,40.5123],[-3.6472,40.5118],[-3.6431,40.5092],[-3.632,40.5088],[-3.6302,40.5096],[-3.6272,40.5094],[-3.624,40.5106],[-3.6211,40.5102],[-3.6197,40.5112],[-3.6165,40.5112],[-3.6138,40.5121],[-3.605,40.5068],[-3.6045,40.5052],[-3.6013,40.5019],[-3.5985,40.4951],[-3.6002,40.4948],[-3.604,40.4922],[-3.611,40.4904],[-3.6126,40.4891],[-3.6137,40.4865],[-3.6135,40.4855],[-3.6163,40.4816],[-3.6196,40.48],[-3.6217,40.4779],[-3.6253,40.4763],[-3.6237,40.4738],[-3.6231,40.4699],[-3.6266,40.4697],[-3.6202,40.4618],[-3.611,40.4565],[-3.6041,40.4539],[-3.6034,40.4546],[-3.6021,40.4511],[-3.6294,40.4506],[-3.6368,40.4499],[-3.6446,40.451],[-3.6468,40.4506],[-3.655,40.4606],[-3.6607,40.4646],[-3.6644,40.478],[-3.6599,40.4832],[-3.658,40.4841],[-3.6659,40.4853],[-3.6722,40.4852],[-3.6717,40.4896],[-3.6699,40.4932],[-3.6616,40.5],[-3.6576,40.5045],[-3.6569,40.5064],[-3.657,40.5106],[-3.6563,40.5129],[-3.6549,40.5143],[-3.6532,40.514],[-3.6511,40.5123]]]]}},{"type":"Feature","id":"distrito-madrid-17","properties":{"name":"Villaverde","province":"Madrid","department":"Comunidad de Madrid","type":"Distrito","country":"España","iso":"ES"},"geometry":{"type":"MultiPolygon","coordinates":[[[[-3.7024,40.3647],[-3.6955,40.3657],[-3.6909,40.3656],[-3.6806,40.3624],[-3.68,40.3611],[-3.6761,40.3583],[-3.6749,40.3552],[-3.6725,40.3542],[-3.6718,40.3518],[-3.6686,40.3505],[-3.6677,40.348],[-3.668,40.3465],[-3.6629,40.3445],[-3.6615,40.3415],[-3.662,40.3406],[-3.6602,40.339],[-3.6596,40.3371],[-3.6576,40.3351],[-3.6563,40.3301],[-3.6596,40.3289],[-3.6624,40.3303],[-3.6685,40.3262],[-3.6779,40.3277],[-3.6834,40.3234],[-3.6866,40.3231],[-3.6917,40.3213],[-3.6949,40.3234],[-3.7018,40.3233],[-3.7112,40.3247],[-3.7116,40.3268],[-3.7131,40.3292],[-3.7189,40.332],[-3.7236,40.3362],[-3.7197,40.366],[-3.7024,40.3647]]]]}},{"type":"Feature","id":"distrito-madrid-18","properties":{"name":"Villa de Vallecas","province":"Madrid","department":"Comunidad de Madrid","type":"Distrito","country":"España","iso":"ES"},"geometry":{"type":"MultiPolygon","coordinates":[[[[-3.6063,40.3882],[-3.604,40.3872],[-3.6017,40.3877],[-3.6001,40.3863],[-3.5997,40.3841],[-3.5982,40.3835],[-3.5965,40.3808],[-3.5994,40.3779],[-3.5971,40.3753],[-3.5839,40.3687],[-3.5766,40.3679],[-3.5691,40.363],[-3.5647,40.3613],[-3.5533,40.3585],[-3.5521,40.3571],[-3.5534,40.3555],[-3.5564,40.3539],[-3.5576,40.3515],[-3.5594,40.3504],[-3.5609,40.3483],[-3.5641,40.3456],[-3.5669,40.3421],[-3.5714,40.3348],[-3.5782,40.3291],[-3.5812,40.3274],[-3.5838,40.3216],[-3.5838,40.3195],[-3.5825,40.317],[-3.578,40.3171],[-3.5765,40.3158],[-3.5748,40.3161],[-3.5767,40.3151],[-3.597,40.3132],[-3.6098,40.3155],[-3.6126,40.3168],[-3.6147,40.3189],[-3.6234,40.3216],[-3.6247,40.3204],[-3.6295,40.3221],[-3.6359,40.3271],[-3.6416,40.3304],[-3.6433,40.3321],[-3.6478,40.3346],[-3.6487,40.3334],[-3.6563,40.3301],[-3.6576,40.3351],[-3.6596,40.3371],[-3.6602,40.339],[-3.6619,40.3404],[-3.6615,40.3415],[-3.6633,40.3451],[-3.6677,40.3462],[-3.6678,40.3489],[-3.6686,40.3505],[-3.6718,40.3518],[-3.6725,40.3542],[-3.6749,40.3552],[-3.6761,40.3583],[-3.6802,40.3614],[-3.6806,40.3624],[-3.6776,40.3618],[-3.6726,40.3621],[-3.6647,40.3645],[-3.6534,40.3715],[-3.6511,40.3772],[-3.6402,40.3791],[-3.6233,40.3833],[-3.624,40.3844],[-3.6206,40.3921],[-3.6087,40.3893],[-3.6063,40.3882]]]]}},{"type":"Feature","id":"distrito-madrid-19","properties":{"name":"Vicalvaro","province":"Madrid","department":"Comunidad de Madrid","type":"Distrito","country":"España","iso":"ES"},"geometry":{"type":"MultiPolygon","coordinates":[[[[-3.5763,40.4148],[-3.5716,40.4129],[-3.5628,40.4147],[-3.5574,40.4143],[-3.5521,40.4129],[-3.548,40.4135],[-3.5385,40.4116],[-3.5384,40.4128],[-3.537,40.4126],[-3.5363,40.4137],[-3.5349,40.4137],[-3.5339,40.4156],[-3.5315,40.4153],[-3.5289,40.4159],[-3.5299,40.4213],[-3.5202,40.4144],[-3.518,40.4101],[-3.518,40.4072],[-3.5169,40.4033],[-3.5183,40.399],[-3.5191,40.3933],[-3.5213,40.393],[-3.5256,40.391],[-3.5278,40.3906],[-3.5316,40.3929],[-3.536,40.3925],[-3.5414,40.3943],[-3.5427,40.3896],[-3.5479,40.3818],[-3.5474,40.3782],[-3.5491,40.3769],[-3.5498,40.3752],[-3.5498,40.3721],[-3.551,40.368],[-3.5543,40.3653],[-3.5548,40.3632],[-3.5542,40.3606],[-3.5515,40.3625],[-3.5521,40.3571],[-3.5533,40.3585],[-3.5647,40.3613],[-3.5691,40.363],[-3.5766,40.3679],[-3.5839,40.3687],[-3.5976,40.3756],[-3.5994,40.3779],[-3.5965,40.3808],[-3.5982,40.3835],[-3.5997,40.3841],[-3.5996,40.3853],[-3.601,40.3874],[-3.6024,40.3878],[-3.604,40.3872],[-3.6052,40.3875],[-3.6087,40.3893],[-3.6281,40.3938],[-3.6226,40.4074],[-3.6188,40.4146],[-3.6166,40.4165],[-3.6095,40.4191],[-3.6089,40.4148],[-3.5888,40.4093],[-3.5825,40.4157],[-3.5811,40.4204],[-3.5762,40.4272],[-3.5739,40.4268],[-3.5782,40.4185],[-3.5763,40.4148]]]]}},{"type":"Feature","id":"distrito-madrid-20","properties":{"name":"San Blas","province":"Madrid","department":"Comunidad de Madrid","type":"Distrito","country":"España","iso":"ES"},"geometry":{"type":"MultiPolygon","coordinates":[[[[-3.592,40.4512],[-3.5563,40.4506],[-3.5331,40.4478],[-3.5298,40.4481],[-3.5342,40.4477],[-3.5337,40.4461],[-3.5343,40.4459],[-3.5394,40.4459],[-3.54,40.4448],[-3.551,40.4427],[-3.559,40.4393],[-3.5628,40.4392],[-3.5672,40.4374],[-3.5725,40.4389],[-3.5746,40.4379],[-3.5738,40.4353],[-3.5778,40.4348],[-3.5757,40.431],[-3.575,40.4309],[-3.5762,40.4272],[-3.5811,40.4204],[-3.5825,40.4157],[-3.5888,40.4093],[-3.6089,40.4148],[-3.6095,40.4191],[-3.6167,40.4165],[-3.6191,40.4143],[-3.6367,40.4391],[-3.6342,40.4398],[-3.6379,40.4449],[-3.6452,40.4489],[-3.6468,40.4506],[-3.6446,40.451],[-3.6368,40.4499],[-3.621,40.4509],[-3.592,40.4512]]]]}},{"type":"Feature","id":"distrito-madrid-21","properties":{"name":"Barajas","province":"Madrid","department":"Comunidad de Madrid","type":"Distrito","country":"España","iso":"ES"},"geometry":{"type":"MultiPolygon","coordinates":[[[[-3.5604,40.5123],[-3.5604,40.5119],[-3.553,40.5125],[-3.5538,40.5097],[-3.5539,40.5043],[-3.5521,40.5036],[-3.5517,40.5007],[-3.5487,40.4988],[-3.5429,40.4969],[-3.5404,40.495],[-3.5396,40.4897],[-3.5355,40.4874],[-3.536,40.4856],[-3.5336,40.4815],[-3.5326,40.4732],[-3.532,40.4726],[-3.5256,40.4716],[-3.5236,40.4701],[-3.5239,40.4681],[-3.5274,40.4648],[-3.5282,40.462],[-3.5277,40.4596],[-3.5257,40.4579],[-3.5253,40.4568],[-3.5281,40.4557],[-3.5315,40.4556],[-3.5332,40.4537],[-3.5311,40.4486],[-3.5304,40.4482],[-3.5331,40.4478],[-3.5563,40.4506],[-3.6021,40.4511],[-3.6034,40.4546],[-3.6041,40.4539],[-3.611,40.4565],[-3.6202,40.4618],[-3.6266,40.4697],[-3.6231,40.4699],[-3.6237,40.4738],[-3.6253,40.4763],[-3.6217,40.4779],[-3.6196,40.48],[-3.6163,40.4816],[-3.6135,40.4855],[-3.6137,40.4865],[-3.6126,40.4891],[-3.611,40.4904],[-3.604,40.4922],[-3.6002,40.4948],[-3.5985,40.4951],[-3.6019,40.5028],[-3.592,40.5026],[-3.5878,40.5057],[-3.5834,40.5079],[-3.5816,40.5096],[-3.5766,40.5115],[-3.5746,40.5116],[-3.5707,40.5136],[-3.5637,40.5132],[-3.5604,40.5123]]]]}}]}