{"type":"FeatureCollection","features":[{"type":"Feature","id":"ni5530","properties":{"name":"Ticuantepe","province":"Managua","department":"Managua","type":"Municipio","country":"Nicaragua","iso":"NI"},"geometry":{"type":"Polygon","coordinates":[[[-86.1908,11.9805],[-86.1743,12.026],[-86.1764,12.0267],[-86.2109,12.0644],[-86.237,12.0342],[-86.2433,12.0306],[-86.2449,12.0286],[-86.2501,12.0272],[-86.2511,12.0242],[-86.2542,12.0215],[-86.2576,12.0208],[-86.2598,12.0195],[-86.2612,12.0174],[-86.2693,12.014],[-86.2754,12.0127],[-86.2768,12.0115],[-86.2826,12.0111],[-86.2851,12.0101],[-86.2407,11.9728],[-86.1908,11.9805]]]}},{"type":"Feature","id":"ni5535","properties":{"name":"San Rafael del Sur","province":"Managua","department":"Managua","type":"Municipio","country":"Nicaragua","iso":"NI"},"geometry":{"type":"Polygon","coordinates":[[[-86.3261,11.9131],[-86.3559,11.929],[-86.3902,11.933],[-86.4414,11.9526],[-86.4412,11.9369],[-86.4481,11.9317],[-86.4475,11.9293],[-86.4494,11.9278],[-86.4511,11.9279],[-86.4526,11.9253],[-86.4573,11.9244],[-86.4587,11.9226],[-86.4602,11.9229],[-86.4615,11.9219],[-86.4646,11.9226],[-86.4674,11.9199],[-86.4702,11.9192],[-86.4716,11.9175],[-86.4761,11.9168],[-86.4787,11.9144],[-86.4817,11.9149],[-86.4834,11.9127],[-86.4853,11.9137],[-86.487,11.911],[-86.4908,11.912],[-86.4919,11.9098],[-86.4965,11.9069],[-86.4993,11.9065],[-86.5021,11.9089],[-86.5035,11.909],[-86.5049,11.9076],[-86.5047,11.906],[-86.5062,11.9044],[-86.5063,11.9017],[-86.5085,11.9025],[-86.5127,11.9018],[-86.5146,11.9035],[-86.517,11.9028],[-86.5186,11.9037],[-86.5215,11.904],[-86.523,11.9072],[-86.5253,11.9055],[-86.5267,11.9056],[-86.5282,11.909],[-86.5321,11.9096],[-86.535,11.9128],[-86.538,11.9119],[-86.5387,11.9138],[-86.5384,11.9162],[-86.5424,11.9195],[-86.5472,11.9192],[-86.5503,11.92],[-86.5529,11.9167],[-86.5539,11.9176],[-86.5547,11.9206],[-86.5553,11.9198],[-86.555,11.9169],[-86.558,11.9184],[-86.5608,11.9185],[-86.5612,11.9178],[-86.5603,11.9166],[-86.564,11.9163],[-86.5671,11.913],[-86.5704,11.9108],[-86.5729,11.9063],[-86.5741,11.9061],[-86.5754,11.9079],[-86.5762,11.9078],[-86.5791,11.9015],[-86.5818,11.901],[-86.5804,11.8978],[-86.582,11.8963],[-86.5819,11.8955],[-86.579,11.8944],[-86.5791,11.8923],[-86.5761,11.8904],[-86.5771,11.8865],[-86.5794,11.8858],[-86.5776,11.8826],[-86.5814,11.8789],[-86.5816,11.8761],[-86.5645,11.8597],[-86.5413,11.8339],[-86.5385,11.8303],[-86.5357,11.8244],[-86.5305,11.8192],[-86.5225,11.8068],[-86.5181,11.7948],[-86.517,11.7859],[-86.5196,11.7805],[-86.5168,11.7759],[-86.5133,11.7728],[-86.5082,11.7706],[-86.5035,11.7676],[-86.4937,11.7594],[-86.4914,11.7562],[-86.4811,11.7481],[-86.4655,11.7383],[-86.4421,11.7198],[-86.4396,11.7237],[-86.4386,11.7291],[-86.4405,11.7326],[-86.4402,11.7346],[-86.4429,11.7366],[-86.442,11.7389],[-86.4424,11.7405],[-86.4439,11.7419],[-86.4444,11.7438],[-86.4463,11.7444],[-86.4471,11.7462],[-86.449,11.747],[-86.4495,11.7482],[-86.4473,11.7507],[-86.442,11.7507],[-86.4418,11.7512],[-86.4457,11.7537],[-86.4419,11.7561],[-86.4394,11.7559],[-86.4383,11.7579],[-86.4387,11.7594],[-86.4411,11.7613],[-86.4395,11.7653],[-86.4354,11.7697],[-86.4311,11.7725],[-86.4247,11.7743],[-86.4236,11.7781],[-86.4214,11.7814],[-86.4189,11.781],[-86.4137,11.7858],[-86.4114,11.7864],[-86.4092,11.7857],[-86.4083,11.7886],[-86.4055,11.7874],[-86.4036,11.788],[-86.402,11.7873],[-86.4001,11.7877],[-86.3967,11.7892],[-86.3949,11.7924],[-86.3932,11.7924],[-86.392,11.7936],[-86.3905,11.7963],[-86.3918,11.7984],[-86.3905,11.8018],[-86.3879,11.8036],[-86.3869,11.8068],[-86.3841,11.8075],[-86.38,11.8111],[-86.3783,11.8186],[-86.3762,11.8198],[-86.3752,11.8262],[-86.374,11.8274],[-86.37,11.8288],[-86.3682,11.8357],[-86.3636,11.8442],[-86.3552,11.8544],[-86.353,11.8566],[-86.3508,11.8573],[-86.3537,11.8621],[-86.3512,11.8658],[-86.3496,11.8664],[-86.348,11.8714],[-86.3463,11.873],[-86.3447,11.8733],[-86.3437,11.8964],[-86.3261,11.9131]]]}},{"type":"Feature","id":"ni5510","properties":{"name":"Tipitapa","province":"Managua","department":"Managua","type":"Municipio","country":"Nicaragua","iso":"NI"},"geometry":{"type":"Polygon","coordinates":[[[-85.9784,12.5338],[-85.9791,12.5358],[-85.9813,12.5383],[-85.9822,12.5417],[-85.9843,12.5424],[-85.9859,12.5413],[-85.99,12.5425],[-85.995,12.5471],[-85.9972,12.5464],[-85.9987,12.5421],[-86.0498,12.548],[-86.0522,12.5572],[-86.0506,12.5604],[-86.05,12.5676],[-86.1089,12.5883],[-86.1178,12.5896],[-86.1171,12.5879],[-86.119,12.586],[-86.1185,12.58],[-86.1192,12.577],[-86.1234,12.5737],[-86.1247,12.5738],[-86.1243,12.4871],[-86.1041,12.4498],[-86.1023,12.4487],[-86.1002,12.4432],[-86.1015,12.4411],[-86.1028,12.4353],[-86.1055,12.4303],[-86.1047,12.4271],[-86.1088,12.4202],[-86.1082,12.4165],[-86.1038,12.4139],[-86.1039,12.4125],[-86.1021,12.4108],[-86.1021,12.3981],[-86.1032,12.3964],[-86.102,12.3948],[-86.1045,12.3906],[-86.1066,12.39],[-86.1091,12.3867],[-86.1087,12.384],[-86.1096,12.3819],[-86.1119,12.3814],[-86.1148,12.3827],[-86.1176,12.3823],[-86.1176,12.379],[-86.1194,12.3782],[-86.1195,12.3748],[-86.1203,12.3739],[-86.1221,12.3752],[-86.1231,12.3748],[-86.1232,12.3706],[-86.1296,12.3652],[-86.1304,12.3634],[-86.129,12.3622],[-86.1257,12.3618],[-86.127,12.3573],[-86.1236,12.3547],[-86.1242,12.3467],[-86.1236,12.3454],[-86.1214,12.3448],[-86.1203,12.3431],[-86.1201,12.3367],[-86.1209,12.334],[-86.1186,12.3343],[-86.1174,12.3335],[-86.1164,12.3375],[-86.1155,12.3378],[-86.1109,12.3343],[-86.1074,12.3332],[-86.106,12.3315],[-86.1038,12.3109],[-86.102,12.3102],[-86.1033,12.3084],[-86.1032,12.3036],[-86.1018,12.2994],[-86.1023,12.2935],[-86.101,12.2866],[-86.1026,12.2819],[-86.1006,12.2777],[-86.1002,12.2746],[-86.1011,12.2645],[-86.1031,12.261],[-86.1014,12.253],[-86.1033,12.2507],[-86.1051,12.2433],[-86.1088,12.2355],[-86.1104,12.2206],[-86.1134,12.2114],[-86.1136,12.2067],[-86.1118,12.2027],[-86.1111,12.1963],[-86.1115,12.1924],[-86.1139,12.1852],[-86.1149,12.1833],[-86.1169,12.1829],[-86.1192,12.178],[-86.1213,12.1777],[-86.1266,12.1746],[-86.1274,12.1746],[-86.1292,12.1767],[-86.1313,12.176],[-86.133,12.1776],[-86.1342,12.1776],[-86.1352,12.1771],[-86.1347,12.1763],[-86.1416,12.1748],[-86.1445,12.1724],[-86.1481,12.172],[-86.1496,12.1729],[-86.1495,12.1687],[-86.1474,12.1653],[-86.1472,12.1622],[-86.1452,12.158],[-86.1435,12.1569],[-86.1433,12.1534],[-86.1406,12.1497],[-86.1394,12.149],[-86.1377,12.1455],[-86.1258,12.141],[-86.0963,12.1429],[-86.0697,12.1369],[-86.0583,12.1513],[-86.0554,12.1534],[-86.0463,12.1541],[-86.0424,12.1536],[-86.039,12.1522],[-86.0318,12.153],[-86.0265,12.1483],[-86.0234,12.1469],[-86.0208,12.1472],[-86.0177,12.1496],[-85.9726,12.168],[-85.9273,12.1879],[-85.9159,12.1991],[-85.9171,12.2104],[-85.8987,12.2147],[-85.898,12.2139],[-85.8954,12.2136],[-85.8937,12.2119],[-85.8925,12.2119],[-85.8885,12.215],[-85.8867,12.2141],[-85.8848,12.2103],[-85.8827,12.2095],[-85.8816,12.2102],[-85.8805,12.2138],[-85.8795,12.2141],[-85.8782,12.2126],[-85.8777,12.2092],[-85.8738,12.2082],[-85.872,12.2068],[-85.8697,12.2079],[-85.8663,12.2063],[-85.8645,12.2042],[-85.8633,12.2012],[-85.8601,12.2017],[-85.857,12.2036],[-85.8536,12.2017],[-85.8248,12.2109],[-85.8243,12.2133],[-85.8228,12.2146],[-85.8234,12.2158],[-85.8218,12.2195],[-85.8226,12.2205],[-85.8221,12.2232],[-85.8241,12.224],[-85.8244,12.2276],[-85.8227,12.2294],[-85.8229,12.2311],[-85.8211,12.2329],[-85.8211,12.2354],[-85.8199,12.2361],[-85.8212,12.2365],[-85.8209,12.2376],[-85.8185,12.2399],[-85.8181,12.2432],[-85.8159,12.2444],[-85.8174,12.2474],[-85.8161,12.2482],[-85.8139,12.2521],[-85.8114,12.2526],[-85.8097,12.2562],[-85.8105,12.2612],[-85.8097,12.2672],[-85.8071,12.2706],[-85.8051,12.2706],[-85.8019,12.2746],[-85.7998,12.2752],[-85.7976,12.2779],[-85.7947,12.2788],[-85.8323,12.2754],[-85.8894,12.3241],[-85.9041,12.325],[-85.9283,12.344],[-85.9327,12.3498],[-85.9323,12.3528],[-85.9303,12.3565],[-85.9267,12.3576],[-85.9236,12.3574],[-85.9238,12.3602],[-85.9264,12.3638],[-85.9263,12.368],[-85.9245,12.3694],[-85.9251,12.3712],[-85.9265,12.3704],[-85.9255,12.3729],[-85.924,12.3735],[-85.9243,12.3767],[-85.9234,12.3762],[-85.9227,12.3768],[-85.9214,12.383],[-85.9183,12.3856],[-85.917,12.3885],[-85.9161,12.3887],[-85.9135,12.3951],[-85.915,12.3971],[-85.9197,12.3983],[-85.9242,12.401],[-85.9253,12.403],[-85.9265,12.4031],[-85.9271,12.4101],[-85.9281,12.4125],[-85.9277,12.4149],[-85.9286,12.4156],[-85.9329,12.4154],[-85.9394,12.4174],[-85.9393,12.4184],[-85.9362,12.4182],[-85.9359,12.4197],[-85.9441,12.4225],[-85.945,12.4262],[-85.9494,12.4292],[-85.9534,12.4308],[-85.9534,12.4321],[-85.952,12.434],[-85.9561,12.4362],[-85.9568,12.4374],[-85.9564,12.4399],[-85.9617,12.4395],[-85.9627,12.4417],[-85.9616,12.4439],[-85.9652,12.4465],[-85.9658,12.4488],[-85.9673,12.45],[-85.9669,12.4514],[-85.9644,12.4512],[-85.964,12.4521],[-85.9666,12.457],[-85.9675,12.4614],[-85.9761,12.4675],[-85.9747,12.4713],[-85.977,12.473],[-85.9781,12.4807],[-85.9776,12.4846],[-85.9748,12.4848],[-85.9771,12.4864],[-85.9777,12.4898],[-85.9792,12.492],[-85.9782,12.4963],[-85.9834,12.4999],[-85.9814,12.5023],[-85.9818,12.5039],[-85.9864,12.5057],[-85.9858,12.5065],[-85.9838,12.5065],[-85.9833,12.5089],[-85.9849,12.5146],[-85.9871,12.5163],[-85.9862,12.5186],[-85.9825,12.5217],[-85.9826,12.5232],[-85.9814,12.524],[-85.9811,12.5257],[-85.9796,12.5265],[-85.9811,12.5284],[-85.9785,12.5316],[-85.9784,12.5338]]]}},{"type":"Feature","id":"ni5540","properties":{"name":"Ciudad Sandino","province":"Managua","department":"Managua","type":"Municipio","country":"Nicaragua","iso":"NI"},"geometry":{"type":"Polygon","coordinates":[[[-86.3312,12.1847],[-86.3312,12.1866],[-86.3322,12.1879],[-86.3369,12.1874],[-86.3472,12.1733],[-86.35,12.1721],[-86.3443,12.1664],[-86.3518,12.1632],[-86.374,12.1631],[-86.4091,12.1441],[-86.4072,12.1405],[-86.4077,12.1368],[-86.4056,12.1341],[-86.401,12.1306],[-86.3984,12.1272],[-86.3972,12.1216],[-86.3959,12.1203],[-86.3959,12.1168],[-86.3933,12.1131],[-86.3935,12.11],[-86.3919,12.1076],[-86.3915,12.1046],[-86.3879,12.1061],[-86.3858,12.1051],[-86.3824,12.1072],[-86.3789,12.108],[-86.3754,12.1078],[-86.3775,12.105],[-86.3758,12.1049],[-86.3733,12.1022],[-86.3682,12.1085],[-86.3665,12.1095],[-86.3657,12.1006],[-86.3639,12.1004],[-86.3621,12.1016],[-86.3628,12.1093],[-86.3554,12.1087],[-86.354,12.1095],[-86.3536,12.1086],[-86.3525,12.1086],[-86.3533,12.1166],[-86.3501,12.1169],[-86.3503,12.1179],[-86.3484,12.1183],[-86.3464,12.118],[-86.3465,12.1169],[-86.3445,12.1166],[-86.3443,12.1175],[-86.3429,12.1173],[-86.3424,12.1225],[-86.335,12.122],[-86.3277,12.1173],[-86.326,12.1231],[-86.3235,12.1251],[-86.3241,12.1269],[-86.3235,12.1285],[-86.321,12.1301],[-86.3231,12.1309],[-86.3168,12.1311],[-86.3169,12.1319],[-86.3209,12.1333],[-86.3231,12.136],[-86.323,12.1508],[-86.3281,12.1546],[-86.3256,12.1586],[-86.3239,12.1583],[-86.3236,12.1602],[-86.3258,12.1611],[-86.3304,12.1671],[-86.3325,12.1675],[-86.3371,12.1787],[-86.335,12.1831],[-86.3324,12.1834],[-86.3312,12.1847]]]}},{"type":"Feature","id":"ni5505","properties":{"name":"San Francisco Libre","province":"Managua","department":"Managua","type":"Municipio","country":"Nicaragua","iso":"NI"},"geometry":{"type":"Polygon","coordinates":[[[-86.1178,12.5896],[-86.1283,12.5892],[-86.1313,12.5883],[-86.1334,12.5896],[-86.1356,12.5898],[-86.1378,12.5888],[-86.1407,12.5906],[-86.1424,12.5908],[-86.1466,12.5936],[-86.1489,12.5925],[-86.1553,12.5916],[-86.1577,12.5892],[-86.1591,12.5893],[-86.157,12.5956],[-86.158,12.6001],[-86.1602,12.6006],[-86.1627,12.6033],[-86.168,12.6046],[-86.1968,12.6276],[-86.2215,12.6312],[-86.2347,12.6254],[-86.2384,12.6263],[-86.2395,12.6281],[-86.2432,12.629],[-86.2478,12.6356],[-86.2513,12.6372],[-86.2537,12.6371],[-86.2567,12.6393],[-86.261,12.6379],[-86.2634,12.639],[-86.2657,12.6383],[-86.2677,12.6387],[-86.2697,12.6375],[-86.2741,12.6384],[-86.277,12.6377],[-86.279,12.6384],[-86.2803,12.6422],[-86.2831,12.6421],[-86.2828,12.6412],[-86.2837,12.6401],[-86.2867,12.6409],[-86.2883,12.639],[-86.292,12.6375],[-86.2933,12.6345],[-86.2966,12.6338],[-86.3049,12.634],[-86.3106,12.6351],[-86.3129,12.6341],[-86.3136,12.6324],[-86.3156,12.6308],[-86.3254,12.6298],[-86.3292,12.6274],[-86.3298,12.6256],[-86.328,12.6175],[-86.3305,12.6124],[-86.336,12.61],[-86.3407,12.6096],[-86.343,12.6067],[-86.3493,12.6032],[-86.3522,12.6048],[-86.3531,12.6046],[-86.3549,12.5954],[-86.354,12.5907],[-86.3552,12.5881],[-86.3606,12.5879],[-86.3632,12.5839],[-86.3632,12.5828],[-86.3619,12.5818],[-86.3591,12.5825],[-86.3573,12.5818],[-86.358,12.58],[-86.3645,12.5775],[-86.364,12.5745],[-86.3613,12.5718],[-86.3615,12.5692],[-86.3651,12.5673],[-86.3664,12.5619],[-86.3678,12.5601],[-86.3702,12.5593],[-86.3713,12.558],[-86.3701,12.5517],[-86.368,12.5504],[-86.3675,12.5485],[-86.3689,12.5441],[-86.3761,12.5397],[-86.3755,12.5338],[-86.3728,12.5279],[-86.3754,12.5255],[-86.3785,12.5253],[-86.3784,12.5233],[-86.3765,12.5205],[-86.3751,12.5211],[-86.3743,12.524],[-86.3732,12.524],[-86.3727,12.523],[-86.3736,12.5188],[-86.3773,12.5159],[-86.3749,12.5145],[-86.3736,12.5126],[-86.373,12.5096],[-86.3714,12.5079],[-86.3711,12.5039],[-86.3616,12.4999],[-86.3577,12.5022],[-86.3546,12.5013],[-86.3497,12.4942],[-86.3502,12.4936],[-86.352,12.4948],[-86.3539,12.4932],[-86.3566,12.4933],[-86.3561,12.4908],[-86.3544,12.4901],[-86.3531,12.4879],[-86.3529,12.4856],[-86.3539,12.4831],[-86.3534,12.4807],[-86.3514,12.4816],[-86.3501,12.4809],[-86.3497,12.4793],[-86.3515,12.4785],[-86.3523,12.4768],[-86.3542,12.4762],[-86.3552,12.477],[-86.3549,12.4809],[-86.3569,12.4818],[-86.3591,12.4806],[-86.3597,12.4785],[-86.3578,12.4767],[-86.3563,12.472],[-86.3585,12.4666],[-86.3546,12.4681],[-86.3528,12.471],[-86.3484,12.4752],[-86.3416,12.4783],[-86.3384,12.4877],[-86.3365,12.496],[-86.3352,12.4973],[-86.3328,12.4964],[-86.3324,12.4954],[-86.3317,12.4961],[-86.3266,12.4969],[-86.3255,12.4939],[-86.3264,12.4928],[-86.3248,12.4937],[-86.3241,12.4957],[-86.3221,12.494],[-86.3176,12.4925],[-86.3147,12.4925],[-86.3138,12.4935],[-86.3092,12.4925],[-86.3071,12.4932],[-86.3069,12.4951],[-86.3055,12.4955],[-86.3058,12.497],[-86.3038,12.4987],[-86.3026,12.4971],[-86.3002,12.498],[-86.2993,12.4952],[-86.2999,12.494],[-86.2993,12.4942],[-86.2995,12.4933],[-86.2979,12.4927],[-86.299,12.4937],[-86.298,12.4947],[-86.2985,12.498],[-86.2963,12.4989],[-86.2944,12.4986],[-86.2926,12.4964],[-86.2892,12.4954],[-86.2863,12.4915],[-86.2853,12.487],[-86.2824,12.4805],[-86.2829,12.4768],[-86.281,12.4752],[-86.2809,12.4739],[-86.2771,12.4681],[-86.2764,12.4611],[-86.2737,12.4511],[-86.2743,12.4466],[-86.2737,12.4419],[-86.2768,12.4368],[-86.277,12.4325],[-86.2799,12.4234],[-86.2794,12.4186],[-86.2761,12.4132],[-86.2738,12.4122],[-86.2712,12.4121],[-86.2697,12.4134],[-86.2679,12.4188],[-86.2638,12.4259],[-86.2612,12.4284],[-86.2672,12.4188],[-86.2693,12.4118],[-86.2716,12.4108],[-86.2755,12.411],[-86.2697,12.4097],[-86.2669,12.4105],[-86.2648,12.41],[-86.2616,12.4053],[-86.2593,12.4048],[-86.257,12.4026],[-86.2558,12.4028],[-86.2528,12.4056],[-86.25,12.405],[-86.2503,12.4071],[-86.2498,12.408],[-86.2485,12.4039],[-86.2447,12.402],[-86.2419,12.3995],[-86.2401,12.3905],[-86.2355,12.3865],[-86.2349,12.3835],[-86.2313,12.3807],[-86.2295,12.3727],[-86.2301,12.3667],[-86.2272,12.3612],[-86.2281,12.3596],[-86.2277,12.3584],[-86.225,12.357],[-86.2215,12.3491],[-86.2225,12.3468],[-86.2217,12.3449],[-86.2228,12.3425],[-86.2202,12.3411],[-86.2196,12.3398],[-86.2203,12.3382],[-86.2163,12.3355],[-86.2144,12.3309],[-86.2154,12.3299],[-86.2134,12.3291],[-86.2139,12.323],[-86.2125,12.3198],[-86.2121,12.3082],[-86.2111,12.3065],[-86.2098,12.2984],[-86.2104,12.2952],[-86.2101,12.2881],[-86.2119,12.2809],[-86.2104,12.2764],[-86.207,12.2731],[-86.2057,12.2765],[-86.2048,12.2756],[-86.2036,12.2765],[-86.2033,12.2803],[-86.2024,12.2805],[-86.2007,12.2788],[-86.1977,12.2803],[-86.1961,12.283],[-86.1953,12.2828],[-86.1946,12.2859],[-86.1934,12.287],[-86.1925,12.2863],[-86.1915,12.2873],[-86.1907,12.2911],[-86.189,12.2916],[-86.1882,12.2906],[-86.1851,12.292],[-86.1837,12.2945],[-86.1813,12.295],[-86.1799,12.2943],[-86.1786,12.2955],[-86.1793,12.2978],[-86.1779,12.2998],[-86.1776,12.3026],[-86.1762,12.3053],[-86.1739,12.3054],[-86.1733,12.3047],[-86.1731,12.3037],[-86.1747,12.3022],[-86.1745,12.3002],[-86.1739,12.3002],[-86.1734,12.3026],[-86.1721,12.3037],[-86.1726,12.3044],[-86.1705,12.3062],[-86.1687,12.3119],[-86.1672,12.3107],[-86.1669,12.3088],[-86.165,12.311],[-86.1647,12.314],[-86.1663,12.3156],[-86.1636,12.3158],[-86.1599,12.3225],[-86.1582,12.3229],[-86.1569,12.3221],[-86.1553,12.3234],[-86.1538,12.3229],[-86.1497,12.3301],[-86.1492,12.3346],[-86.1436,12.3412],[-86.1406,12.3427],[-86.1349,12.3418],[-86.1319,12.3408],[-86.1209,12.334],[-86.1201,12.3367],[-86.1203,12.3431],[-86.1214,12.3448],[-86.1236,12.3454],[-86.1242,12.3467],[-86.1236,12.3547],[-86.127,12.3573],[-86.1257,12.3618],[-86.129,12.3622],[-86.1304,12.3637],[-86.1296,12.3652],[-86.1232,12.3706],[-86.1231,12.3748],[-86.1221,12.3752],[-86.1203,12.3739],[-86.1195,12.3748],[-86.1194,12.3782],[-86.1176,12.379],[-86.1176,12.3823],[-86.1148,12.3827],[-86.1119,12.3814],[-86.1096,12.3819],[-86.1087,12.384],[-86.1091,12.3867],[-86.1066,12.39],[-86.1045,12.3906],[-86.102,12.3948],[-86.1032,12.3964],[-86.1021,12.3981],[-86.1021,12.4108],[-86.1039,12.4125],[-86.1038,12.4139],[-86.1082,12.4165],[-86.1088,12.4202],[-86.1047,12.4271],[-86.1055,12.4303],[-86.1028,12.4353],[-86.1015,12.4411],[-86.1003,12.4428],[-86.1006,12.4452],[-86.1025,12.449],[-86.1041,12.4498],[-86.1243,12.4871],[-86.1247,12.5738],[-86.1234,12.5737],[-86.1192,12.577],[-86.1185,12.58],[-86.119,12.586],[-86.1171,12.5879],[-86.1178,12.5896]]]}},{"type":"Feature","id":"ni5520","properties":{"name":"Villa El Carmen","province":"Managua","department":"Managua","type":"Municipio","country":"Nicaragua","iso":"NI"},"geometry":{"type":"Polygon","coordinates":[[[-86.5065,12.1568],[-86.5072,12.1559],[-86.5095,12.157],[-86.512,12.1558],[-86.514,12.1522],[-86.5235,12.1499],[-86.5252,12.1478],[-86.5295,12.1458],[-86.5305,12.1429],[-86.5349,12.1405],[-86.5359,12.1379],[-86.5347,12.1373],[-86.5366,12.1339],[-86.5348,12.1317],[-86.5349,12.1253],[-86.5384,12.1245],[-86.5445,12.1205],[-86.5455,12.1176],[-86.5485,12.1161],[-86.5485,12.1136],[-86.5532,12.1106],[-86.5609,12.1079],[-86.5683,12.1017],[-86.5704,12.098],[-86.5739,12.0964],[-86.5754,12.0939],[-86.5767,12.0933],[-86.5774,12.0915],[-86.5795,12.0918],[-86.5789,12.0898],[-86.5803,12.0888],[-86.5792,12.086],[-86.5805,12.0853],[-86.5827,12.0785],[-86.5852,12.0777],[-86.5892,12.078],[-86.5915,12.0761],[-86.5933,12.0779],[-86.5977,12.0783],[-86.5984,12.0802],[-86.5993,12.0806],[-86.6015,12.0776],[-86.603,12.0774],[-86.6039,12.0781],[-86.6052,12.082],[-86.6081,12.0821],[-86.6099,12.0835],[-86.6112,12.0833],[-86.6132,12.0856],[-86.6181,12.0874],[-86.6187,12.0893],[-86.6223,12.0889],[-86.6258,12.0906],[-86.628,12.0889],[-86.6321,12.0835],[-86.634,12.0823],[-86.6371,12.0821],[-86.6416,12.0769],[-86.646,12.0757],[-86.6474,12.0762],[-86.6479,12.0781],[-86.6511,12.0787],[-86.6547,12.0753],[-86.6592,12.0755],[-86.662,12.0747],[-86.6635,12.0732],[-86.6617,12.0692],[-86.6588,12.0673],[-86.6589,12.0653],[-86.6556,12.0575],[-86.6551,12.0538],[-86.6488,12.0482],[-86.6483,12.0458],[-86.6494,12.0444],[-86.6466,12.0412],[-86.6425,12.0408],[-86.6414,12.0395],[-86.641,12.0375],[-86.6421,12.0327],[-86.6413,12.0292],[-86.6457,12.0196],[-86.6524,12.0197],[-86.6539,12.0187],[-86.6527,12.0159],[-86.6539,12.0147],[-86.6729,12.009],[-86.6749,12.006],[-86.6748,11.999],[-86.6722,11.997],[-86.6667,11.9949],[-86.6653,11.9931],[-86.6648,11.9886],[-86.6634,11.986],[-86.6501,11.9745],[-86.6364,11.96],[-86.6325,11.9544],[-86.6297,11.9486],[-86.6188,11.9318],[-86.617,11.9268],[-86.6171,11.9248],[-86.6184,11.9236],[-86.6171,11.9207],[-86.619,11.9192],[-86.6173,11.9158],[-86.6186,11.9117],[-86.6172,11.9069],[-86.6078,11.8974],[-86.5923,11.8857],[-86.5816,11.8761],[-86.5814,11.8789],[-86.5776,11.8826],[-86.5794,11.8858],[-86.5771,11.8865],[-86.5761,11.8904],[-86.5791,11.8923],[-86.579,11.8944],[-86.5819,11.8955],[-86.582,11.8963],[-86.5804,11.8978],[-86.5818,11.901],[-86.5791,11.9015],[-86.5762,11.9078],[-86.5754,11.9079],[-86.5741,11.9061],[-86.5729,11.9063],[-86.5704,11.9108],[-86.5671,11.913],[-86.564,11.9163],[-86.5603,11.9166],[-86.5612,11.9178],[-86.5608,11.9185],[-86.558,11.9184],[-86.555,11.9169],[-86.5553,11.9198],[-86.5547,11.9206],[-86.5539,11.9176],[-86.5529,11.9167],[-86.5503,11.92],[-86.5472,11.9192],[-86.5424,11.9195],[-86.5384,11.9162],[-86.5387,11.9138],[-86.538,11.9119],[-86.535,11.9128],[-86.5321,11.9096],[-86.5282,11.909],[-86.5267,11.9056],[-86.5253,11.9055],[-86.523,11.9072],[-86.5215,11.904],[-86.5186,11.9037],[-86.517,11.9028],[-86.5146,11.9035],[-86.5127,11.9018],[-86.5085,11.9025],[-86.5063,11.9017],[-86.5062,11.9044],[-86.5047,11.906],[-86.5049,11.9076],[-86.5035,11.909],[-86.5021,11.9089],[-86.4993,11.9065],[-86.4965,11.9069],[-86.4919,11.9098],[-86.4908,11.912],[-86.487,11.911],[-86.4853,11.9137],[-86.4834,11.9127],[-86.4817,11.9149],[-86.4787,11.9144],[-86.4761,11.9168],[-86.4716,11.9175],[-86.4702,11.9192],[-86.4674,11.9199],[-86.4646,11.9226],[-86.4615,11.9219],[-86.4602,11.9229],[-86.4587,11.9226],[-86.4573,11.9244],[-86.4526,11.9253],[-86.4511,11.9279],[-86.4494,11.9278],[-86.4475,11.9293],[-86.4481,11.9317],[-86.4412,11.9369],[-86.4417,11.9842],[-86.4463,11.9968],[-86.4433,11.9989],[-86.4419,11.9988],[-86.4391,12.0013],[-86.437,12.0012],[-86.4359,12.0034],[-86.4342,12.0029],[-86.437,12.0253],[-86.4347,12.0267],[-86.4314,12.0264],[-86.4239,12.0286],[-86.4172,12.0323],[-86.4126,12.0332],[-86.4104,12.0349],[-86.4065,12.0351],[-86.4052,12.0361],[-86.4036,12.0362],[-86.3992,12.0396],[-86.3964,12.039],[-86.3891,12.041],[-86.3874,12.0426],[-86.3799,12.0461],[-86.3763,12.0491],[-86.3699,12.049],[-86.3652,12.0508],[-86.3628,12.0502],[-86.356,12.0529],[-86.3611,12.0578],[-86.3617,12.0613],[-86.3651,12.0641],[-86.3662,12.0666],[-86.3721,12.0719],[-86.3774,12.0742],[-86.3796,12.078],[-86.3794,12.0821],[-86.3805,12.083],[-86.3848,12.0829],[-86.3862,12.0912],[-86.3882,12.0965],[-86.3905,12.0988],[-86.3919,12.1029],[-86.3919,12.1076],[-86.3935,12.11],[-86.3933,12.1131],[-86.3959,12.1168],[-86.3959,12.1203],[-86.3972,12.1216],[-86.3973,12.1238],[-86.3982,12.125],[-86.4008,12.1256],[-86.4095,12.1215],[-86.4119,12.1215],[-86.4214,12.1155],[-86.425,12.1152],[-86.4262,12.1129],[-86.4292,12.1122],[-86.4396,12.1068],[-86.4468,12.1051],[-86.4496,12.1056],[-86.4711,12.1446],[-86.5012,12.1506],[-86.5067,12.156],[-86.5065,12.1568]]]}},{"type":"Feature","id":"ni5500","properties":{"name":"Mateare","province":"Managua","department":"Managua","type":"Municipio","country":"Nicaragua","iso":"NI"},"geometry":{"type":"Polygon","coordinates":[[[-86.3284,12.2959],[-86.3301,12.2976],[-86.3328,12.2958],[-86.3364,12.2973],[-86.3395,12.2949],[-86.361,12.2908],[-86.3667,12.287],[-86.3712,12.2863],[-86.3737,12.2849],[-86.3756,12.2854],[-86.3804,12.2824],[-86.3826,12.2823],[-86.3851,12.2807],[-86.3856,12.2795],[-86.3873,12.2793],[-86.3878,12.2778],[-86.3901,12.2759],[-86.3952,12.2736],[-86.3953,12.2722],[-86.398,12.2684],[-86.3989,12.2682],[-86.4149,12.2516],[-86.4162,12.2485],[-86.4113,12.2541],[-86.4073,12.2571],[-86.4064,12.2591],[-86.4055,12.2583],[-86.4049,12.2599],[-86.4036,12.2609],[-86.4038,12.2602],[-86.403,12.26],[-86.4062,12.2552],[-86.4074,12.2494],[-86.415,12.2434],[-86.4137,12.2429],[-86.4161,12.2423],[-86.4161,12.2413],[-86.4175,12.2401],[-86.4217,12.2387],[-86.425,12.2398],[-86.4258,12.2408],[-86.4278,12.2405],[-86.4307,12.2417],[-86.4318,12.2413],[-86.4342,12.2425],[-86.4366,12.245],[-86.4397,12.2451],[-86.4479,12.2547],[-86.4526,12.2587],[-86.4563,12.2592],[-86.4758,12.2708],[-86.4888,12.2604],[-86.5311,12.1907],[-86.5287,12.19],[-86.5248,12.1904],[-86.5175,12.1898],[-86.5096,12.1869],[-86.5048,12.1863],[-86.5005,12.184],[-86.4996,12.1821],[-86.5013,12.1729],[-86.5064,12.1672],[-86.5099,12.1673],[-86.5063,12.1572],[-86.5067,12.156],[-86.5012,12.1506],[-86.4711,12.1446],[-86.4496,12.1056],[-86.4468,12.1051],[-86.4396,12.1068],[-86.4292,12.1122],[-86.4262,12.1129],[-86.425,12.1152],[-86.4214,12.1155],[-86.4119,12.1215],[-86.4095,12.1215],[-86.4008,12.1256],[-86.3984,12.1252],[-86.3984,12.1272],[-86.3999,12.1294],[-86.4077,12.1368],[-86.4072,12.1405],[-86.4091,12.1441],[-86.374,12.1631],[-86.3518,12.1632],[-86.3443,12.1664],[-86.35,12.1721],[-86.3472,12.1733],[-86.3369,12.1874],[-86.3322,12.1879],[-86.3312,12.1866],[-86.3312,12.1847],[-86.3261,12.1851],[-86.3257,12.186],[-86.3273,12.1874],[-86.328,12.192],[-86.3264,12.1943],[-86.3227,12.1953],[-86.3222,12.1982],[-86.3202,12.2001],[-86.3181,12.2003],[-86.3156,12.1979],[-86.3144,12.1987],[-86.3141,12.2012],[-86.3122,12.2033],[-86.3076,12.2041],[-86.3053,12.2023],[-86.3033,12.2031],[-86.3007,12.2049],[-86.2998,12.2086],[-86.2962,12.2089],[-86.2957,12.2099],[-86.2955,12.2126],[-86.2945,12.2131],[-86.2944,12.2152],[-86.2924,12.2178],[-86.2927,12.2192],[-86.2917,12.2197],[-86.291,12.2227],[-86.2917,12.2232],[-86.2911,12.2277],[-86.292,12.2317],[-86.291,12.2352],[-86.2926,12.2384],[-86.2937,12.2392],[-86.294,12.2493],[-86.2947,12.2522],[-86.2941,12.2539],[-86.2981,12.2563],[-86.3007,12.2607],[-86.3007,12.2637],[-86.2997,12.2651],[-86.3003,12.2688],[-86.3015,12.2688],[-86.3017,12.2703],[-86.3024,12.2701],[-86.3043,12.273],[-86.3034,12.2745],[-86.3041,12.2798],[-86.3066,12.2807],[-86.307,12.2832],[-86.3082,12.285],[-86.309,12.2848],[-86.3085,12.2856],[-86.309,12.2853],[-86.3112,12.2878],[-86.315,12.288],[-86.3152,12.2891],[-86.3166,12.2881],[-86.3185,12.2898],[-86.3198,12.2939],[-86.3229,12.2971],[-86.3265,12.2955],[-86.3284,12.2959]]]}},{"type":"Feature","id":"ni5545","properties":{"name":"El Crucero","province":"Managua","department":"Managua","type":"Municipio","country":"Nicaragua","iso":"NI"},"geometry":{"type":"Polygon","coordinates":[[[-86.2518,12.0234],[-86.253,12.0278],[-86.254,12.0258],[-86.255,12.0255],[-86.2555,12.0285],[-86.2573,12.027],[-86.2576,12.0299],[-86.2608,12.0297],[-86.2659,12.0232],[-86.2667,12.0238],[-86.2667,12.0256],[-86.2683,12.0288],[-86.2695,12.026],[-86.2691,12.0225],[-86.2722,12.021],[-86.2744,12.0262],[-86.2766,12.0266],[-86.275,12.0274],[-86.2757,12.0288],[-86.2752,12.0315],[-86.2729,12.0373],[-86.2719,12.0373],[-86.2718,12.0405],[-86.2748,12.0397],[-86.2748,12.0378],[-86.278,12.0376],[-86.2783,12.04],[-86.2802,12.0397],[-86.2813,12.0383],[-86.2839,12.0382],[-86.2835,12.0392],[-86.2851,12.0394],[-86.2841,12.0427],[-86.2845,12.045],[-86.2938,12.0448],[-86.2927,12.0475],[-86.2936,12.0475],[-86.2936,12.0486],[-86.2955,12.0483],[-86.2949,12.0465],[-86.2976,12.0461],[-86.2995,12.0512],[-86.2994,12.0529],[-86.3004,12.0535],[-86.3043,12.0526],[-86.3051,12.0545],[-86.3064,12.0549],[-86.3069,12.0574],[-86.3082,12.0582],[-86.3086,12.0602],[-86.3096,12.0607],[-86.313,12.0679],[-86.3129,12.0716],[-86.3143,12.0712],[-86.3146,12.0718],[-86.3147,12.0756],[-86.3179,12.0755],[-86.3178,12.0734],[-86.3188,12.0731],[-86.3192,12.0745],[-86.3197,12.0732],[-86.3233,12.0725],[-86.324,12.0736],[-86.3241,12.0721],[-86.3268,12.071],[-86.327,12.07],[-86.3281,12.0708],[-86.3298,12.0688],[-86.331,12.0638],[-86.3365,12.0628],[-86.3382,12.06],[-86.3427,12.0613],[-86.3463,12.0605],[-86.3473,12.0593],[-86.347,12.0568],[-86.3517,12.0577],[-86.3519,12.0587],[-86.3575,12.0609],[-86.3565,12.0629],[-86.37,12.0715],[-86.3709,12.0707],[-86.3659,12.0663],[-86.3646,12.0634],[-86.3619,12.0615],[-86.3611,12.0578],[-86.3567,12.0538],[-86.356,12.0529],[-86.3564,12.0524],[-86.3628,12.0502],[-86.3652,12.0508],[-86.3699,12.049],[-86.3763,12.0491],[-86.3799,12.0461],[-86.3874,12.0426],[-86.3891,12.041],[-86.3964,12.039],[-86.3992,12.0396],[-86.4036,12.0362],[-86.4052,12.0361],[-86.4065,12.0351],[-86.4104,12.0349],[-86.4126,12.0332],[-86.4172,12.0323],[-86.4239,12.0286],[-86.4314,12.0264],[-86.4347,12.0267],[-86.437,12.0253],[-86.4342,12.0029],[-86.4359,12.0034],[-86.437,12.0012],[-86.4391,12.0013],[-86.4419,11.9988],[-86.4433,11.9989],[-86.4463,11.9968],[-86.4417,11.9842],[-86.4414,11.9526],[-86.3902,11.933],[-86.3559,11.929],[-86.3261,11.9131],[-86.3289,11.9197],[-86.3257,11.9217],[-86.3229,11.926],[-86.3213,11.9266],[-86.3171,11.9305],[-86.3113,11.9336],[-86.3088,11.934],[-86.3078,11.9372],[-86.2992,11.9456],[-86.2932,11.9544],[-86.2637,11.9922],[-86.2851,12.0101],[-86.2826,12.0111],[-86.2768,12.0115],[-86.2754,12.0127],[-86.2693,12.014],[-86.2612,12.0174],[-86.2595,12.0197],[-86.2545,12.0214],[-86.2518,12.0234]]]}},{"type":"Feature","id":"ni5525","properties":{"name":"Managua","province":"Managua","department":"Managua","type":"Municipio","country":"Nicaragua","iso":"NI"},"geometry":{"type":"MultiPolygon","coordinates":[[[[-86.1859,12.1744],[-86.1863,12.1749],[-86.1897,12.1739],[-86.1921,12.1713],[-86.1988,12.168],[-86.2,12.1665],[-86.2051,12.1635],[-86.2099,12.1626],[-86.2122,12.1637],[-86.216,12.1634],[-86.217,12.1651],[-86.2182,12.1654],[-86.2219,12.1635],[-86.2245,12.165],[-86.2293,12.1656],[-86.2346,12.1618],[-86.2369,12.1616],[-86.2407,12.1636],[-86.2537,12.1571],[-86.2595,12.1573],[-86.2584,12.1556],[-86.2601,12.1572],[-86.2684,12.1579],[-86.2773,12.1633],[-86.285,12.1668],[-86.283,12.1653],[-86.2842,12.1618],[-86.2858,12.1613],[-86.2878,12.1627],[-86.2908,12.1626],[-86.2922,12.1637],[-86.293,12.1658],[-86.2946,12.1667],[-86.2949,12.1693],[-86.2966,12.1696],[-86.2995,12.1655],[-86.3018,12.1662],[-86.3036,12.1684],[-86.3061,12.1697],[-86.3086,12.1673],[-86.3104,12.1681],[-86.3141,12.167],[-86.3213,12.1626],[-86.3236,12.1602],[-86.3239,12.1583],[-86.3256,12.1586],[-86.3281,12.1546],[-86.323,12.1508],[-86.3231,12.136],[-86.3209,12.1333],[-86.3169,12.1319],[-86.3168,12.1311],[-86.3231,12.1309],[-86.321,12.1301],[-86.3235,12.1285],[-86.3241,12.1269],[-86.3235,12.1251],[-86.326,12.1231],[-86.3277,12.1173],[-86.335,12.122],[-86.3424,12.1225],[-86.3429,12.1173],[-86.3443,12.1175],[-86.3445,12.1166],[-86.3465,12.1169],[-86.3464,12.118],[-86.3484,12.1183],[-86.3503,12.1179],[-86.3501,12.1169],[-86.3533,12.1166],[-86.3525,12.1086],[-86.3536,12.1086],[-86.354,12.1095],[-86.3554,12.1087],[-86.3628,12.1093],[-86.3621,12.1016],[-86.3639,12.1004],[-86.3657,12.1006],[-86.3665,12.1095],[-86.3682,12.1085],[-86.3733,12.1022],[-86.3758,12.1049],[-86.3775,12.105],[-86.3754,12.1078],[-86.3789,12.108],[-86.3824,12.1072],[-86.3858,12.1051],[-86.3879,12.1061],[-86.3915,12.1046],[-86.3919,12.1029],[-86.3905,12.0988],[-86.3882,12.0965],[-86.3862,12.0912],[-86.3848,12.0829],[-86.3805,12.083],[-86.3794,12.0821],[-86.3796,12.078],[-86.3771,12.0741],[-86.3709,12.0707],[-86.3693,12.0713],[-86.3565,12.0629],[-86.3575,12.0609],[-86.3519,12.0587],[-86.3517,12.0577],[-86.347,12.0568],[-86.3473,12.0593],[-86.3463,12.0605],[-86.3427,12.0613],[-86.3382,12.06],[-86.3365,12.0628],[-86.331,12.0638],[-86.3298,12.0688],[-86.3281,12.0708],[-86.327,12.07],[-86.3268,12.071],[-86.3241,12.0721],[-86.324,12.0736],[-86.3233,12.0725],[-86.3197,12.0732],[-86.3192,12.0745],[-86.3188,12.0731],[-86.3178,12.0734],[-86.3179,12.0755],[-86.3147,12.0756],[-86.3146,12.0718],[-86.3143,12.0712],[-86.3129,12.0716],[-86.313,12.0679],[-86.3096,12.0607],[-86.3086,12.0602],[-86.3082,12.0582],[-86.3069,12.0574],[-86.3064,12.0549],[-86.3051,12.0545],[-86.3043,12.0526],[-86.3004,12.0535],[-86.2994,12.0529],[-86.2995,12.0512],[-86.2976,12.0461],[-86.2949,12.0465],[-86.2955,12.0483],[-86.2936,12.0486],[-86.2936,12.0475],[-86.2927,12.0475],[-86.2938,12.0448],[-86.2845,12.045],[-86.2841,12.0427],[-86.2851,12.0394],[-86.2835,12.0392],[-86.2839,12.0382],[-86.2813,12.0383],[-86.2802,12.0397],[-86.2783,12.04],[-86.278,12.0376],[-86.2748,12.0378],[-86.2748,12.0397],[-86.2718,12.0405],[-86.2719,12.0373],[-86.2729,12.0373],[-86.2752,12.0315],[-86.2757,12.0288],[-86.275,12.0274],[-86.2766,12.0266],[-86.2744,12.0262],[-86.2722,12.021],[-86.2691,12.0225],[-86.2695,12.026],[-86.2683,12.0288],[-86.2667,12.0256],[-86.2667,12.0238],[-86.2659,12.0232],[-86.2608,12.0297],[-86.2576,12.0299],[-86.2573,12.027],[-86.2555,12.0285],[-86.255,12.0255],[-86.254,12.0258],[-86.253,12.0278],[-86.2518,12.0234],[-86.2501,12.0272],[-86.2449,12.0286],[-86.2433,12.0306],[-86.237,12.0342],[-86.2109,12.0645],[-86.1708,12.0918],[-86.1458,12.099],[-86.1258,12.1412],[-86.1377,12.1455],[-86.1394,12.149],[-86.1406,12.1497],[-86.1433,12.1534],[-86.1435,12.1569],[-86.1452,12.158],[-86.1472,12.1622],[-86.1474,12.1653],[-86.1495,12.1687],[-86.1496,12.1729],[-86.1588,12.1744],[-86.161,12.1735],[-86.1633,12.1747],[-86.1677,12.1731],[-86.1709,12.1741],[-86.173,12.1717],[-86.1747,12.1709],[-86.1766,12.1707],[-86.1774,12.1715],[-86.1788,12.1706],[-86.1814,12.1723],[-86.1849,12.1728],[-86.1859,12.1744]]],[[[-86.3174,12.1714],[-86.3163,12.1718],[-86.3166,12.1726],[-86.3181,12.1719],[-86.3174,12.1714]]],[[[-86.3172,12.1738],[-86.3161,12.1754],[-86.3166,12.1764],[-86.3173,12.176],[-86.3178,12.1738],[-86.3172,12.1738]]]]}}]}