{"type":"FeatureCollection","features":[{"type":"Feature","id":"monaco-quartier-1","properties":{"name":"Fontvieille","province":"Monaco","department":"Monaco","type":"Quartier","country":"Mónaco","iso":"MC"},"geometry":{"type":"MultiPolygon","coordinates":[[[[7.412,43.7281],[7.4128,43.7302],[7.4159,43.7314],[7.4175,43.7316],[7.4195,43.7308],[7.4203,43.7299],[7.4217,43.7301],[7.422,43.7296],[7.4228,43.7294],[7.4228,43.7285],[7.424,43.728],[7.4185,43.7248],[7.412,43.7281]]]]}},{"type":"Feature","id":"monaco-quartier-2","properties":{"name":"Monaco-Ville","province":"Monaco","department":"Monaco","type":"Quartier","country":"Mónaco","iso":"MC"},"geometry":{"type":"MultiPolygon","coordinates":[[[[7.4175,43.7316],[7.419,43.7325],[7.4218,43.732],[7.4283,43.7328],[7.4283,43.7321],[7.4273,43.7309],[7.426,43.7307],[7.424,43.7294],[7.4222,43.7294],[7.4212,43.7302],[7.4203,43.7299],[7.4195,43.7308],[7.4175,43.7316]]]]}},{"type":"Feature","id":"monaco-quartier-3","properties":{"name":"La Condamine","province":"Monaco","department":"Monaco","type":"Quartier","country":"Mónaco","iso":"MC"},"geometry":{"type":"MultiPolygon","coordinates":[[[[7.4159,43.7314],[7.4175,43.7316],[7.419,43.7325],[7.4218,43.732],[7.4283,43.7328],[7.4321,43.7364],[7.4301,43.7364],[7.4295,43.7377],[7.421,43.7372],[7.4186,43.7353],[7.4181,43.7344],[7.4172,43.7343],[7.4175,43.7335],[7.4159,43.7314]]]]}},{"type":"Feature","id":"monaco-quartier-4","properties":{"name":"La Rousse","province":"Monaco","department":"Monaco","type":"Quartier","country":"Mónaco","iso":"MC"},"geometry":{"type":"MultiPolygon","coordinates":[[[[7.4288,43.746],[7.4306,43.749],[7.4319,43.7489],[7.436,43.75],[7.4376,43.7512],[7.4368,43.7516],[7.4369,43.7519],[7.4387,43.7512],[7.4384,43.7494],[7.4376,43.7495],[7.4352,43.7485],[7.4308,43.7456],[7.4299,43.7461],[7.4288,43.746]]]]}},{"type":"Feature","id":"monaco-quartier-5","properties":{"name":"Larvotto","province":"Monaco","department":"Monaco","type":"Quartier","country":"Mónaco","iso":"MC"},"geometry":{"type":"MultiPolygon","coordinates":[[[[7.4305,43.7408],[7.4314,43.7409],[7.4309,43.7398],[7.4317,43.7398],[7.4325,43.7413],[7.4336,43.742],[7.4337,43.7429],[7.4328,43.7442],[7.4335,43.7449],[7.4328,43.7451],[7.4335,43.7461],[7.4353,43.7468],[7.4359,43.7464],[7.4365,43.7469],[7.436,43.7473],[7.4366,43.7476],[7.4379,43.7463],[7.4398,43.7466],[7.4392,43.749],[7.4376,43.7495],[7.431,43.7459],[7.4296,43.743],[7.4296,43.7411],[7.4305,43.7408]]],[[[7.4343,43.7457],[7.4347,43.7459],[7.4343,43.7457],[7.4343,43.7457]]]]}},{"type":"Feature","id":"monaco-quartier-6","properties":{"name":"Monte-Carlo","province":"Monaco","department":"Monaco","type":"Quartier","country":"Mónaco","iso":"MC"},"geometry":{"type":"MultiPolygon","coordinates":[[[[7.4191,43.7389],[7.4214,43.7375],[7.4223,43.7376],[7.4223,43.7371],[7.4295,43.7377],[7.4306,43.7401],[7.4305,43.7409],[7.4296,43.7411],[7.4296,43.7434],[7.4308,43.7456],[7.4299,43.7461],[7.4288,43.746],[7.4281,43.7439],[7.4253,43.7415],[7.4245,43.7409],[7.423,43.7417],[7.4222,43.7414],[7.4208,43.7398],[7.4191,43.7389]]]]}},{"type":"Feature","id":"monaco-quartier-7","properties":{"name":"Jardin Exotique","province":"Monaco","department":"Monaco","type":"Quartier","country":"Mónaco","iso":"MC"},"geometry":{"type":"MultiPolygon","coordinates":[[[[7.412,43.7281],[7.409,43.7296],[7.4105,43.7311],[7.4129,43.7317],[7.4131,43.733],[7.4123,43.7343],[7.4145,43.7359],[7.415,43.7358],[7.4154,43.7356],[7.4151,43.7351],[7.4164,43.7351],[7.4162,43.7344],[7.4171,43.7344],[7.4175,43.7335],[7.4159,43.7314],[7.4128,43.7302],[7.412,43.7281]]]]}},{"type":"Feature","id":"monaco-quartier-8","properties":{"name":"Les Moneghetti","province":"Monaco","department":"Monaco","type":"Quartier","country":"Mónaco","iso":"MC"},"geometry":{"type":"MultiPolygon","coordinates":[[[[7.4145,43.7359],[7.4189,43.7387],[7.4192,43.7378],[7.4209,43.7373],[7.4179,43.7344],[7.4162,43.7344],[7.4164,43.7351],[7.4151,43.7351],[7.4154,43.7356],[7.4145,43.7359]]]]}},{"type":"Feature","id":"monaco-quartier-9","properties":{"name":"Ravin de Sainte-Dévote","province":"Monaco","department":"Monaco","type":"Quartier","country":"Mónaco","iso":"MC"},"geometry":{"type":"MultiPolygon","coordinates":[[[[7.4189,43.7387],[7.4192,43.7378],[7.4213,43.737],[7.4223,43.7371],[7.4223,43.7376],[7.4214,43.7375],[7.4191,43.7389],[7.4189,43.7387]]]]}}]}