{"type":"FeatureCollection","features":[{"type":"Feature","id":32,"properties":{"name":"Manga Toledo Chico","province":"Montevideo","department":"Montevideo","type":"Barrio","country":"Uruguay","iso":"UY"},"geometry":{"type":"Polygon","coordinates":[[[-56.0875,-34.779],[-56.1071,-34.7896],[-56.1088,-34.7894],[-56.1178,-34.7939],[-56.1201,-34.7989],[-56.1251,-34.8015],[-56.1274,-34.7987],[-56.1361,-34.7997],[-56.1364,-34.8004],[-56.1364,-34.7998],[-56.1439,-34.8009],[-56.1428,-34.8061],[-56.1645,-34.8089],[-56.1834,-34.8275],[-56.1855,-34.826],[-56.1853,-34.8233],[-56.1878,-34.8214],[-56.1878,-34.819],[-56.1856,-34.8153],[-56.1859,-34.813],[-56.1834,-34.8113],[-56.1838,-34.8098],[-56.1857,-34.8087],[-56.1827,-34.8056],[-56.1845,-34.8046],[-56.1841,-34.8035],[-56.1851,-34.8032],[-56.1866,-34.8007],[-56.185,-34.7978],[-56.1848,-34.796],[-56.1912,-34.7903],[-56.1915,-34.7892],[-56.1905,-34.7876],[-56.1912,-34.7864],[-56.1905,-34.784],[-56.1915,-34.7818],[-56.1911,-34.7794],[-56.1904,-34.776],[-56.1893,-34.7745],[-56.1885,-34.7744],[-56.1882,-34.7728],[-56.1886,-34.7718],[-56.1938,-34.7681],[-56.1937,-34.7672],[-56.193,-34.7663],[-56.1923,-34.7665],[-56.1909,-34.7634],[-56.1899,-34.7631],[-56.1859,-34.7643],[-56.1825,-34.7628],[-56.1809,-34.7635],[-56.1782,-34.7626],[-56.1777,-34.7617],[-56.1789,-34.7611],[-56.178,-34.7596],[-56.1797,-34.758],[-56.1793,-34.7562],[-56.1769,-34.7557],[-56.1765,-34.7549],[-56.1772,-34.7546],[-56.1758,-34.7534],[-56.1751,-34.7513],[-56.173,-34.7511],[-56.1715,-34.7496],[-56.1711,-34.7486],[-56.1714,-34.7452],[-56.1688,-34.7421],[-56.1676,-34.7356],[-56.1661,-34.7342],[-56.16,-34.7239],[-56.1437,-34.7145],[-56.1356,-34.7166],[-56.1324,-34.7145],[-56.1261,-34.7183],[-56.1217,-34.727],[-56.1284,-34.7293],[-56.127,-34.7323],[-56.1281,-34.7343],[-56.1251,-34.7361],[-56.1214,-34.7401],[-56.1219,-34.7451],[-56.1161,-34.7492],[-56.1124,-34.7507],[-56.1065,-34.7519],[-56.1037,-34.7504],[-56.1002,-34.7533],[-56.0982,-34.7567],[-56.094,-34.7586],[-56.094,-34.7609],[-56.0992,-34.7667],[-56.0976,-34.7724],[-56.0944,-34.7765],[-56.0912,-34.7787],[-56.0875,-34.779]]]}},{"type":"Feature","id":58,"properties":{"name":"Colon Sureste Abayuba","province":"Montevideo","department":"Montevideo","type":"Barrio","country":"Uruguay","iso":"UY"},"geometry":{"type":"Polygon","coordinates":[[[-56.1657,-34.733],[-56.168,-34.7367],[-56.1677,-34.7378],[-56.1688,-34.7421],[-56.1714,-34.7452],[-56.1711,-34.7486],[-56.1715,-34.7496],[-56.173,-34.7511],[-56.1751,-34.7513],[-56.1758,-34.7534],[-56.1772,-34.7546],[-56.1765,-34.7549],[-56.1769,-34.7557],[-56.1793,-34.7562],[-56.1797,-34.758],[-56.178,-34.7596],[-56.1789,-34.7611],[-56.1777,-34.7617],[-56.1782,-34.7626],[-56.1809,-34.7635],[-56.1825,-34.7628],[-56.1859,-34.7643],[-56.1899,-34.7631],[-56.1909,-34.7634],[-56.1923,-34.7665],[-56.193,-34.7663],[-56.1937,-34.7672],[-56.1938,-34.7681],[-56.1886,-34.7718],[-56.1882,-34.7728],[-56.1885,-34.7744],[-56.1893,-34.7745],[-56.1904,-34.776],[-56.1911,-34.7794],[-56.1915,-34.7818],[-56.1905,-34.784],[-56.1912,-34.7864],[-56.1905,-34.7876],[-56.1915,-34.7892],[-56.1912,-34.7903],[-56.1882,-34.7928],[-56.1878,-34.7938],[-56.1848,-34.796],[-56.185,-34.7978],[-56.1866,-34.8007],[-56.1851,-34.8032],[-56.1841,-34.8035],[-56.1842,-34.8048],[-56.1902,-34.8022],[-56.1946,-34.8024],[-56.1997,-34.8063],[-56.2009,-34.8076],[-56.1924,-34.8115],[-56.1962,-34.8166],[-56.2092,-34.8092],[-56.2107,-34.8137],[-56.213,-34.817],[-56.2199,-34.8128],[-56.2225,-34.7867],[-56.2238,-34.7861],[-56.2241,-34.7868],[-56.2239,-34.7828],[-56.2276,-34.7677],[-56.2238,-34.7656],[-56.2225,-34.7655],[-56.2209,-34.7621],[-56.2201,-34.7618],[-56.2199,-34.7598],[-56.2097,-34.7397],[-56.2049,-34.7344],[-56.2034,-34.7307],[-56.1925,-34.7218],[-56.1817,-34.721],[-56.1782,-34.7194],[-56.1754,-34.7214],[-56.1726,-34.7252],[-56.1699,-34.7323],[-56.1657,-34.733]]]}},{"type":"Feature","id":61,"properties":{"name":"Villa Garcia Manga Rural","province":"Montevideo","department":"Montevideo","type":"Barrio","country":"Uruguay","iso":"UY"},"geometry":{"type":"Polygon","coordinates":[[[-56.1251,-34.8015],[-56.1201,-34.7989],[-56.1178,-34.7939],[-56.1088,-34.7894],[-56.1071,-34.7896],[-56.0893,-34.7804],[-56.0842,-34.7752],[-56.0773,-34.7747],[-56.0742,-34.7711],[-56.0709,-34.7726],[-56.0665,-34.7659],[-56.0608,-34.7706],[-56.0564,-34.7631],[-56.0544,-34.7618],[-56.0504,-34.7631],[-56.0475,-34.7622],[-56.0403,-34.764],[-56.0373,-34.7683],[-56.0355,-34.7691],[-56.0329,-34.7723],[-56.03,-34.7769],[-56.0285,-34.7781],[-56.0283,-34.7804],[-56.0295,-34.7816],[-56.0345,-34.7832],[-56.0324,-34.7852],[-56.0368,-34.7844],[-56.0393,-34.7892],[-56.0448,-34.7917],[-56.0414,-34.7939],[-56.0414,-34.7959],[-56.0398,-34.7969],[-56.0396,-34.7977],[-56.0427,-34.7985],[-56.0418,-34.8015],[-56.0402,-34.8028],[-56.0421,-34.8042],[-56.0409,-34.8058],[-56.0467,-34.8071],[-56.0673,-34.7951],[-56.0703,-34.7924],[-56.0802,-34.7978],[-56.0757,-34.8036],[-56.1184,-34.8244],[-56.1216,-34.8253],[-56.1196,-34.828],[-56.1235,-34.8305],[-56.1262,-34.8257],[-56.1281,-34.8199],[-56.1291,-34.8199],[-56.1304,-34.8157],[-56.1365,-34.8165],[-56.1261,-34.802],[-56.1251,-34.8015]]]}},{"type":"Feature","id":16,"properties":{"name":"Bañados De Carrasco","province":"Montevideo","department":"Montevideo","type":"Barrio","country":"Uruguay","iso":"UY"},"geometry":{"type":"Polygon","coordinates":[[[-56.0703,-34.7924],[-56.0673,-34.7951],[-56.0467,-34.8071],[-56.0494,-34.8078],[-56.0499,-34.8116],[-56.0522,-34.8125],[-56.0552,-34.8118],[-56.0556,-34.8131],[-56.0528,-34.8161],[-56.0538,-34.8183],[-56.0521,-34.8221],[-56.0549,-34.8239],[-56.0548,-34.8427],[-56.0534,-34.8477],[-56.0545,-34.8502],[-56.0538,-34.8521],[-56.0563,-34.8581],[-56.0554,-34.8599],[-56.0577,-34.8616],[-56.0596,-34.8667],[-56.0696,-34.8702],[-56.0809,-34.8699],[-56.0944,-34.8723],[-56.0923,-34.8668],[-56.0982,-34.866],[-56.0957,-34.8603],[-56.0997,-34.8578],[-56.1027,-34.8578],[-56.1065,-34.8591],[-56.1104,-34.8582],[-56.1114,-34.8561],[-56.1123,-34.8559],[-56.1129,-34.8567],[-56.1141,-34.8559],[-56.1136,-34.8515],[-56.1152,-34.851],[-56.1136,-34.8461],[-56.1125,-34.8464],[-56.112,-34.8454],[-56.1237,-34.8421],[-56.1242,-34.8415],[-56.1116,-34.8341],[-56.107,-34.8355],[-56.1054,-34.8331],[-56.1033,-34.8326],[-56.1032,-34.8315],[-56.1047,-34.8304],[-56.0988,-34.827],[-56.0972,-34.8281],[-56.079,-34.8202],[-56.0792,-34.8197],[-56.0812,-34.819],[-56.0814,-34.8178],[-56.0803,-34.817],[-56.0815,-34.8156],[-56.0879,-34.8123],[-56.0884,-34.8112],[-56.0874,-34.8096],[-56.0757,-34.8036],[-56.0802,-34.7978],[-56.0703,-34.7924]]]}},{"type":"Feature","id":62,"properties":{"name":"Manga","province":"Montevideo","department":"Montevideo","type":"Barrio","country":"Uruguay","iso":"UY"},"geometry":{"type":"Polygon","coordinates":[[[-56.1677,-34.812],[-56.1645,-34.8089],[-56.1428,-34.8061],[-56.1439,-34.8009],[-56.1364,-34.7998],[-56.1364,-34.8004],[-56.1361,-34.7997],[-56.1274,-34.7987],[-56.1251,-34.8015],[-56.1261,-34.802],[-56.1365,-34.8165],[-56.1568,-34.8189],[-56.1558,-34.8218],[-56.1689,-34.8238],[-56.1691,-34.8208],[-56.1677,-34.812]]]}},{"type":"Feature","id":34,"properties":{"name":"Penarol Lavalleja","province":"Montevideo","department":"Montevideo","type":"Barrio","country":"Uruguay","iso":"UY"},"geometry":{"type":"Polygon","coordinates":[[[-56.2199,-34.8128],[-56.213,-34.817],[-56.2107,-34.8137],[-56.2092,-34.8092],[-56.1962,-34.8166],[-56.1924,-34.8115],[-56.2009,-34.8076],[-56.1997,-34.8063],[-56.1946,-34.8024],[-56.1902,-34.8022],[-56.1829,-34.8053],[-56.1828,-34.8061],[-56.1857,-34.8087],[-56.1838,-34.8098],[-56.1834,-34.8113],[-56.1859,-34.813],[-56.1856,-34.8153],[-56.1878,-34.819],[-56.1878,-34.8214],[-56.1853,-34.8233],[-56.1851,-34.8268],[-56.1823,-34.8283],[-56.1821,-34.8299],[-56.1835,-34.8333],[-56.1817,-34.8353],[-56.1812,-34.8373],[-56.1817,-34.8382],[-56.1832,-34.8387],[-56.1827,-34.8398],[-56.1866,-34.8431],[-56.187,-34.8456],[-56.1877,-34.8464],[-56.1891,-34.847],[-56.1916,-34.8464],[-56.1936,-34.8472],[-56.1987,-34.844],[-56.1962,-34.8417],[-56.2011,-34.8388],[-56.2009,-34.8349],[-56.2102,-34.8294],[-56.2141,-34.831],[-56.218,-34.8288],[-56.2166,-34.8274],[-56.2147,-34.8268],[-56.219,-34.8242],[-56.2193,-34.8201],[-56.2202,-34.8196],[-56.2207,-34.8123],[-56.2199,-34.8128]]]}},{"type":"Feature","id":20,"properties":{"name":"Punta Rieles Bella Italia","province":"Montevideo","department":"Montevideo","type":"Barrio","country":"Uruguay","iso":"UY"},"geometry":{"type":"Polygon","coordinates":[[[-56.1235,-34.8305],[-56.1196,-34.828],[-56.1216,-34.8253],[-56.1184,-34.8244],[-56.0889,-34.8097],[-56.0874,-34.8096],[-56.0884,-34.8112],[-56.0879,-34.8123],[-56.0815,-34.8156],[-56.0803,-34.817],[-56.0814,-34.8178],[-56.0812,-34.819],[-56.0792,-34.8197],[-56.079,-34.8202],[-56.0972,-34.8281],[-56.0988,-34.827],[-56.1047,-34.8304],[-56.1032,-34.8315],[-56.1033,-34.8326],[-56.1054,-34.8331],[-56.107,-34.8355],[-56.1116,-34.8341],[-56.1192,-34.8385],[-56.1233,-34.8337],[-56.1235,-34.8305]]]}},{"type":"Feature","id":30,"properties":{"name":"Casavalle","province":"Montevideo","department":"Montevideo","type":"Barrio","country":"Uruguay","iso":"UY"},"geometry":{"type":"Polygon","coordinates":[[[-56.1677,-34.812],[-56.1691,-34.8208],[-56.1689,-34.8238],[-56.1558,-34.8218],[-56.1553,-34.8237],[-56.1477,-34.8232],[-56.1475,-34.8247],[-56.1488,-34.8248],[-56.1482,-34.828],[-56.1546,-34.8287],[-56.1542,-34.8314],[-56.1517,-34.8338],[-56.1625,-34.8349],[-56.1624,-34.8373],[-56.1632,-34.8381],[-56.1684,-34.8389],[-56.1683,-34.8355],[-56.1704,-34.8357],[-56.17,-34.8382],[-56.1761,-34.848],[-56.1857,-34.8422],[-56.1827,-34.8398],[-56.1832,-34.8387],[-56.1817,-34.8382],[-56.1812,-34.8373],[-56.1817,-34.8353],[-56.1835,-34.8333],[-56.1821,-34.8299],[-56.1823,-34.8283],[-56.1834,-34.8275],[-56.1677,-34.812]]]}},{"type":"Feature","id":31,"properties":{"name":"Piedras Blancas","province":"Montevideo","department":"Montevideo","type":"Barrio","country":"Uruguay","iso":"UY"},"geometry":{"type":"Polygon","coordinates":[[[-56.1558,-34.8218],[-56.1568,-34.8189],[-56.1304,-34.8157],[-56.1291,-34.8199],[-56.1281,-34.8199],[-56.1262,-34.8256],[-56.1285,-34.8258],[-56.1283,-34.8273],[-56.1271,-34.8271],[-56.1264,-34.8282],[-56.1407,-34.8299],[-56.141,-34.8286],[-56.1445,-34.833],[-56.1517,-34.8338],[-56.1542,-34.8314],[-56.1546,-34.8287],[-56.1482,-34.828],[-56.1488,-34.8248],[-56.1475,-34.8247],[-56.1477,-34.8232],[-56.1553,-34.8237],[-56.1558,-34.8218]]]}},{"type":"Feature","id":52,"properties":{"name":"Sayago","province":"Montevideo","department":"Montevideo","type":"Barrio","country":"Uruguay","iso":"UY"},"geometry":{"type":"Polygon","coordinates":[[[-56.2202,-34.8196],[-56.2193,-34.8201],[-56.219,-34.8242],[-56.2147,-34.8268],[-56.2166,-34.8274],[-56.218,-34.8288],[-56.2141,-34.831],[-56.2102,-34.8294],[-56.2009,-34.8349],[-56.2013,-34.8427],[-56.2059,-34.8399],[-56.2112,-34.8447],[-56.2217,-34.8385],[-56.2215,-34.8335],[-56.22,-34.8275],[-56.2236,-34.8255],[-56.2211,-34.823],[-56.2236,-34.8215],[-56.2213,-34.819],[-56.2202,-34.8196]]]}},{"type":"Feature","id":21,"properties":{"name":"Jardines Del Hipodromo","province":"Montevideo","department":"Montevideo","type":"Barrio","country":"Uruguay","iso":"UY"},"geometry":{"type":"Polygon","coordinates":[[[-56.1262,-34.8256],[-56.1235,-34.8303],[-56.1233,-34.8337],[-56.1192,-34.8385],[-56.1246,-34.8417],[-56.1258,-34.8458],[-56.1337,-34.8483],[-56.1352,-34.846],[-56.1375,-34.8469],[-56.1402,-34.845],[-56.1397,-34.8445],[-56.146,-34.8401],[-56.1498,-34.8394],[-56.141,-34.8286],[-56.1407,-34.8299],[-56.1264,-34.8282],[-56.1271,-34.8271],[-56.1283,-34.8273],[-56.1285,-34.8258],[-56.1262,-34.8256]]]}},{"type":"Feature","id":36,"properties":{"name":"Casabo Pajas Blancas","province":"Montevideo","department":"Montevideo","type":"Barrio","country":"Uruguay","iso":"UY"},"geometry":{"type":"Polygon","coordinates":[[[-56.2903,-34.8516],[-56.2858,-34.8749],[-56.2671,-34.8723],[-56.2642,-34.8869],[-56.265,-34.8892],[-56.2664,-34.8901],[-56.2628,-34.8894],[-56.2626,-34.8882],[-56.2602,-34.8871],[-56.2586,-34.8874],[-56.2586,-34.8892],[-56.2548,-34.89],[-56.2533,-34.8954],[-56.2534,-34.8969],[-56.2559,-34.8983],[-56.2551,-34.8995],[-56.2595,-34.9003],[-56.2574,-34.9024],[-56.2565,-34.9049],[-56.2608,-34.9066],[-56.2609,-34.9054],[-56.2602,-34.9048],[-56.2615,-34.9034],[-56.2662,-34.9029],[-56.2694,-34.9001],[-56.2719,-34.8989],[-56.2735,-34.8997],[-56.2735,-34.9009],[-56.2747,-34.9022],[-56.277,-34.9019],[-56.2781,-34.8997],[-56.2776,-34.8981],[-56.2788,-34.8966],[-56.2821,-34.8954],[-56.2853,-34.8969],[-56.2845,-34.9],[-56.2885,-34.9002],[-56.2907,-34.8994],[-56.2885,-34.8964],[-56.2898,-34.8949],[-56.2926,-34.8962],[-56.2935,-34.8949],[-56.297,-34.8935],[-56.3037,-34.894],[-56.3043,-34.8955],[-56.3061,-34.8966],[-56.3068,-34.8985],[-56.3075,-34.8986],[-56.3075,-34.8975],[-56.3109,-34.8996],[-56.3116,-34.9009],[-56.3095,-34.9024],[-56.3091,-34.9036],[-56.3134,-34.9059],[-56.3153,-34.9051],[-56.3155,-34.9029],[-56.3149,-34.9021],[-56.3185,-34.8973],[-56.3315,-34.8849],[-56.334,-34.8837],[-56.3336,-34.8814],[-56.3355,-34.8789],[-56.3344,-34.8769],[-56.3357,-34.8741],[-56.3389,-34.8742],[-56.3394,-34.8722],[-56.3417,-34.8706],[-56.3465,-34.8712],[-56.3498,-34.8684],[-56.3519,-34.8677],[-56.3564,-34.8694],[-56.3541,-34.868],[-56.3538,-34.8661],[-56.3525,-34.8642],[-56.3529,-34.8558],[-56.3514,-34.8536],[-56.3487,-34.8519],[-56.3656,-34.8434],[-56.3556,-34.8298],[-56.3008,-34.8579],[-56.2903,-34.8516]]]}},{"type":"Feature","id":28,"properties":{"name":"Las Acacias","province":"Montevideo","department":"Montevideo","type":"Barrio","country":"Uruguay","iso":"UY"},"geometry":{"type":"Polygon","coordinates":[[[-56.1517,-34.8338],[-56.1445,-34.833],[-56.1588,-34.8506],[-56.1752,-34.8467],[-56.17,-34.8382],[-56.1704,-34.8357],[-56.1683,-34.8355],[-56.1684,-34.8389],[-56.163,-34.838],[-56.1624,-34.8373],[-56.1625,-34.8349],[-56.1517,-34.8338]]]}},{"type":"Feature","id":37,"properties":{"name":"La Paloma Tomkinson","province":"Montevideo","department":"Montevideo","type":"Barrio","country":"Uruguay","iso":"UY"},"geometry":{"type":"Polygon","coordinates":[[[-56.2653,-34.8381],[-56.266,-34.8421],[-56.2655,-34.8434],[-56.2622,-34.8444],[-56.2604,-34.8467],[-56.259,-34.8468],[-56.2578,-34.852],[-56.2572,-34.8529],[-56.2561,-34.8532],[-56.2555,-34.8548],[-56.2537,-34.8546],[-56.2518,-34.8556],[-56.2501,-34.8541],[-56.2489,-34.8545],[-56.2483,-34.8563],[-56.2497,-34.8565],[-56.2489,-34.858],[-56.2467,-34.8586],[-56.2463,-34.8592],[-56.2478,-34.8619],[-56.2436,-34.862],[-56.2429,-34.8633],[-56.2434,-34.8641],[-56.2432,-34.8659],[-56.2454,-34.8693],[-56.2479,-34.8705],[-56.2477,-34.8717],[-56.2527,-34.8724],[-56.2529,-34.8716],[-56.2529,-34.8724],[-56.2629,-34.8741],[-56.2671,-34.8722],[-56.2858,-34.8749],[-56.2903,-34.8516],[-56.2724,-34.8362],[-56.2653,-34.8381]]]}},{"type":"Feature","id":54,"properties":{"name":"Belvedere","province":"Montevideo","department":"Montevideo","type":"Barrio","country":"Uruguay","iso":"UY"},"geometry":{"type":"Polygon","coordinates":[[[-56.2217,-34.8385],[-56.2112,-34.8447],[-56.2131,-34.8475],[-56.2127,-34.8509],[-56.2136,-34.8505],[-56.2158,-34.8531],[-56.2167,-34.8526],[-56.2182,-34.8545],[-56.2173,-34.8549],[-56.2202,-34.8585],[-56.2242,-34.8564],[-56.227,-34.8588],[-56.2342,-34.8549],[-56.2331,-34.8558],[-56.2339,-34.8564],[-56.2389,-34.8523],[-56.2376,-34.853],[-56.2354,-34.8504],[-56.2345,-34.8509],[-56.2339,-34.8493],[-56.233,-34.8498],[-56.2307,-34.8471],[-56.2335,-34.8455],[-56.2314,-34.8426],[-56.2319,-34.8404],[-56.2289,-34.8421],[-56.2272,-34.84],[-56.2247,-34.8414],[-56.224,-34.8405],[-56.2218,-34.8417],[-56.2217,-34.8385]]]}},{"type":"Feature","id":33,"properties":{"name":"Paso De Las Duranas","province":"Montevideo","department":"Montevideo","type":"Barrio","country":"Uruguay","iso":"UY"},"geometry":{"type":"Polygon","coordinates":[[[-56.2112,-34.8447],[-56.2059,-34.8399],[-56.2013,-34.8427],[-56.2011,-34.8388],[-56.1962,-34.8417],[-56.1987,-34.844],[-56.1936,-34.8472],[-56.1944,-34.8477],[-56.1955,-34.851],[-56.1988,-34.8518],[-56.2005,-34.8544],[-56.2024,-34.8555],[-56.2027,-34.8569],[-56.2127,-34.8509],[-56.2131,-34.8475],[-56.2112,-34.8447]]]}},{"type":"Feature","id":22,"properties":{"name":"Ituzaingo","province":"Montevideo","department":"Montevideo","type":"Barrio","country":"Uruguay","iso":"UY"},"geometry":{"type":"Polygon","coordinates":[[[-56.1556,-34.8465],[-56.1498,-34.8394],[-56.146,-34.8401],[-56.1397,-34.8445],[-56.1402,-34.845],[-56.1375,-34.8469],[-56.1352,-34.846],[-56.1337,-34.8483],[-56.1387,-34.8536],[-56.1377,-34.8557],[-56.1385,-34.8567],[-56.1411,-34.8553],[-56.1423,-34.8561],[-56.1423,-34.8576],[-56.1418,-34.8579],[-56.143,-34.8594],[-56.1436,-34.8587],[-56.1444,-34.8534],[-56.1556,-34.8465]]]}},{"type":"Feature","id":18,"properties":{"name":"Flor De Maronas","province":"Montevideo","department":"Montevideo","type":"Barrio","country":"Uruguay","iso":"UY"},"geometry":{"type":"Polygon","coordinates":[[[-56.1337,-34.8483],[-56.1258,-34.8458],[-56.1242,-34.8415],[-56.1237,-34.8421],[-56.112,-34.8454],[-56.1125,-34.8464],[-56.1136,-34.8461],[-56.1152,-34.851],[-56.1136,-34.8515],[-56.1141,-34.8559],[-56.1129,-34.8567],[-56.1161,-34.858],[-56.1209,-34.8567],[-56.1203,-34.8556],[-56.1191,-34.8559],[-56.1189,-34.8548],[-56.123,-34.8545],[-56.1258,-34.8565],[-56.131,-34.8545],[-56.1336,-34.8578],[-56.1338,-34.8618],[-56.135,-34.8612],[-56.1349,-34.8605],[-56.138,-34.8591],[-56.1368,-34.8577],[-56.1385,-34.8567],[-56.1377,-34.8557],[-56.1387,-34.8536],[-56.1337,-34.8483]]]}},{"type":"Feature","id":29,"properties":{"name":"Aires Puros","province":"Montevideo","department":"Montevideo","type":"Barrio","country":"Uruguay","iso":"UY"},"geometry":{"type":"Polygon","coordinates":[[[-56.1936,-34.8472],[-56.1916,-34.8464],[-56.1891,-34.847],[-56.1877,-34.8464],[-56.187,-34.8456],[-56.1866,-34.8431],[-56.1857,-34.8422],[-56.1761,-34.848],[-56.1795,-34.8507],[-56.1833,-34.8551],[-56.1863,-34.8611],[-56.19,-34.8591],[-56.1961,-34.8574],[-56.197,-34.8544],[-56.2001,-34.8536],[-56.1988,-34.8518],[-56.1955,-34.851],[-56.1944,-34.8477],[-56.1936,-34.8472]]]}},{"type":"Feature","id":26,"properties":{"name":"Castro Castellanos","province":"Montevideo","department":"Montevideo","type":"Barrio","country":"Uruguay","iso":"UY"},"geometry":{"type":"Polygon","coordinates":[[[-56.1606,-34.8502],[-56.1588,-34.8506],[-56.1556,-34.8465],[-56.1483,-34.8509],[-56.1502,-34.8577],[-56.1531,-34.8565],[-56.1533,-34.8576],[-56.1541,-34.8572],[-56.1565,-34.8612],[-56.1558,-34.8617],[-56.1596,-34.8648],[-56.164,-34.867],[-56.1685,-34.8634],[-56.1687,-34.8627],[-56.1617,-34.8537],[-56.1606,-34.8502]]]}},{"type":"Feature","id":56,"properties":{"name":"Tres Ombues Pblo Victoria","province":"Montevideo","department":"Montevideo","type":"Barrio","country":"Uruguay","iso":"UY"},"geometry":{"type":"Polygon","coordinates":[[[-56.2389,-34.8523],[-56.2339,-34.8564],[-56.2331,-34.8558],[-56.2342,-34.8549],[-56.227,-34.8588],[-56.2439,-34.8728],[-56.2481,-34.871],[-56.2444,-34.868],[-56.2432,-34.8659],[-56.2432,-34.8625],[-56.244,-34.862],[-56.2478,-34.8619],[-56.2463,-34.8592],[-56.2467,-34.8586],[-56.2489,-34.858],[-56.2497,-34.8565],[-56.2483,-34.8563],[-56.2489,-34.8545],[-56.2501,-34.8541],[-56.2518,-34.8556],[-56.2531,-34.8548],[-56.2518,-34.8544],[-56.2503,-34.8527],[-56.2496,-34.8498],[-56.2501,-34.8473],[-56.2497,-34.8463],[-56.2389,-34.8523]]]}},{"type":"Feature","id":27,"properties":{"name":"Cerrito","province":"Montevideo","department":"Montevideo","type":"Barrio","country":"Uruguay","iso":"UY"},"geometry":{"type":"Polygon","coordinates":[[[-56.1761,-34.848],[-56.1752,-34.8467],[-56.1606,-34.8502],[-56.1617,-34.8537],[-56.1685,-34.8626],[-56.1694,-34.8627],[-56.1747,-34.8588],[-56.1739,-34.8566],[-56.1747,-34.8565],[-56.1762,-34.8577],[-56.1794,-34.8552],[-56.1796,-34.8557],[-56.1829,-34.8546],[-56.1761,-34.848]]]}},{"type":"Feature","id":39,"properties":{"name":"Prado Nueva Savona","province":"Montevideo","department":"Montevideo","type":"Barrio","country":"Uruguay","iso":"UY"},"geometry":{"type":"Polygon","coordinates":[[[-56.2127,-34.8509],[-56.2027,-34.8569],[-56.2024,-34.8555],[-56.201,-34.8549],[-56.2001,-34.8536],[-56.197,-34.8544],[-56.1961,-34.8574],[-56.1966,-34.8576],[-56.1934,-34.8625],[-56.1917,-34.8691],[-56.1902,-34.8714],[-56.2022,-34.8723],[-56.2036,-34.8707],[-56.2075,-34.8717],[-56.2109,-34.868],[-56.2106,-34.8675],[-56.2122,-34.8655],[-56.2126,-34.8657],[-56.212,-34.8668],[-56.2162,-34.8639],[-56.215,-34.8632],[-56.2195,-34.8605],[-56.2188,-34.8597],[-56.2221,-34.8577],[-56.2202,-34.8585],[-56.2173,-34.8549],[-56.2182,-34.8545],[-56.2167,-34.8526],[-56.2158,-34.8531],[-56.2136,-34.8505],[-56.2127,-34.8509]]]}},{"type":"Feature","id":24,"properties":{"name":"Villa Espanola","province":"Montevideo","department":"Montevideo","type":"Barrio","country":"Uruguay","iso":"UY"},"geometry":{"type":"Polygon","coordinates":[[[-56.1533,-34.8576],[-56.1531,-34.8565],[-56.1502,-34.8577],[-56.1483,-34.8509],[-56.1444,-34.8534],[-56.1436,-34.8587],[-56.143,-34.8594],[-56.1418,-34.8579],[-56.1423,-34.8576],[-56.1423,-34.8561],[-56.1411,-34.8553],[-56.1368,-34.8577],[-56.138,-34.8591],[-56.1349,-34.8605],[-56.135,-34.8612],[-56.1338,-34.8618],[-56.1341,-34.8659],[-56.1371,-34.8645],[-56.1374,-34.8663],[-56.1387,-34.8662],[-56.1393,-34.8699],[-56.1475,-34.8746],[-56.1517,-34.8696],[-56.1524,-34.87],[-56.1515,-34.8621],[-56.1533,-34.8576]]]}},{"type":"Feature","id":17,"properties":{"name":"Maronas Parque Guarani","province":"Montevideo","department":"Montevideo","type":"Barrio","country":"Uruguay","iso":"UY"},"geometry":{"type":"Polygon","coordinates":[[[-56.1338,-34.8618],[-56.1336,-34.8578],[-56.131,-34.8545],[-56.1258,-34.8565],[-56.123,-34.8545],[-56.1189,-34.8548],[-56.1191,-34.8559],[-56.1203,-34.8556],[-56.1209,-34.8567],[-56.1161,-34.858],[-56.1134,-34.8572],[-56.112,-34.8616],[-56.1169,-34.8645],[-56.1114,-34.8703],[-56.1256,-34.8733],[-56.1342,-34.8672],[-56.1338,-34.8618]]]}},{"type":"Feature","id":51,"properties":{"name":"Brazo Oriental","province":"Montevideo","department":"Montevideo","type":"Barrio","country":"Uruguay","iso":"UY"},"geometry":{"type":"Polygon","coordinates":[[[-56.1863,-34.8611],[-56.1829,-34.8546],[-56.1796,-34.8557],[-56.1794,-34.8552],[-56.1762,-34.8577],[-56.1747,-34.8565],[-56.1739,-34.8566],[-56.1747,-34.8588],[-56.1694,-34.8627],[-56.1701,-34.8624],[-56.1755,-34.8672],[-56.1736,-34.8691],[-56.1745,-34.8703],[-56.1838,-34.871],[-56.1836,-34.8701],[-56.1862,-34.8699],[-56.1869,-34.8625],[-56.1863,-34.8611]]]}},{"type":"Feature","id":19,"properties":{"name":"Las Canteras","province":"Montevideo","department":"Montevideo","type":"Barrio","country":"Uruguay","iso":"UY"},"geometry":{"type":"Polygon","coordinates":[[[-56.1134,-34.8572],[-56.112,-34.8559],[-56.1104,-34.8582],[-56.1065,-34.8591],[-56.1027,-34.8578],[-56.0997,-34.8578],[-56.0957,-34.8603],[-56.0982,-34.866],[-56.0923,-34.8668],[-56.0944,-34.8723],[-56.0969,-34.8724],[-56.0895,-34.8767],[-56.0912,-34.876],[-56.0956,-34.8816],[-56.0975,-34.8825],[-56.0957,-34.8851],[-56.1006,-34.8858],[-56.1023,-34.8837],[-56.104,-34.8837],[-56.1037,-34.8827],[-56.1045,-34.8817],[-56.1067,-34.8829],[-56.1087,-34.8824],[-56.1112,-34.8837],[-56.1111,-34.8781],[-56.1159,-34.8712],[-56.1114,-34.8703],[-56.1169,-34.8645],[-56.112,-34.8616],[-56.1134,-34.8572]]]}},{"type":"Feature","id":38,"properties":{"name":"La Teja","province":"Montevideo","department":"Montevideo","type":"Barrio","country":"Uruguay","iso":"UY"},"geometry":{"type":"Polygon","coordinates":[[[-56.227,-34.8588],[-56.2242,-34.8564],[-56.2188,-34.8597],[-56.2195,-34.8605],[-56.2181,-34.8616],[-56.215,-34.8632],[-56.2167,-34.8643],[-56.2164,-34.8661],[-56.218,-34.8685],[-56.2225,-34.8692],[-56.224,-34.8701],[-56.2298,-34.8797],[-56.2328,-34.8787],[-56.2341,-34.8803],[-56.2362,-34.8795],[-56.2371,-34.8781],[-56.2385,-34.8781],[-56.239,-34.8773],[-56.2415,-34.8791],[-56.2432,-34.8784],[-56.2418,-34.8757],[-56.242,-34.8744],[-56.2439,-34.8728],[-56.227,-34.8588]]]}},{"type":"Feature","id":25,"properties":{"name":"Mercado Modelo Y Bolivar","province":"Montevideo","department":"Montevideo","type":"Barrio","country":"Uruguay","iso":"UY"},"geometry":{"type":"Polygon","coordinates":[[[-56.1694,-34.8627],[-56.1686,-34.8627],[-56.1685,-34.8634],[-56.1638,-34.8669],[-56.1596,-34.8648],[-56.1558,-34.8617],[-56.1565,-34.8612],[-56.1541,-34.8572],[-56.1534,-34.8575],[-56.1515,-34.8621],[-56.1524,-34.87],[-56.1517,-34.8696],[-56.1475,-34.8746],[-56.1552,-34.8793],[-56.1593,-34.8741],[-56.1684,-34.8688],[-56.1689,-34.8687],[-56.1683,-34.8692],[-56.1689,-34.8699],[-56.17,-34.87],[-56.1699,-34.871],[-56.1713,-34.8711],[-56.1712,-34.872],[-56.1737,-34.8722],[-56.1738,-34.8702],[-56.1745,-34.8703],[-56.1736,-34.8691],[-56.1755,-34.8672],[-56.1701,-34.8624],[-56.1694,-34.8627]]]}},{"type":"Feature","id":43,"properties":{"name":"Atahualpa","province":"Montevideo","department":"Montevideo","type":"Barrio","country":"Uruguay","iso":"UY"},"geometry":{"type":"Polygon","coordinates":[[[-56.1961,-34.8579],[-56.1923,-34.8584],[-56.1863,-34.8611],[-56.1869,-34.8625],[-56.1862,-34.8699],[-56.1836,-34.8701],[-56.1835,-34.8729],[-56.1891,-34.8733],[-56.1917,-34.8691],[-56.1934,-34.8625],[-56.1961,-34.8579]]]}},{"type":"Feature","id":40,"properties":{"name":"Capurro Bella Vista","province":"Montevideo","department":"Montevideo","type":"Barrio","country":"Uruguay","iso":"UY"},"geometry":{"type":"Polygon","coordinates":[[[-56.2162,-34.8639],[-56.212,-34.8668],[-56.2126,-34.8657],[-56.2122,-34.8655],[-56.2106,-34.8675],[-56.2109,-34.868],[-56.2075,-34.8717],[-56.2036,-34.8707],[-56.2022,-34.8723],[-56.194,-34.8717],[-56.1932,-34.8777],[-56.1941,-34.8779],[-56.1928,-34.8817],[-56.1938,-34.882],[-56.1928,-34.8836],[-56.1938,-34.884],[-56.1932,-34.8849],[-56.1958,-34.8851],[-56.1957,-34.8869],[-56.198,-34.887],[-56.1984,-34.884],[-56.1997,-34.8827],[-56.2013,-34.883],[-56.2025,-34.8818],[-56.2031,-34.8822],[-56.203,-34.8813],[-56.2105,-34.8765],[-56.2099,-34.8758],[-56.2155,-34.8737],[-56.2179,-34.8732],[-56.2189,-34.8742],[-56.2206,-34.8738],[-56.2205,-34.8729],[-56.2254,-34.8725],[-56.224,-34.8701],[-56.2225,-34.8692],[-56.218,-34.8685],[-56.2164,-34.8661],[-56.2167,-34.8643],[-56.2162,-34.8639]]]}},{"type":"Feature","id":23,"properties":{"name":"Union","province":"Montevideo","department":"Montevideo","type":"Barrio","country":"Uruguay","iso":"UY"},"geometry":{"type":"Polygon","coordinates":[[[-56.1341,-34.8659],[-56.1342,-34.8672],[-56.1256,-34.8733],[-56.1268,-34.8734],[-56.1261,-34.8753],[-56.1284,-34.8822],[-56.1289,-34.8867],[-56.1303,-34.8867],[-56.1288,-34.8878],[-56.1366,-34.8877],[-56.138,-34.8865],[-56.1447,-34.8875],[-56.1472,-34.8856],[-56.151,-34.884],[-56.1552,-34.8793],[-56.1393,-34.8699],[-56.1387,-34.8662],[-56.1374,-34.8663],[-56.1371,-34.8645],[-56.1341,-34.8659]]]}},{"type":"Feature","id":15,"properties":{"name":"Carrasco Norte","province":"Montevideo","department":"Montevideo","type":"Barrio","country":"Uruguay","iso":"UY"},"geometry":{"type":"Polygon","coordinates":[[[-56.06,-34.8667],[-56.0582,-34.8681],[-56.0561,-34.868],[-56.0551,-34.8697],[-56.0532,-34.87],[-56.0497,-34.8677],[-56.0491,-34.8682],[-56.0473,-34.8675],[-56.0469,-34.8664],[-56.0459,-34.866],[-56.0445,-34.8682],[-56.0414,-34.8685],[-56.0404,-34.8725],[-56.0382,-34.8743],[-56.044,-34.8748],[-56.0438,-34.8759],[-56.0513,-34.8766],[-56.0516,-34.8753],[-56.0581,-34.8759],[-56.0579,-34.8771],[-56.0629,-34.8775],[-56.0622,-34.8777],[-56.0637,-34.8799],[-56.0687,-34.8809],[-56.0698,-34.8785],[-56.0833,-34.8831],[-56.0859,-34.879],[-56.0969,-34.8724],[-56.0927,-34.8722],[-56.0809,-34.8699],[-56.0696,-34.8702],[-56.06,-34.8667]]]}},{"type":"Feature","id":44,"properties":{"name":"Jacinto Vera","province":"Montevideo","department":"Montevideo","type":"Barrio","country":"Uruguay","iso":"UY"},"geometry":{"type":"Polygon","coordinates":[[[-56.1787,-34.8706],[-56.1738,-34.8702],[-56.1737,-34.8722],[-56.1712,-34.872],[-56.1713,-34.8711],[-56.1699,-34.871],[-56.17,-34.87],[-56.1683,-34.8692],[-56.1689,-34.8687],[-56.1667,-34.8696],[-56.1677,-34.8702],[-56.1664,-34.8817],[-56.165,-34.8816],[-56.1647,-34.8823],[-56.167,-34.8839],[-56.1704,-34.881],[-56.1707,-34.8784],[-56.1732,-34.8786],[-56.1733,-34.8778],[-56.1722,-34.8777],[-56.1722,-34.8769],[-56.1731,-34.877],[-56.1757,-34.8743],[-56.1779,-34.8743],[-56.1767,-34.8729],[-56.1787,-34.8706]]]}},{"type":"Feature","id":46,"properties":{"name":"Larranaga","province":"Montevideo","department":"Montevideo","type":"Barrio","country":"Uruguay","iso":"UY"},"geometry":{"type":"Polygon","coordinates":[[[-56.1667,-34.8696],[-56.1593,-34.8741],[-56.1544,-34.8804],[-56.1525,-34.882],[-56.1555,-34.8838],[-56.1602,-34.8895],[-56.167,-34.8839],[-56.1647,-34.8823],[-56.165,-34.8816],[-56.1664,-34.8817],[-56.1677,-34.8702],[-56.1667,-34.8696]]]}},{"type":"Feature","id":45,"properties":{"name":"Figurita","province":"Montevideo","department":"Montevideo","type":"Barrio","country":"Uruguay","iso":"UY"},"geometry":{"type":"Polygon","coordinates":[[[-56.1838,-34.871],[-56.1787,-34.8706],[-56.1767,-34.8729],[-56.1779,-34.8743],[-56.1757,-34.8743],[-56.1731,-34.877],[-56.1722,-34.8769],[-56.1722,-34.8777],[-56.1733,-34.8778],[-56.1732,-34.8786],[-56.1707,-34.8784],[-56.1703,-34.8821],[-56.1778,-34.8825],[-56.1817,-34.8808],[-56.1796,-34.8764],[-56.1831,-34.8748],[-56.182,-34.8728],[-56.1835,-34.8729],[-56.1838,-34.871]]]}},{"type":"Feature","id":12,"properties":{"name":"Malvin Norte","province":"Montevideo","department":"Montevideo","type":"Barrio","country":"Uruguay","iso":"UY"},"geometry":{"type":"Polygon","coordinates":[[[-56.1256,-34.8733],[-56.1159,-34.8712],[-56.1111,-34.8781],[-56.1113,-34.8836],[-56.1148,-34.8846],[-56.1187,-34.8844],[-56.1239,-34.8835],[-56.1263,-34.8817],[-56.1282,-34.8818],[-56.1261,-34.8753],[-56.1268,-34.8734],[-56.1256,-34.8733]]]}},{"type":"Feature","id":14,"properties":{"name":"Carrasco","province":"Montevideo","department":"Montevideo","type":"Barrio","country":"Uruguay","iso":"UY"},"geometry":{"type":"Polygon","coordinates":[[[-56.0833,-34.8831],[-56.0698,-34.8785],[-56.0687,-34.8809],[-56.0637,-34.8799],[-56.0622,-34.8777],[-56.0629,-34.8775],[-56.0579,-34.8771],[-56.0581,-34.8759],[-56.0516,-34.8753],[-56.0513,-34.8766],[-56.0438,-34.8759],[-56.044,-34.8748],[-56.0382,-34.8743],[-56.0399,-34.8725],[-56.0384,-34.8716],[-56.0369,-34.8722],[-56.0361,-34.8762],[-56.0342,-34.8785],[-56.0316,-34.8785],[-56.0307,-34.88],[-56.0273,-34.8802],[-56.0536,-34.8913],[-56.0594,-34.8954],[-56.0783,-34.8886],[-56.0819,-34.886],[-56.0833,-34.8831]]]}},{"type":"Feature","id":42,"properties":{"name":"Reducto","province":"Montevideo","department":"Montevideo","type":"Barrio","country":"Uruguay","iso":"UY"},"geometry":{"type":"Polygon","coordinates":[[[-56.194,-34.8717],[-56.1902,-34.8714],[-56.1891,-34.8733],[-56.182,-34.8728],[-56.1831,-34.8748],[-56.1796,-34.8764],[-56.1832,-34.8833],[-56.1875,-34.8817],[-56.1873,-34.8822],[-56.1932,-34.8849],[-56.1938,-34.884],[-56.1928,-34.8836],[-56.1938,-34.882],[-56.1928,-34.8817],[-56.1941,-34.8779],[-56.1932,-34.8777],[-56.194,-34.8717]]]}},{"type":"Feature","id":35,"properties":{"name":"Cerro","province":"Montevideo","department":"Montevideo","type":"Barrio","country":"Uruguay","iso":"UY"},"geometry":{"type":"Polygon","coordinates":[[[-56.2474,-34.8714],[-56.2442,-34.8725],[-56.242,-34.8744],[-56.2418,-34.8757],[-56.2432,-34.8784],[-56.2452,-34.8792],[-56.2461,-34.8789],[-56.2456,-34.8817],[-56.244,-34.8834],[-56.2454,-34.8856],[-56.2456,-34.8874],[-56.2439,-34.8899],[-56.2444,-34.8914],[-56.2416,-34.8945],[-56.2428,-34.8957],[-56.2433,-34.893],[-56.2444,-34.8932],[-56.2449,-34.8963],[-56.2474,-34.897],[-56.2513,-34.8963],[-56.2534,-34.8969],[-56.2533,-34.8954],[-56.2548,-34.89],[-56.2586,-34.8892],[-56.2586,-34.8874],[-56.2611,-34.8873],[-56.2627,-34.8883],[-56.2628,-34.8894],[-56.2664,-34.8901],[-56.265,-34.8892],[-56.2642,-34.8869],[-56.2671,-34.8722],[-56.2629,-34.8741],[-56.2529,-34.8724],[-56.2529,-34.8716],[-56.2527,-34.8724],[-56.2474,-34.8714]]]}},{"type":"Feature","id":13,"properties":{"name":"Punta Gorda","province":"Montevideo","department":"Montevideo","type":"Barrio","country":"Uruguay","iso":"UY"},"geometry":{"type":"Polygon","coordinates":[[[-56.0895,-34.8767],[-56.0853,-34.8795],[-56.0837,-34.8818],[-56.0823,-34.8855],[-56.0801,-34.8875],[-56.0731,-34.8908],[-56.0594,-34.8954],[-56.0644,-34.8997],[-56.0675,-34.8999],[-56.0692,-34.8994],[-56.0718,-34.9],[-56.0731,-34.8986],[-56.0755,-34.8981],[-56.0794,-34.899],[-56.0811,-34.9005],[-56.0824,-34.9002],[-56.0827,-34.8987],[-56.0851,-34.896],[-56.0895,-34.8965],[-56.0891,-34.8959],[-56.0909,-34.8956],[-56.0926,-34.8936],[-56.091,-34.8927],[-56.0929,-34.8909],[-56.0914,-34.8907],[-56.0915,-34.8903],[-56.0975,-34.8825],[-56.0956,-34.8816],[-56.0912,-34.876],[-56.0895,-34.8767]]]}},{"type":"Feature","id":48,"properties":{"name":"Villa Muñoz Retiro","province":"Montevideo","department":"Montevideo","type":"Barrio","country":"Uruguay","iso":"UY"},"geometry":{"type":"Polygon","coordinates":[[[-56.1817,-34.8808],[-56.1778,-34.8825],[-56.1744,-34.8822],[-56.173,-34.8943],[-56.1796,-34.8946],[-56.1806,-34.8951],[-56.1813,-34.8944],[-56.1809,-34.8937],[-56.1817,-34.8892],[-56.1806,-34.8874],[-56.1846,-34.8859],[-56.1817,-34.8808]]]}},{"type":"Feature","id":49,"properties":{"name":"La Comercial","province":"Montevideo","department":"Montevideo","type":"Barrio","country":"Uruguay","iso":"UY"},"geometry":{"type":"Polygon","coordinates":[[[-56.1744,-34.8822],[-56.1703,-34.8821],[-56.1704,-34.881],[-56.1638,-34.8863],[-56.1654,-34.8897],[-56.1668,-34.8898],[-56.1667,-34.8907],[-56.1678,-34.8908],[-56.1677,-34.8919],[-56.1691,-34.8921],[-56.169,-34.8931],[-56.1731,-34.8934],[-56.1744,-34.8822]]]}},{"type":"Feature","id":9,"properties":{"name":"Buceo","province":"Montevideo","department":"Montevideo","type":"Barrio","country":"Uruguay","iso":"UY"},"geometry":{"type":"Polygon","coordinates":[[[-56.1282,-34.8818],[-56.1263,-34.8817],[-56.1239,-34.8835],[-56.1189,-34.8844],[-56.12,-34.887],[-56.1201,-34.8888],[-56.1185,-34.8887],[-56.1167,-34.8916],[-56.1193,-34.8926],[-56.1169,-34.8963],[-56.1173,-34.8971],[-56.117,-34.8981],[-56.1229,-34.9016],[-56.1232,-34.9022],[-56.1225,-34.9038],[-56.1242,-34.9055],[-56.1273,-34.9063],[-56.131,-34.9051],[-56.1319,-34.9055],[-56.1331,-34.909],[-56.1321,-34.9093],[-56.1321,-34.9098],[-56.1291,-34.9096],[-56.1299,-34.9101],[-56.1301,-34.9113],[-56.1332,-34.912],[-56.135,-34.9114],[-56.1385,-34.9012],[-56.1399,-34.9016],[-56.1408,-34.8993],[-56.1419,-34.8995],[-56.1433,-34.8955],[-56.1366,-34.894],[-56.1372,-34.8931],[-56.1324,-34.8909],[-56.1366,-34.8877],[-56.1288,-34.8878],[-56.1303,-34.8867],[-56.1289,-34.8867],[-56.1282,-34.8818]]]}},{"type":"Feature","id":11,"properties":{"name":"Malvin","province":"Montevideo","department":"Montevideo","type":"Barrio","country":"Uruguay","iso":"UY"},"geometry":{"type":"Polygon","coordinates":[[[-56.1189,-34.8844],[-56.1144,-34.8845],[-56.1109,-34.8837],[-56.1087,-34.8824],[-56.1067,-34.8829],[-56.1045,-34.8817],[-56.1037,-34.8827],[-56.104,-34.8837],[-56.1023,-34.8837],[-56.1006,-34.8858],[-56.0957,-34.8851],[-56.0915,-34.8903],[-56.0914,-34.8907],[-56.0929,-34.8909],[-56.091,-34.8927],[-56.0926,-34.8936],[-56.0909,-34.8956],[-56.094,-34.8962],[-56.0958,-34.8974],[-56.0982,-34.8973],[-56.0996,-34.8981],[-56.0997,-34.8993],[-56.1012,-34.9],[-56.1017,-34.8983],[-56.1049,-34.8973],[-56.1105,-34.8971],[-56.113,-34.8977],[-56.1137,-34.8985],[-56.117,-34.8981],[-56.1173,-34.8971],[-56.1169,-34.8963],[-56.1193,-34.8926],[-56.1167,-34.8916],[-56.1185,-34.8887],[-56.1201,-34.8888],[-56.12,-34.887],[-56.1189,-34.8844]]]}},{"type":"Feature","id":41,"properties":{"name":"Aguada","province":"Montevideo","department":"Montevideo","type":"Barrio","country":"Uruguay","iso":"UY"},"geometry":{"type":"Polygon","coordinates":[[[-56.1932,-34.8849],[-56.1873,-34.8822],[-56.1875,-34.8817],[-56.1832,-34.8833],[-56.1846,-34.8859],[-56.1806,-34.8874],[-56.1817,-34.8892],[-56.1809,-34.8937],[-56.1813,-34.8944],[-56.1796,-34.8961],[-56.182,-34.8974],[-56.1827,-34.8963],[-56.1863,-34.8982],[-56.1868,-34.899],[-56.1966,-34.8995],[-56.1952,-34.8991],[-56.1948,-34.8981],[-56.1958,-34.8851],[-56.1932,-34.8849]]]}},{"type":"Feature","id":47,"properties":{"name":"La Blanqueada","province":"Montevideo","department":"Montevideo","type":"Barrio","country":"Uruguay","iso":"UY"},"geometry":{"type":"Polygon","coordinates":[[[-56.1525,-34.882],[-56.151,-34.884],[-56.1472,-34.8856],[-56.1447,-34.8875],[-56.1507,-34.89],[-56.1588,-34.892],[-56.1602,-34.8895],[-56.1555,-34.8838],[-56.1525,-34.882]]]}},{"type":"Feature","id":50,"properties":{"name":"Tres Cruces","province":"Montevideo","department":"Montevideo","type":"Barrio","country":"Uruguay","iso":"UY"},"geometry":{"type":"Polygon","coordinates":[[[-56.1638,-34.8863],[-56.1602,-34.8895],[-56.1589,-34.8921],[-56.1643,-34.8948],[-56.165,-34.8957],[-56.1643,-34.9022],[-56.1691,-34.9022],[-56.1694,-34.9004],[-56.1711,-34.8972],[-56.1716,-34.8933],[-56.169,-34.8931],[-56.1691,-34.8921],[-56.1677,-34.8919],[-56.1678,-34.8908],[-56.1667,-34.8907],[-56.1668,-34.8898],[-56.1654,-34.8897],[-56.1638,-34.8863]]]}},{"type":"Feature","id":10,"properties":{"name":"Pque Batlle Villa Dolores","province":"Montevideo","department":"Montevideo","type":"Barrio","country":"Uruguay","iso":"UY"},"geometry":{"type":"Polygon","coordinates":[[[-56.1447,-34.8875],[-56.138,-34.8865],[-56.1324,-34.8909],[-56.1372,-34.8931],[-56.1366,-34.894],[-56.1433,-34.8955],[-56.1419,-34.8995],[-56.1408,-34.8993],[-56.1399,-34.9016],[-56.1449,-34.9028],[-56.1504,-34.9031],[-56.1591,-34.9031],[-56.1643,-34.9022],[-56.165,-34.8957],[-56.1643,-34.8948],[-56.1588,-34.892],[-56.1507,-34.89],[-56.1447,-34.8875]]]}},{"type":"Feature","id":63,"properties":{"name":"Puerto","province":"Montevideo","department":"Montevideo","type":"Barrio","country":"Uruguay","iso":"UY"},"geometry":{"type":"Polygon","coordinates":[[[-56.198,-34.887],[-56.1957,-34.8869],[-56.1952,-34.8991],[-56.2056,-34.9025],[-56.2073,-34.9036],[-56.2152,-34.9065],[-56.2147,-34.9075],[-56.2157,-34.9077],[-56.2168,-34.9056],[-56.2189,-34.9043],[-56.2195,-34.9046],[-56.2171,-34.903],[-56.2141,-34.9049],[-56.2131,-34.9046],[-56.2147,-34.9014],[-56.2115,-34.903],[-56.2065,-34.9014],[-56.209,-34.8997],[-56.2075,-34.8991],[-56.2047,-34.9008],[-56.1979,-34.8991],[-56.1971,-34.8978],[-56.1985,-34.8944],[-56.1976,-34.8934],[-56.1984,-34.887],[-56.198,-34.887]]]}},{"type":"Feature","id":4,"properties":{"name":"Cordon","province":"Montevideo","department":"Montevideo","type":"Barrio","country":"Uruguay","iso":"UY"},"geometry":{"type":"Polygon","coordinates":[[[-56.1731,-34.8934],[-56.1716,-34.8933],[-56.1711,-34.8972],[-56.1694,-34.9004],[-56.1691,-34.9022],[-56.164,-34.9023],[-56.1634,-34.9077],[-56.1684,-34.908],[-56.1686,-34.9071],[-56.1762,-34.9076],[-56.1763,-34.9069],[-56.1775,-34.9066],[-56.1774,-34.9077],[-56.1844,-34.9082],[-56.187,-34.8986],[-56.1827,-34.8963],[-56.182,-34.8974],[-56.1804,-34.8968],[-56.1796,-34.8961],[-56.1807,-34.8953],[-56.1796,-34.8946],[-56.173,-34.8943],[-56.1731,-34.8934]]]}},{"type":"Feature","id":2,"properties":{"name":"Centro","province":"Montevideo","department":"Montevideo","type":"Barrio","country":"Uruguay","iso":"UY"},"geometry":{"type":"Polygon","coordinates":[[[-56.1966,-34.8995],[-56.1868,-34.899],[-56.1844,-34.9083],[-56.1978,-34.9092],[-56.1981,-34.9064],[-56.1993,-34.906],[-56.1998,-34.9011],[-56.2006,-34.901],[-56.1966,-34.8995]]]}},{"type":"Feature","id":1,"properties":{"name":"Ciudad Vieja","province":"Montevideo","department":"Montevideo","type":"Barrio","country":"Uruguay","iso":"UY"},"geometry":{"type":"Polygon","coordinates":[[[-56.2147,-34.9075],[-56.2152,-34.9065],[-56.2073,-34.9036],[-56.2056,-34.9025],[-56.1998,-34.9011],[-56.1993,-34.906],[-56.1981,-34.9064],[-56.1976,-34.9111],[-56.1953,-34.9121],[-56.1953,-34.9126],[-56.1994,-34.9125],[-56.2001,-34.9108],[-56.2033,-34.9102],[-56.2093,-34.9117],[-56.2115,-34.9116],[-56.2152,-34.9091],[-56.2157,-34.9082],[-56.2146,-34.9079],[-56.2147,-34.9075]]]}},{"type":"Feature","id":8,"properties":{"name":"Pocitos","province":"Montevideo","department":"Montevideo","type":"Barrio","country":"Uruguay","iso":"UY"},"geometry":{"type":"Polygon","coordinates":[[[-56.164,-34.9023],[-56.1591,-34.9031],[-56.1504,-34.9031],[-56.1449,-34.9028],[-56.1385,-34.9012],[-56.135,-34.9114],[-56.1363,-34.9113],[-56.1376,-34.9122],[-56.1391,-34.9119],[-56.1401,-34.9104],[-56.1409,-34.9103],[-56.1443,-34.9115],[-56.1476,-34.9145],[-56.1483,-34.9165],[-56.1481,-34.9185],[-56.156,-34.9166],[-56.1563,-34.9143],[-56.1626,-34.9148],[-56.164,-34.9023]]]}},{"type":"Feature","id":5,"properties":{"name":"Palermo","province":"Montevideo","department":"Montevideo","type":"Barrio","country":"Uruguay","iso":"UY"},"geometry":{"type":"Polygon","coordinates":[[[-56.1844,-34.9082],[-56.1774,-34.9077],[-56.1775,-34.9066],[-56.1763,-34.9069],[-56.1762,-34.9076],[-56.1732,-34.9074],[-56.1724,-34.9145],[-56.1777,-34.9145],[-56.1844,-34.9156],[-56.1846,-34.9145],[-56.1836,-34.9145],[-56.1844,-34.9082]]]}},{"type":"Feature","id":6,"properties":{"name":"Parque Rodo","province":"Montevideo","department":"Montevideo","type":"Barrio","country":"Uruguay","iso":"UY"},"geometry":{"type":"Polygon","coordinates":[[[-56.1732,-34.9074],[-56.1686,-34.9071],[-56.1684,-34.908],[-56.1634,-34.9077],[-56.1621,-34.9216],[-56.1657,-34.9198],[-56.1661,-34.9114],[-56.1692,-34.9116],[-56.1702,-34.913],[-56.1705,-34.9149],[-56.1724,-34.9145],[-56.1732,-34.9074]]]}},{"type":"Feature","id":3,"properties":{"name":"Barrio Sur","province":"Montevideo","department":"Montevideo","type":"Barrio","country":"Uruguay","iso":"UY"},"geometry":{"type":"Polygon","coordinates":[[[-56.1978,-34.9092],[-56.1844,-34.9083],[-56.1836,-34.9145],[-56.1846,-34.9145],[-56.1844,-34.9156],[-56.1881,-34.9151],[-56.1917,-34.9132],[-56.1972,-34.9116],[-56.1978,-34.9092]]]}},{"type":"Feature","id":7,"properties":{"name":"Punta Carretas","province":"Montevideo","department":"Montevideo","type":"Barrio","country":"Uruguay","iso":"UY"},"geometry":{"type":"Polygon","coordinates":[[[-56.1626,-34.9148],[-56.1563,-34.9143],[-56.156,-34.9166],[-56.1481,-34.9185],[-56.1473,-34.9194],[-56.1452,-34.9191],[-56.1458,-34.9201],[-56.1475,-34.9207],[-56.1496,-34.9221],[-56.1493,-34.9223],[-56.1517,-34.923],[-56.1514,-34.9243],[-56.1487,-34.9249],[-56.151,-34.9256],[-56.1532,-34.9252],[-56.1531,-34.9258],[-56.1552,-34.9272],[-56.1579,-34.9277],[-56.159,-34.9321],[-56.1587,-34.9336],[-56.1598,-34.9357],[-56.1598,-34.9379],[-56.1605,-34.938],[-56.1605,-34.936],[-56.162,-34.9337],[-56.163,-34.9335],[-56.1619,-34.9325],[-56.1615,-34.933],[-56.1602,-34.9325],[-56.1604,-34.9311],[-56.1615,-34.9305],[-56.1615,-34.9297],[-56.1655,-34.9276],[-56.166,-34.9266],[-56.1718,-34.9252],[-56.1724,-34.9244],[-56.1713,-34.9232],[-56.1712,-34.9216],[-56.173,-34.9202],[-56.1725,-34.9192],[-56.1701,-34.9182],[-56.1702,-34.9166],[-56.1714,-34.9148],[-56.1705,-34.9149],[-56.1702,-34.913],[-56.1692,-34.9116],[-56.1661,-34.9114],[-56.1657,-34.9198],[-56.1621,-34.9216],[-56.1626,-34.9148]]]}},{"type":"Feature","id":59,"properties":{"name":"Colon Centro Y Noroeste","province":"Montevideo","department":"Montevideo","type":"Barrio","country":"Uruguay","iso":"UY"},"geometry":{"type":"Polygon","coordinates":[[[-56.2256,-34.7766],[-56.2239,-34.7828],[-56.2241,-34.7868],[-56.2238,-34.7861],[-56.2225,-34.7867],[-56.2199,-34.8128],[-56.2207,-34.8123],[-56.2201,-34.8196],[-56.2304,-34.8135],[-56.2336,-34.8168],[-56.2409,-34.8128],[-56.2396,-34.8088],[-56.2381,-34.8076],[-56.2394,-34.8071],[-56.2403,-34.803],[-56.2423,-34.8013],[-56.2393,-34.7996],[-56.24,-34.7985],[-56.2378,-34.7939],[-56.2381,-34.7926],[-56.2371,-34.7915],[-56.2355,-34.7845],[-56.2303,-34.7812],[-56.2338,-34.7791],[-56.2256,-34.7766]]]}},{"type":"Feature","id":53,"properties":{"name":"Conciliacion","province":"Montevideo","department":"Montevideo","type":"Barrio","country":"Uruguay","iso":"UY"},"geometry":{"type":"Polygon","coordinates":[[[-56.24,-34.8134],[-56.2336,-34.8168],[-56.2304,-34.8135],[-56.2213,-34.819],[-56.2236,-34.8215],[-56.2211,-34.823],[-56.2236,-34.8255],[-56.22,-34.8275],[-56.2215,-34.8335],[-56.2216,-34.8384],[-56.2451,-34.8247],[-56.2461,-34.8258],[-56.2447,-34.8264],[-56.2466,-34.8264],[-56.2486,-34.8286],[-56.2553,-34.824],[-56.2595,-34.8274],[-56.2623,-34.8238],[-56.2607,-34.8229],[-56.2592,-34.8204],[-56.2581,-34.8197],[-56.2571,-34.8172],[-56.253,-34.8176],[-56.2503,-34.8164],[-56.2488,-34.8165],[-56.2446,-34.8186],[-56.2419,-34.8169],[-56.2414,-34.8151],[-56.24,-34.8134]]]}},{"type":"Feature","id":55,"properties":{"name":"Nuevo Paris","province":"Montevideo","department":"Montevideo","type":"Barrio","country":"Uruguay","iso":"UY"},"geometry":{"type":"Polygon","coordinates":[[[-56.2486,-34.8286],[-56.2466,-34.8264],[-56.2447,-34.8264],[-56.2461,-34.8258],[-56.245,-34.8247],[-56.2217,-34.8385],[-56.2218,-34.8417],[-56.224,-34.8405],[-56.2247,-34.8414],[-56.2272,-34.84],[-56.2289,-34.8421],[-56.2319,-34.8404],[-56.2314,-34.8426],[-56.2335,-34.8455],[-56.2307,-34.8471],[-56.233,-34.8498],[-56.2339,-34.8493],[-56.2345,-34.8509],[-56.2354,-34.8504],[-56.2376,-34.853],[-56.2497,-34.8463],[-56.2501,-34.8473],[-56.2496,-34.8498],[-56.2505,-34.8532],[-56.2518,-34.8544],[-56.2555,-34.8548],[-56.2561,-34.8532],[-56.2572,-34.8529],[-56.2578,-34.852],[-56.259,-34.8468],[-56.2604,-34.8467],[-56.2622,-34.8444],[-56.2659,-34.8428],[-56.2657,-34.8393],[-56.2651,-34.8382],[-56.2537,-34.8358],[-56.2529,-34.8322],[-56.2486,-34.8286]]]}},{"type":"Feature","id":60,"properties":{"name":"Lezica Melilla","province":"Montevideo","department":"Montevideo","type":"Barrio","country":"Uruguay","iso":"UY"},"geometry":{"type":"Polygon","coordinates":[[[-56.2276,-34.7677],[-56.2256,-34.7766],[-56.2338,-34.7791],[-56.2303,-34.7813],[-56.2355,-34.7845],[-56.2371,-34.7915],[-56.2381,-34.7926],[-56.2378,-34.7939],[-56.24,-34.7985],[-56.2393,-34.7996],[-56.2423,-34.8013],[-56.2403,-34.803],[-56.2394,-34.8071],[-56.2381,-34.8076],[-56.2396,-34.8088],[-56.2409,-34.8128],[-56.24,-34.8134],[-56.2414,-34.8151],[-56.2419,-34.8169],[-56.2448,-34.8186],[-56.2471,-34.817],[-56.2488,-34.8165],[-56.2503,-34.8164],[-56.253,-34.8176],[-56.2571,-34.8172],[-56.2581,-34.8197],[-56.2632,-34.825],[-56.2642,-34.8254],[-56.2661,-34.8246],[-56.267,-34.8253],[-56.2699,-34.8259],[-56.2717,-34.8185],[-56.2889,-34.8097],[-56.2944,-34.8058],[-56.3148,-34.7953],[-56.3162,-34.795],[-56.3177,-34.7958],[-56.3191,-34.7949],[-56.3197,-34.7944],[-56.3196,-34.7933],[-56.3184,-34.7924],[-56.3185,-34.7914],[-56.3203,-34.7914],[-56.3206,-34.7929],[-56.3226,-34.7919],[-56.3228,-34.7909],[-56.3209,-34.7901],[-56.3207,-34.7892],[-56.3218,-34.7884],[-56.3245,-34.7882],[-56.3258,-34.7848],[-56.3289,-34.7858],[-56.3305,-34.7826],[-56.3381,-34.7837],[-56.3399,-34.7856],[-56.3445,-34.7848],[-56.3323,-34.7816],[-56.3268,-34.7811],[-56.3264,-34.7815],[-56.3201,-34.7789],[-56.3173,-34.7803],[-56.3167,-34.7823],[-56.317,-34.7803],[-56.32,-34.7784],[-56.3381,-34.7816],[-56.3409,-34.7829],[-56.3455,-34.7838],[-56.3468,-34.7833],[-56.3471,-34.7828],[-56.3452,-34.7815],[-56.3418,-34.7766],[-56.3423,-34.7708],[-56.3437,-34.7653],[-56.3456,-34.762],[-56.3456,-34.7595],[-56.3445,-34.7595],[-56.3426,-34.7577],[-56.3404,-34.7544],[-56.339,-34.7504],[-56.3406,-34.7454],[-56.3442,-34.7384],[-56.3458,-34.7336],[-56.347,-34.7324],[-56.3463,-34.7313],[-56.3475,-34.7284],[-56.3481,-34.7309],[-56.3503,-34.7284],[-56.3533,-34.7274],[-56.3528,-34.7246],[-56.3492,-34.7218],[-56.3464,-34.7205],[-56.3436,-34.7145],[-56.3412,-34.7135],[-56.3365,-34.7164],[-56.3333,-34.7125],[-56.3306,-34.7107],[-56.3278,-34.7051],[-56.3251,-34.7028],[-56.3233,-34.7036],[-56.315,-34.702],[-56.3122,-34.704],[-56.302,-34.7087],[-56.2971,-34.713],[-56.2946,-34.7175],[-56.2891,-34.7193],[-56.2867,-34.7238],[-56.2819,-34.7259],[-56.2784,-34.7318],[-56.2778,-34.7377],[-56.2728,-34.7408],[-56.2736,-34.745],[-56.2665,-34.7531],[-56.2501,-34.7567],[-56.2473,-34.7592],[-56.2342,-34.7669],[-56.2311,-34.7699],[-56.2276,-34.7677]],[[-56.3066,-34.7842],[-56.3065,-34.7842],[-56.3065,-34.7842],[-56.3066,-34.7842]],[[-56.3063,-34.7842],[-56.3063,-34.7843],[-56.3062,-34.7843],[-56.3061,-34.7842],[-56.3062,-34.7842],[-56.3063,-34.7842]],[[-56.3067,-34.7841],[-56.3073,-34.7849],[-56.3067,-34.7841],[-56.3067,-34.7841]],[[-56.307,-34.7854],[-56.307,-34.7854],[-56.3069,-34.7853],[-56.3069,-34.7853],[-56.3069,-34.7852],[-56.3069,-34.7852],[-56.307,-34.7851],[-56.307,-34.7851],[-56.3071,-34.7852],[-56.307,-34.7852],[-56.307,-34.7853],[-56.307,-34.7853],[-56.307,-34.7854]],[[-56.3072,-34.7854],[-56.3092,-34.7853],[-56.3099,-34.7829],[-56.3117,-34.7827],[-56.3121,-34.7807],[-56.3138,-34.7807],[-56.312,-34.7809],[-56.3117,-34.7828],[-56.31,-34.7829],[-56.3101,-34.7842],[-56.3092,-34.7854],[-56.3072,-34.7854]]]}},{"type":"Feature","id":57,"properties":{"name":"Paso De La Arena","province":"Montevideo","department":"Montevideo","type":"Barrio","country":"Uruguay","iso":"UY"},"geometry":{"type":"Polygon","coordinates":[[[-56.3398,-34.7858],[-56.338,-34.784],[-56.3341,-34.7836],[-56.3316,-34.7841],[-56.3305,-34.7828],[-56.3299,-34.7851],[-56.3291,-34.7858],[-56.3254,-34.785],[-56.3243,-34.7884],[-56.3221,-34.7884],[-56.3207,-34.7892],[-56.3211,-34.79],[-56.3228,-34.7907],[-56.3226,-34.7919],[-56.3206,-34.7929],[-56.3199,-34.7913],[-56.3184,-34.7916],[-56.3199,-34.7937],[-56.3196,-34.7951],[-56.3176,-34.7961],[-56.3161,-34.7952],[-56.3144,-34.7955],[-56.2944,-34.8058],[-56.2889,-34.8097],[-56.2717,-34.8185],[-56.2699,-34.8259],[-56.267,-34.8253],[-56.2661,-34.8246],[-56.264,-34.8254],[-56.2623,-34.8238],[-56.2595,-34.8274],[-56.2553,-34.824],[-56.2486,-34.8287],[-56.2529,-34.8322],[-56.2537,-34.8358],[-56.2651,-34.8382],[-56.264,-34.8339],[-56.2672,-34.8327],[-56.2648,-34.8333],[-56.2642,-34.8341],[-56.2653,-34.8381],[-56.2724,-34.8362],[-56.2906,-34.8519],[-56.3008,-34.8579],[-56.3556,-34.8298],[-56.3656,-34.8434],[-56.3487,-34.8519],[-56.3514,-34.8536],[-56.3529,-34.8558],[-56.3525,-34.8642],[-56.3538,-34.8661],[-56.3541,-34.868],[-56.3564,-34.8694],[-56.3565,-34.8667],[-56.3602,-34.8667],[-56.3625,-34.8655],[-56.3638,-34.8662],[-56.3666,-34.8655],[-56.3689,-34.8635],[-56.3745,-34.8616],[-56.377,-34.8596],[-56.3772,-34.8578],[-56.3805,-34.857],[-56.3825,-34.854],[-56.3826,-34.8511],[-56.3853,-34.851],[-56.3881,-34.8483],[-56.3898,-34.8453],[-56.396,-34.8433],[-56.3994,-34.8441],[-56.401,-34.8424],[-56.4045,-34.8409],[-56.4082,-34.8412],[-56.4126,-34.8402],[-56.4174,-34.8404],[-56.4211,-34.8385],[-56.4259,-34.8377],[-56.4264,-34.8355],[-56.4296,-34.834],[-56.4289,-34.831],[-56.4315,-34.8302],[-56.4304,-34.8277],[-56.429,-34.8265],[-56.4263,-34.8257],[-56.4258,-34.8242],[-56.4199,-34.8224],[-56.4164,-34.8201],[-56.4139,-34.8165],[-56.4114,-34.8173],[-56.41,-34.8167],[-56.408,-34.8152],[-56.4061,-34.8099],[-56.405,-34.8094],[-56.4057,-34.8085],[-56.4036,-34.8082],[-56.4025,-34.8064],[-56.4,-34.8052],[-56.3972,-34.8058],[-56.3927,-34.8005],[-56.3895,-34.801],[-56.3885,-34.7998],[-56.3911,-34.7991],[-56.3869,-34.798],[-56.3855,-34.7988],[-56.3817,-34.7985],[-56.3798,-34.7992],[-56.377,-34.7982],[-56.3713,-34.8],[-56.363,-34.7986],[-56.3619,-34.7964],[-56.3594,-34.7946],[-56.3577,-34.7953],[-56.3571,-34.7936],[-56.358,-34.7927],[-56.3553,-34.7917],[-56.3554,-34.789],[-56.3566,-34.788],[-56.356,-34.7862],[-56.3545,-34.7852],[-56.354,-34.7859],[-56.348,-34.7865],[-56.3479,-34.7875],[-56.3464,-34.7868],[-56.3435,-34.7872],[-56.3457,-34.786],[-56.3473,-34.7861],[-56.3495,-34.785],[-56.3488,-34.7848],[-56.3451,-34.7848],[-56.3434,-34.7855],[-56.3398,-34.7858]],[[-56.4199,-34.8224],[-56.4199,-34.8224],[-56.4196,-34.8224],[-56.4199,-34.8224]]]}}]}