{"type":"FeatureCollection","features":[{"type":"Feature","id":"dimos-nicosia-1","properties":{"name":"Elia","province":"Lefkosia","department":"Eparchia Lefkosias","type":"Dimos","country":"Chipre","iso":"CY"},"geometry":{"type":"Polygon","coordinates":[[[32.893,35.1449],[32.8964,35.1441],[32.8998,35.1424],[32.9005,35.1398],[32.9024,35.1386],[32.9041,35.1363],[32.905,35.1344],[32.905,35.1321],[32.9072,35.1302],[32.9055,35.1296],[32.9069,35.1285],[32.9075,35.1268],[32.9094,35.1256],[32.9085,35.124],[32.9094,35.1218],[32.9109,35.121],[32.9142,35.1232],[32.92,35.125],[32.922,35.125],[32.9243,35.1238],[32.9287,35.1238],[32.9318,35.1225],[32.936,35.1245],[32.9365,35.126],[32.9401,35.1287],[32.9432,35.1339],[32.9428,35.1365],[32.9451,35.1381],[32.9417,35.1409],[32.9394,35.1444],[32.9397,35.1458],[32.937,35.1479],[32.94,35.1493],[32.9422,35.1495],[32.9412,35.151],[32.9385,35.1525],[32.9352,35.1527],[32.9337,35.1537],[32.9277,35.1575],[32.9259,35.1607],[32.9246,35.1601],[32.9221,35.1601],[32.9177,35.1609],[32.9155,35.159],[32.9141,35.1589],[32.9136,35.1575],[32.9116,35.1594],[32.9107,35.1574],[32.9074,35.1579],[32.9063,35.1568],[32.9065,35.1553],[32.9026,35.1528],[32.903,35.1485],[32.8994,35.1484],[32.8997,35.1496],[32.8991,35.1516],[32.8955,35.1501],[32.8958,35.149],[32.8935,35.1468],[32.893,35.1449]]]}},{"type":"Feature","id":"dimos-nicosia-2","properties":{"name":"Prastio","province":"Lefkosia","department":"Eparchia Lefkosias","type":"Dimos","country":"Chipre","iso":"CY"},"geometry":{"type":"Polygon","coordinates":[[[32.9422,35.1495],[32.9472,35.1548],[32.9465,35.1572],[32.9513,35.1581],[32.952,35.1598],[32.9505,35.162],[32.9506,35.1642],[32.949,35.1653],[32.9489,35.1672],[32.9501,35.17],[32.9469,35.174],[32.9482,35.1776],[32.9469,35.1796],[32.9474,35.1819],[32.9461,35.1838],[32.9459,35.1855],[32.9449,35.1873],[32.9412,35.1905],[32.933,35.1946],[32.9275,35.196],[32.9242,35.1958],[32.9183,35.2009],[32.9139,35.2026],[32.9084,35.1913],[32.9168,35.1863],[32.917,35.1844],[32.9207,35.1835],[32.9214,35.1796],[32.9231,35.179],[32.9239,35.1746],[32.9256,35.1732],[32.927,35.1705],[32.9269,35.1681],[32.9257,35.1673],[32.9263,35.165],[32.9242,35.1622],[32.9246,35.1601],[32.9259,35.1607],[32.9277,35.1575],[32.9352,35.1527],[32.9385,35.1525],[32.9412,35.151],[32.9422,35.1495]]]}},{"type":"Feature","id":"dimos-nicosia-3","properties":{"name":"Mandres","province":"Lefkosia","department":"Eparchia Lefkosias","type":"Dimos","country":"Chipre","iso":"CY"},"geometry":{"type":"Polygon","coordinates":[[[33.3392,35.219],[33.3402,35.22],[33.3408,35.2222],[33.3426,35.2236],[33.3467,35.2234],[33.3484,35.2225],[33.3514,35.2222],[33.3533,35.2198],[33.3512,35.2155],[33.3534,35.2144],[33.3537,35.2106],[33.3544,35.2099],[33.3558,35.2098],[33.3574,35.21],[33.3581,35.2107],[33.3578,35.2136],[33.359,35.2159],[33.3621,35.2172],[33.3652,35.218],[33.3664,35.2177],[33.3674,35.2171],[33.3669,35.2157],[33.363,35.211],[33.3656,35.208],[33.3654,35.2066],[33.3668,35.2055],[33.3688,35.208],[33.3703,35.2086],[33.3713,35.2086],[33.3716,35.2071],[33.3709,35.2052],[33.3727,35.2045],[33.3747,35.2051],[33.3763,35.2079],[33.3779,35.2089],[33.3803,35.208],[33.3864,35.2093],[33.3887,35.208],[33.3908,35.2079],[33.3934,35.2052],[33.3954,35.2049],[33.3995,35.2056],[33.4005,35.2071],[33.3984,35.2092],[33.3986,35.2107],[33.4006,35.2131],[33.3996,35.2148],[33.4015,35.2189],[33.4018,35.2236],[33.3992,35.2276],[33.3984,35.2338],[33.4001,35.2365],[33.4042,35.2396],[33.4028,35.241],[33.3894,35.2407],[33.3853,35.2396],[33.3797,35.2397],[33.375,35.2379],[33.3735,35.2393],[33.3682,35.24],[33.3661,35.24],[33.3618,35.2387],[33.3577,35.2398],[33.3463,35.2403],[33.3423,35.2392],[33.3294,35.2387],[33.3275,35.2358],[33.3262,35.2351],[33.3257,35.2302],[33.3264,35.2288],[33.3304,35.2282],[33.3332,35.2238],[33.3338,35.2213],[33.3386,35.2205],[33.3392,35.219]]]}},{"type":"Feature","id":"dimos-nicosia-4","properties":{"name":"Neo Chorio","province":"Lefkosia","department":"Eparchia Lefkosias","type":"Dimos","country":"Chipre","iso":"CY"},"geometry":{"type":"Polygon","coordinates":[[[33.4413,35.1954],[33.4449,35.1925],[33.4509,35.1946],[33.457,35.1944],[33.4631,35.1916],[33.4657,35.189],[33.4694,35.1898],[33.4685,35.1946],[33.4719,35.1968],[33.4756,35.1981],[33.4802,35.1979],[33.4803,35.2035],[33.4786,35.2041],[33.4765,35.2028],[33.4739,35.2027],[33.4728,35.2052],[33.4699,35.2089],[33.4696,35.2104],[33.4735,35.2119],[33.4772,35.2148],[33.4773,35.2175],[33.4758,35.2211],[33.4775,35.2261],[33.479,35.2286],[33.4806,35.2297],[33.4832,35.2299],[33.484,35.2288],[33.4839,35.2245],[33.4847,35.2223],[33.488,35.2205],[33.4917,35.2226],[33.4898,35.232],[33.4851,35.2333],[33.4809,35.2365],[33.4719,35.2378],[33.4658,35.2355],[33.4628,35.2328],[33.4595,35.2321],[33.4577,35.2327],[33.4557,35.235],[33.4469,35.2364],[33.444,35.2417],[33.4409,35.2431],[33.4388,35.2455],[33.4381,35.2471],[33.4381,35.2505],[33.4318,35.2488],[33.4282,35.2487],[33.4282,35.247],[33.4298,35.2438],[33.4326,35.2433],[33.4363,35.2396],[33.4361,35.2382],[33.4338,35.2351],[33.4338,35.2312],[33.4395,35.2225],[33.441,35.2211],[33.4398,35.217],[33.4358,35.2134],[33.441,35.2052],[33.4443,35.2042],[33.446,35.2029],[33.4484,35.199],[33.4486,35.1975],[33.4473,35.1961],[33.4413,35.1954]]]}},{"type":"Feature","id":"dimos-nicosia-5","properties":{"name":"Trachoni","province":"Lefkosia","department":"Eparchia Lefkosias","type":"Dimos","country":"Chipre","iso":"CY"},"geometry":{"type":"Polygon","coordinates":[[[33.4803,35.2035],[33.485,35.2044],[33.4861,35.2059],[33.4857,35.2099],[33.4871,35.2112],[33.4876,35.2131],[33.4854,35.214],[33.485,35.216],[33.4874,35.2157],[33.4883,35.2176],[33.4907,35.218],[33.4918,35.2191],[33.4917,35.2204],[33.4905,35.2217],[33.488,35.2205],[33.4847,35.2223],[33.4839,35.2245],[33.484,35.2288],[33.4832,35.2299],[33.4806,35.2297],[33.479,35.2286],[33.4769,35.2248],[33.4758,35.2211],[33.4773,35.2175],[33.4772,35.2148],[33.4735,35.2119],[33.4696,35.2104],[33.4699,35.2089],[33.4728,35.2052],[33.4739,35.2027],[33.4765,35.2028],[33.4786,35.2041],[33.4803,35.2035]]]}},{"type":"Feature","id":"dimos-nicosia-6","properties":{"name":"Egkomi","province":"Lefkosia","department":"Eparchia Lefkosias","type":"Dimos","country":"Chipre","iso":"CY"},"geometry":{"type":"Polygon","coordinates":[[[33.3483,35.157],[33.3497,35.1597],[33.3476,35.1651],[33.342,35.1671],[33.3347,35.166],[33.3271,35.1671],[33.3205,35.1665],[33.3042,35.1617],[33.2976,35.1583],[33.2899,35.1591],[33.2858,35.158],[33.284,35.1537],[33.2851,35.1506],[33.2917,35.1477],[33.3007,35.1451],[33.3062,35.1414],[33.3108,35.1343],[33.3174,35.1374],[33.3198,35.1409],[33.3201,35.144],[33.3222,35.1491],[33.3278,35.1526],[33.3361,35.1557],[33.342,35.1568],[33.3483,35.157]]]}},{"type":"Feature","id":"dimos-nicosia-7","properties":{"name":"Strovolos","province":"Lefkosia","department":"Eparchia Lefkosias","type":"Dimos","country":"Chipre","iso":"CY"},"geometry":{"type":"Polygon","coordinates":[[[33.3129,35.1353],[33.316,35.1312],[33.3233,35.1266],[33.3226,35.1232],[33.3326,35.1095],[33.333,35.106],[33.3406,35.1086],[33.3472,35.1069],[33.349,35.104],[33.3559,35.1035],[33.3622,35.108],[33.3695,35.116],[33.3761,35.1166],[33.3792,35.1212],[33.3775,35.1269],[33.375,35.132],[33.3754,35.14],[33.374,35.1446],[33.3761,35.1543],[33.3688,35.1545],[33.3611,35.1568],[33.3559,35.1537],[33.3476,35.1514],[33.3472,35.1548],[33.3483,35.157],[33.342,35.1568],[33.3361,35.1557],[33.3278,35.1526],[33.3222,35.1491],[33.3201,35.144],[33.3198,35.1409],[33.3174,35.1374],[33.3129,35.1353]]]}},{"type":"Feature","id":"dimos-nicosia-8","properties":{"name":"Latsia","province":"Lefkosia","department":"Eparchia Lefkosias","type":"Dimos","country":"Chipre","iso":"CY"},"geometry":{"type":"Polygon","coordinates":[[[33.3559,35.1035],[33.3566,35.0995],[33.3542,35.0949],[33.3545,35.0875],[33.359,35.0861],[33.3566,35.0806],[33.3531,35.0769],[33.3583,35.0761],[33.3615,35.0726],[33.3622,35.0698],[33.3646,35.0675],[33.3722,35.0666],[33.3799,35.0686],[33.3823,35.0709],[33.3844,35.0778],[33.3896,35.0789],[33.3972,35.0786],[33.399,35.0829],[33.3952,35.0895],[33.392,35.1009],[33.3948,35.1058],[33.3938,35.1106],[33.3913,35.1149],[33.3886,35.1175],[33.3889,35.1217],[33.3792,35.1212],[33.3761,35.1166],[33.3695,35.116],[33.3622,35.108],[33.3559,35.1035]]]}},{"type":"Feature","id":"dimos-nicosia-9","properties":{"name":"Peristerona","province":"Lefkosia","department":"Eparchia Lefkosias","type":"Dimos","country":"Chipre","iso":"CY"},"geometry":{"type":"Polygon","coordinates":[[[33.102,35.1494],[33.0961,35.1511],[33.0916,35.1534],[33.0912,35.1568],[33.0864,35.1597],[33.0832,35.164],[33.0826,35.1671],[33.0799,35.1667],[33.0748,35.1642],[33.0711,35.1596],[33.0688,35.1552],[33.0682,35.1523],[33.0655,35.1492],[33.063,35.1479],[33.0582,35.1474],[33.0603,35.144],[33.0631,35.1411],[33.0638,35.1337],[33.0558,35.1329],[33.0485,35.1263],[33.0544,35.1217],[33.0489,35.12],[33.0457,35.118],[33.045,35.1103],[33.052,35.1078],[33.0499,35.1049],[33.0492,35.1018],[33.0544,35.0998],[33.0565,35.0963],[33.0673,35.1],[33.0728,35.0983],[33.0739,35.1026],[33.0791,35.1072],[33.0832,35.1075],[33.0878,35.1092],[33.0916,35.1132],[33.0999,35.1155],[33.103,35.1226],[33.1027,35.13],[33.102,35.1334],[33.0982,35.138],[33.0971,35.144],[33.0975,35.148],[33.102,35.1494]]]}},{"type":"Feature","id":"dimos-nicosia-10","properties":{"name":"Agia Eirini","province":"Lefkosia","department":"Eparchia Lefkosias","type":"Dimos","country":"Chipre","iso":"CY"},"geometry":{"type":"Polygon","coordinates":[[[32.952,34.9875],[32.9509,34.9833],[32.9574,34.9777],[32.9601,34.9721],[32.9611,34.9685],[32.9662,34.9649],[32.9714,34.9721],[32.9735,34.9781],[32.9707,34.9861],[32.9756,34.9926],[32.9714,35.0004],[32.9665,34.9998],[32.9638,34.9958],[32.9599,34.9924],[32.9517,34.9902],[32.952,34.9875]]]}},{"type":"Feature","id":"dimos-nicosia-11","properties":{"name":"Agia Varvara","province":"Lefkosia","department":"Eparchia Lefkosias","type":"Dimos","country":"Chipre","iso":"CY"},"geometry":{"type":"Polygon","coordinates":[[[33.391,35.0029],[33.3841,35.0039],[33.3812,35.0027],[33.378,35.0038],[33.3782,35.0075],[33.3765,35.0098],[33.3746,35.0082],[33.3722,35.0078],[33.3707,35.0083],[33.3735,35.0145],[33.3717,35.0143],[33.3696,35.0125],[33.3675,35.0119],[33.3667,35.0107],[33.362,35.0091],[33.3602,35.0092],[33.3588,35.014],[33.357,35.0145],[33.3551,35.0135],[33.3549,35.0107],[33.3535,35.0101],[33.3518,35.0074],[33.3496,35.0002],[33.3472,34.9975],[33.3466,34.999],[33.3448,34.9999],[33.3437,35.0023],[33.3419,35.0032],[33.3398,35.0031],[33.3384,35.0021],[33.3378,34.999],[33.3347,34.9975],[33.3298,34.9985],[33.3281,35.0],[33.3261,35.0035],[33.3247,35.003],[33.3212,35.0033],[33.3165,35.0053],[33.314,35.0034],[33.3142,35.0014],[33.3156,34.9999],[33.3189,34.999],[33.3171,34.9942],[33.3182,34.9924],[33.3298,34.9913],[33.3367,34.9939],[33.348,34.9939],[33.35,34.9906],[33.348,34.986],[33.3494,34.9811],[33.352,34.9794],[33.3538,34.9761],[33.3534,34.9701],[33.3549,34.9679],[33.3576,34.9584],[33.3592,34.9558],[33.3616,34.9551],[33.3652,34.9615],[33.3674,34.9635],[33.3781,34.9695],[33.3764,34.9741],[33.3792,34.9775],[33.3802,34.9815],[33.3806,34.9872],[33.3854,34.9889],[33.3879,34.9972],[33.3913,35.0009],[33.391,35.0029]]]}},{"type":"Feature","id":"dimos-nicosia-12","properties":{"name":"Lefkosia","province":"Lefkosia","department":"Eparchia Lefkosias","type":"Dimos","country":"Chipre","iso":"CY"},"geometry":{"type":"Polygon","coordinates":[[[33.3396,35.1828],[33.3382,35.1771],[33.3427,35.1705],[33.342,35.1671],[33.3476,35.1651],[33.3497,35.1597],[33.3472,35.1548],[33.3476,35.1514],[33.3559,35.1537],[33.3611,35.1568],[33.3688,35.1545],[33.3761,35.1543],[33.3792,35.1583],[33.3834,35.16],[33.3868,35.1588],[33.391,35.1597],[33.3966,35.1623],[33.4007,35.1617],[33.4129,35.1623],[33.4188,35.166],[33.4233,35.168],[33.4302,35.1657],[33.4316,35.1625],[33.432,35.1585],[33.4365,35.1568],[33.4504,35.1563],[33.4528,35.1526],[33.458,35.1548],[33.4639,35.1551],[33.4745,35.1525],[33.4761,35.1547],[33.4743,35.1594],[33.4753,35.1619],[33.4678,35.1627],[33.4655,35.1639],[33.4639,35.1652],[33.4629,35.1684],[33.4674,35.1732],[33.4708,35.1754],[33.4695,35.1792],[33.4759,35.1867],[33.4742,35.1888],[33.4726,35.1896],[33.4694,35.1898],[33.4657,35.189],[33.4631,35.1916],[33.457,35.1944],[33.4509,35.1946],[33.4449,35.1925],[33.4413,35.1954],[33.4369,35.1952],[33.4326,35.1969],[33.4297,35.1973],[33.4285,35.1951],[33.4267,35.1954],[33.4221,35.1976],[33.4194,35.2015],[33.416,35.2016],[33.412,35.2036],[33.4056,35.2043],[33.4053,35.2055],[33.4022,35.2058],[33.3954,35.2049],[33.3934,35.2052],[33.3908,35.2079],[33.3887,35.208],[33.3864,35.2093],[33.3803,35.208],[33.3779,35.2089],[33.3763,35.2079],[33.3747,35.2051],[33.3727,35.2045],[33.3709,35.2052],[33.3716,35.2071],[33.3713,35.2086],[33.3703,35.2086],[33.3679,35.2072],[33.3662,35.2045],[33.3621,35.2039],[33.3629,35.2014],[33.36,35.1998],[33.3583,35.1995],[33.3605,35.1969],[33.3584,35.1939],[33.359,35.1933],[33.3586,35.1924],[33.3533,35.1915],[33.3511,35.1878],[33.3481,35.1856],[33.3467,35.1834],[33.3432,35.184],[33.3396,35.1828]]]}},{"type":"Feature","id":"dimos-nicosia-13","properties":{"name":"Aglantzia","province":"Lefkosia","department":"Eparchia Lefkosias","type":"Dimos","country":"Chipre","iso":"CY"},"geometry":{"type":"Polygon","coordinates":[[[33.4745,35.1525],[33.4639,35.1551],[33.458,35.1548],[33.4528,35.1526],[33.4504,35.1563],[33.4365,35.1568],[33.432,35.1585],[33.4316,35.1625],[33.4302,35.1657],[33.4233,35.168],[33.4188,35.166],[33.4129,35.1623],[33.4056,35.1617],[33.3966,35.1623],[33.391,35.1597],[33.3868,35.1588],[33.3834,35.16],[33.3792,35.1583],[33.3761,35.1543],[33.374,35.1446],[33.3754,35.14],[33.375,35.132],[33.3775,35.1269],[33.3792,35.1212],[33.3889,35.1217],[33.3945,35.1212],[33.3983,35.1197],[33.4059,35.124],[33.4184,35.1243],[33.4282,35.1232],[33.4351,35.1266],[33.4438,35.133],[33.4483,35.1333],[33.455,35.1363],[33.4599,35.1328],[33.4683,35.1359],[33.4681,35.1379],[33.4692,35.141],[33.4743,35.1448],[33.4745,35.1525]]]}}]}