{"type":"FeatureCollection","features":[{"type":"Feature","id":"delhi-district-99","properties":{"name":"Central Delhi","province":"Delhi","department":"National Capital Territory","type":"Distrito","country":"India","iso":"IN"},"geometry":{"type":"Polygon","coordinates":[[[77.2604,28.6229],[77.2571,28.6227],[77.2423,28.632],[77.2375,28.6322],[77.2322,28.6357],[77.2205,28.6411],[77.2008,28.6391],[77.1968,28.6358],[77.1905,28.6324],[77.1877,28.6261],[77.1867,28.6256],[77.1808,28.6317],[77.1808,28.6335],[77.1833,28.6405],[77.1838,28.6464],[77.1825,28.6482],[77.1883,28.6511],[77.1859,28.6579],[77.1869,28.6602],[77.1959,28.6591],[77.2,28.6572],[77.206,28.6583],[77.2151,28.6502],[77.2214,28.6497],[77.2256,28.6478],[77.2315,28.6479],[77.2341,28.6505],[77.2404,28.6507],[77.2426,28.652],[77.253,28.6537],[77.2577,28.6424],[77.2579,28.6352],[77.2572,28.6316],[77.2589,28.624],[77.2604,28.6229]]]}},{"type":"Feature","id":"delhi-district-167","properties":{"name":"East Delhi","province":"Delhi","department":"National Capital Territory","type":"Distrito","country":"India","iso":"IN"},"geometry":{"type":"Polygon","coordinates":[[[77.3048,28.5768],[77.2899,28.5858],[77.2835,28.5883],[77.2767,28.5925],[77.2759,28.5974],[77.2713,28.6002],[77.2656,28.6074],[77.2645,28.6075],[77.2624,28.6146],[77.2627,28.6211],[77.2589,28.624],[77.2572,28.6316],[77.2579,28.6352],[77.2577,28.6424],[77.2514,28.6574],[77.2506,28.663],[77.2621,28.6632],[77.2854,28.6728],[77.3044,28.6734],[77.3119,28.6703],[77.3178,28.6733],[77.3281,28.6739],[77.3277,28.6662],[77.3256,28.6578],[77.3254,28.6459],[77.3232,28.6412],[77.3213,28.6392],[77.3237,28.6377],[77.3311,28.6306],[77.3406,28.6259],[77.3443,28.6215],[77.3472,28.6164],[77.3476,28.612],[77.3463,28.6034],[77.3432,28.6012],[77.327,28.5945],[77.32,28.5935],[77.3172,28.5914],[77.3048,28.5768]]]}},{"type":"Feature","id":"delhi-district-417","properties":{"name":"North East Delhi","province":"Delhi","department":"National Capital Territory","type":"Distrito","country":"India","iso":"IN"},"geometry":{"type":"Polygon","coordinates":[[[77.2507,28.6624],[77.2468,28.6636],[77.2422,28.6698],[77.2434,28.7003],[77.2445,28.7027],[77.246,28.7339],[77.2312,28.7474],[77.2231,28.7588],[77.2154,28.7715],[77.2149,28.7761],[77.2133,28.7803],[77.2143,28.7835],[77.2187,28.7818],[77.2233,28.7811],[77.2285,28.7823],[77.2349,28.7823],[77.2323,28.7784],[77.2273,28.7763],[77.2311,28.7725],[77.2393,28.7671],[77.2482,28.7538],[77.2561,28.752],[77.2587,28.7522],[77.2634,28.7474],[77.2621,28.7401],[77.2664,28.7345],[77.2701,28.7327],[77.2766,28.7339],[77.2813,28.7328],[77.2871,28.729],[77.2909,28.7246],[77.2946,28.7185],[77.2939,28.7136],[77.2951,28.707],[77.3031,28.7043],[77.3058,28.7076],[77.3117,28.7113],[77.3164,28.7122],[77.3274,28.7118],[77.3337,28.7104],[77.3319,28.7064],[77.33,28.6982],[77.3311,28.6942],[77.3378,28.6864],[77.3373,28.6797],[77.3356,28.677],[77.3281,28.6739],[77.3178,28.6733],[77.3119,28.6703],[77.3044,28.6734],[77.2854,28.6728],[77.2621,28.6632],[77.2506,28.663],[77.2507,28.6624]]]}},{"type":"Feature","id":"delhi-district-413","properties":{"name":"North Delhi","province":"Delhi","department":"National Capital Territory","type":"Distrito","country":"India","iso":"IN"},"geometry":{"type":"Polygon","coordinates":[[[77.2143,28.7835],[77.2133,28.7803],[77.2149,28.7761],[77.2154,28.7715],[77.2231,28.7588],[77.2312,28.7474],[77.246,28.7339],[77.2445,28.7027],[77.2434,28.7003],[77.2422,28.6698],[77.2468,28.6636],[77.2507,28.6624],[77.2514,28.6574],[77.253,28.6537],[77.2426,28.652],[77.2404,28.6507],[77.2341,28.6505],[77.2315,28.6479],[77.2256,28.6478],[77.2214,28.6497],[77.2151,28.6502],[77.206,28.6583],[77.2,28.6572],[77.1959,28.6591],[77.1869,28.6602],[77.1859,28.6579],[77.1728,28.657],[77.1675,28.6625],[77.1707,28.6682],[77.1766,28.6725],[77.1782,28.6824],[77.1825,28.6894],[77.1922,28.6889],[77.2016,28.6874],[77.2141,28.6946],[77.2181,28.6986],[77.2209,28.7062],[77.22,28.7147],[77.2144,28.7166],[77.1949,28.7205],[77.1862,28.7246],[77.1767,28.731],[77.1665,28.7404],[77.166,28.7433],[77.1659,28.7473],[77.1799,28.7584],[77.1826,28.7673],[77.1893,28.7674],[77.2105,28.7865],[77.2129,28.7841],[77.2143,28.7835]]]}},{"type":"Feature","id":"delhi-district-420","properties":{"name":"North West Delhi","province":"Delhi","department":"National Capital Territory","type":"Distrito","country":"India","iso":"IN"},"geometry":{"type":"Polygon","coordinates":[[[77.1709,28.6683],[77.1669,28.673],[77.1549,28.6738],[77.1527,28.6761],[77.1195,28.6751],[77.1113,28.677],[77.0984,28.6876],[77.0862,28.6805],[77.0798,28.6859],[77.0761,28.6849],[77.0715,28.6874],[77.0638,28.6833],[77.0581,28.6868],[77.0447,28.6866],[77.026,28.6899],[77.0109,28.6823],[76.9986,28.6811],[76.9782,28.6955],[76.9637,28.6948],[76.9645,28.7002],[76.9609,28.7046],[76.9512,28.7119],[76.9606,28.7313],[76.9592,28.7364],[76.9603,28.7415],[76.9574,28.746],[76.9482,28.7545],[76.9566,28.7689],[76.954,28.7734],[76.9523,28.7826],[76.9531,28.79],[76.9475,28.7984],[76.9474,28.804],[76.9524,28.8156],[76.9583,28.8126],[76.9658,28.8149],[76.9681,28.8252],[76.9709,28.8266],[76.9807,28.82],[76.9838,28.8207],[76.9897,28.8316],[76.9936,28.834],[76.9999,28.834],[77.0168,28.8301],[77.029,28.8319],[77.0348,28.8311],[77.0417,28.8316],[77.0479,28.8476],[77.06,28.868],[77.0759,28.8678],[77.0804,28.8748],[77.0861,28.8793],[77.0936,28.8694],[77.1097,28.8672],[77.1174,28.8632],[77.12,28.8609],[77.1388,28.8601],[77.1454,28.8532],[77.1459,28.8474],[77.1441,28.8394],[77.1495,28.8364],[77.1526,28.8372],[77.1609,28.8432],[77.1699,28.8521],[77.1749,28.8554],[77.194,28.857],[77.1972,28.8615],[77.2038,28.86],[77.21,28.8596],[77.2152,28.8576],[77.2182,28.8549],[77.2218,28.8496],[77.2209,28.84],[77.2276,28.83],[77.2239,28.8082],[77.2049,28.81],[77.2047,28.797],[77.2072,28.7899],[77.2105,28.7865],[77.1893,28.7674],[77.1826,28.7673],[77.1799,28.7584],[77.1659,28.7473],[77.166,28.7433],[77.1665,28.7404],[77.1767,28.731],[77.1862,28.7246],[77.1949,28.7205],[77.2144,28.7166],[77.22,28.7147],[77.2209,28.7062],[77.2181,28.6986],[77.2141,28.6946],[77.2042,28.6885],[77.2016,28.6874],[77.1922,28.6889],[77.1825,28.6894],[77.1782,28.6824],[77.1766,28.6725],[77.1709,28.6683]]]}},{"type":"Feature","id":"delhi-district-411","properties":{"name":"New Delhi","province":"Delhi","department":"National Capital Territory","type":"Distrito","country":"India","iso":"IN"},"geometry":{"type":"Polygon","coordinates":[[[77.2604,28.6229],[77.2627,28.6211],[77.2624,28.6146],[77.2645,28.6075],[77.2589,28.6079],[77.2466,28.6057],[77.2298,28.592],[77.2257,28.5916],[77.2129,28.5818],[77.213,28.5769],[77.2014,28.5806],[77.1947,28.5818],[77.1827,28.5852],[77.177,28.5884],[77.1735,28.5933],[77.1723,28.5995],[77.1867,28.6256],[77.1877,28.6261],[77.1905,28.6324],[77.1968,28.6358],[77.2008,28.6391],[77.2205,28.6411],[77.2322,28.6357],[77.2375,28.6322],[77.2423,28.632],[77.2571,28.6227],[77.2604,28.6229]]]}},{"type":"Feature","id":"delhi-district-544","properties":{"name":"South Delhi","province":"Delhi","department":"National Capital Territory","type":"Distrito","country":"India","iso":"IN"},"geometry":{"type":"Polygon","coordinates":[[[77.2645,28.6075],[77.2656,28.6074],[77.2713,28.6002],[77.2759,28.5974],[77.2767,28.5925],[77.2835,28.5883],[77.2899,28.5858],[77.3048,28.5768],[77.3036,28.5743],[77.3038,28.5613],[77.3051,28.5557],[77.313,28.545],[77.3206,28.5382],[77.3248,28.536],[77.3314,28.5304],[77.3404,28.5186],[77.3439,28.5152],[77.3468,28.5102],[77.3477,28.5035],[77.3444,28.5056],[77.3389,28.5028],[77.3366,28.498],[77.3316,28.4939],[77.3247,28.4891],[77.3167,28.4852],[77.3108,28.4846],[77.3061,28.4857],[77.2956,28.4908],[77.2879,28.4927],[77.281,28.4916],[77.2699,28.483],[77.2638,28.4801],[77.2524,28.4792],[77.2422,28.4704],[77.2374,28.4643],[77.2355,28.4586],[77.2362,28.4548],[77.2429,28.454],[77.2496,28.4482],[77.253,28.442],[77.254,28.4362],[77.2529,28.4282],[77.2503,28.4234],[77.2324,28.4135],[77.225,28.4103],[77.2156,28.408],[77.2049,28.4071],[77.1891,28.407],[77.1754,28.4031],[77.164,28.4159],[77.1615,28.4229],[77.1521,28.4303],[77.141,28.4333],[77.1337,28.4339],[77.1279,28.4371],[77.1222,28.4449],[77.1184,28.452],[77.1157,28.4605],[77.1124,28.4651],[77.1112,28.4711],[77.1151,28.4828],[77.121,28.4829],[77.1347,28.4868],[77.1431,28.4905],[77.153,28.4992],[77.1688,28.5084],[77.1786,28.5175],[77.1811,28.5218],[77.1806,28.5277],[77.1908,28.5374],[77.1899,28.5439],[77.1902,28.5482],[77.196,28.5556],[77.1992,28.5612],[77.214,28.5674],[77.2138,28.5753],[77.213,28.5769],[77.2129,28.5818],[77.2257,28.5916],[77.2298,28.592],[77.2466,28.6057],[77.2589,28.6079],[77.2645,28.6075]]]}},{"type":"Feature","id":"delhi-district-550","properties":{"name":"South West Delhi","province":"Delhi","department":"National Capital Territory","type":"Distrito","country":"India","iso":"IN"},"geometry":{"type":"Polygon","coordinates":[[[77.1825,28.6482],[77.1838,28.6464],[77.1833,28.6405],[77.1808,28.6335],[77.1808,28.6317],[77.1869,28.626],[77.1723,28.5995],[77.1735,28.5933],[77.177,28.5884],[77.1827,28.5852],[77.1947,28.5818],[77.2014,28.5806],[77.213,28.5769],[77.2138,28.5753],[77.214,28.5674],[77.1992,28.5612],[77.196,28.5556],[77.1902,28.5482],[77.1899,28.5439],[77.1908,28.5374],[77.1806,28.5277],[77.1811,28.5218],[77.1786,28.5175],[77.1688,28.5084],[77.153,28.4992],[77.1431,28.4905],[77.1347,28.4868],[77.121,28.4829],[77.1151,28.4828],[77.1174,28.4885],[77.1132,28.4921],[77.1,28.5001],[77.0957,28.5055],[77.0822,28.515],[77.0772,28.5153],[77.0666,28.5086],[77.0584,28.51],[77.0513,28.5137],[77.0428,28.5231],[77.0293,28.528],[77.0253,28.5281],[77.0158,28.5375],[77.0099,28.5368],[77.0056,28.5317],[77.0079,28.5269],[77.0147,28.5235],[77.0211,28.5189],[77.0206,28.5128],[77.0152,28.5092],[76.9862,28.5186],[76.9781,28.5224],[76.9542,28.5084],[76.9428,28.5108],[76.9322,28.5141],[76.918,28.5097],[76.907,28.5126],[76.9033,28.511],[76.8963,28.5061],[76.8889,28.5039],[76.8833,28.5093],[76.889,28.5189],[76.8859,28.5233],[76.8688,28.5368],[76.8663,28.5427],[76.8472,28.5519],[76.8425,28.5774],[76.8446,28.5863],[76.8599,28.585],[76.8644,28.5872],[76.8706,28.5974],[76.8877,28.6325],[76.9034,28.6276],[76.907,28.6277],[76.9138,28.6328],[76.9201,28.6327],[76.9334,28.6235],[76.9357,28.6241],[76.9437,28.6325],[76.928,28.6481],[76.9273,28.6521],[76.9329,28.6641],[76.9396,28.6693],[76.9521,28.6699],[76.9522,28.6655],[76.9576,28.6621],[76.9628,28.664],[76.9688,28.6623],[76.9789,28.6561],[76.9883,28.6522],[76.997,28.6477],[77.0038,28.6384],[77.012,28.6298],[77.02,28.6294],[77.0253,28.6272],[77.0341,28.6203],[77.0382,28.6128],[77.0548,28.6131],[77.0606,28.6173],[77.0917,28.6184],[77.1078,28.6123],[77.113,28.6136],[77.1202,28.6201],[77.1305,28.6326],[77.1384,28.6345],[77.1521,28.6435],[77.164,28.6449],[77.1818,28.6493],[77.1825,28.6482]]]}},{"type":"Feature","id":"delhi-district-613","properties":{"name":"West Delhi","province":"Delhi","department":"National Capital Territory","type":"Distrito","country":"India","iso":"IN"},"geometry":{"type":"Polygon","coordinates":[[[77.1709,28.6683],[77.1675,28.6625],[77.1728,28.657],[77.1859,28.6579],[77.1883,28.6511],[77.1825,28.6482],[77.1818,28.6493],[77.164,28.6449],[77.1521,28.6435],[77.1384,28.6345],[77.1305,28.6326],[77.1202,28.6201],[77.113,28.6136],[77.1078,28.6123],[77.0917,28.6184],[77.0606,28.6173],[77.0548,28.6131],[77.0382,28.6128],[77.0341,28.6203],[77.0253,28.6272],[77.02,28.6294],[77.012,28.6298],[77.0038,28.6384],[76.997,28.6477],[76.9883,28.6522],[76.9789,28.6561],[76.9688,28.6623],[76.9628,28.664],[76.9576,28.6621],[76.9522,28.6655],[76.9521,28.6699],[76.9571,28.672],[76.9558,28.6783],[76.9582,28.6828],[76.9599,28.689],[76.9637,28.6948],[76.9782,28.6955],[76.9986,28.6811],[77.0109,28.6823],[77.026,28.6899],[77.0447,28.6866],[77.0581,28.6868],[77.0638,28.6833],[77.0715,28.6874],[77.0761,28.6849],[77.0798,28.6859],[77.0862,28.6805],[77.0984,28.6876],[77.1113,28.677],[77.1195,28.6751],[77.1527,28.6761],[77.1549,28.6738],[77.1669,28.673],[77.1709,28.6683]]]}}]}