{"type":"FeatureCollection","features":[{"type":"Feature","id":"bydel-oslo-17","properties":{"name":"Marka Nord","province":"Oslo","department":"Oslo Fylke","type":"Bydel","country":"Noruega","iso":"NO"},"geometry":{"type":"Polygon","coordinates":[[[10.7155,59.9576],[10.7145,59.9579],[10.7117,59.9567],[10.7109,59.9572],[10.7101,59.9589],[10.7117,59.9605],[10.71,59.962],[10.711,59.9635],[10.7058,59.9629],[10.7016,59.9606],[10.6989,59.9612],[10.6987,59.9607],[10.6984,59.9616],[10.6992,59.9617],[10.6992,59.9624],[10.6972,59.9621],[10.6933,59.9659],[10.6919,59.9659],[10.6913,59.9648],[10.6919,59.9647],[10.6908,59.9641],[10.6907,59.9628],[10.6882,59.9632],[10.6887,59.9624],[10.6861,59.9611],[10.6701,59.9624],[10.6687,59.9614],[10.6673,59.9613],[10.6668,59.9624],[10.665,59.9621],[10.6663,59.9641],[10.6638,59.9632],[10.6618,59.9638],[10.6627,59.9662],[10.6634,59.9662],[10.6631,59.9687],[10.6636,59.9691],[10.67,59.9677],[10.671,59.9701],[10.6726,59.9704],[10.6739,59.972],[10.6677,59.9775],[10.6667,59.9773],[10.666,59.979],[10.664,59.9803],[10.6589,59.9821],[10.6544,59.9819],[10.6548,59.9845],[10.6518,59.9851],[10.6486,59.9813],[10.6474,59.9807],[10.6465,59.9782],[10.645,59.9778],[10.6442,59.9762],[10.6441,59.9713],[10.6409,59.9698],[10.64,59.9713],[10.638,59.9702],[10.6384,59.9695],[10.6356,59.9704],[10.636,59.9697],[10.6315,59.9685],[10.6192,59.9687],[10.6182,59.9705],[10.6105,59.9766],[10.6027,59.9767],[10.5969,59.9778],[10.5942,59.9768],[10.5906,59.9772],[10.5903,59.9785],[10.5873,59.98],[10.5837,59.9829],[10.5725,59.9882],[10.5676,59.9914],[10.5595,59.994],[10.5564,59.9966],[10.5491,59.9937],[10.5454,59.9952],[10.544,59.998],[10.5353,60.0006],[10.5297,60.0001],[10.5285,59.9993],[10.5255,60.0001],[10.5181,59.9993],[10.5049,60.0078],[10.4902,60.0158],[10.4892,60.0173],[10.5808,60.0762],[10.5973,60.0773],[10.5929,60.0825],[10.5919,60.0908],[10.5921,60.0939],[10.5887,60.1003],[10.5828,60.1072],[10.5728,60.1168],[10.6005,60.1315],[10.603,60.1323],[10.6039,60.1339],[10.6189,60.1351],[10.6473,60.1329],[10.6803,60.1335],[10.6949,60.1272],[10.6964,60.1259],[10.7045,60.1252],[10.7049,60.1229],[10.7038,60.1212],[10.7073,60.1194],[10.7162,60.1197],[10.7187,60.1215],[10.7244,60.1216],[10.7316,60.1237],[10.7328,60.1252],[10.7371,60.1257],[10.7403,60.1253],[10.7435,60.1234],[10.7469,60.123],[10.748,60.1217],[10.7512,60.1208],[10.7521,60.1184],[10.7677,60.1131],[10.7684,60.1124],[10.7664,60.112],[10.7571,60.1061],[10.7553,60.1038],[10.7549,60.1002],[10.7553,60.0996],[10.7575,60.0993],[10.7581,60.0985],[10.7617,60.098],[10.7629,60.0966],[10.7644,60.0963],[10.7682,60.091],[10.7703,60.0871],[10.7723,60.0866],[10.7739,60.0852],[10.7768,60.0811],[10.777,60.0797],[10.779,60.0783],[10.7786,60.0772],[10.7823,60.0748],[10.7839,60.073],[10.7843,60.071],[10.7868,60.0682],[10.7886,60.0674],[10.8012,60.0659],[10.8092,60.0641],[10.8105,60.0647],[10.8122,60.0644],[10.8135,60.0651],[10.8196,60.0647],[10.8164,60.0543],[10.8172,60.0532],[10.8172,60.0475],[10.8181,60.0444],[10.817,60.0405],[10.8177,60.0399],[10.8172,60.0396],[10.8181,60.0378],[10.8146,60.0369],[10.8121,60.0343],[10.8132,60.031],[10.8124,60.0298],[10.8135,60.0293],[10.812,60.0278],[10.8117,60.0255],[10.8152,60.0212],[10.8187,60.0183],[10.8213,60.0174],[10.8222,60.0179],[10.8224,60.0204],[10.8241,60.0227],[10.8261,60.0233],[10.8283,60.0222],[10.8292,60.0199],[10.832,60.0178],[10.8323,60.0148],[10.8335,60.0112],[10.8329,60.01],[10.8356,60.0086],[10.837,60.007],[10.8385,60.0013],[10.8377,59.998],[10.84,59.9981],[10.8425,59.9971],[10.8427,59.9995],[10.8493,60.002],[10.8578,59.9962],[10.8659,59.9951],[10.8679,59.9912],[10.8716,59.9898],[10.8749,59.9877],[10.8754,59.9856],[10.8827,59.9846],[10.8932,59.9808],[10.8988,59.9803],[10.9105,59.9803],[10.9127,59.981],[10.9161,59.9838],[10.9177,59.9793],[10.9165,59.9796],[10.9173,59.9788],[10.9168,59.9775],[10.9141,59.9769],[10.9128,59.975],[10.9118,59.9752],[10.9109,59.9765],[10.9117,59.9772],[10.9119,59.9781],[10.9113,59.9781],[10.9093,59.9769],[10.9089,59.9755],[10.9067,59.9731],[10.9025,59.9717],[10.8994,59.9718],[10.8915,59.9695],[10.8897,59.9698],[10.8894,59.9691],[10.8908,59.969],[10.8895,59.9657],[10.8901,59.963],[10.8891,59.962],[10.8856,59.9632],[10.886,59.9639],[10.8844,59.9652],[10.8843,59.9672],[10.883,59.9676],[10.883,59.9684],[10.8803,59.9694],[10.881,59.9701],[10.8793,59.9717],[10.8799,59.972],[10.8793,59.9731],[10.8776,59.973],[10.8781,59.9717],[10.8776,59.9705],[10.8765,59.9704],[10.8758,59.9717],[10.8745,59.972],[10.874,59.9726],[10.8758,59.9731],[10.8747,59.977],[10.8696,59.9769],[10.8678,59.9728],[10.8703,59.9717],[10.8732,59.9721],[10.8742,59.9717],[10.8686,59.9691],[10.8672,59.9701],[10.8668,59.9676],[10.8632,59.9675],[10.8611,59.9664],[10.8597,59.9668],[10.8599,59.966],[10.8612,59.9656],[10.8606,59.9644],[10.863,59.9638],[10.8634,59.9629],[10.862,59.9624],[10.8622,59.9612],[10.8635,59.9606],[10.8635,59.9591],[10.8622,59.9588],[10.8624,59.9582],[10.861,59.9585],[10.8612,59.9581],[10.8597,59.9579],[10.8595,59.9572],[10.8568,59.9576],[10.8576,59.9559],[10.8564,59.9557],[10.8469,59.9565],[10.8463,59.9554],[10.8478,59.9545],[10.8473,59.9514],[10.8479,59.9507],[10.8419,59.9494],[10.8398,59.9476],[10.8412,59.9472],[10.841,59.9466],[10.834,59.9452],[10.8306,59.9455],[10.8298,59.948],[10.8315,59.9504],[10.8306,59.9502],[10.8303,59.9512],[10.8266,59.9512],[10.8262,59.9519],[10.823,59.9524],[10.8238,59.9529],[10.824,59.9544],[10.8235,59.954],[10.819,59.9551],[10.8158,59.9603],[10.8152,59.9603],[10.8145,59.9578],[10.8142,59.9545],[10.8151,59.9503],[10.814,59.9508],[10.8124,59.949],[10.8043,59.9477],[10.8037,59.9496],[10.8017,59.9491],[10.7996,59.9517],[10.7972,59.9527],[10.7978,59.9539],[10.7991,59.9537],[10.7993,59.9545],[10.7984,59.9549],[10.7981,59.9578],[10.7982,59.9604],[10.7993,59.9626],[10.7975,59.9631],[10.7977,59.9662],[10.799,59.9679],[10.7981,59.968],[10.7978,59.9685],[10.7988,59.9686],[10.7976,59.969],[10.7989,59.9691],[10.794,59.9713],[10.7933,59.9707],[10.7933,59.9693],[10.7911,59.9694],[10.7901,59.9687],[10.7905,59.9705],[10.7875,59.9705],[10.788,59.9695],[10.787,59.9693],[10.7809,59.9705],[10.7714,59.9698],[10.7663,59.9683],[10.7665,59.9669],[10.7653,59.9669],[10.7639,59.9653],[10.7614,59.9661],[10.756,59.9658],[10.7533,59.965],[10.7512,59.9665],[10.7506,59.966],[10.7484,59.9663],[10.748,59.9682],[10.7468,59.9684],[10.7457,59.9684],[10.7436,59.9652],[10.7396,59.9655],[10.7396,59.9663],[10.7374,59.9663],[10.7359,59.9673],[10.7343,59.9671],[10.733,59.9709],[10.7316,59.9723],[10.7312,59.9709],[10.7297,59.9708],[10.7284,59.9696],[10.7257,59.9696],[10.7251,59.9688],[10.722,59.9681],[10.7219,59.9625],[10.7211,59.9608],[10.7155,59.9576]]]}},{"type":"Feature","id":"bydel-oslo-17","properties":{"name":"Marka Øst","province":"Oslo","department":"Oslo Fylke","type":"Bydel","country":"Noruega","iso":"NO"},"geometry":{"type":"Polygon","coordinates":[[[10.8402,59.8618],[10.8401,59.8622],[10.8435,59.8628],[10.8441,59.8672],[10.8463,59.8693],[10.848,59.8691],[10.8504,59.8709],[10.8512,59.8725],[10.8523,59.8728],[10.8494,59.8727],[10.8488,59.8732],[10.8484,59.8743],[10.8491,59.8758],[10.8501,59.8764],[10.8569,59.8765],[10.8569,59.8806],[10.8573,59.8808],[10.8569,59.8826],[10.8557,59.8838],[10.8586,59.8863],[10.8585,59.8874],[10.8576,59.8874],[10.8575,59.8885],[10.8567,59.8886],[10.8582,59.8891],[10.8575,59.8904],[10.8576,59.8931],[10.8581,59.8934],[10.857,59.8937],[10.857,59.8957],[10.8562,59.8963],[10.8562,59.8973],[10.855,59.8975],[10.8543,59.8985],[10.853,59.8985],[10.8531,59.899],[10.8543,59.8991],[10.8528,59.9031],[10.8537,59.9032],[10.8525,59.9055],[10.856,59.9054],[10.8558,59.907],[10.8568,59.9076],[10.8551,59.9093],[10.8566,59.9085],[10.8625,59.9098],[10.8656,59.9091],[10.8605,59.9146],[10.8623,59.9151],[10.8622,59.9167],[10.8628,59.9169],[10.8622,59.9175],[10.8648,59.9184],[10.8661,59.9199],[10.8701,59.9204],[10.8705,59.9217],[10.8746,59.922],[10.8757,59.9209],[10.8772,59.921],[10.8778,59.9204],[10.8805,59.9207],[10.8809,59.9227],[10.8828,59.9226],[10.8832,59.928],[10.8872,59.9281],[10.8873,59.9299],[10.8909,59.9308],[10.8917,59.9324],[10.8923,59.9319],[10.9012,59.9356],[10.9016,59.9348],[10.9058,59.9353],[10.9091,59.9342],[10.9101,59.9332],[10.9105,59.9314],[10.914,59.9288],[10.9237,59.9291],[10.9214,59.9265],[10.9193,59.9216],[10.9196,59.9207],[10.9177,59.9197],[10.9173,59.917],[10.9158,59.9139],[10.9164,59.9132],[10.9148,59.9116],[10.9151,59.9103],[10.9076,59.885],[10.9099,59.8753],[10.9072,59.8699],[10.9093,59.8648],[10.9123,59.8601],[10.9216,59.8521],[10.9265,59.8451],[10.9264,59.8432],[10.9292,59.8406],[10.9297,59.8385],[10.9312,59.8368],[10.9341,59.836],[10.9366,59.8317],[10.933,59.8313],[10.9274,59.8269],[10.9251,59.8277],[10.9176,59.8279],[10.9149,59.8268],[10.9117,59.8268],[10.9108,59.826],[10.9011,59.8255],[10.8965,59.8238],[10.8965,59.8219],[10.8918,59.821],[10.8918,59.8182],[10.8904,59.8177],[10.8865,59.8189],[10.8814,59.8182],[10.8754,59.8203],[10.8746,59.8232],[10.8715,59.8241],[10.8712,59.8269],[10.8747,59.8276],[10.8737,59.829],[10.871,59.8291],[10.8708,59.8316],[10.8697,59.8332],[10.8704,59.8341],[10.8665,59.8337],[10.8647,59.8343],[10.8598,59.8334],[10.8566,59.8338],[10.8545,59.8329],[10.8532,59.8331],[10.8548,59.8351],[10.8481,59.8337],[10.8471,59.8342],[10.846,59.8356],[10.8479,59.8382],[10.8475,59.8426],[10.8485,59.8425],[10.8484,59.8464],[10.8469,59.8466],[10.8463,59.8508],[10.8456,59.8513],[10.8465,59.8548],[10.8461,59.8602],[10.8467,59.8618],[10.8481,59.8632],[10.8446,59.8627],[10.8435,59.8619],[10.8402,59.8618]]]}},{"type":"Feature","id":"bydel-oslo-03","properties":{"name":"Sagene","province":"Oslo","department":"Oslo Fylke","type":"Bydel","country":"Noruega","iso":"NO"},"geometry":{"type":"Polygon","coordinates":[[[10.7497,59.9282],[10.7489,59.9313],[10.7502,59.9406],[10.7483,59.9435],[10.7484,59.9445],[10.7493,59.944],[10.7578,59.9464],[10.7602,59.9459],[10.7602,59.9453],[10.7619,59.9459],[10.765,59.9456],[10.7656,59.9471],[10.7713,59.9481],[10.7747,59.9479],[10.7775,59.9469],[10.7782,59.9459],[10.7825,59.9366],[10.7801,59.9353],[10.7786,59.9332],[10.776,59.9318],[10.7712,59.9309],[10.7686,59.9296],[10.7623,59.9319],[10.761,59.9304],[10.7611,59.9285],[10.7497,59.9282]]]}},{"type":"Feature","id":"bydel-oslo-10","properties":{"name":"Grorud","province":"Oslo","department":"Oslo Fylke","type":"Bydel","country":"Noruega","iso":"NO"},"geometry":{"type":"Polygon","coordinates":[[[10.8971,59.9612],[10.8982,59.9607],[10.896,59.9595],[10.8968,59.9595],[10.8947,59.9576],[10.8934,59.9574],[10.894,59.9564],[10.8932,59.9545],[10.8961,59.9544],[10.8904,59.9522],[10.8862,59.9488],[10.8581,59.9401],[10.8587,59.9424],[10.8629,59.9456],[10.8632,59.9465],[10.8619,59.9475],[10.8622,59.9497],[10.8605,59.951],[10.8568,59.9503],[10.8548,59.949],[10.8536,59.9506],[10.8474,59.9509],[10.8478,59.9545],[10.8463,59.9554],[10.8467,59.9564],[10.8479,59.9567],[10.8564,59.9557],[10.8576,59.9559],[10.8568,59.9576],[10.8595,59.9572],[10.8597,59.9579],[10.8612,59.9581],[10.861,59.9585],[10.8624,59.9582],[10.8622,59.9588],[10.8635,59.9591],[10.8635,59.9606],[10.8622,59.9612],[10.862,59.9624],[10.8634,59.9629],[10.863,59.9638],[10.8606,59.9644],[10.8612,59.9656],[10.8599,59.966],[10.8597,59.9668],[10.8611,59.9664],[10.8632,59.9675],[10.8668,59.9676],[10.8672,59.9701],[10.8686,59.9691],[10.8742,59.9717],[10.8732,59.9721],[10.8703,59.9717],[10.8678,59.9728],[10.8696,59.9769],[10.8747,59.977],[10.8758,59.9731],[10.874,59.9726],[10.8745,59.972],[10.8758,59.9717],[10.8765,59.9704],[10.8776,59.9705],[10.8781,59.9717],[10.8776,59.973],[10.8793,59.9731],[10.8799,59.972],[10.8793,59.9717],[10.881,59.9701],[10.8803,59.9694],[10.883,59.9684],[10.883,59.9676],[10.8843,59.9672],[10.8844,59.9652],[10.886,59.9639],[10.8856,59.9632],[10.8891,59.962],[10.8901,59.963],[10.8895,59.9657],[10.8908,59.969],[10.8894,59.9691],[10.8897,59.9698],[10.8915,59.9695],[10.8994,59.9718],[10.9025,59.9717],[10.9067,59.9731],[10.9089,59.9755],[10.9093,59.9769],[10.9113,59.9781],[10.9119,59.9781],[10.9117,59.9772],[10.9109,59.9767],[10.9116,59.9754],[10.9133,59.9752],[10.9141,59.9769],[10.9159,59.977],[10.917,59.9777],[10.9173,59.9788],[10.9165,59.9796],[10.9175,59.9791],[10.9177,59.9796],[10.916,59.9833],[10.9163,59.984],[10.9178,59.9845],[10.9257,59.9837],[10.9283,59.9797],[10.9282,59.9787],[10.9291,59.9776],[10.9286,59.9766],[10.9195,59.9737],[10.9067,59.9659],[10.903,59.9648],[10.8971,59.9612]]]}},{"type":"Feature","id":"bydel-oslo-08","properties":{"name":"Nordre Aker","province":"Oslo","department":"Oslo Fylke","type":"Bydel","country":"Noruega","iso":"NO"},"geometry":{"type":"Polygon","coordinates":[[[10.7848,59.9376],[10.7825,59.9366],[10.7775,59.9469],[10.7719,59.9482],[10.7656,59.9471],[10.765,59.9456],[10.7619,59.9459],[10.7602,59.9453],[10.7602,59.9459],[10.7578,59.9464],[10.7493,59.944],[10.7484,59.9445],[10.7483,59.9435],[10.7501,59.9408],[10.7469,59.9412],[10.7466,59.9403],[10.7434,59.9412],[10.744,59.9418],[10.7407,59.943],[10.7318,59.9388],[10.7312,59.9379],[10.7301,59.9382],[10.7247,59.9363],[10.7228,59.9371],[10.7189,59.9369],[10.7155,59.935],[10.7143,59.9354],[10.7173,59.94],[10.7144,59.9407],[10.7175,59.9458],[10.7115,59.9463],[10.713,59.9476],[10.7122,59.9499],[10.7133,59.9504],[10.7128,59.9507],[10.7151,59.953],[10.7153,59.9542],[10.7142,59.9546],[10.7158,59.9571],[10.7155,59.9576],[10.7211,59.9608],[10.7219,59.9625],[10.7219,59.9679],[10.7251,59.9688],[10.7257,59.9696],[10.7284,59.9696],[10.7297,59.9708],[10.7312,59.9709],[10.7316,59.9723],[10.733,59.9709],[10.7343,59.9671],[10.7359,59.9673],[10.7374,59.9663],[10.7396,59.9663],[10.7396,59.9655],[10.7436,59.9652],[10.7457,59.9684],[10.7468,59.9684],[10.748,59.9682],[10.7484,59.9663],[10.7506,59.966],[10.7512,59.9665],[10.7533,59.965],[10.756,59.9658],[10.7614,59.9661],[10.7639,59.9653],[10.7653,59.9669],[10.7665,59.9669],[10.7663,59.9683],[10.7714,59.9698],[10.7809,59.9705],[10.787,59.9693],[10.788,59.9695],[10.7875,59.9705],[10.7905,59.9705],[10.7901,59.9687],[10.7911,59.9694],[10.7933,59.9693],[10.7933,59.9707],[10.794,59.9713],[10.7989,59.9691],[10.7976,59.969],[10.7988,59.9686],[10.7978,59.9685],[10.7981,59.968],[10.799,59.9679],[10.7977,59.9662],[10.7975,59.9631],[10.7993,59.9626],[10.7982,59.9604],[10.7981,59.9578],[10.7984,59.9549],[10.7993,59.9545],[10.7991,59.9537],[10.7978,59.9539],[10.7972,59.9527],[10.7996,59.9517],[10.8017,59.9491],[10.8037,59.9496],[10.8043,59.9491],[10.8042,59.9478],[10.8022,59.9473],[10.8032,59.9461],[10.8034,59.9445],[10.7998,59.9412],[10.79,59.9393],[10.7848,59.9376]]]}},{"type":"Feature","id":"bydel-oslo-11","properties":{"name":"Stovner","province":"Oslo","department":"Oslo Fylke","type":"Bydel","country":"Noruega","iso":"NO"},"geometry":{"type":"Polygon","coordinates":[[[10.8951,59.9537],[10.8963,59.9546],[10.8932,59.9545],[10.894,59.9564],[10.8934,59.9574],[10.8947,59.9576],[10.8968,59.9595],[10.896,59.9595],[10.8982,59.9607],[10.8971,59.9612],[10.903,59.9648],[10.9067,59.9659],[10.9195,59.9737],[10.9281,59.9762],[10.9291,59.9774],[10.9282,59.9787],[10.9283,59.9797],[10.9304,59.9772],[10.9329,59.9754],[10.9373,59.97],[10.9381,59.9655],[10.9369,59.963],[10.9378,59.9617],[10.9375,59.9609],[10.9402,59.9579],[10.9413,59.9544],[10.9422,59.954],[10.9426,59.9528],[10.9452,59.9528],[10.9514,59.9492],[10.9476,59.948],[10.9467,59.947],[10.9454,59.9471],[10.945,59.9478],[10.9426,59.947],[10.943,59.9461],[10.9423,59.9455],[10.946,59.9432],[10.9444,59.9429],[10.9432,59.9415],[10.9374,59.9395],[10.9315,59.9363],[10.9262,59.9378],[10.9251,59.9396],[10.9185,59.9402],[10.9104,59.9394],[10.9031,59.9396],[10.903,59.9403],[10.9048,59.941],[10.9007,59.943],[10.8996,59.9451],[10.9045,59.9458],[10.9047,59.9466],[10.9028,59.9482],[10.9064,59.9503],[10.9097,59.9511],[10.9003,59.9536],[10.8951,59.9537]]]}},{"type":"Feature","id":"bydel-oslo-14","properties":{"name":"Nordstrand","province":"Oslo","department":"Oslo Fylke","type":"Bydel","country":"Noruega","iso":"NO"},"geometry":{"type":"MultiPolygon","coordinates":[[[[10.8307,59.8619],[10.8309,59.86],[10.8295,59.8593],[10.8267,59.8591],[10.8243,59.8596],[10.8209,59.8591],[10.8223,59.8564],[10.8219,59.8558],[10.8213,59.8558],[10.8216,59.8562],[10.8204,59.8574],[10.8184,59.857],[10.8176,59.8547],[10.8199,59.8518],[10.8162,59.851],[10.8164,59.8505],[10.8153,59.85],[10.8113,59.8504],[10.8078,59.8492],[10.8019,59.8488],[10.8031,59.8469],[10.8024,59.8449],[10.8011,59.8435],[10.7987,59.8426],[10.796,59.8424],[10.7956,59.843],[10.7967,59.843],[10.7966,59.8448],[10.7951,59.8466],[10.7962,59.8468],[10.796,59.8481],[10.7982,59.849],[10.7942,59.8489],[10.7921,59.8479],[10.7917,59.8474],[10.7922,59.8472],[10.7905,59.8458],[10.787,59.8446],[10.7862,59.8436],[10.7842,59.8432],[10.7837,59.8425],[10.7847,59.8417],[10.7838,59.8414],[10.7834,59.8403],[10.7794,59.8383],[10.7795,59.8395],[10.7788,59.8406],[10.7741,59.8426],[10.7763,59.847],[10.781,59.8502],[10.7845,59.8599],[10.782,59.8651],[10.7821,59.8686],[10.7747,59.8774],[10.7658,59.8774],[10.7637,59.881],[10.7667,59.8836],[10.7649,59.8863],[10.7613,59.8836],[10.7622,59.8885],[10.7603,59.887],[10.7452,59.8861],[10.7502,59.8883],[10.7578,59.8902],[10.7524,59.8952],[10.7561,59.896],[10.7588,59.8932],[10.7601,59.8935],[10.7594,59.895],[10.7601,59.897],[10.7616,59.8992],[10.7636,59.9003],[10.7702,59.9009],[10.7838,59.8999],[10.7962,59.9019],[10.7997,59.9034],[10.8048,59.8988],[10.8041,59.8986],[10.8047,59.8959],[10.804,59.8932],[10.8052,59.89],[10.8077,59.8877],[10.8143,59.8838],[10.8177,59.8799],[10.8228,59.876],[10.8287,59.8699],[10.83,59.8671],[10.8307,59.8619]]],[[[10.7672,59.8742],[10.7702,59.8763],[10.7718,59.8755],[10.7672,59.8742]]],[[[10.7557,59.8761],[10.7577,59.878],[10.7627,59.8797],[10.7645,59.8772],[10.7593,59.8744],[10.7557,59.8761]]],[[[10.7406,59.8638],[10.7441,59.8658],[10.749,59.8668],[10.7439,59.8629],[10.7406,59.8638]]],[[[10.7489,59.8652],[10.7564,59.8667],[10.7515,59.8703],[10.7546,59.8735],[10.7573,59.8737],[10.7584,59.8712],[10.7624,59.8688],[10.76,59.8672],[10.7633,59.8663],[10.7616,59.8644],[10.7509,59.8613],[10.7489,59.8652]]],[[[10.7669,59.8696],[10.7715,59.8726],[10.7764,59.8728],[10.7758,59.8689],[10.773,59.8664],[10.7693,59.8666],[10.7669,59.8696]]]]}},{"type":"Feature","id":"bydel-oslo-09","properties":{"name":"Bjerke","province":"Oslo","department":"Oslo Fylke","type":"Bydel","country":"Noruega","iso":"NO"},"geometry":{"type":"Polygon","coordinates":[[[10.7848,59.9376],[10.79,59.9393],[10.7998,59.9412],[10.8034,59.9445],[10.8023,59.9475],[10.8032,59.9472],[10.803,59.9477],[10.8082,59.9487],[10.8124,59.949],[10.814,59.9508],[10.8151,59.9503],[10.8142,59.9545],[10.8152,59.9603],[10.8164,59.9599],[10.817,59.9579],[10.819,59.9551],[10.8235,59.954],[10.824,59.9544],[10.8238,59.9529],[10.823,59.9524],[10.8262,59.9519],[10.8266,59.9512],[10.8303,59.9512],[10.8306,59.9502],[10.8315,59.9504],[10.8298,59.948],[10.8306,59.9455],[10.8315,59.9453],[10.841,59.9466],[10.8412,59.9472],[10.8398,59.9476],[10.8419,59.9494],[10.8479,59.951],[10.8536,59.9506],[10.8548,59.949],[10.8573,59.9504],[10.8607,59.951],[10.8622,59.9497],[10.8619,59.9475],[10.8632,59.9465],[10.8624,59.9448],[10.8587,59.9424],[10.8581,59.9401],[10.8454,59.9384],[10.8414,59.9373],[10.8377,59.9353],[10.8338,59.9301],[10.8343,59.9256],[10.8337,59.9237],[10.8254,59.9229],[10.8148,59.9233],[10.8077,59.9226],[10.8066,59.9244],[10.8022,59.9273],[10.8019,59.929],[10.8057,59.9291],[10.8,59.9321],[10.7848,59.9376]]]}},{"type":"Feature","id":"bydel-oslo-06","properties":{"name":"Ullern","province":"Oslo","department":"Oslo Fylke","type":"Bydel","country":"Noruega","iso":"NO"},"geometry":{"type":"Polygon","coordinates":[[[10.642,59.9115],[10.64,59.914],[10.636,59.9148],[10.6351,59.914],[10.6333,59.9145],[10.6328,59.9161],[10.6342,59.9174],[10.6304,59.9182],[10.6295,59.9199],[10.6297,59.9216],[10.6259,59.9225],[10.6253,59.9235],[10.6275,59.9252],[10.6254,59.9271],[10.6274,59.9282],[10.6265,59.9296],[10.6322,59.9319],[10.6353,59.9358],[10.6316,59.9386],[10.6318,59.9396],[10.6337,59.9391],[10.6377,59.9397],[10.6401,59.9393],[10.6409,59.9391],[10.6404,59.9371],[10.6429,59.9379],[10.6445,59.9374],[10.6464,59.9376],[10.6466,59.9382],[10.648,59.938],[10.6495,59.9365],[10.6523,59.9372],[10.6561,59.9364],[10.6553,59.9373],[10.6642,59.9389],[10.6646,59.9398],[10.6693,59.9398],[10.6705,59.9404],[10.6712,59.9419],[10.6739,59.9417],[10.6753,59.94],[10.6795,59.9393],[10.6825,59.9378],[10.7023,59.9336],[10.7087,59.9315],[10.7085,59.9303],[10.7073,59.9301],[10.7048,59.9268],[10.6984,59.9237],[10.697,59.9237],[10.6971,59.9232],[10.6947,59.9222],[10.6949,59.9216],[10.6939,59.9219],[10.6897,59.9209],[10.687,59.9191],[10.6873,59.918],[10.6843,59.9182],[10.6786,59.9204],[10.6744,59.9184],[10.6726,59.9199],[10.6605,59.9168],[10.6571,59.9143],[10.642,59.9115]]]}},{"type":"Feature","id":"bydel-oslo-05","properties":{"name":"Frogner","province":"Oslo","department":"Oslo Fylke","type":"Bydel","country":"Noruega","iso":"NO"},"geometry":{"type":"MultiPolygon","coordinates":[[[[10.7354,59.9201],[10.7322,59.9173],[10.7316,59.9187],[10.7279,59.9203],[10.723,59.917],[10.7226,59.9153],[10.7277,59.9153],[10.7255,59.9138],[10.7272,59.9131],[10.7251,59.9125],[10.7265,59.9119],[10.7283,59.9128],[10.7318,59.9119],[10.7299,59.9102],[10.7225,59.9063],[10.7202,59.9063],[10.7222,59.9093],[10.7103,59.9057],[10.7094,59.9101],[10.7051,59.9104],[10.7006,59.9132],[10.6895,59.9179],[10.6882,59.9155],[10.6913,59.9154],[10.6919,59.9124],[10.6947,59.9116],[10.6936,59.9082],[10.6972,59.9066],[10.6897,59.9025],[10.6997,59.9053],[10.702,59.9038],[10.6964,59.9012],[10.6886,59.8989],[10.6888,59.8965],[10.6819,59.8963],[10.675,59.8944],[10.6746,59.8968],[10.671,59.8964],[10.6665,59.9004],[10.6637,59.9083],[10.6667,59.9109],[10.6634,59.9115],[10.6626,59.9138],[10.6752,59.9176],[10.6744,59.9184],[10.6786,59.9204],[10.6843,59.9182],[10.6873,59.918],[10.687,59.9191],[10.6897,59.9209],[10.6939,59.9219],[10.6949,59.9216],[10.6947,59.9222],[10.6971,59.9232],[10.697,59.9237],[10.6984,59.9237],[10.7048,59.9268],[10.7073,59.9301],[10.7085,59.9303],[10.7093,59.9323],[10.7143,59.9354],[10.7222,59.9322],[10.7282,59.9279],[10.7308,59.9255],[10.7326,59.9212],[10.7354,59.9201]]],[[[10.657,59.9074],[10.6579,59.9132],[10.6601,59.912],[10.6607,59.9093],[10.6589,59.9066],[10.657,59.9074]]]]}},{"type":"Feature","id":"bydel-oslo-01","properties":{"name":"Gamle Oslo","province":"Oslo","department":"Oslo Fylke","type":"Bydel","country":"Noruega","iso":"NO"},"geometry":{"type":"MultiPolygon","coordinates":[[[[10.8168,59.9079],[10.803,59.906],[10.8022,59.905],[10.7988,59.9041],[10.7997,59.9034],[10.798,59.9024],[10.7891,59.901],[10.7892,59.9005],[10.7802,59.8999],[10.7702,59.9009],[10.7636,59.9003],[10.7609,59.8985],[10.7594,59.895],[10.7601,59.8935],[10.7588,59.8932],[10.7561,59.896],[10.7524,59.8952],[10.7517,59.8959],[10.755,59.8997],[10.7603,59.9025],[10.7522,59.9008],[10.7514,59.9015],[10.7597,59.9064],[10.7566,59.9066],[10.7537,59.9048],[10.7589,59.9134],[10.7581,59.9135],[10.7617,59.9168],[10.7592,59.9178],[10.7616,59.9185],[10.7627,59.9176],[10.7648,59.9187],[10.7698,59.9151],[10.773,59.9165],[10.7742,59.918],[10.7753,59.9181],[10.7768,59.9154],[10.7823,59.9165],[10.7817,59.9173],[10.7849,59.9183],[10.801,59.9218],[10.8077,59.9226],[10.8087,59.9188],[10.8111,59.9174],[10.8089,59.9165],[10.8139,59.9135],[10.8127,59.9107],[10.8168,59.9079]]],[[[10.7035,59.889],[10.7076,59.8903],[10.711,59.8927],[10.7181,59.894],[10.7205,59.892],[10.718,59.8891],[10.7209,59.8892],[10.7164,59.8872],[10.7148,59.8887],[10.7102,59.8889],[10.7038,59.8864],[10.7035,59.889]]],[[[10.6904,59.8899],[10.6975,59.8927],[10.6976,59.8865],[10.6953,59.8867],[10.6929,59.8899],[10.6904,59.8899]]],[[[10.7228,59.896],[10.7309,59.8992],[10.7334,59.8981],[10.7309,59.896],[10.7325,59.8947],[10.7415,59.8969],[10.7401,59.8947],[10.7331,59.8922],[10.7264,59.891],[10.7277,59.8933],[10.7228,59.896]]],[[[10.7334,59.8875],[10.7432,59.8915],[10.7446,59.8897],[10.7385,59.8876],[10.7334,59.8875]]],[[[10.711,59.8819],[10.7143,59.8854],[10.7154,59.8836],[10.7219,59.8859],[10.7265,59.8862],[10.7222,59.8834],[10.7158,59.8815],[10.7176,59.8807],[10.7242,59.8822],[10.7257,59.8806],[10.7195,59.8793],[10.7138,59.8793],[10.7149,59.8832],[10.711,59.8819]]]]}},{"type":"Feature","id":"bydel-oslo-02","properties":{"name":"Grünerløkka","province":"Oslo","department":"Oslo Fylke","type":"Bydel","country":"Noruega","iso":"NO"},"geometry":{"type":"Polygon","coordinates":[[[10.7825,59.9366],[10.7848,59.9376],[10.8,59.9321],[10.8057,59.9291],[10.8019,59.929],[10.8022,59.9273],[10.8066,59.9244],[10.8077,59.9226],[10.801,59.9218],[10.7849,59.9183],[10.7817,59.9173],[10.7823,59.9165],[10.7768,59.9154],[10.7753,59.9181],[10.7742,59.918],[10.773,59.9165],[10.7698,59.9151],[10.7648,59.9187],[10.7627,59.9176],[10.7616,59.9185],[10.7592,59.9178],[10.7617,59.9168],[10.7581,59.9135],[10.7532,59.9145],[10.757,59.9161],[10.7517,59.9192],[10.748,59.9196],[10.7511,59.9212],[10.7497,59.9282],[10.7611,59.9285],[10.761,59.9304],[10.7623,59.9319],[10.7686,59.9296],[10.7712,59.9309],[10.776,59.9318],[10.7786,59.9332],[10.7801,59.9353],[10.7825,59.9366]]]}},{"type":"Feature","id":"bydel-oslo-13","properties":{"name":"Østensjø","province":"Oslo","department":"Oslo Fylke","type":"Bydel","country":"Noruega","iso":"NO"},"geometry":{"type":"Polygon","coordinates":[[[10.8402,59.8618],[10.8352,59.8619],[10.8338,59.8614],[10.8307,59.8619],[10.83,59.8671],[10.8287,59.8699],[10.8228,59.876],[10.8177,59.8799],[10.8143,59.8838],[10.8077,59.8877],[10.8052,59.89],[10.804,59.8932],[10.8047,59.8959],[10.8041,59.8986],[10.8048,59.8988],[10.8031,59.9008],[10.7988,59.9041],[10.8022,59.905],[10.803,59.906],[10.8205,59.9087],[10.8241,59.9103],[10.8266,59.9123],[10.8299,59.9108],[10.8338,59.9106],[10.8367,59.9111],[10.8399,59.9129],[10.8436,59.9136],[10.847,59.911],[10.8515,59.9119],[10.8519,59.9105],[10.8562,59.9084],[10.8568,59.9075],[10.8558,59.907],[10.856,59.9054],[10.8525,59.9055],[10.8537,59.9032],[10.8528,59.9031],[10.8543,59.8991],[10.8531,59.899],[10.853,59.8985],[10.8543,59.8985],[10.855,59.8975],[10.8562,59.8973],[10.8562,59.8963],[10.857,59.8957],[10.857,59.8937],[10.8581,59.8934],[10.8576,59.8931],[10.8575,59.8904],[10.8582,59.8891],[10.8567,59.8886],[10.8575,59.8885],[10.8576,59.8874],[10.8585,59.8874],[10.8586,59.8863],[10.8557,59.8838],[10.8569,59.8826],[10.8573,59.8808],[10.8569,59.8806],[10.8569,59.8765],[10.8501,59.8764],[10.8491,59.8758],[10.8484,59.8743],[10.8488,59.8732],[10.8494,59.8727],[10.8523,59.8728],[10.8512,59.8725],[10.8504,59.8709],[10.848,59.8691],[10.8463,59.8693],[10.8441,59.8672],[10.8435,59.8628],[10.8401,59.8622],[10.8402,59.8618]]]}},{"type":"Feature","id":"bydel-oslo-16","properties":{"name":"Sentrum","province":"Oslo","department":"Oslo Fylke","type":"Bydel","country":"Noruega","iso":"NO"},"geometry":{"type":"Polygon","coordinates":[[[10.7299,59.9102],[10.7318,59.9119],[10.7283,59.9128],[10.7265,59.9119],[10.7251,59.9125],[10.7272,59.9131],[10.7255,59.9138],[10.7277,59.9153],[10.7226,59.9153],[10.7231,59.9171],[10.7279,59.9203],[10.7316,59.9187],[10.7322,59.9173],[10.7355,59.92],[10.7406,59.9165],[10.7415,59.9145],[10.7459,59.9128],[10.7532,59.9145],[10.7589,59.9134],[10.7537,59.9048],[10.7515,59.9049],[10.7535,59.9083],[10.7505,59.9085],[10.747,59.9068],[10.7449,59.9021],[10.7398,59.9024],[10.7329,59.9083],[10.7341,59.9103],[10.7299,59.9102]]]}},{"type":"Feature","id":"bydel-oslo-04","properties":{"name":"St. Hanshaugen","province":"Oslo","department":"Oslo Fylke","type":"Bydel","country":"Noruega","iso":"NO"},"geometry":{"type":"Polygon","coordinates":[[[10.7354,59.9201],[10.7326,59.9212],[10.7308,59.9255],[10.7282,59.9279],[10.7222,59.9322],[10.7155,59.935],[10.7189,59.9369],[10.7228,59.9371],[10.7247,59.9363],[10.7301,59.9382],[10.7312,59.9379],[10.7318,59.9388],[10.7407,59.943],[10.744,59.9418],[10.7434,59.9412],[10.7466,59.9403],[10.7469,59.9412],[10.7501,59.9408],[10.7489,59.9307],[10.7511,59.9212],[10.748,59.9196],[10.7517,59.9192],[10.757,59.9161],[10.7499,59.9135],[10.7459,59.9128],[10.7415,59.9145],[10.7406,59.9165],[10.7354,59.9201]]]}},{"type":"Feature","id":"bydel-oslo-12","properties":{"name":"Alna","province":"Oslo","department":"Oslo Fylke","type":"Bydel","country":"Noruega","iso":"NO"},"geometry":{"type":"Polygon","coordinates":[[[10.9237,59.9291],[10.914,59.9288],[10.9105,59.9314],[10.9101,59.9332],[10.9091,59.9342],[10.9058,59.9353],[10.9016,59.9348],[10.9012,59.9356],[10.8923,59.9319],[10.8917,59.9324],[10.8909,59.9308],[10.8873,59.9299],[10.8872,59.9281],[10.8832,59.928],[10.8828,59.9226],[10.8809,59.9227],[10.8805,59.9207],[10.8778,59.9204],[10.8772,59.921],[10.8757,59.9209],[10.8746,59.922],[10.8705,59.9217],[10.8701,59.9204],[10.8661,59.9199],[10.8648,59.9184],[10.8622,59.9175],[10.8628,59.9169],[10.8622,59.9167],[10.8623,59.9151],[10.8605,59.9146],[10.8656,59.9091],[10.8625,59.9098],[10.8589,59.9086],[10.8566,59.9085],[10.8519,59.9105],[10.8515,59.9119],[10.847,59.911],[10.8436,59.9136],[10.8399,59.9129],[10.8367,59.9111],[10.8338,59.9106],[10.8299,59.9108],[10.8266,59.9123],[10.8225,59.9094],[10.8168,59.9079],[10.8127,59.9107],[10.8139,59.9135],[10.8089,59.9165],[10.8111,59.9174],[10.8087,59.9188],[10.8077,59.9226],[10.8148,59.9233],[10.8254,59.9229],[10.8337,59.9237],[10.8343,59.9256],[10.8339,59.9303],[10.8366,59.9343],[10.8397,59.9366],[10.8465,59.9387],[10.8591,59.9403],[10.8715,59.9439],[10.8848,59.9482],[10.8911,59.9526],[10.8963,59.9538],[10.9006,59.9535],[10.9097,59.9511],[10.9064,59.9503],[10.9028,59.9482],[10.9047,59.9466],[10.9045,59.9458],[10.8996,59.9451],[10.9007,59.943],[10.9048,59.941],[10.903,59.9403],[10.9031,59.9396],[10.9104,59.9394],[10.9185,59.9402],[10.9251,59.9396],[10.9262,59.9378],[10.9315,59.9363],[10.929,59.9348],[10.9272,59.9322],[10.9237,59.9291]]]}},{"type":"Feature","id":"bydel-oslo-07","properties":{"name":"Vestre Aker","province":"Oslo","department":"Oslo Fylke","type":"Bydel","country":"Noruega","iso":"NO"},"geometry":{"type":"Polygon","coordinates":[[[10.6318,59.9396],[10.6334,59.9424],[10.6331,59.9431],[10.6358,59.9454],[10.6356,59.9478],[10.6341,59.9517],[10.6331,59.9521],[10.634,59.9532],[10.6321,59.9537],[10.6313,59.9547],[10.6308,59.9563],[10.6318,59.9572],[10.63,59.9586],[10.6294,59.9598],[10.6281,59.9603],[10.6279,59.9614],[10.6236,59.9627],[10.6244,59.9648],[10.6205,59.9663],[10.6192,59.9687],[10.6315,59.9685],[10.636,59.9697],[10.6356,59.9704],[10.6384,59.9695],[10.638,59.9702],[10.64,59.9713],[10.6409,59.9698],[10.6441,59.9713],[10.6442,59.9762],[10.645,59.9778],[10.6465,59.9782],[10.6474,59.9807],[10.6486,59.9813],[10.6518,59.9851],[10.6548,59.9845],[10.6544,59.9819],[10.6589,59.9821],[10.664,59.9803],[10.666,59.979],[10.6667,59.9773],[10.6677,59.9775],[10.6739,59.972],[10.6726,59.9704],[10.671,59.9701],[10.67,59.9677],[10.6633,59.9689],[10.6628,59.9683],[10.6635,59.9679],[10.6634,59.9662],[10.6627,59.9662],[10.6618,59.9638],[10.6638,59.9632],[10.6663,59.9641],[10.6649,59.9623],[10.6668,59.9624],[10.6673,59.9613],[10.6687,59.9614],[10.6701,59.9624],[10.6861,59.9611],[10.6887,59.9624],[10.6882,59.9632],[10.6907,59.9628],[10.6908,59.9641],[10.6919,59.9647],[10.6913,59.9648],[10.6919,59.9659],[10.6933,59.9659],[10.6972,59.9621],[10.6992,59.9624],[10.6992,59.9617],[10.6984,59.9616],[10.6987,59.9607],[10.6989,59.9612],[10.7016,59.9606],[10.7058,59.9629],[10.711,59.9635],[10.71,59.962],[10.7117,59.9605],[10.7101,59.9589],[10.7109,59.9572],[10.7117,59.9567],[10.7145,59.9579],[10.7158,59.9572],[10.7142,59.9546],[10.7153,59.9542],[10.7151,59.953],[10.7128,59.9507],[10.7133,59.9504],[10.7122,59.9499],[10.713,59.9476],[10.7115,59.9463],[10.7175,59.9458],[10.7144,59.9407],[10.7173,59.94],[10.7163,59.9389],[10.7166,59.9384],[10.7147,59.9358],[10.7087,59.9315],[10.7023,59.9336],[10.6825,59.9378],[10.6795,59.9393],[10.6753,59.94],[10.6739,59.9417],[10.6712,59.9419],[10.6705,59.9404],[10.6693,59.9398],[10.6646,59.9398],[10.6642,59.9389],[10.6553,59.9373],[10.6561,59.9364],[10.6523,59.9372],[10.6495,59.9365],[10.648,59.938],[10.6466,59.9382],[10.6464,59.9376],[10.6445,59.9374],[10.6429,59.9379],[10.6404,59.9371],[10.6409,59.9391],[10.6401,59.9393],[10.6377,59.9397],[10.6337,59.9391],[10.6318,59.9396]]]}},{"type":"Feature","id":"bydel-oslo-15","properties":{"name":"Søndre Nordstrand","province":"Oslo","department":"Oslo Fylke","type":"Bydel","country":"Noruega","iso":"NO"},"geometry":{"type":"Polygon","coordinates":[[[10.7741,59.8426],[10.7788,59.8406],[10.7795,59.8395],[10.7794,59.8383],[10.7834,59.8403],[10.7838,59.8414],[10.7847,59.8417],[10.7837,59.8425],[10.7842,59.8432],[10.7862,59.8436],[10.787,59.8446],[10.7905,59.8458],[10.7922,59.8472],[10.7917,59.8474],[10.7922,59.8479],[10.7961,59.8493],[10.7982,59.849],[10.796,59.8481],[10.7962,59.8468],[10.7951,59.8466],[10.7966,59.8448],[10.7967,59.843],[10.7957,59.8428],[10.7994,59.8427],[10.8017,59.8439],[10.8029,59.846],[10.803,59.8473],[10.8019,59.8488],[10.8078,59.8492],[10.8113,59.8504],[10.8153,59.85],[10.8164,59.8505],[10.8162,59.851],[10.8199,59.8518],[10.8176,59.8547],[10.8179,59.8562],[10.8184,59.857],[10.8204,59.8574],[10.8216,59.8562],[10.8213,59.8558],[10.8224,59.8561],[10.8208,59.8586],[10.8215,59.8594],[10.8286,59.8592],[10.8309,59.86],[10.8307,59.8619],[10.8338,59.8614],[10.8352,59.8619],[10.8435,59.8619],[10.8446,59.8627],[10.8481,59.8632],[10.8467,59.8618],[10.8461,59.8602],[10.8465,59.8548],[10.8456,59.8513],[10.8463,59.8508],[10.8469,59.8466],[10.8484,59.8464],[10.8485,59.8425],[10.8475,59.8426],[10.8479,59.8382],[10.846,59.8356],[10.8471,59.8342],[10.8481,59.8337],[10.8548,59.8351],[10.8532,59.8331],[10.8545,59.8329],[10.8566,59.8338],[10.8598,59.8334],[10.8631,59.8341],[10.8669,59.8337],[10.8703,59.8342],[10.8705,59.8336],[10.8697,59.8332],[10.8708,59.8316],[10.871,59.8291],[10.8737,59.829],[10.8747,59.8276],[10.8712,59.8269],[10.8715,59.8241],[10.8746,59.8232],[10.8754,59.8203],[10.8818,59.8181],[10.8865,59.8189],[10.8904,59.8177],[10.8884,59.816],[10.8829,59.8144],[10.882,59.8125],[10.88,59.811],[10.8787,59.8122],[10.8697,59.8132],[10.8632,59.8123],[10.8563,59.8093],[10.8528,59.8099],[10.8479,59.8119],[10.8462,59.8147],[10.8459,59.8169],[10.8377,59.816],[10.836,59.817],[10.8173,59.8181],[10.8154,59.8207],[10.8151,59.823],[10.8125,59.8254],[10.8053,59.825],[10.7985,59.823],[10.7892,59.8234],[10.7836,59.8246],[10.7809,59.8259],[10.7775,59.8262],[10.7737,59.824],[10.7716,59.8235],[10.7708,59.8251],[10.7666,59.8281],[10.7673,59.8314],[10.7711,59.8314],[10.7725,59.833],[10.7695,59.8379],[10.7741,59.8426]]]}}]}