{"type":"FeatureCollection","features":[{"type":"Feature","id":"ward-ottawa-14","properties":{"name":"Somerset","province":"Ontario","department":"Ontario","type":"Ward","country":"Canadá","iso":"CA"},"geometry":{"type":"Polygon","coordinates":[[[-75.6865,45.4214],[-75.6805,45.4187],[-75.6834,45.4124],[-75.6958,45.407],[-75.7058,45.404],[-75.7031,45.3997],[-75.7092,45.3969],[-75.7132,45.403],[-75.7247,45.4108],[-75.729,45.4175],[-75.7228,45.418],[-75.7233,45.42],[-75.722,45.421],[-75.718,45.4213],[-75.707,45.4242],[-75.7039,45.4262],[-75.7035,45.4274],[-75.6989,45.4269],[-75.6865,45.4214]]]}},{"type":"Feature","id":"ward-ottawa-23","properties":{"name":"Kanata South","province":"Ontario","department":"Ontario","type":"Ward","country":"Canadá","iso":"CA"},"geometry":{"type":"Polygon","coordinates":[[[-75.8733,45.2977],[-75.8726,45.2969],[-75.8518,45.3054],[-75.8353,45.2774],[-75.8519,45.2708],[-75.861,45.2694],[-75.8642,45.2705],[-75.8708,45.2756],[-75.8762,45.2773],[-75.8846,45.2842],[-75.8894,45.2869],[-75.9001,45.2907],[-75.9126,45.2966],[-75.9177,45.2979],[-75.9225,45.3014],[-75.9097,45.3066],[-75.8859,45.3204],[-75.8733,45.2977]]]}},{"type":"Feature","id":"ward-ottawa-4","properties":{"name":"Kanata North","province":"Ontario","department":"Ontario","type":"Ward","country":"Canadá","iso":"CA"},"geometry":{"type":"Polygon","coordinates":[[[-75.9384,45.3718],[-75.9267,45.3629],[-75.9224,45.3657],[-75.9045,45.3516],[-75.8859,45.3204],[-75.9118,45.3056],[-75.9296,45.2985],[-75.9442,45.2893],[-75.9515,45.2952],[-75.9385,45.3033],[-75.9411,45.3053],[-75.9333,45.3101],[-75.9261,45.3073],[-75.9227,45.3094],[-75.9287,45.31],[-75.9384,45.3139],[-75.9473,45.3197],[-75.9502,45.3238],[-75.9504,45.33],[-75.9483,45.3341],[-75.9386,45.3402],[-75.9517,45.3505],[-75.9419,45.3564],[-75.9428,45.3572],[-75.9421,45.3576],[-75.9451,45.3599],[-75.9477,45.3604],[-75.95,45.3589],[-75.9572,45.3653],[-75.9509,45.3695],[-75.947,45.3664],[-75.9384,45.3718]]]}},{"type":"Feature","id":"ward-ottawa-17","properties":{"name":"Capital","province":"Ontario","department":"Ontario","type":"Ward","country":"Canadá","iso":"CA"},"geometry":{"type":"Polygon","coordinates":[[[-75.6738,45.4165],[-75.6566,45.4177],[-75.6569,45.4153],[-75.6598,45.4139],[-75.6612,45.4083],[-75.666,45.399],[-75.6709,45.3995],[-75.6778,45.3892],[-75.6686,45.3806],[-75.6633,45.3704],[-75.6664,45.3691],[-75.6837,45.3764],[-75.6887,45.3832],[-75.6961,45.3815],[-75.6998,45.3789],[-75.7,45.3758],[-75.7022,45.3756],[-75.7019,45.3809],[-75.6999,45.3853],[-75.7009,45.3915],[-75.7079,45.395],[-75.7068,45.3962],[-75.7077,45.3976],[-75.7031,45.3997],[-75.7058,45.404],[-75.6958,45.407],[-75.6834,45.4124],[-75.6805,45.4187],[-75.6792,45.4189],[-75.6738,45.4165]]]}},{"type":"Feature","id":"ward-ottawa-15","properties":{"name":"Kitchissippi","province":"Ontario","department":"Ontario","type":"Ward","country":"Canadá","iso":"CA"},"geometry":{"type":"Polygon","coordinates":[[[-75.7092,45.3969],[-75.7326,45.3867],[-75.7347,45.3889],[-75.7405,45.3834],[-75.7545,45.3772],[-75.756,45.3797],[-75.7581,45.3793],[-75.7625,45.3873],[-75.7579,45.3901],[-75.7598,45.3921],[-75.7619,45.3922],[-75.7675,45.4001],[-75.7629,45.4071],[-75.7562,45.4115],[-75.7457,45.4132],[-75.729,45.4175],[-75.7247,45.4108],[-75.7132,45.403],[-75.7092,45.3969]]]}},{"type":"Feature","id":"ward-ottawa-13","properties":{"name":"Rideau-Rockcliffe","province":"Ontario","department":"Ontario","type":"Ward","country":"Canadá","iso":"CA"},"geometry":{"type":"Polygon","coordinates":[[[-75.6173,45.4504],[-75.6126,45.4419],[-75.6409,45.4305],[-75.6351,45.4203],[-75.6519,45.4191],[-75.6562,45.4177],[-75.6629,45.417],[-75.6637,45.4189],[-75.6679,45.4221],[-75.6686,45.4249],[-75.6711,45.428],[-75.666,45.429],[-75.6491,45.4302],[-75.6494,45.4321],[-75.6482,45.4322],[-75.6486,45.4344],[-75.6518,45.4395],[-75.6468,45.4411],[-75.6518,45.4498],[-75.6645,45.449],[-75.6675,45.4481],[-75.669,45.4468],[-75.6712,45.4424],[-75.6765,45.4397],[-75.6785,45.4375],[-75.684,45.4385],[-75.6887,45.4368],[-75.6916,45.4378],[-75.6928,45.4407],[-75.7004,45.4432],[-75.6906,45.4563],[-75.6866,45.4587],[-75.6747,45.4612],[-75.633,45.4671],[-75.6273,45.4685],[-75.6173,45.4504]]]}},{"type":"Feature","id":"ward-ottawa-1","properties":{"name":"Orléans East-Cumberland","province":"Ontario","department":"Ontario","type":"Ward","country":"Canadá","iso":"CA"},"geometry":{"type":"Polygon","coordinates":[[[-75.3342,45.5249],[-75.3254,45.5094],[-75.3443,45.5041],[-75.3465,45.5058],[-75.3507,45.5048],[-75.3518,45.5064],[-75.3531,45.5067],[-75.3662,45.503],[-75.377,45.503],[-75.386,45.5014],[-75.3891,45.5023],[-75.3981,45.5016],[-75.4001,45.5029],[-75.4114,45.4993],[-75.4208,45.4988],[-75.4288,45.4996],[-75.4386,45.4984],[-75.4491,45.4949],[-75.4375,45.4746],[-75.4718,45.4658],[-75.4932,45.4594],[-75.4942,45.4611],[-75.4982,45.4628],[-75.501,45.4619],[-75.505,45.4627],[-75.5091,45.4656],[-75.5112,45.4658],[-75.5146,45.4694],[-75.5175,45.4703],[-75.518,45.4721],[-75.5217,45.4721],[-75.5232,45.4727],[-75.5232,45.4739],[-75.5252,45.4747],[-75.5255,45.4755],[-75.5278,45.4747],[-75.5284,45.476],[-75.518,45.4799],[-75.5267,45.4955],[-75.4607,45.5185],[-75.4506,45.52],[-75.4332,45.521],[-75.4228,45.5205],[-75.4137,45.5226],[-75.3916,45.5245],[-75.3872,45.5261],[-75.3649,45.5304],[-75.3412,45.5371],[-75.3342,45.5249]]]}},{"type":"Feature","id":"ward-ottawa-18","properties":{"name":"Alta Vista","province":"Ontario","department":"Ontario","type":"Ward","country":"Canadá","iso":"CA"},"geometry":{"type":"Polygon","coordinates":[[[-75.6166,45.4118],[-75.6101,45.4141],[-75.6005,45.4112],[-75.5939,45.4013],[-75.5929,45.3981],[-75.6105,45.3918],[-75.6633,45.3704],[-75.6686,45.3806],[-75.6778,45.3892],[-75.6709,45.3995],[-75.666,45.399],[-75.6612,45.4083],[-75.6598,45.4139],[-75.6569,45.4153],[-75.6566,45.4177],[-75.6519,45.4191],[-75.6351,45.4203],[-75.6324,45.4154],[-75.6166,45.4118]]]}},{"type":"Feature","id":"ward-ottawa-16","properties":{"name":"River","province":"Ontario","department":"Ontario","type":"Ward","country":"Canadá","iso":"CA"},"geometry":{"type":"Polygon","coordinates":[[[-75.7079,45.395],[-75.7009,45.3915],[-75.6999,45.3847],[-75.7019,45.3809],[-75.7022,45.3756],[-75.7,45.3758],[-75.6998,45.3789],[-75.6961,45.3815],[-75.6887,45.3832],[-75.6837,45.3764],[-75.6664,45.3691],[-75.6544,45.374],[-75.65,45.3663],[-75.6608,45.3625],[-75.6538,45.3506],[-75.6726,45.3423],[-75.6772,45.3411],[-75.6922,45.3349],[-75.6961,45.3343],[-75.6991,45.337],[-75.6986,45.3399],[-75.6964,45.3427],[-75.6965,45.3438],[-75.7007,45.3492],[-75.7012,45.3513],[-75.7039,45.3513],[-75.7041,45.3527],[-75.7062,45.3535],[-75.7165,45.3715],[-75.7398,45.3614],[-75.7502,45.3791],[-75.7405,45.3834],[-75.7347,45.3889],[-75.7326,45.3867],[-75.7077,45.3976],[-75.7068,45.3962],[-75.7079,45.395]]]}},{"type":"Feature","id":"ward-ottawa-7","properties":{"name":"Bay","province":"Ontario","department":"Ontario","type":"Ward","country":"Canadá","iso":"CA"},"geometry":{"type":"Polygon","coordinates":[[[-75.8271,45.3423],[-75.8377,45.3399],[-75.8859,45.3204],[-75.9045,45.3516],[-75.9457,45.3839],[-75.9054,45.4098],[-75.894,45.4012],[-75.8686,45.3844],[-75.8469,45.3778],[-75.8377,45.374],[-75.8217,45.3724],[-75.8152,45.3726],[-75.8013,45.3761],[-75.7882,45.3812],[-75.771,45.3946],[-75.7675,45.4001],[-75.7619,45.3922],[-75.7598,45.3921],[-75.7579,45.3901],[-75.7625,45.3873],[-75.7581,45.3793],[-75.756,45.3797],[-75.7545,45.3772],[-75.7502,45.3791],[-75.7483,45.3761],[-75.7589,45.3663],[-75.7944,45.3471],[-75.8096,45.3451],[-75.8165,45.3432],[-75.8271,45.3423]]]}},{"type":"Feature","id":"ward-ottawa-9","properties":{"name":"Knoxdale-Merivale","province":"Ontario","department":"Ontario","type":"Ward","country":"Canadá","iso":"CA"},"geometry":{"type":"Polygon","coordinates":[[[-75.7041,45.3518],[-75.7012,45.3513],[-75.7007,45.3492],[-75.6963,45.3434],[-75.6984,45.3403],[-75.6991,45.337],[-75.6961,45.3343],[-75.695,45.3342],[-75.6962,45.3341],[-75.6999,45.3294],[-75.699,45.325],[-75.6958,45.3197],[-75.6983,45.3162],[-75.6952,45.3083],[-75.6969,45.3048],[-75.6988,45.3055],[-75.7172,45.2981],[-75.7142,45.2928],[-75.7256,45.2884],[-75.7338,45.3031],[-75.74,45.2951],[-75.7799,45.2787],[-75.7933,45.3024],[-75.805,45.317],[-75.8061,45.3249],[-75.8094,45.3315],[-75.7268,45.3395],[-75.7398,45.3614],[-75.7165,45.3715],[-75.7066,45.3541],[-75.7041,45.3527],[-75.7041,45.3518]]]}},{"type":"Feature","id":"ward-ottawa-6","properties":{"name":"Stittsville","province":"Ontario","department":"Ontario","type":"Ward","country":"Canadá","iso":"CA"},"geometry":{"type":"Polygon","coordinates":[[[-75.8846,45.2842],[-75.8766,45.2775],[-75.8714,45.2759],[-75.8691,45.2744],[-75.8971,45.257],[-75.8914,45.2523],[-75.912,45.2396],[-75.9127,45.2411],[-75.9162,45.2389],[-75.9208,45.2425],[-75.9213,45.2422],[-75.9455,45.2618],[-75.9449,45.2622],[-75.9525,45.2685],[-75.9462,45.2725],[-75.9572,45.2811],[-75.9318,45.2972],[-75.9225,45.3014],[-75.9177,45.2979],[-75.9126,45.2966],[-75.9001,45.2907],[-75.8936,45.2887],[-75.8846,45.2842]]]}},{"type":"Feature","id":"ward-ottawa-19","properties":{"name":"Orléans South-Navan","province":"Ontario","department":"Ontario","type":"Ward","country":"Canadá","iso":"CA"},"geometry":{"type":"Polygon","coordinates":[[[-75.3254,45.5094],[-75.2955,45.456],[-75.2687,45.4041],[-75.2741,45.4026],[-75.2768,45.401],[-75.2978,45.3942],[-75.3171,45.3907],[-75.3379,45.3839],[-75.3699,45.3755],[-75.374,45.3732],[-75.3988,45.3678],[-75.4156,45.3627],[-75.4424,45.4146],[-75.4584,45.4094],[-75.4633,45.4177],[-75.5212,45.4232],[-75.5303,45.4225],[-75.5969,45.4123],[-75.5983,45.4137],[-75.5976,45.4147],[-75.5961,45.4145],[-75.5964,45.4166],[-75.5945,45.417],[-75.5928,45.419],[-75.5941,45.4194],[-75.5921,45.4208],[-75.5788,45.4258],[-75.57,45.4251],[-75.5663,45.4259],[-75.5442,45.4348],[-75.5423,45.4367],[-75.541,45.4402],[-75.5389,45.4419],[-75.5048,45.4557],[-75.4718,45.4658],[-75.4375,45.4746],[-75.4491,45.4949],[-75.4386,45.4984],[-75.4313,45.4994],[-75.4208,45.4988],[-75.4114,45.4993],[-75.4001,45.5029],[-75.3981,45.5016],[-75.3891,45.5023],[-75.386,45.5014],[-75.377,45.503],[-75.3662,45.503],[-75.3531,45.5067],[-75.3518,45.5064],[-75.3507,45.5048],[-75.3465,45.5058],[-75.3443,45.5041],[-75.3254,45.5094]]]}},{"type":"Feature","id":"ward-ottawa-11","properties":{"name":"Beacon Hill-Cyrville","province":"Ontario","department":"Ontario","type":"Ward","country":"Canadá","iso":"CA"},"geometry":{"type":"Polygon","coordinates":[[[-75.5921,45.4208],[-75.5941,45.4194],[-75.5928,45.419],[-75.5945,45.417],[-75.5964,45.4166],[-75.5961,45.4145],[-75.5985,45.4142],[-75.5977,45.4124],[-75.5963,45.4124],[-75.5996,45.4119],[-75.6014,45.4117],[-75.6101,45.4141],[-75.6159,45.4117],[-75.6324,45.4154],[-75.6409,45.4305],[-75.6126,45.4419],[-75.6273,45.4685],[-75.6141,45.4707],[-75.5795,45.4739],[-75.5707,45.4762],[-75.5682,45.4741],[-75.5697,45.4732],[-75.57,45.4716],[-75.5729,45.4716],[-75.5738,45.4695],[-75.5758,45.4699],[-75.5794,45.4678],[-75.5793,45.4671],[-75.5778,45.4676],[-75.5748,45.4657],[-75.5751,45.4649],[-75.5778,45.4662],[-75.579,45.4655],[-75.5765,45.4641],[-75.5782,45.4622],[-75.5767,45.4617],[-75.5777,45.4595],[-75.5759,45.4581],[-75.5787,45.4577],[-75.5776,45.4568],[-75.5812,45.4547],[-75.5917,45.4399],[-75.6055,45.4317],[-75.5997,45.4264],[-75.5956,45.4193],[-75.5921,45.4208]]]}},{"type":"Feature","id":"ward-ottawa-10","properties":{"name":"Gloucester-Southgate","province":"Ontario","department":"Ontario","type":"Ward","country":"Canadá","iso":"CA"},"geometry":{"type":"Polygon","coordinates":[[[-75.5853,45.3339],[-75.588,45.3333],[-75.5925,45.3337],[-75.5994,45.3311],[-75.6541,45.3073],[-75.693,45.292],[-75.694,45.2917],[-75.6951,45.2955],[-75.6946,45.3007],[-75.6985,45.2994],[-75.6977,45.3038],[-75.6952,45.3083],[-75.6983,45.3162],[-75.6958,45.3197],[-75.6996,45.3272],[-75.6999,45.3294],[-75.6987,45.3316],[-75.6962,45.3341],[-75.6922,45.3349],[-75.6772,45.3411],[-75.6726,45.3423],[-75.6538,45.3506],[-75.6608,45.3625],[-75.65,45.3663],[-75.6544,45.374],[-75.6105,45.3918],[-75.5929,45.3981],[-75.5939,45.4013],[-75.5975,45.4061],[-75.5989,45.4095],[-75.6014,45.4117],[-75.5661,45.417],[-75.5439,45.3782],[-75.5425,45.377],[-75.5427,45.3756],[-75.5341,45.36],[-75.5565,45.3509],[-75.5558,45.3496],[-75.5794,45.3401],[-75.5853,45.3339]]]}},{"type":"Feature","id":"ward-ottawa-8","properties":{"name":"College","province":"Ontario","department":"Ontario","type":"Ward","country":"Canadá","iso":"CA"},"geometry":{"type":"Polygon","coordinates":[[[-75.8781,45.3063],[-75.8859,45.3204],[-75.8369,45.3402],[-75.7944,45.3471],[-75.7589,45.3663],[-75.7483,45.3761],[-75.7268,45.3395],[-75.8094,45.3315],[-75.8061,45.3249],[-75.805,45.317],[-75.7933,45.3024],[-75.7903,45.2961],[-75.7994,45.2924],[-75.8043,45.2886],[-75.8235,45.2809],[-75.8244,45.2827],[-75.8357,45.2781],[-75.8518,45.3054],[-75.8728,45.2968],[-75.8781,45.3063]]]}},{"type":"Feature","id":"ward-ottawa-5","properties":{"name":"West Carleton-March","province":"Ontario","department":"Ontario","type":"Ward","country":"Canadá","iso":"CA"},"geometry":{"type":"Polygon","coordinates":[[[-76.0907,45.5191],[-76.0818,45.516],[-76.0706,45.5098],[-76.0654,45.5058],[-76.0514,45.4998],[-76.0232,45.4895],[-76.0173,45.4884],[-76.008,45.4844],[-76.0001,45.4834],[-75.9917,45.481],[-75.9629,45.4673],[-75.9515,45.4594],[-75.9319,45.4338],[-75.925,45.4263],[-75.9154,45.4163],[-75.9054,45.4098],[-75.9457,45.3839],[-75.9224,45.3657],[-75.9267,45.3629],[-75.9384,45.3718],[-75.947,45.3664],[-75.9509,45.3695],[-75.9572,45.3653],[-75.95,45.3589],[-75.9477,45.3604],[-75.9451,45.3599],[-75.9421,45.3576],[-75.9428,45.3572],[-75.9419,45.3564],[-75.9517,45.3505],[-75.9386,45.3402],[-75.9462,45.3359],[-75.9491,45.3329],[-75.9505,45.329],[-75.9494,45.322],[-75.9457,45.3184],[-75.9384,45.3139],[-75.9287,45.31],[-75.9227,45.3094],[-75.9261,45.3073],[-75.9333,45.3101],[-75.9411,45.3053],[-75.9385,45.3033],[-75.9515,45.2952],[-75.9442,45.2893],[-75.9572,45.2811],[-75.9462,45.2725],[-75.9709,45.2567],[-75.9699,45.2498],[-75.971,45.2469],[-75.9733,45.2441],[-75.9929,45.2311],[-76.0212,45.2148],[-76.0391,45.2034],[-76.0417,45.2011],[-76.0444,45.1959],[-76.0466,45.177],[-76.0503,45.1711],[-76.1478,45.2503],[-76.2105,45.303],[-76.2144,45.3008],[-76.3556,45.4094],[-76.3113,45.438],[-76.3113,45.4527],[-76.2985,45.4643],[-76.2936,45.4659],[-76.2794,45.4661],[-76.2748,45.4651],[-76.2685,45.4673],[-76.2412,45.4674],[-76.2395,45.4679],[-76.2387,45.4691],[-76.2369,45.5069],[-76.2326,45.5105],[-76.2102,45.5161],[-76.1947,45.518],[-76.1567,45.5154],[-76.1493,45.5162],[-76.1423,45.5187],[-76.1251,45.5185],[-76.1047,45.5213],[-76.0975,45.5209],[-76.0907,45.5191]]]}},{"type":"Feature","id":"ward-ottawa-2","properties":{"name":"Orléans West-Innes","province":"Ontario","department":"Ontario","type":"Ward","country":"Canadá","iso":"CA"},"geometry":{"type":"Polygon","coordinates":[[[-75.5265,45.4956],[-75.518,45.4799],[-75.5284,45.476],[-75.5279,45.4748],[-75.5256,45.4755],[-75.5252,45.4747],[-75.5232,45.4739],[-75.5231,45.4726],[-75.518,45.4721],[-75.5175,45.4703],[-75.5146,45.4694],[-75.5112,45.4658],[-75.5091,45.4656],[-75.505,45.4627],[-75.501,45.4619],[-75.4982,45.4628],[-75.4942,45.4611],[-75.4932,45.4594],[-75.5048,45.4557],[-75.5389,45.4419],[-75.541,45.4402],[-75.5423,45.4367],[-75.5442,45.4348],[-75.5663,45.4259],[-75.57,45.4251],[-75.5788,45.4258],[-75.5956,45.4193],[-75.5997,45.4264],[-75.6055,45.4317],[-75.5917,45.4399],[-75.5812,45.4547],[-75.5776,45.4568],[-75.5787,45.4577],[-75.5759,45.4581],[-75.5777,45.4595],[-75.5767,45.4617],[-75.5782,45.4622],[-75.5765,45.4641],[-75.579,45.4655],[-75.5778,45.4662],[-75.5751,45.4649],[-75.5748,45.4657],[-75.5778,45.4676],[-75.5793,45.4671],[-75.5793,45.4681],[-75.5758,45.4699],[-75.5738,45.4695],[-75.5729,45.4716],[-75.57,45.4716],[-75.5697,45.4732],[-75.5682,45.4741],[-75.5707,45.4762],[-75.5603,45.4824],[-75.5522,45.4853],[-75.5514,45.4846],[-75.5472,45.4858],[-75.5342,45.4926],[-75.5265,45.4956]]]}},{"type":"Feature","id":"ward-ottawa-22","properties":{"name":"Riverside South-Findlay Creek","province":"Ontario","department":"Ontario","type":"Ward","country":"Canadá","iso":"CA"},"geometry":{"type":"Polygon","coordinates":[[[-75.5767,45.3379],[-75.5645,45.3169],[-75.5691,45.3139],[-75.5946,45.303],[-75.5987,45.2997],[-75.604,45.2992],[-75.6123,45.2965],[-75.6206,45.2979],[-75.6283,45.297],[-75.6671,45.2806],[-75.6601,45.2674],[-75.671,45.2627],[-75.6699,45.261],[-75.6811,45.2563],[-75.6934,45.2513],[-75.6941,45.2522],[-75.6956,45.2523],[-75.7022,45.2496],[-75.7047,45.2562],[-75.7054,45.2564],[-75.7063,45.2623],[-75.7052,45.2656],[-75.7058,45.2677],[-75.7052,45.269],[-75.7024,45.27],[-75.7014,45.272],[-75.7019,45.2763],[-75.7002,45.2805],[-75.6978,45.2835],[-75.697,45.2872],[-75.6995,45.2937],[-75.6985,45.2994],[-75.6946,45.3007],[-75.695,45.2949],[-75.694,45.2917],[-75.6926,45.2921],[-75.6541,45.3073],[-75.5994,45.3311],[-75.5925,45.3337],[-75.5861,45.3336],[-75.5789,45.3404],[-75.5782,45.3406],[-75.5767,45.3379]]]}},{"type":"Feature","id":"ward-ottawa-21","properties":{"name":"Rideau-Jock","province":"Ontario","department":"Ontario","type":"Ward","country":"Canadá","iso":"CA"},"geometry":{"type":"Polygon","coordinates":[[[-75.8047,45.2811],[-75.7903,45.2643],[-75.7813,45.2493],[-75.7766,45.2465],[-75.764,45.2445],[-75.7597,45.2425],[-75.7573,45.2403],[-75.7488,45.2266],[-75.7122,45.241],[-75.7113,45.247],[-75.7056,45.249],[-75.7061,45.2558],[-75.705,45.2565],[-75.702,45.2494],[-75.6959,45.245],[-75.6924,45.24],[-75.6878,45.2361],[-75.6843,45.2353],[-75.6798,45.2319],[-75.6743,45.2315],[-75.6721,45.2299],[-75.6709,45.2275],[-75.6709,45.2242],[-75.6694,45.223],[-75.6684,45.2202],[-75.664,45.217],[-75.6612,45.2133],[-75.6597,45.2099],[-75.6529,45.2099],[-75.648,45.2067],[-75.6431,45.2023],[-75.6404,45.2017],[-75.6379,45.1977],[-75.6388,45.1936],[-75.6346,45.1866],[-75.6351,45.1814],[-75.6313,45.1773],[-75.627,45.1748],[-75.6248,45.1709],[-75.6248,45.1691],[-75.6328,45.1633],[-75.636,45.1587],[-75.6419,45.154],[-75.6434,45.1513],[-75.6435,45.1427],[-75.6417,45.1398],[-75.6356,45.1348],[-75.6363,45.1309],[-75.6356,45.1295],[-75.6284,45.1256],[-75.6281,45.121],[-75.6194,45.1077],[-75.6187,45.1046],[-75.6188,45.103],[-75.6223,45.0965],[-75.6239,45.0951],[-75.6348,45.0895],[-75.6375,45.0866],[-75.6378,45.0827],[-75.6395,45.0799],[-75.6396,45.0735],[-75.6436,45.0672],[-75.6536,45.0609],[-75.6708,45.0554],[-75.6779,45.0503],[-75.6844,45.0472],[-75.6877,45.0478],[-75.6895,45.0473],[-75.6918,45.0422],[-75.6978,45.0368],[-75.6974,45.0333],[-75.7002,45.029],[-75.703,45.0266],[-75.7082,45.0237],[-75.7145,45.0221],[-75.7183,45.0201],[-75.7243,45.0198],[-75.7301,45.0167],[-75.7339,45.0131],[-75.7485,45.0082],[-75.7517,45.0051],[-75.7578,45.0022],[-75.7585,45.0028],[-75.7588,45.0005],[-75.7645,44.998],[-75.765,44.9942],[-75.7692,44.99],[-75.7815,44.9855],[-75.7857,44.9832],[-75.7961,44.9828],[-75.7992,44.982],[-75.8012,44.9802],[-75.806,44.9795],[-75.8127,44.9742],[-75.8125,44.9719],[-75.8135,44.9694],[-75.8211,44.9671],[-75.8193,44.9645],[-75.8195,44.9617],[-75.8701,45.0019],[-75.9533,45.0724],[-75.941,45.08],[-76.0503,45.1711],[-76.0467,45.1766],[-76.0444,45.1959],[-76.0411,45.2018],[-76.0196,45.2158],[-75.9929,45.2311],[-75.9742,45.2434],[-75.9717,45.2458],[-75.9702,45.2488],[-75.9699,45.2521],[-75.9709,45.2567],[-75.9525,45.2685],[-75.9449,45.2622],[-75.9455,45.2618],[-75.9213,45.2422],[-75.9208,45.2425],[-75.9162,45.2389],[-75.9127,45.2411],[-75.912,45.2396],[-75.8914,45.2523],[-75.8971,45.257],[-75.869,45.2744],[-75.8642,45.2705],[-75.8616,45.2695],[-75.8519,45.2708],[-75.8353,45.2774],[-75.8357,45.2781],[-75.8244,45.2827],[-75.8235,45.2809],[-75.8043,45.2886],[-75.8058,45.2848],[-75.8047,45.2811]]]}},{"type":"Feature","id":"ward-ottawa-12","properties":{"name":"Rideau-Vanier","province":"Ontario","department":"Ontario","type":"Ward","country":"Canadá","iso":"CA"},"geometry":{"type":"Polygon","coordinates":[[[-75.6629,45.417],[-75.6701,45.4173],[-75.6737,45.4165],[-75.6944,45.4244],[-75.6989,45.4269],[-75.7035,45.4274],[-75.7037,45.4351],[-75.7004,45.4432],[-75.6928,45.4407],[-75.6916,45.4378],[-75.6887,45.4368],[-75.684,45.4385],[-75.6785,45.4375],[-75.6765,45.4397],[-75.6712,45.4424],[-75.669,45.4468],[-75.6675,45.4481],[-75.6645,45.449],[-75.6518,45.4498],[-75.6468,45.4411],[-75.6518,45.4395],[-75.6486,45.4344],[-75.6482,45.4322],[-75.6494,45.4321],[-75.6491,45.4302],[-75.666,45.429],[-75.6711,45.428],[-75.6686,45.4249],[-75.6679,45.4221],[-75.6637,45.4189],[-75.6629,45.417]]]}},{"type":"Feature","id":"ward-ottawa-20","properties":{"name":"Osgoode","province":"Ontario","department":"Ontario","type":"Ward","country":"Canadá","iso":"CA"},"geometry":{"type":"Polygon","coordinates":[[[-75.4838,45.4199],[-75.4633,45.4177],[-75.4584,45.4094],[-75.4424,45.4146],[-75.4156,45.3627],[-75.3988,45.3678],[-75.374,45.3732],[-75.3699,45.3755],[-75.3379,45.3839],[-75.3171,45.3907],[-75.2971,45.3944],[-75.2687,45.4041],[-75.2466,45.3644],[-75.2693,45.3579],[-75.2683,45.356],[-75.33,45.3381],[-75.426,45.3125],[-75.4025,45.2654],[-75.3674,45.2045],[-75.3532,45.1821],[-75.4354,45.1476],[-75.4956,45.1269],[-75.5546,45.1023],[-75.5951,45.0843],[-75.6077,45.099],[-75.6283,45.1256],[-75.6356,45.1295],[-75.6363,45.1309],[-75.6356,45.1348],[-75.6417,45.1398],[-75.6435,45.1427],[-75.6434,45.1513],[-75.6419,45.154],[-75.636,45.1587],[-75.6328,45.1633],[-75.6248,45.1691],[-75.6248,45.1709],[-75.627,45.1748],[-75.6313,45.1773],[-75.6351,45.1814],[-75.6346,45.1866],[-75.6388,45.1936],[-75.6377,45.1964],[-75.6396,45.2007],[-75.6404,45.2017],[-75.6431,45.2023],[-75.648,45.2067],[-75.6529,45.2099],[-75.6597,45.2099],[-75.6612,45.2133],[-75.664,45.217],[-75.6684,45.2202],[-75.6694,45.223],[-75.6709,45.2242],[-75.6709,45.2275],[-75.6721,45.2299],[-75.6743,45.2315],[-75.6798,45.2319],[-75.6843,45.2353],[-75.6878,45.2361],[-75.6924,45.24],[-75.6959,45.245],[-75.7022,45.2496],[-75.6956,45.2523],[-75.6941,45.2522],[-75.6934,45.2513],[-75.6811,45.2563],[-75.6699,45.261],[-75.671,45.2627],[-75.6601,45.2674],[-75.6671,45.2806],[-75.6283,45.297],[-75.6206,45.2979],[-75.6123,45.2965],[-75.604,45.2992],[-75.5987,45.2997],[-75.5946,45.303],[-75.5691,45.3139],[-75.5645,45.3169],[-75.5782,45.3406],[-75.5558,45.3496],[-75.5565,45.3509],[-75.5341,45.36],[-75.5427,45.3756],[-75.5425,45.377],[-75.5439,45.3782],[-75.5661,45.417],[-75.5232,45.4231],[-75.4838,45.4199]]]}},{"type":"Feature","id":"ward-ottawa-24","properties":{"name":"Barrhaven East","province":"Ontario","department":"Ontario","type":"Ward","country":"Canadá","iso":"CA"},"geometry":{"type":"Polygon","coordinates":[[[-75.6977,45.3038],[-75.6995,45.2937],[-75.697,45.2872],[-75.6978,45.2835],[-75.7002,45.2805],[-75.7019,45.2763],[-75.7014,45.272],[-75.7024,45.27],[-75.7052,45.269],[-75.7058,45.2677],[-75.7052,45.2656],[-75.7063,45.2605],[-75.7139,45.2599],[-75.7175,45.2632],[-75.722,45.2656],[-75.7266,45.2641],[-75.7299,45.265],[-75.7336,45.262],[-75.7352,45.2639],[-75.7345,45.2681],[-75.7385,45.274],[-75.7464,45.2705],[-75.757,45.2881],[-75.74,45.2951],[-75.7338,45.3031],[-75.7256,45.2884],[-75.7142,45.2928],[-75.7172,45.2981],[-75.6988,45.3055],[-75.6969,45.3048],[-75.6977,45.3038]]]}},{"type":"Feature","id":"ward-ottawa-3","properties":{"name":"Barrhaven West","province":"Ontario","department":"Ontario","type":"Ward","country":"Canadá","iso":"CA"},"geometry":{"type":"Polygon","coordinates":[[[-75.7883,45.2928],[-75.7799,45.2787],[-75.757,45.2881],[-75.7464,45.2705],[-75.7385,45.274],[-75.7345,45.2681],[-75.7352,45.2639],[-75.7336,45.262],[-75.7299,45.265],[-75.7266,45.2641],[-75.722,45.2656],[-75.7175,45.2632],[-75.7139,45.2599],[-75.7063,45.2605],[-75.7051,45.2574],[-75.7061,45.2558],[-75.7056,45.249],[-75.7113,45.247],[-75.7122,45.241],[-75.7488,45.2266],[-75.7573,45.2403],[-75.7597,45.2425],[-75.764,45.2445],[-75.7766,45.2465],[-75.7813,45.2493],[-75.7903,45.2643],[-75.805,45.2815],[-75.8058,45.2845],[-75.8052,45.2872],[-75.8033,45.2896],[-75.7994,45.2924],[-75.7903,45.2961],[-75.7883,45.2928]]]}}]}