{"type":"FeatureCollection","features":[{"type":"Feature","id":"mc-praha-24","properties":{"name":"Dolní Měcholupy","province":"Praha","department":"Hlavní město Praha","type":"Městská část","country":"República Checa","iso":"CZ"},"geometry":{"type":"MultiPolygon","coordinates":[[[[14.5605,50.0721],[14.5638,50.0715],[14.5692,50.0718],[14.5688,50.0705],[14.5727,50.0617],[14.578,50.0626],[14.5783,50.0614],[14.5793,50.0615],[14.58,50.058],[14.5789,50.0588],[14.577,50.0585],[14.5769,50.0574],[14.579,50.0563],[14.5777,50.055],[14.5787,50.0541],[14.5773,50.0536],[14.5766,50.0525],[14.577,50.0518],[14.5806,50.0507],[14.582,50.049],[14.5769,50.0443],[14.5777,50.0432],[14.5767,50.0427],[14.5699,50.0466],[14.5696,50.0471],[14.5721,50.0482],[14.5678,50.0523],[14.5647,50.0516],[14.564,50.0527],[14.5618,50.0521],[14.5619,50.0512],[14.5582,50.0506],[14.5574,50.0529],[14.5539,50.0526],[14.552,50.0552],[14.5495,50.0553],[14.5463,50.0543],[14.546,50.0549],[14.5486,50.0562],[14.548,50.0573],[14.5498,50.0572],[14.5503,50.0565],[14.5509,50.0567],[14.5505,50.0574],[14.5518,50.0576],[14.5516,50.058],[14.5493,50.0576],[14.5485,50.0588],[14.5474,50.0584],[14.5464,50.06],[14.5436,50.0598],[14.5421,50.0627],[14.542,50.0633],[14.5426,50.0633],[14.5412,50.0644],[14.541,50.0659],[14.5582,50.0693],[14.5597,50.0699],[14.5591,50.0713],[14.5605,50.0721]]]]}},{"type":"Feature","id":"mc-praha-26","properties":{"name":"Slivenec","province":"Praha","department":"Hlavní město Praha","type":"Městská část","country":"República Checa","iso":"CZ"},"geometry":{"type":"MultiPolygon","coordinates":[[[[14.3537,50.0363],[14.3554,50.0363],[14.3551,50.0357],[14.3562,50.034],[14.3561,50.0324],[14.3582,50.0316],[14.3584,50.0301],[14.3565,50.0291],[14.3573,50.0256],[14.3605,50.0256],[14.3642,50.027],[14.3668,50.023],[14.3727,50.0269],[14.3755,50.0278],[14.3776,50.0249],[14.3759,50.0231],[14.3726,50.0221],[14.3745,50.0208],[14.3697,50.0182],[14.3689,50.0158],[14.3695,50.0143],[14.3692,50.0126],[14.3679,50.0113],[14.368,50.008],[14.3612,50.007],[14.3576,50.0071],[14.358,50.0098],[14.3574,50.0098],[14.3449,50.0078],[14.3438,50.0086],[14.3401,50.0062],[14.3363,50.0072],[14.3308,50.0053],[14.3259,50.0088],[14.329,50.0134],[14.3307,50.0147],[14.3292,50.0147],[14.3292,50.0171],[14.3282,50.0171],[14.3282,50.0182],[14.3291,50.0182],[14.325,50.0223],[14.3295,50.0221],[14.3299,50.0229],[14.3312,50.0229],[14.332,50.0242],[14.3327,50.0242],[14.3338,50.0267],[14.3334,50.0276],[14.3353,50.0287],[14.336,50.0298],[14.3351,50.0301],[14.3348,50.0316],[14.3369,50.0325],[14.3395,50.0326],[14.339,50.0334],[14.3395,50.0335],[14.3416,50.0329],[14.3434,50.0333],[14.3438,50.0326],[14.3537,50.0363]]]]}},{"type":"Feature","id":"mc-praha-28","properties":{"name":"Ďáblice","province":"Praha","department":"Hlavní město Praha","type":"Městská část","country":"República Checa","iso":"CZ"},"geometry":{"type":"MultiPolygon","coordinates":[[[[14.4902,50.1642],[14.4902,50.1647],[14.4969,50.1628],[14.5006,50.1652],[14.5035,50.1648],[14.5038,50.16],[14.5067,50.1595],[14.5075,50.1565],[14.5046,50.1562],[14.5057,50.154],[14.5045,50.1538],[14.5045,50.1526],[14.4984,50.1506],[14.4984,50.1487],[14.5044,50.1466],[14.5055,50.1448],[14.5054,50.1432],[14.4976,50.1431],[14.4988,50.1372],[14.4898,50.1361],[14.4885,50.139],[14.4797,50.139],[14.4809,50.1405],[14.4787,50.1404],[14.4779,50.1411],[14.4743,50.139],[14.4753,50.1378],[14.4625,50.1335],[14.4575,50.1378],[14.4571,50.1417],[14.469,50.1451],[14.4681,50.1543],[14.47,50.1543],[14.4711,50.1589],[14.4707,50.1614],[14.4899,50.1623],[14.4902,50.1642]]]]}},{"type":"Feature","id":"mc-praha-30","properties":{"name":"Dubeč","province":"Praha","department":"Hlavní město Praha","type":"Městská část","country":"República Checa","iso":"CZ"},"geometry":{"type":"MultiPolygon","coordinates":[[[[14.5865,50.0833],[14.5901,50.0783],[14.5932,50.0723],[14.5973,50.0734],[14.5989,50.0757],[14.6038,50.0762],[14.6087,50.078],[14.6108,50.0739],[14.6124,50.0742],[14.6131,50.0733],[14.6133,50.0721],[14.6125,50.0716],[14.6139,50.0688],[14.615,50.0684],[14.6146,50.0677],[14.6188,50.0687],[14.6191,50.0668],[14.6202,50.0655],[14.6236,50.0651],[14.6232,50.0637],[14.621,50.0637],[14.6219,50.0619],[14.6223,50.0576],[14.6168,50.0583],[14.6168,50.0564],[14.6129,50.0572],[14.6093,50.0569],[14.6032,50.056],[14.6042,50.0544],[14.6037,50.0541],[14.6009,50.0539],[14.6001,50.0548],[14.5969,50.0543],[14.5978,50.0512],[14.5974,50.0493],[14.5938,50.0497],[14.5883,50.0492],[14.5854,50.0478],[14.5844,50.0495],[14.583,50.0501],[14.5813,50.0499],[14.5806,50.0507],[14.577,50.0518],[14.5766,50.0527],[14.5787,50.0541],[14.5777,50.055],[14.579,50.0563],[14.5769,50.0574],[14.577,50.0585],[14.5789,50.0588],[14.58,50.058],[14.5793,50.0615],[14.5783,50.0614],[14.578,50.0626],[14.5727,50.0617],[14.5688,50.0705],[14.5692,50.0718],[14.5681,50.0751],[14.5784,50.0768],[14.5779,50.0813],[14.5855,50.0816],[14.5868,50.0819],[14.5865,50.0833]]]]}},{"type":"Feature","id":"mc-praha-31","properties":{"name":"Lipence","province":"Praha","department":"Hlavní město Praha","type":"Městská část","country":"República Checa","iso":"CZ"},"geometry":{"type":"MultiPolygon","coordinates":[[[[14.3628,49.9811],[14.3634,49.9817],[14.3724,49.9753],[14.3734,49.9729],[14.3719,49.9703],[14.3724,49.9678],[14.3707,49.9666],[14.3711,49.9654],[14.3766,49.9639],[14.3782,49.9641],[14.3803,49.9601],[14.3801,49.9574],[14.3756,49.9549],[14.3761,49.9531],[14.3747,49.9521],[14.3753,49.9506],[14.3743,49.9479],[14.3728,49.9511],[14.3695,49.9521],[14.3682,49.9521],[14.3681,49.951],[14.3672,49.9503],[14.3615,49.9482],[14.3598,49.9495],[14.3547,49.9486],[14.3477,49.949],[14.3443,49.9483],[14.3419,49.9494],[14.3387,49.9492],[14.3377,49.9514],[14.3354,49.9538],[14.3265,49.958],[14.3262,49.9596],[14.3292,49.965],[14.3358,49.9683],[14.3421,49.9665],[14.3445,49.9671],[14.346,49.9684],[14.3469,49.9724],[14.3485,49.9734],[14.3503,49.9736],[14.3551,49.9725],[14.3581,49.9735],[14.3617,49.9773],[14.3628,49.9811]]]]}},{"type":"Feature","id":"mc-praha-32","properties":{"name":"Kunratice","province":"Praha","department":"Hlavní město Praha","type":"Městská část","country":"República Checa","iso":"CZ"},"geometry":{"type":"MultiPolygon","coordinates":[[[[14.4646,50.0316],[14.4808,50.0303],[14.4842,50.0294],[14.4888,50.0297],[14.4892,50.0246],[14.4902,50.0233],[14.5014,50.0209],[14.5027,50.0155],[14.5045,50.0119],[14.5003,50.0037],[14.4955,50.0019],[14.4988,50.0018],[14.4991,50.0012],[14.4982,50.0011],[14.4976,49.9999],[14.4985,49.9999],[14.4979,49.9998],[14.4987,49.9992],[14.4979,49.9992],[14.4983,49.9986],[14.4978,49.9994],[14.4972,49.9993],[14.4983,49.9982],[14.4978,49.9985],[14.498,49.996],[14.485,49.9932],[14.4842,49.9956],[14.4793,49.9961],[14.4779,49.9974],[14.4746,50.0024],[14.4774,50.0026],[14.4769,50.0051],[14.4729,50.0044],[14.4719,50.0051],[14.4675,50.0144],[14.4654,50.015],[14.4661,50.0151],[14.4655,50.0168],[14.4692,50.0175],[14.4694,50.018],[14.4679,50.0199],[14.4629,50.0222],[14.4673,50.0242],[14.4616,50.0262],[14.4607,50.0272],[14.4625,50.0292],[14.462,50.0299],[14.4642,50.0309],[14.4646,50.0316]]]]}},{"type":"Feature","id":"mc-praha-36","properties":{"name":"Újezd","province":"Praha","department":"Hlavní město Praha","type":"Městská část","country":"República Checa","iso":"CZ"},"geometry":{"type":"MultiPolygon","coordinates":[[[[14.5484,50.03],[14.5505,50.0287],[14.5503,50.0275],[14.5478,50.0266],[14.5524,50.0223],[14.5509,50.021],[14.5512,50.0205],[14.5528,50.0195],[14.555,50.0201],[14.5567,50.0185],[14.556,50.0171],[14.5563,50.0155],[14.5551,50.0136],[14.5556,50.0118],[14.5541,50.0118],[14.5548,50.0106],[14.552,50.0088],[14.5432,50.0095],[14.542,50.0107],[14.5214,50.018],[14.515,50.021],[14.5334,50.0266],[14.5416,50.0284],[14.5423,50.0274],[14.5444,50.0275],[14.5459,50.0282],[14.5468,50.0295],[14.5476,50.0292],[14.5484,50.03]]]]}},{"type":"Feature","id":"mc-praha-38","properties":{"name":"Běchovice","province":"Praha","department":"Hlavní město Praha","type":"Městská část","country":"República Checa","iso":"CZ"},"geometry":{"type":"MultiPolygon","coordinates":[[[[14.6255,50.0964],[14.634,50.0929],[14.6345,50.0917],[14.6358,50.0919],[14.6366,50.0875],[14.6386,50.085],[14.6356,50.0833],[14.6361,50.0808],[14.6423,50.0799],[14.6424,50.076],[14.643,50.0748],[14.6422,50.0734],[14.6409,50.0739],[14.6403,50.073],[14.6377,50.0734],[14.6376,50.073],[14.6326,50.0712],[14.6302,50.0734],[14.6275,50.0725],[14.6267,50.0732],[14.6275,50.0735],[14.6264,50.0754],[14.6254,50.0749],[14.6238,50.0756],[14.623,50.0752],[14.625,50.0734],[14.6241,50.073],[14.6255,50.0712],[14.6148,50.0675],[14.6144,50.0681],[14.615,50.0684],[14.6139,50.0688],[14.6125,50.0716],[14.6133,50.0721],[14.6128,50.0738],[14.6108,50.0739],[14.6087,50.078],[14.6038,50.0762],[14.5989,50.0757],[14.5973,50.0734],[14.5932,50.0723],[14.5901,50.0783],[14.5866,50.0833],[14.5942,50.0823],[14.597,50.0835],[14.6027,50.0842],[14.6025,50.0867],[14.6063,50.0875],[14.6058,50.0899],[14.605,50.09],[14.6052,50.093],[14.6237,50.0943],[14.6244,50.0944],[14.6255,50.0964]]]]}},{"type":"Feature","id":"mc-praha-41","properties":{"name":"Dolní Počernice","province":"Praha","department":"Hlavní město Praha","type":"Městská část","country":"República Checa","iso":"CZ"},"geometry":{"type":"MultiPolygon","coordinates":[[[[14.5764,50.1017],[14.5805,50.1018],[14.5834,50.0981],[14.5903,50.1001],[14.5935,50.0954],[14.5976,50.0969],[14.6078,50.0976],[14.6186,50.0992],[14.6199,50.0993],[14.6234,50.0969],[14.6255,50.0964],[14.6244,50.0944],[14.6237,50.0943],[14.6052,50.093],[14.605,50.09],[14.6058,50.0899],[14.6063,50.0875],[14.6025,50.0867],[14.6027,50.0842],[14.597,50.0835],[14.5942,50.0823],[14.5865,50.0833],[14.5867,50.0819],[14.5779,50.0813],[14.5784,50.0768],[14.5667,50.0748],[14.5658,50.0768],[14.5654,50.0767],[14.5662,50.0772],[14.5662,50.0811],[14.5651,50.083],[14.5659,50.0884],[14.5678,50.0896],[14.5681,50.0904],[14.5704,50.0893],[14.5738,50.0911],[14.5727,50.0914],[14.5737,50.0923],[14.5707,50.0942],[14.5744,50.0954],[14.5741,50.0962],[14.5755,50.0966],[14.574,50.0989],[14.5756,50.0994],[14.5741,50.1015],[14.5764,50.1017]]]]}},{"type":"Feature","id":"mc-praha-44","properties":{"name":"Suchdol","province":"Praha","department":"Hlavní město Praha","type":"Městská část","country":"República Checa","iso":"CZ"},"geometry":{"type":"MultiPolygon","coordinates":[[[[14.3668,50.1488],[14.369,50.1481],[14.3728,50.1488],[14.3805,50.1472],[14.386,50.1477],[14.3869,50.1467],[14.3879,50.147],[14.3888,50.1466],[14.3885,50.1462],[14.3922,50.1448],[14.3931,50.1426],[14.3948,50.142],[14.3978,50.1432],[14.3981,50.1443],[14.3992,50.1442],[14.3966,50.1404],[14.3949,50.1391],[14.3926,50.1392],[14.3895,50.1358],[14.393,50.1307],[14.394,50.131],[14.3931,50.1302],[14.3933,50.1297],[14.3961,50.1298],[14.3964,50.129],[14.3956,50.128],[14.3959,50.1271],[14.3975,50.1255],[14.3945,50.1233],[14.3933,50.1244],[14.3898,50.1253],[14.391,50.1264],[14.3895,50.1284],[14.3828,50.1307],[14.3794,50.1273],[14.3775,50.1266],[14.3767,50.1268],[14.3766,50.1275],[14.3728,50.1278],[14.3728,50.1286],[14.3708,50.1287],[14.3709,50.1297],[14.3683,50.1297],[14.3679,50.1323],[14.358,50.1322],[14.3572,50.1374],[14.3555,50.137],[14.3552,50.1383],[14.3564,50.1395],[14.3585,50.1401],[14.3589,50.1414],[14.3571,50.1414],[14.3572,50.142],[14.3612,50.1448],[14.3632,50.1474],[14.3668,50.1488]]]]}},{"type":"Feature","id":"mc-praha-45","properties":{"name":"Šeberov","province":"Praha","department":"Hlavní město Praha","type":"Městská část","country":"República Checa","iso":"CZ"},"geometry":{"type":"MultiPolygon","coordinates":[[[[14.5119,50.0219],[14.5366,50.0125],[14.5286,50.0116],[14.5221,50.0085],[14.5311,50.0015],[14.5254,49.9982],[14.5202,49.9979],[14.5204,49.997],[14.5193,49.9969],[14.52,49.9956],[14.5191,49.9952],[14.5186,49.9959],[14.5145,49.9953],[14.5148,49.9934],[14.5093,49.9929],[14.5086,49.9942],[14.5105,49.9946],[14.5084,49.9982],[14.498,49.996],[14.4978,49.9985],[14.4983,49.9982],[14.4972,49.9993],[14.4978,49.9994],[14.4983,49.9986],[14.4979,49.9992],[14.4987,49.9992],[14.4979,49.9998],[14.4985,49.9999],[14.4976,49.9999],[14.4982,50.0011],[14.4991,50.0012],[14.4988,50.0018],[14.4955,50.0019],[14.5003,50.0037],[14.5045,50.0119],[14.5027,50.0155],[14.5014,50.0209],[14.5058,50.0206],[14.5119,50.0219]]]]}},{"type":"Feature","id":"mc-praha-49","properties":{"name":"Křeslice","province":"Praha","department":"Hlavní město Praha","type":"Městská část","country":"República Checa","iso":"CZ"},"geometry":{"type":"MultiPolygon","coordinates":[[[[14.5763,50.0346],[14.5773,50.0348],[14.5805,50.0333],[14.5789,50.0324],[14.5785,50.033],[14.574,50.0305],[14.5712,50.03],[14.5722,50.0268],[14.5737,50.0268],[14.5739,50.0263],[14.5718,50.0247],[14.5722,50.0241],[14.5747,50.0237],[14.5745,50.0228],[14.5731,50.023],[14.5724,50.0189],[14.575,50.0183],[14.5752,50.0166],[14.5742,50.0155],[14.5747,50.0135],[14.5763,50.0134],[14.5754,50.0123],[14.5728,50.0097],[14.5694,50.0081],[14.5686,50.0103],[14.5652,50.0105],[14.5641,50.0123],[14.5553,50.0129],[14.5552,50.0141],[14.5564,50.0158],[14.556,50.0171],[14.5567,50.0179],[14.5566,50.0188],[14.555,50.0201],[14.553,50.0195],[14.5518,50.0199],[14.5509,50.021],[14.5523,50.0227],[14.5478,50.0267],[14.5503,50.0274],[14.5526,50.031],[14.5573,50.0297],[14.5618,50.031],[14.5609,50.0315],[14.5615,50.0318],[14.5645,50.0317],[14.5709,50.0333],[14.5727,50.0328],[14.5763,50.0346]]]]}},{"type":"Feature","id":"mc-praha-52","properties":{"name":"Praha 17","province":"Praha","department":"Hlavní město Praha","type":"Městská část","country":"República Checa","iso":"CZ"},"geometry":{"type":"MultiPolygon","coordinates":[[[[14.2943,50.0783],[14.2973,50.0777],[14.3053,50.0779],[14.3149,50.0766],[14.3268,50.077],[14.3266,50.0748],[14.3244,50.074],[14.3228,50.0743],[14.3239,50.0715],[14.3238,50.0679],[14.3228,50.0663],[14.3233,50.0659],[14.3055,50.0616],[14.2982,50.0661],[14.2941,50.0674],[14.2928,50.071],[14.2924,50.0753],[14.2946,50.0779],[14.2943,50.0783]]]]}},{"type":"Feature","id":"mc-praha-54","properties":{"name":"Benice","province":"Praha","department":"Hlavní město Praha","type":"Městská část","country":"República Checa","iso":"CZ"},"geometry":{"type":"MultiPolygon","coordinates":[[[[14.5939,50.0269],[14.6015,50.0217],[14.6027,50.0224],[14.6051,50.0214],[14.6093,50.0211],[14.6098,50.022],[14.6108,50.0216],[14.6098,50.0204],[14.6128,50.0197],[14.6122,50.0194],[14.6133,50.0175],[14.6127,50.0169],[14.6155,50.0162],[14.6146,50.015],[14.6171,50.0139],[14.6167,50.0135],[14.6174,50.013],[14.6162,50.0121],[14.6174,50.0114],[14.6153,50.0104],[14.6152,50.0084],[14.6144,50.0084],[14.615,50.0047],[14.6101,50.0037],[14.611,50.0029],[14.6104,50.0026],[14.6089,50.0037],[14.605,50.0027],[14.6034,50.0102],[14.5961,50.0079],[14.5961,50.0101],[14.5955,50.0108],[14.5903,50.0094],[14.5897,50.0098],[14.589,50.0108],[14.5903,50.011],[14.59,50.0126],[14.5928,50.0132],[14.5919,50.0144],[14.596,50.0154],[14.5946,50.0166],[14.5919,50.0159],[14.5912,50.0175],[14.5951,50.0186],[14.5942,50.0197],[14.5947,50.0198],[14.596,50.0198],[14.597,50.0185],[14.5977,50.0191],[14.597,50.02],[14.5982,50.0198],[14.5984,50.0203],[14.5972,50.0205],[14.5971,50.0213],[14.5956,50.0211],[14.5953,50.0219],[14.5922,50.0222],[14.5937,50.0237],[14.5912,50.0249],[14.5939,50.0269]]]]}},{"type":"Feature","id":"mc-praha-1","properties":{"name":"Praha 6","province":"Praha","department":"Hlavní město Praha","type":"Městská část","country":"República Checa","iso":"CZ"},"geometry":{"type":"MultiPolygon","coordinates":[[[[14.3932,50.1395],[14.3949,50.1391],[14.3934,50.137],[14.3946,50.1352],[14.4016,50.1312],[14.4019,50.1279],[14.396,50.1226],[14.3969,50.1228],[14.3981,50.1203],[14.4017,50.1169],[14.4064,50.1147],[14.4069,50.1136],[14.4066,50.1122],[14.4094,50.1118],[14.4091,50.1107],[14.4069,50.1092],[14.4077,50.1074],[14.4067,50.1075],[14.4086,50.1054],[14.4122,50.1052],[14.4126,50.1047],[14.4166,50.105],[14.4193,50.1039],[14.4124,50.0995],[14.4126,50.099],[14.4087,50.0984],[14.4102,50.0958],[14.3902,50.0933],[14.3891,50.0901],[14.3893,50.0881],[14.3866,50.0871],[14.3859,50.0861],[14.3883,50.0858],[14.3895,50.0848],[14.389,50.0846],[14.3891,50.0838],[14.3906,50.0842],[14.3921,50.0837],[14.3921,50.0825],[14.3936,50.0831],[14.3952,50.0827],[14.3954,50.0816],[14.3968,50.0823],[14.3984,50.0818],[14.3987,50.0807],[14.3936,50.0789],[14.3888,50.0787],[14.3889,50.0792],[14.3808,50.0802],[14.3808,50.0797],[14.3782,50.0789],[14.3752,50.0785],[14.3722,50.0788],[14.3747,50.0797],[14.3751,50.0801],[14.3744,50.0801],[14.3579,50.0789],[14.3576,50.0778],[14.3553,50.078],[14.3481,50.0763],[14.3465,50.0768],[14.3415,50.076],[14.3409,50.0766],[14.3357,50.0752],[14.3354,50.0762],[14.3265,50.0753],[14.3268,50.077],[14.3149,50.0766],[14.3053,50.0779],[14.2973,50.0777],[14.2944,50.0783],[14.2904,50.0777],[14.2861,50.079],[14.2864,50.082],[14.2837,50.0825],[14.2763,50.0819],[14.2756,50.0866],[14.2744,50.0884],[14.272,50.0869],[14.2693,50.0865],[14.2662,50.0881],[14.2622,50.0879],[14.2621,50.0971],[14.2555,50.0979],[14.2551,50.0986],[14.2557,50.0994],[14.2594,50.1002],[14.2509,50.1043],[14.2399,50.1028],[14.238,50.1018],[14.234,50.1031],[14.2276,50.1012],[14.2255,50.1037],[14.2267,50.1048],[14.2316,50.1059],[14.2321,50.1065],[14.2374,50.1081],[14.2386,50.1075],[14.2404,50.1081],[14.2387,50.1096],[14.2381,50.111],[14.2399,50.1126],[14.2462,50.1108],[14.2511,50.1116],[14.2571,50.1133],[14.2582,50.1154],[14.2611,50.1142],[14.2799,50.1199],[14.2857,50.1163],[14.2883,50.1157],[14.2879,50.115],[14.2898,50.1137],[14.2947,50.1071],[14.2963,50.1076],[14.3021,50.1036],[14.3088,50.1042],[14.3235,50.1076],[14.3262,50.1075],[14.3324,50.1097],[14.3324,50.1105],[14.3369,50.1097],[14.337,50.1105],[14.3427,50.1092],[14.3457,50.1103],[14.3476,50.1098],[14.3537,50.1099],[14.3555,50.1131],[14.3533,50.1137],[14.353,50.1153],[14.3563,50.1158],[14.3563,50.1165],[14.3553,50.1169],[14.3557,50.117],[14.3627,50.117],[14.3657,50.114],[14.368,50.1127],[14.3685,50.1137],[14.3696,50.1135],[14.3698,50.1179],[14.3705,50.1178],[14.3714,50.1198],[14.3857,50.1227],[14.3876,50.1237],[14.3869,50.1242],[14.3882,50.1254],[14.3894,50.1247],[14.3898,50.1253],[14.3922,50.1249],[14.3947,50.1233],[14.395,50.124],[14.3971,50.125],[14.3975,50.1258],[14.3961,50.1265],[14.3956,50.128],[14.3964,50.129],[14.3961,50.1298],[14.3933,50.1297],[14.3931,50.1302],[14.394,50.131],[14.393,50.1307],[14.3895,50.1358],[14.3932,50.1395]]]]}},{"type":"Feature","id":"mc-praha-2","properties":{"name":"Praha 5","province":"Praha","department":"Hlavní město Praha","type":"Městská část","country":"República Checa","iso":"CZ"},"geometry":{"type":"MultiPolygon","coordinates":[[[[14.3579,50.0787],[14.3744,50.0801],[14.3751,50.0801],[14.3747,50.0797],[14.3722,50.0788],[14.3754,50.0785],[14.3782,50.0789],[14.3808,50.0797],[14.3808,50.0802],[14.3913,50.0786],[14.3936,50.0789],[14.3999,50.0814],[14.4102,50.0821],[14.4109,50.0798],[14.412,50.0795],[14.4141,50.0696],[14.4153,50.0654],[14.4169,50.0626],[14.4174,50.059],[14.4096,50.0424],[14.4011,50.0317],[14.4,50.0322],[14.3944,50.0301],[14.3936,50.0293],[14.3846,50.0274],[14.3836,50.0274],[14.3809,50.0299],[14.3802,50.0298],[14.3727,50.0269],[14.3668,50.023],[14.3642,50.027],[14.3605,50.0256],[14.3569,50.0258],[14.3564,50.0279],[14.3571,50.028],[14.3564,50.028],[14.3565,50.0291],[14.3584,50.0301],[14.3582,50.0316],[14.3561,50.0324],[14.3562,50.034],[14.3551,50.0357],[14.3554,50.0363],[14.354,50.0363],[14.3535,50.0376],[14.3545,50.0381],[14.3533,50.0387],[14.3539,50.0394],[14.3528,50.0401],[14.3565,50.0432],[14.3543,50.0437],[14.3549,50.0453],[14.3536,50.0467],[14.3534,50.0493],[14.3562,50.0523],[14.3472,50.0566],[14.3404,50.0569],[14.3408,50.0589],[14.3394,50.0608],[14.3367,50.0609],[14.3284,50.0639],[14.3261,50.0635],[14.3228,50.0663],[14.3238,50.0679],[14.3239,50.0715],[14.3228,50.0742],[14.3257,50.0743],[14.3266,50.0748],[14.3265,50.0753],[14.3354,50.0762],[14.3357,50.0752],[14.3409,50.0766],[14.3415,50.076],[14.3465,50.0768],[14.3486,50.0764],[14.3553,50.078],[14.3576,50.0778],[14.3579,50.0787]]]]}},{"type":"Feature","id":"mc-praha-3","properties":{"name":"Praha 4","province":"Praha","department":"Hlavní město Praha","type":"Městská část","country":"República Checa","iso":"CZ"},"geometry":{"type":"MultiPolygon","coordinates":[[[[14.4379,50.0687],[14.4399,50.0674],[14.4423,50.0671],[14.4495,50.0641],[14.4539,50.0628],[14.4558,50.0632],[14.4601,50.0573],[14.463,50.0579],[14.4631,50.059],[14.4646,50.0592],[14.4654,50.0586],[14.4681,50.0591],[14.4682,50.0576],[14.4724,50.0578],[14.4733,50.0557],[14.4774,50.0563],[14.4777,50.0556],[14.4814,50.0563],[14.482,50.055],[14.4848,50.0546],[14.4852,50.053],[14.4864,50.0523],[14.4835,50.0518],[14.4933,50.0507],[14.4973,50.047],[14.4971,50.0465],[14.4954,50.0455],[14.4956,50.0449],[14.4915,50.0435],[14.4911,50.0428],[14.4897,50.0437],[14.4899,50.0455],[14.4874,50.0453],[14.4892,50.0435],[14.4878,50.042],[14.4738,50.0408],[14.4706,50.0397],[14.4702,50.0375],[14.4712,50.0343],[14.4733,50.0323],[14.4783,50.0305],[14.474,50.0305],[14.4651,50.0317],[14.462,50.0299],[14.4625,50.0292],[14.4607,50.0273],[14.4616,50.0262],[14.4673,50.0242],[14.4629,50.0222],[14.4679,50.0199],[14.4691,50.0187],[14.4692,50.0175],[14.4543,50.014],[14.4505,50.0187],[14.4466,50.0215],[14.4415,50.0238],[14.4364,50.0188],[14.4346,50.0197],[14.4296,50.0204],[14.4211,50.0198],[14.4154,50.0182],[14.4152,50.0177],[14.4087,50.0171],[14.404,50.0179],[14.4038,50.0189],[14.397,50.0196],[14.3972,50.023],[14.399,50.0292],[14.4062,50.0376],[14.4113,50.0454],[14.4174,50.059],[14.4169,50.0626],[14.4196,50.064],[14.4224,50.0629],[14.4229,50.0633],[14.4253,50.0618],[14.4254,50.0625],[14.4264,50.0628],[14.4259,50.0633],[14.4279,50.0637],[14.4272,50.0643],[14.4278,50.0647],[14.4355,50.0662],[14.4379,50.0687]]]]}},{"type":"Feature","id":"mc-praha-4","properties":{"name":"Praha 12","province":"Praha","department":"Hlavní město Praha","type":"Městská část","country":"República Checa","iso":"CZ"},"geometry":{"type":"MultiPolygon","coordinates":[[[[14.4415,50.0237],[14.4466,50.0215],[14.4505,50.0187],[14.4543,50.014],[14.4538,50.0139],[14.4525,50.0155],[14.4498,50.0156],[14.449,50.0143],[14.4439,50.0127],[14.4461,50.012],[14.4493,50.0119],[14.4551,50.013],[14.4567,50.0109],[14.4574,50.0089],[14.4571,50.007],[14.4577,50.0068],[14.4479,50.0074],[14.4508,50.0069],[14.4506,50.0052],[14.4511,50.0048],[14.4501,50.0043],[14.4501,50.0033],[14.4542,50.0032],[14.4523,50.0021],[14.4525,50.0011],[14.457,50.0001],[14.4563,49.9994],[14.4593,49.9982],[14.4579,49.997],[14.4581,49.9959],[14.4553,49.9943],[14.4582,49.992],[14.4613,49.9927],[14.4623,49.9908],[14.4647,49.9915],[14.465,49.991],[14.4636,49.9909],[14.4645,49.9896],[14.464,49.9891],[14.4667,49.9889],[14.4673,49.9881],[14.4675,49.9876],[14.4648,49.9876],[14.465,49.9864],[14.4627,49.9862],[14.4682,49.9857],[14.4652,49.9735],[14.4636,49.9733],[14.4633,49.9715],[14.4591,49.9726],[14.4547,49.9726],[14.4496,49.9745],[14.4457,49.9746],[14.4424,49.9701],[14.4397,49.9689],[14.4313,49.9676],[14.4288,49.9653],[14.421,49.9644],[14.4179,49.9647],[14.4157,49.9662],[14.4121,49.9667],[14.4097,49.9686],[14.4054,49.9699],[14.4032,49.9716],[14.4042,49.9734],[14.4068,49.9729],[14.407,49.9754],[14.4065,49.9759],[14.4084,49.9763],[14.4078,49.9766],[14.4077,49.978],[14.4006,49.977],[14.4006,49.9761],[14.3983,49.9757],[14.3987,49.9829],[14.4007,49.9872],[14.401,49.9908],[14.4015,49.991],[14.4017,49.9935],[14.4039,49.9993],[14.4029,50.0041],[14.3994,50.0097],[14.397,50.0196],[14.4038,50.0189],[14.404,50.0179],[14.4087,50.0171],[14.4152,50.0177],[14.4154,50.0182],[14.4211,50.0198],[14.4296,50.0204],[14.4346,50.0197],[14.4364,50.0188],[14.4415,50.0237]]]]}},{"type":"Feature","id":"mc-praha-5","properties":{"name":"Praha 8","province":"Praha","department":"Hlavní město Praha","type":"Městská část","country":"República Checa","iso":"CZ"},"geometry":{"type":"MultiPolygon","coordinates":[[[[14.4364,50.1526],[14.4379,50.1523],[14.4367,50.1518],[14.4367,50.1495],[14.4346,50.1459],[14.4398,50.1458],[14.44,50.1447],[14.4371,50.1434],[14.4385,50.1413],[14.4421,50.1399],[14.4458,50.1403],[14.4476,50.1371],[14.4498,50.1376],[14.4509,50.1361],[14.4534,50.1361],[14.4575,50.1378],[14.4625,50.1335],[14.4753,50.1378],[14.4743,50.139],[14.4779,50.1411],[14.4787,50.1404],[14.4809,50.1405],[14.4797,50.139],[14.4885,50.139],[14.4898,50.1361],[14.4957,50.1369],[14.4967,50.1322],[14.4897,50.1315],[14.4834,50.1269],[14.4837,50.126],[14.4862,50.1254],[14.4846,50.1235],[14.4773,50.12],[14.4777,50.1187],[14.4769,50.1187],[14.4769,50.1181],[14.4838,50.1187],[14.4898,50.1171],[14.4908,50.1161],[14.4899,50.1158],[14.4896,50.1148],[14.4933,50.1131],[14.4866,50.1117],[14.4823,50.1095],[14.4816,50.1082],[14.4819,50.102],[14.4848,50.1029],[14.4831,50.102],[14.4814,50.0996],[14.4708,50.0939],[14.4688,50.0941],[14.4495,50.0907],[14.4443,50.0896],[14.4443,50.0882],[14.4386,50.0873],[14.439,50.0903],[14.4384,50.0902],[14.4375,50.0921],[14.4377,50.0951],[14.4456,50.0961],[14.4586,50.1015],[14.46,50.1025],[14.4616,50.1055],[14.4612,50.1084],[14.4601,50.1101],[14.4574,50.1124],[14.4542,50.1137],[14.4464,50.1142],[14.4465,50.1156],[14.4429,50.1166],[14.4386,50.1162],[14.4347,50.1169],[14.4345,50.1185],[14.4357,50.1195],[14.4344,50.1208],[14.4358,50.1225],[14.4352,50.1241],[14.4279,50.1216],[14.4249,50.1212],[14.4262,50.1224],[14.4247,50.1246],[14.4164,50.1253],[14.4172,50.126],[14.4142,50.1261],[14.4132,50.1255],[14.41,50.1264],[14.4093,50.1277],[14.408,50.1279],[14.4071,50.1299],[14.4077,50.1301],[14.4075,50.131],[14.4043,50.131],[14.402,50.1302],[14.4007,50.132],[14.3959,50.1344],[14.3936,50.1363],[14.3937,50.138],[14.3979,50.1416],[14.3992,50.1442],[14.4002,50.1442],[14.4011,50.1487],[14.4082,50.1478],[14.4088,50.1484],[14.4173,50.1491],[14.4202,50.1502],[14.4248,50.1506],[14.4272,50.1517],[14.4364,50.1526]]]]}},{"type":"Feature","id":"mc-praha-6","properties":{"name":"Praha 10","province":"Praha","department":"Hlavní město Praha","type":"Městská část","country":"República Checa","iso":"CZ"},"geometry":{"type":"MultiPolygon","coordinates":[[[[14.5044,50.0904],[14.5144,50.0895],[14.5194,50.0878],[14.5195,50.0873],[14.5341,50.0913],[14.5351,50.0893],[14.5313,50.0885],[14.5331,50.0853],[14.5386,50.0857],[14.54,50.0823],[14.5405,50.0783],[14.5405,50.0775],[14.5367,50.0782],[14.5353,50.0762],[14.5393,50.0753],[14.5387,50.0731],[14.537,50.0741],[14.5324,50.073],[14.5293,50.0757],[14.524,50.0745],[14.5246,50.0709],[14.5244,50.0678],[14.5221,50.0682],[14.522,50.0677],[14.5207,50.0677],[14.5207,50.067],[14.5198,50.0669],[14.5202,50.0654],[14.5194,50.0653],[14.5198,50.0646],[14.5186,50.0619],[14.5159,50.0617],[14.5157,50.0612],[14.5157,50.0576],[14.5164,50.0569],[14.5166,50.0518],[14.5142,50.0506],[14.5108,50.0518],[14.5105,50.0513],[14.5084,50.0513],[14.5086,50.0493],[14.5067,50.0489],[14.5073,50.0469],[14.5034,50.0459],[14.5037,50.0452],[14.499,50.0447],[14.4988,50.0454],[14.4966,50.0449],[14.4962,50.0453],[14.4948,50.0443],[14.4973,50.047],[14.4933,50.0507],[14.4835,50.0518],[14.4864,50.0523],[14.4852,50.053],[14.4848,50.0546],[14.482,50.055],[14.4814,50.0563],[14.4777,50.0556],[14.4774,50.0563],[14.4733,50.0557],[14.4724,50.0578],[14.4682,50.0576],[14.4681,50.0591],[14.4654,50.0586],[14.4646,50.0592],[14.4631,50.059],[14.463,50.0579],[14.4601,50.0573],[14.4558,50.0632],[14.4537,50.0628],[14.442,50.0672],[14.4465,50.0687],[14.4497,50.0688],[14.449,50.0705],[14.4436,50.0731],[14.4503,50.0735],[14.4504,50.0749],[14.4497,50.0749],[14.4497,50.0761],[14.4794,50.0771],[14.4798,50.0786],[14.4775,50.0788],[14.4774,50.0802],[14.4837,50.0812],[14.4816,50.0826],[14.4837,50.083],[14.4832,50.0842],[14.4878,50.0854],[14.4891,50.0866],[14.4929,50.0876],[14.4928,50.0881],[14.5044,50.0904]]]]}},{"type":"Feature","id":"mc-praha-7","properties":{"name":"Praha 20","province":"Praha","department":"Hlavní město Praha","type":"Městská část","country":"República Checa","iso":"CZ"},"geometry":{"type":"MultiPolygon","coordinates":[[[[14.6057,50.1292],[14.6098,50.1279],[14.6217,50.1303],[14.6229,50.1286],[14.6334,50.1307],[14.6365,50.1272],[14.6363,50.1247],[14.6396,50.1244],[14.6409,50.1249],[14.6418,50.1243],[14.6465,50.1242],[14.6486,50.125],[14.6602,50.1234],[14.6597,50.1213],[14.6607,50.1214],[14.6579,50.1107],[14.6585,50.1071],[14.657,50.1051],[14.6594,50.1042],[14.6557,50.1019],[14.651,50.1011],[14.6509,50.0993],[14.6498,50.0977],[14.6446,50.0985],[14.6439,50.0932],[14.6388,50.0909],[14.639,50.0932],[14.6343,50.0924],[14.6271,50.096],[14.6234,50.0969],[14.6199,50.0993],[14.5976,50.0969],[14.5935,50.0954],[14.5903,50.1001],[14.5834,50.0981],[14.5805,50.1018],[14.5888,50.1014],[14.5907,50.1025],[14.5909,50.1036],[14.5887,50.1094],[14.587,50.1108],[14.5854,50.1109],[14.5766,50.1098],[14.5757,50.1089],[14.5751,50.1097],[14.5767,50.11],[14.5765,50.1141],[14.5797,50.1138],[14.5789,50.1152],[14.581,50.118],[14.5882,50.118],[14.5882,50.1215],[14.594,50.1215],[14.5929,50.1236],[14.598,50.1234],[14.6039,50.1222],[14.6057,50.1292]]]]}},{"type":"Feature","id":"mc-praha-8","properties":{"name":"Praha 22","province":"Praha","department":"Hlavní město Praha","type":"Městská část","country":"República Checa","iso":"CZ"},"geometry":{"type":"MultiPolygon","coordinates":[[[[14.621,50.0636],[14.6255,50.0635],[14.6245,50.0617],[14.6284,50.0613],[14.6275,50.0601],[14.6256,50.0599],[14.6265,50.0585],[14.6265,50.0563],[14.6324,50.0543],[14.634,50.0557],[14.6387,50.0569],[14.6389,50.0579],[14.6407,50.0582],[14.6418,50.0556],[14.6425,50.0554],[14.6419,50.0494],[14.639,50.049],[14.6386,50.0481],[14.6348,50.0466],[14.6326,50.047],[14.6322,50.0459],[14.6285,50.0449],[14.6293,50.0433],[14.6286,50.0421],[14.627,50.043],[14.6232,50.0417],[14.6241,50.0387],[14.6259,50.0392],[14.6257,50.0372],[14.6301,50.0362],[14.6299,50.0351],[14.632,50.0274],[14.6311,50.0273],[14.6306,50.0255],[14.6197,50.0257],[14.6226,50.0227],[14.611,50.0221],[14.6108,50.0216],[14.6098,50.022],[14.6093,50.0211],[14.6051,50.0214],[14.6027,50.0224],[14.6015,50.0217],[14.5939,50.0269],[14.5912,50.0249],[14.5937,50.0237],[14.5922,50.0222],[14.5953,50.0219],[14.5956,50.0211],[14.5971,50.0213],[14.5972,50.0205],[14.5984,50.0203],[14.5982,50.0198],[14.597,50.02],[14.5977,50.0191],[14.597,50.0185],[14.596,50.0198],[14.5947,50.0198],[14.5942,50.0197],[14.5951,50.0186],[14.5912,50.0175],[14.5919,50.0159],[14.5946,50.0166],[14.596,50.0154],[14.5919,50.0144],[14.5928,50.0132],[14.59,50.0126],[14.5903,50.011],[14.589,50.0108],[14.5882,50.0122],[14.5828,50.0117],[14.5835,50.0171],[14.575,50.0131],[14.5742,50.0155],[14.5752,50.0166],[14.575,50.0183],[14.5724,50.0189],[14.5731,50.023],[14.5745,50.0228],[14.5747,50.0237],[14.5722,50.0241],[14.5718,50.0247],[14.5739,50.0263],[14.5737,50.0268],[14.5722,50.0268],[14.5712,50.03],[14.574,50.0305],[14.5785,50.033],[14.5789,50.0324],[14.5805,50.0333],[14.5765,50.0351],[14.5755,50.0347],[14.5744,50.0357],[14.575,50.036],[14.5745,50.0365],[14.5703,50.0388],[14.5702,50.0403],[14.5726,50.0418],[14.5779,50.0433],[14.5769,50.0443],[14.5819,50.0486],[14.5812,50.0501],[14.5844,50.0495],[14.5855,50.0478],[14.5883,50.0492],[14.5938,50.0497],[14.5974,50.0493],[14.5978,50.0512],[14.5969,50.0543],[14.6001,50.0548],[14.6009,50.0539],[14.6037,50.0541],[14.6042,50.0544],[14.6032,50.056],[14.6093,50.0569],[14.6129,50.0572],[14.6168,50.0564],[14.6168,50.0583],[14.6223,50.0576],[14.6219,50.0619],[14.621,50.0636]]]]}},{"type":"Feature","id":"mc-praha-9","properties":{"name":"Praha 14","province":"Praha","department":"Hlavní město Praha","type":"Městská část","country":"República Checa","iso":"CZ"},"geometry":{"type":"MultiPolygon","coordinates":[[[[14.5554,50.1229],[14.5556,50.1237],[14.5606,50.1232],[14.5603,50.121],[14.5649,50.1215],[14.5769,50.1182],[14.5777,50.119],[14.5808,50.1195],[14.5807,50.117],[14.5789,50.1152],[14.5797,50.1138],[14.5765,50.1141],[14.5767,50.11],[14.5751,50.1097],[14.5759,50.109],[14.5766,50.1098],[14.587,50.1108],[14.5887,50.1096],[14.5909,50.1036],[14.5905,50.1022],[14.5888,50.1014],[14.5741,50.1015],[14.5756,50.0994],[14.574,50.0989],[14.5755,50.0966],[14.5741,50.0962],[14.5744,50.0954],[14.5707,50.0942],[14.5737,50.0923],[14.5727,50.0914],[14.5738,50.0911],[14.5704,50.0893],[14.5681,50.0904],[14.5678,50.0896],[14.5659,50.0884],[14.5651,50.083],[14.5662,50.0811],[14.5662,50.0772],[14.5654,50.0767],[14.5642,50.0789],[14.5633,50.0778],[14.5627,50.0779],[14.5627,50.0809],[14.5578,50.08],[14.5554,50.0833],[14.5453,50.0808],[14.5443,50.0824],[14.5401,50.0817],[14.5386,50.0857],[14.5331,50.0853],[14.5313,50.0885],[14.5351,50.0893],[14.5338,50.0923],[14.5344,50.0924],[14.532,50.0951],[14.5314,50.0969],[14.532,50.0999],[14.5343,50.1028],[14.5323,50.1057],[14.5305,50.1053],[14.5301,50.1071],[14.5326,50.1071],[14.5327,50.1084],[14.5325,50.1125],[14.5293,50.1143],[14.5307,50.1167],[14.5318,50.1167],[14.5323,50.1184],[14.5345,50.1182],[14.5344,50.1172],[14.5466,50.1184],[14.5462,50.1204],[14.5519,50.1227],[14.5552,50.122],[14.5554,50.1229]]]]}},{"type":"Feature","id":"mc-praha-10","properties":{"name":"Praha 9","province":"Praha","department":"Hlavní město Praha","type":"Městská část","country":"República Checa","iso":"CZ"},"geometry":{"type":"MultiPolygon","coordinates":[[[[14.4929,50.1319],[14.499,50.1321],[14.4995,50.1283],[14.5004,50.1288],[14.5022,50.1277],[14.5017,50.1274],[14.5085,50.1279],[14.5078,50.1274],[14.5095,50.1266],[14.5195,50.1236],[14.5214,50.1255],[14.522,50.1254],[14.5229,50.127],[14.5257,50.1268],[14.5255,50.1256],[14.5248,50.1252],[14.5249,50.1238],[14.5266,50.1238],[14.5263,50.1224],[14.5287,50.1221],[14.5276,50.1187],[14.5322,50.1182],[14.5318,50.1167],[14.5307,50.1167],[14.5293,50.1143],[14.5325,50.1125],[14.5326,50.1071],[14.5301,50.1071],[14.5305,50.1053],[14.5323,50.1057],[14.5342,50.1031],[14.534,50.102],[14.532,50.0999],[14.5313,50.0976],[14.532,50.0951],[14.5344,50.0924],[14.5338,50.0923],[14.5341,50.0913],[14.5195,50.0873],[14.5194,50.0878],[14.5144,50.0895],[14.5027,50.0908],[14.5034,50.0914],[14.4994,50.0926],[14.4974,50.0952],[14.4968,50.0977],[14.495,50.0997],[14.4941,50.099],[14.4926,50.0995],[14.4803,50.0974],[14.4796,50.0985],[14.4818,50.1],[14.4831,50.102],[14.4848,50.1029],[14.4819,50.102],[14.4816,50.1082],[14.4823,50.1095],[14.4866,50.1117],[14.4933,50.1131],[14.4896,50.1148],[14.4899,50.1158],[14.4908,50.1161],[14.4898,50.1171],[14.4838,50.1187],[14.4769,50.1181],[14.4769,50.1187],[14.4777,50.1187],[14.4773,50.12],[14.4846,50.1235],[14.4862,50.1254],[14.4837,50.126],[14.4835,50.1269],[14.4897,50.1315],[14.4929,50.1319]]]]}},{"type":"Feature","id":"mc-praha-11","properties":{"name":"Praha 13","province":"Praha","department":"Hlavní město Praha","type":"Městská část","country":"República Checa","iso":"CZ"},"geometry":{"type":"MultiPolygon","coordinates":[[[[14.3233,50.0659],[14.3261,50.0635],[14.3284,50.0639],[14.3367,50.0609],[14.3394,50.0608],[14.3408,50.0589],[14.3404,50.0569],[14.3472,50.0566],[14.3562,50.0523],[14.3534,50.0493],[14.3536,50.0467],[14.3549,50.0453],[14.3543,50.0437],[14.3565,50.0432],[14.3528,50.0401],[14.3539,50.0394],[14.3533,50.0387],[14.3545,50.0381],[14.3535,50.0376],[14.354,50.0363],[14.3438,50.0326],[14.3434,50.0333],[14.3416,50.0329],[14.3395,50.0335],[14.339,50.0334],[14.3395,50.0326],[14.3367,50.0324],[14.3362,50.0328],[14.337,50.0332],[14.3359,50.0351],[14.332,50.0335],[14.3317,50.0343],[14.3287,50.0357],[14.3268,50.0391],[14.3248,50.0406],[14.3205,50.0412],[14.3165,50.0443],[14.3112,50.045],[14.309,50.0461],[14.3074,50.044],[14.3017,50.0397],[14.2899,50.037],[14.2831,50.0327],[14.2739,50.0375],[14.2721,50.0394],[14.2697,50.0438],[14.2709,50.0441],[14.2721,50.0471],[14.2715,50.0473],[14.2721,50.0475],[14.2714,50.049],[14.2692,50.0495],[14.2693,50.0499],[14.2719,50.0501],[14.2746,50.0517],[14.276,50.0513],[14.2757,50.0501],[14.277,50.0501],[14.2993,50.0531],[14.2991,50.0549],[14.2982,50.0558],[14.3058,50.0581],[14.3055,50.0616],[14.3233,50.0659]]]]}},{"type":"Feature","id":"mc-praha-12","properties":{"name":"Praha 15","province":"Praha","department":"Hlavní město Praha","type":"Městská část","country":"República Checa","iso":"CZ"},"geometry":{"type":"MultiPolygon","coordinates":[[[[14.5293,50.0757],[14.5392,50.0677],[14.5378,50.0671],[14.5382,50.0654],[14.541,50.0659],[14.5412,50.0644],[14.5426,50.0633],[14.542,50.0633],[14.5421,50.0627],[14.5436,50.0598],[14.5464,50.06],[14.5472,50.0586],[14.5485,50.0588],[14.5493,50.0576],[14.5516,50.058],[14.5518,50.0576],[14.5505,50.0574],[14.5509,50.0567],[14.5503,50.0565],[14.5498,50.0572],[14.548,50.0573],[14.5486,50.0562],[14.546,50.0549],[14.5463,50.0543],[14.5495,50.0553],[14.552,50.0552],[14.5539,50.0526],[14.5574,50.0529],[14.5582,50.0506],[14.5619,50.0512],[14.5618,50.0521],[14.564,50.0527],[14.5647,50.0516],[14.5678,50.0523],[14.5721,50.0482],[14.5696,50.0471],[14.5699,50.0466],[14.5767,50.0427],[14.571,50.041],[14.5701,50.0402],[14.5703,50.0388],[14.5681,50.0393],[14.568,50.0378],[14.565,50.0385],[14.5622,50.0407],[14.5561,50.0409],[14.556,50.04],[14.5536,50.0398],[14.5483,50.0366],[14.5457,50.0373],[14.5447,50.037],[14.5447,50.0388],[14.5407,50.039],[14.5399,50.0408],[14.5389,50.0409],[14.5346,50.0404],[14.5329,50.0392],[14.5247,50.0381],[14.5197,50.0398],[14.5123,50.0414],[14.5146,50.0432],[14.5135,50.0449],[14.5135,50.0463],[14.5037,50.0452],[14.5034,50.0459],[14.5073,50.0469],[14.5067,50.0489],[14.5086,50.0493],[14.5084,50.0513],[14.5105,50.0513],[14.5108,50.0518],[14.5142,50.0506],[14.5166,50.0518],[14.5164,50.0569],[14.5157,50.0576],[14.5159,50.0617],[14.5186,50.0619],[14.5198,50.0646],[14.5194,50.0653],[14.5202,50.0654],[14.5198,50.0669],[14.5207,50.067],[14.5207,50.0677],[14.522,50.0677],[14.5221,50.0682],[14.5244,50.0678],[14.5246,50.0709],[14.524,50.0745],[14.5293,50.0757]]]]}},{"type":"Feature","id":"mc-praha-13","properties":{"name":"Řeporyje","province":"Praha","department":"Hlavní město Praha","type":"Městská část","country":"República Checa","iso":"CZ"},"geometry":{"type":"MultiPolygon","coordinates":[[[[14.309,50.046],[14.3112,50.045],[14.3165,50.0443],[14.3205,50.0412],[14.3248,50.0406],[14.3268,50.0391],[14.3287,50.0357],[14.3317,50.0343],[14.332,50.0335],[14.3359,50.0351],[14.337,50.0332],[14.3362,50.0328],[14.3367,50.0323],[14.3348,50.0316],[14.3351,50.0301],[14.336,50.0298],[14.3353,50.0287],[14.3334,50.0276],[14.3338,50.0267],[14.3327,50.0242],[14.332,50.0242],[14.3312,50.0229],[14.3299,50.0229],[14.3295,50.0221],[14.325,50.0223],[14.3291,50.0182],[14.3282,50.0182],[14.3282,50.0171],[14.3292,50.0171],[14.3292,50.0147],[14.3307,50.0147],[14.3263,50.0099],[14.3241,50.0097],[14.3242,50.0074],[14.3234,50.0064],[14.3201,50.0055],[14.3204,50.0018],[14.3189,49.9962],[14.324,49.9967],[14.3268,49.9955],[14.3277,49.9943],[14.3323,49.9957],[14.3327,49.995],[14.3339,49.9952],[14.3342,49.9941],[14.3278,49.9918],[14.3275,49.9924],[14.3192,49.9897],[14.3183,49.9913],[14.3162,49.993],[14.315,49.9956],[14.3112,49.9946],[14.3083,49.9962],[14.3088,49.997],[14.3073,49.9983],[14.3021,49.9986],[14.3016,49.9994],[14.3029,50.0007],[14.2985,50.0014],[14.2959,50.003],[14.2991,50.0038],[14.3002,50.0048],[14.3016,50.0052],[14.3012,50.0089],[14.3019,50.0126],[14.304,50.012],[14.3075,50.0087],[14.3125,50.0078],[14.3128,50.01],[14.3142,50.0128],[14.3137,50.0137],[14.316,50.0151],[14.3176,50.0207],[14.3169,50.0244],[14.3014,50.0254],[14.2986,50.0243],[14.2987,50.0254],[14.2883,50.0287],[14.2831,50.0327],[14.2899,50.037],[14.3017,50.0397],[14.3074,50.044],[14.309,50.046]]]]}},{"type":"Feature","id":"mc-praha-14","properties":{"name":"Zbraslav","province":"Praha","department":"Hlavní město Praha","type":"Městská část","country":"República Checa","iso":"CZ"},"geometry":{"type":"MultiPolygon","coordinates":[[[[14.399,50.0096],[14.3994,50.0097],[14.4029,50.0041],[14.4039,49.9993],[14.4017,49.9935],[14.4015,49.991],[14.401,49.9908],[14.4007,49.9872],[14.3987,49.9829],[14.3983,49.9757],[14.4006,49.9761],[14.4006,49.977],[14.4027,49.9769],[14.4069,49.9783],[14.4077,49.978],[14.4078,49.9766],[14.4084,49.9763],[14.4065,49.9759],[14.407,49.9754],[14.4068,49.9729],[14.4042,49.9734],[14.4032,49.9716],[14.4036,49.9713],[14.4027,49.9711],[14.4024,49.9717],[14.4014,49.9711],[14.401,49.9686],[14.4002,49.9686],[14.3988,49.9627],[14.3962,49.9581],[14.3953,49.9547],[14.3957,49.9513],[14.3979,49.9452],[14.3977,49.9437],[14.3966,49.9427],[14.3901,49.9459],[14.3901,49.9488],[14.389,49.9506],[14.3808,49.95],[14.3779,49.9474],[14.3762,49.9483],[14.3752,49.9475],[14.3743,49.9479],[14.3753,49.9506],[14.3747,49.9521],[14.3761,49.9531],[14.3756,49.9549],[14.3801,49.9574],[14.3804,49.9599],[14.3782,49.9641],[14.3766,49.9639],[14.3711,49.9654],[14.3707,49.9666],[14.3724,49.9678],[14.3719,49.9703],[14.3734,49.9729],[14.3724,49.9752],[14.3634,49.9817],[14.3682,49.9832],[14.3714,49.9857],[14.3763,49.9859],[14.3811,49.9852],[14.3829,49.9856],[14.3847,49.9869],[14.3834,49.9872],[14.3894,49.9926],[14.3937,49.9938],[14.3936,49.9949],[14.3956,49.9956],[14.3951,49.9964],[14.3933,49.9962],[14.3874,49.9996],[14.3907,50.003],[14.3975,50.003],[14.3972,50.0035],[14.3989,50.0042],[14.3967,50.0051],[14.3972,50.0055],[14.3971,50.0068],[14.3997,50.0069],[14.398,50.0088],[14.3979,50.0093],[14.399,50.0096]]]]}},{"type":"Feature","id":"mc-praha-15","properties":{"name":"Praha 11","province":"Praha","department":"Hlavní město Praha","type":"Městská část","country":"República Checa","iso":"CZ"},"geometry":{"type":"MultiPolygon","coordinates":[[[[14.4875,50.0453],[14.4899,50.0455],[14.4897,50.0437],[14.4911,50.0428],[14.4915,50.0435],[14.4943,50.0446],[14.4954,50.0445],[14.4962,50.0453],[14.4966,50.0449],[14.4988,50.0454],[14.499,50.0447],[14.5135,50.0463],[14.5135,50.0449],[14.5146,50.0432],[14.5123,50.0414],[14.5197,50.0398],[14.5247,50.0381],[14.5329,50.0392],[14.5352,50.0405],[14.5399,50.0408],[14.5407,50.039],[14.5447,50.0388],[14.5443,50.0367],[14.5452,50.0361],[14.5448,50.0358],[14.5452,50.0353],[14.5434,50.0341],[14.5443,50.0341],[14.5448,50.0327],[14.5458,50.0328],[14.5462,50.0313],[14.5471,50.0317],[14.5507,50.0302],[14.5499,50.0292],[14.5485,50.0301],[14.5476,50.0292],[14.5468,50.0295],[14.5459,50.0282],[14.5444,50.0275],[14.5423,50.0274],[14.5416,50.0284],[14.5334,50.0266],[14.515,50.021],[14.5122,50.0219],[14.504,50.0205],[14.4918,50.0226],[14.4893,50.0243],[14.4888,50.0297],[14.4842,50.0294],[14.4789,50.0304],[14.474,50.032],[14.4708,50.0348],[14.4702,50.0375],[14.4706,50.0397],[14.4738,50.0408],[14.4879,50.042],[14.4892,50.0435],[14.4875,50.0453]]]]}},{"type":"Feature","id":"mc-praha-16","properties":{"name":"Praha 16","province":"Praha","department":"Hlavní město Praha","type":"Městská část","country":"República Checa","iso":"CZ"},"geometry":{"type":"MultiPolygon","coordinates":[[[[14.3244,50.0097],[14.3268,50.0099],[14.3259,50.0088],[14.3308,50.0053],[14.3363,50.0072],[14.3401,50.0062],[14.3394,50.0054],[14.3391,50.003],[14.3426,50.0011],[14.3417,49.9997],[14.3423,49.9989],[14.3476,49.9993],[14.3488,49.9984],[14.351,49.999],[14.35,49.9964],[14.3484,49.9952],[14.3506,49.9935],[14.3543,49.9933],[14.3548,49.994],[14.3581,49.9951],[14.3615,49.9956],[14.3645,49.9973],[14.367,49.9978],[14.3701,50.0009],[14.3773,49.9957],[14.3822,50.0013],[14.3875,49.9996],[14.3933,49.9962],[14.3951,49.9964],[14.3956,49.9956],[14.3936,49.9949],[14.3936,49.9937],[14.3891,49.9924],[14.3834,49.9872],[14.3847,49.9869],[14.3829,49.9856],[14.3811,49.9852],[14.3763,49.9859],[14.3714,49.9857],[14.3682,49.9832],[14.3638,49.9819],[14.3626,49.9808],[14.3617,49.9773],[14.36,49.975],[14.3561,49.9726],[14.3503,49.9736],[14.3482,49.9733],[14.3473,49.9745],[14.3461,49.9744],[14.3473,49.9755],[14.3434,49.9756],[14.3362,49.9737],[14.3334,49.9718],[14.3285,49.9715],[14.3279,49.9726],[14.3289,49.974],[14.3313,49.9749],[14.3304,49.9753],[14.331,49.9762],[14.3337,49.9767],[14.3334,49.9781],[14.3357,49.9783],[14.3366,49.9789],[14.3363,49.9793],[14.3407,49.9815],[14.3387,49.9832],[14.3402,49.9844],[14.34,49.9863],[14.3362,49.9872],[14.3359,49.9888],[14.3366,49.9896],[14.3438,49.9914],[14.3397,49.9923],[14.3388,49.9939],[14.3374,49.9946],[14.3342,49.9941],[14.3339,49.9952],[14.3327,49.995],[14.3323,49.9957],[14.3277,49.9943],[14.3268,49.9955],[14.324,49.9967],[14.3189,49.9962],[14.3204,50.0018],[14.3201,50.0055],[14.3234,50.0064],[14.3242,50.0074],[14.3244,50.0097]]]]}},{"type":"Feature","id":"mc-praha-17","properties":{"name":"Zličín","province":"Praha","department":"Hlavní město Praha","type":"Městská část","country":"República Checa","iso":"CZ"},"geometry":{"type":"MultiPolygon","coordinates":[[[[14.2942,50.0783],[14.2946,50.0779],[14.2924,50.0753],[14.2928,50.071],[14.2941,50.0674],[14.2982,50.0661],[14.3055,50.0616],[14.3058,50.0581],[14.2982,50.0558],[14.2991,50.0549],[14.2993,50.0531],[14.2757,50.0501],[14.2758,50.0515],[14.2737,50.0514],[14.2726,50.0539],[14.2727,50.0551],[14.2654,50.0531],[14.2634,50.0563],[14.2583,50.0552],[14.2567,50.0579],[14.2519,50.0576],[14.2492,50.0591],[14.2486,50.063],[14.2544,50.0634],[14.2598,50.0652],[14.2602,50.0683],[14.2593,50.0686],[14.2591,50.0723],[14.2764,50.0739],[14.2796,50.0717],[14.2783,50.0738],[14.2822,50.0741],[14.2835,50.0751],[14.2856,50.0744],[14.2913,50.074],[14.2914,50.0757],[14.2903,50.0776],[14.2942,50.0783]]]]}},{"type":"Feature","id":"mc-praha-18","properties":{"name":"Kolovraty","province":"Praha","department":"Hlavní město Praha","type":"Městská část","country":"República Checa","iso":"CZ"},"geometry":{"type":"MultiPolygon","coordinates":[[[[14.6322,50.0275],[14.637,50.0278],[14.6371,50.0268],[14.6377,50.0268],[14.6392,50.0243],[14.642,50.0245],[14.6424,50.0237],[14.6392,50.0232],[14.639,50.0224],[14.6391,50.0215],[14.64,50.0216],[14.6406,50.0207],[14.6406,50.0191],[14.6394,50.019],[14.6402,50.0151],[14.6442,50.015],[14.6442,50.0137],[14.6453,50.0135],[14.6442,50.0115],[14.6499,50.0086],[14.6466,50.0055],[14.6449,50.0073],[14.6394,50.0065],[14.648,49.9995],[14.6413,49.9952],[14.6351,49.9969],[14.6303,49.9963],[14.6235,49.9994],[14.6206,49.9994],[14.6203,49.9983],[14.6166,49.9994],[14.6146,50.0008],[14.6125,50.0005],[14.6134,49.9997],[14.6128,49.9994],[14.6112,49.9995],[14.6094,50.0015],[14.611,50.0029],[14.6101,50.0037],[14.615,50.0047],[14.6144,50.0084],[14.6152,50.0084],[14.6153,50.0104],[14.6174,50.0114],[14.6162,50.0121],[14.6174,50.013],[14.6167,50.0135],[14.6171,50.0139],[14.6146,50.015],[14.6155,50.0162],[14.6127,50.0169],[14.6133,50.0175],[14.6122,50.0194],[14.6128,50.0197],[14.6101,50.0203],[14.6098,50.0211],[14.611,50.0221],[14.6226,50.0227],[14.6197,50.0257],[14.6306,50.0255],[14.6311,50.0273],[14.6322,50.0275]]]]}},{"type":"Feature","id":"mc-praha-19","properties":{"name":"Libuš","province":"Praha","department":"Hlavní město Praha","type":"Městská část","country":"República Checa","iso":"CZ"},"geometry":{"type":"MultiPolygon","coordinates":[[[[14.4498,50.0156],[14.4525,50.0155],[14.4538,50.0139],[14.4655,50.0168],[14.4661,50.0151],[14.4654,50.015],[14.4675,50.0144],[14.4719,50.0051],[14.4729,50.0044],[14.4769,50.0051],[14.4774,50.0026],[14.4746,50.0024],[14.4779,49.9974],[14.4793,49.9961],[14.4842,49.9956],[14.486,49.9915],[14.4853,49.9902],[14.4857,49.9882],[14.4881,49.9884],[14.4881,49.9865],[14.4811,49.9858],[14.477,49.9849],[14.4756,49.984],[14.4748,49.9845],[14.4751,49.9812],[14.4705,49.9806],[14.4674,49.9818],[14.4671,49.983],[14.4682,49.9857],[14.4627,49.986],[14.465,49.9864],[14.4648,49.9876],[14.4675,49.9876],[14.467,49.9887],[14.464,49.9891],[14.4645,49.9896],[14.4636,49.9909],[14.465,49.991],[14.4647,49.9915],[14.4623,49.9908],[14.4613,49.9927],[14.4582,49.992],[14.4553,49.9943],[14.4581,49.9959],[14.4579,49.997],[14.4593,49.9982],[14.4563,49.9994],[14.457,50.0001],[14.4525,50.0011],[14.4523,50.0021],[14.4542,50.0032],[14.4501,50.0033],[14.4501,50.0043],[14.4511,50.0048],[14.4506,50.0052],[14.4508,50.0069],[14.4479,50.0074],[14.4577,50.0068],[14.4571,50.007],[14.4574,50.0089],[14.456,50.0119],[14.4551,50.013],[14.4493,50.0119],[14.4461,50.012],[14.4439,50.0127],[14.449,50.0143],[14.4498,50.0156]]]]}},{"type":"Feature","id":"mc-praha-21","properties":{"name":"Čakovice","province":"Praha","department":"Hlavní město Praha","type":"Městská část","country":"República Checa","iso":"CZ"},"geometry":{"type":"MultiPolygon","coordinates":[[[[14.528,50.1782],[14.5336,50.178],[14.5324,50.1733],[14.5337,50.1683],[14.5316,50.167],[14.5328,50.1662],[14.5354,50.1624],[14.54,50.1641],[14.5415,50.1659],[14.5435,50.1634],[14.545,50.1648],[14.5517,50.1669],[14.5516,50.1656],[14.5547,50.165],[14.5542,50.1645],[14.5617,50.1628],[14.5639,50.1568],[14.5454,50.1498],[14.547,50.148],[14.5448,50.1478],[14.5451,50.1431],[14.5416,50.1437],[14.5416,50.1411],[14.5315,50.1404],[14.5286,50.1447],[14.5184,50.1503],[14.5148,50.1492],[14.5145,50.1499],[14.5107,50.1504],[14.5099,50.1483],[14.5076,50.1479],[14.5071,50.1452],[14.5054,50.1452],[14.5035,50.1471],[14.4984,50.1487],[14.4988,50.1509],[14.5045,50.1526],[14.5045,50.1538],[14.5057,50.154],[14.5046,50.1562],[14.5075,50.1565],[14.5067,50.1595],[14.5038,50.16],[14.5035,50.1648],[14.5064,50.1646],[14.508,50.1722],[14.5102,50.175],[14.5175,50.1759],[14.5177,50.1754],[14.5207,50.1757],[14.5277,50.1773],[14.528,50.1782]]]]}},{"type":"Feature","id":"mc-praha-20","properties":{"name":"Nedvězí","province":"Praha","department":"Hlavní město Praha","type":"Městská část","country":"República Checa","iso":"CZ"},"geometry":{"type":"MultiPolygon","coordinates":[[[[14.6466,50.0293],[14.6478,50.028],[14.6494,50.0284],[14.6523,50.027],[14.659,50.0267],[14.6592,50.0262],[14.6625,50.0265],[14.6692,50.0197],[14.6707,50.0196],[14.6697,50.0142],[14.6684,50.0143],[14.6671,50.0136],[14.6643,50.0144],[14.6627,50.0135],[14.6624,50.0132],[14.6639,50.0124],[14.664,50.0113],[14.6627,50.0101],[14.6637,50.0092],[14.6589,50.0051],[14.6509,50.0096],[14.6499,50.0086],[14.6442,50.0115],[14.6453,50.0135],[14.6442,50.0137],[14.6442,50.015],[14.6402,50.0151],[14.6395,50.0165],[14.64,50.0165],[14.6394,50.019],[14.6406,50.0191],[14.6407,50.0199],[14.64,50.0216],[14.6391,50.0215],[14.6392,50.0232],[14.6424,50.0237],[14.642,50.0245],[14.6393,50.0242],[14.6377,50.0268],[14.6418,50.0277],[14.642,50.0272],[14.6444,50.0275],[14.644,50.0284],[14.6466,50.0293]]]]}},{"type":"Feature","id":"mc-praha-22","properties":{"name":"Vinoř","province":"Praha","department":"Hlavní město Praha","type":"Městská část","country":"República Checa","iso":"CZ"},"geometry":{"type":"MultiPolygon","coordinates":[[[[14.5616,50.1561],[14.5643,50.151],[14.5663,50.1515],[14.5673,50.1524],[14.5697,50.1516],[14.5699,50.1508],[14.5747,50.1507],[14.5794,50.1516],[14.5797,50.151],[14.583,50.1522],[14.5855,50.1544],[14.5904,50.1551],[14.5947,50.1546],[14.6001,50.1549],[14.5982,50.1542],[14.5946,50.1509],[14.5937,50.1492],[14.5943,50.1484],[14.5896,50.1479],[14.5889,50.146],[14.5897,50.1447],[14.5925,50.1435],[14.5909,50.1405],[14.5935,50.1395],[14.5963,50.1347],[14.602,50.1301],[14.5993,50.1301],[14.599,50.1286],[14.5963,50.1288],[14.5964,50.1296],[14.5911,50.1293],[14.5885,50.1316],[14.5852,50.1308],[14.5847,50.134],[14.5816,50.1341],[14.5771,50.1353],[14.576,50.1369],[14.5752,50.1359],[14.5687,50.1348],[14.5683,50.1366],[14.5628,50.1339],[14.561,50.138],[14.5598,50.1446],[14.5478,50.1457],[14.5466,50.1489],[14.5454,50.1498],[14.5616,50.1561]]]]}},{"type":"Feature","id":"mc-praha-23","properties":{"name":"Velká Chuchle","province":"Praha","department":"Hlavní město Praha","type":"Městská část","country":"República Checa","iso":"CZ"},"geometry":{"type":"MultiPolygon","coordinates":[[[[14.4,50.0322],[14.4011,50.0317],[14.399,50.0292],[14.397,50.021],[14.3975,50.0158],[14.3994,50.0097],[14.3979,50.0093],[14.3997,50.0069],[14.3971,50.0068],[14.3972,50.0055],[14.3967,50.0051],[14.3989,50.0042],[14.3972,50.0035],[14.3975,50.003],[14.3907,50.003],[14.3874,49.9996],[14.3822,50.0013],[14.3773,49.9957],[14.3701,50.0009],[14.3728,50.0036],[14.3709,50.0054],[14.3696,50.0053],[14.3692,50.0063],[14.3702,50.0067],[14.3701,50.0083],[14.368,50.008],[14.3679,50.0113],[14.3692,50.0126],[14.3695,50.0143],[14.3689,50.0158],[14.3698,50.0184],[14.3745,50.0208],[14.3726,50.0221],[14.3756,50.0229],[14.3774,50.0245],[14.3755,50.0278],[14.3809,50.0299],[14.3836,50.0274],[14.3898,50.0282],[14.4,50.0322]]]]}},{"type":"Feature","id":"mc-praha-25","properties":{"name":"Klánovice","province":"Praha","department":"Hlavní město Praha","type":"Městská část","country":"República Checa","iso":"CZ"},"geometry":{"type":"MultiPolygon","coordinates":[[[[14.6586,50.1073],[14.6617,50.1073],[14.6627,50.1059],[14.667,50.1034],[14.6697,50.1047],[14.6701,50.104],[14.673,50.1039],[14.6779,50.1024],[14.6915,50.1014],[14.6923,50.1007],[14.6898,50.0996],[14.6898,50.0972],[14.6909,50.0968],[14.6869,50.0861],[14.6707,50.0882],[14.6379,50.0857],[14.6366,50.0875],[14.6358,50.0919],[14.6345,50.0917],[14.6343,50.0924],[14.639,50.0932],[14.6388,50.0909],[14.6436,50.0928],[14.6446,50.0985],[14.6498,50.0977],[14.6509,50.0993],[14.651,50.1011],[14.6557,50.1019],[14.6594,50.1042],[14.657,50.1051],[14.6586,50.1073]]]]}},{"type":"Feature","id":"mc-praha-27","properties":{"name":"Březiněves","province":"Praha","department":"Hlavní město Praha","type":"Městská část","country":"República Checa","iso":"CZ"},"geometry":{"type":"MultiPolygon","coordinates":[[[[14.4806,50.1731],[14.4933,50.1731],[14.5082,50.1722],[14.5064,50.1646],[14.5006,50.1652],[14.4969,50.1628],[14.4902,50.1647],[14.4899,50.1623],[14.4707,50.1614],[14.4711,50.1589],[14.47,50.1543],[14.4681,50.1543],[14.4681,50.1554],[14.4621,50.1554],[14.4615,50.1598],[14.4652,50.1607],[14.4649,50.1657],[14.4679,50.1662],[14.468,50.1703],[14.4813,50.1707],[14.4806,50.1731]]]]}},{"type":"Feature","id":"mc-praha-29","properties":{"name":"Praha 7","province":"Praha","department":"Hlavní město Praha","type":"Městská část","country":"República Checa","iso":"CZ"},"geometry":{"type":"MultiPolygon","coordinates":[[[[14.4066,50.1139],[14.4064,50.1147],[14.4086,50.1142],[14.4177,50.1153],[14.4273,50.1129],[14.4341,50.1126],[14.4392,50.1134],[14.4385,50.1149],[14.4387,50.1166],[14.4429,50.1166],[14.4465,50.1156],[14.4464,50.1142],[14.4542,50.1137],[14.4574,50.1124],[14.4612,50.1084],[14.4616,50.1055],[14.46,50.1025],[14.4586,50.1015],[14.4456,50.0961],[14.4367,50.095],[14.4235,50.0948],[14.4181,50.0938],[14.4176,50.0947],[14.4125,50.093],[14.4132,50.094],[14.4116,50.0952],[14.4122,50.0962],[14.4102,50.0959],[14.4087,50.0984],[14.4126,50.099],[14.4124,50.0995],[14.4193,50.1039],[14.4166,50.105],[14.4126,50.1047],[14.4122,50.1052],[14.4086,50.1054],[14.4067,50.1075],[14.4078,50.1076],[14.4069,50.1092],[14.4078,50.1094],[14.4095,50.1116],[14.4066,50.1122],[14.4066,50.1139]]]]}},{"type":"Feature","id":"mc-praha-33","properties":{"name":"Praha 2","province":"Praha","department":"Hlavní město Praha","type":"Městská část","country":"República Checa","iso":"CZ"},"geometry":{"type":"MultiPolygon","coordinates":[[[[14.4383,50.0874],[14.4419,50.0859],[14.4406,50.0828],[14.4467,50.082],[14.4493,50.0798],[14.4501,50.0779],[14.4497,50.0749],[14.4504,50.0749],[14.4503,50.0735],[14.4436,50.0731],[14.449,50.0705],[14.4497,50.0688],[14.4465,50.0687],[14.442,50.0672],[14.4399,50.0674],[14.4379,50.0688],[14.4374,50.0676],[14.4355,50.0662],[14.4278,50.0647],[14.4272,50.0643],[14.4279,50.0637],[14.4259,50.0633],[14.4264,50.0628],[14.4254,50.0625],[14.4253,50.0618],[14.4229,50.0633],[14.4224,50.0629],[14.4196,50.064],[14.4169,50.0626],[14.4149,50.0666],[14.4126,50.0764],[14.415,50.0766],[14.4155,50.0782],[14.4206,50.0792],[14.4207,50.0799],[14.4231,50.0799],[14.4224,50.0783],[14.4315,50.0779],[14.4339,50.0799],[14.4347,50.0814],[14.4339,50.0818],[14.4383,50.0874]]]]}},{"type":"Feature","id":"mc-praha-34","properties":{"name":"Satalice","province":"Praha","department":"Hlavní město Praha","type":"Městská část","country":"República Checa","iso":"CZ"},"geometry":{"type":"MultiPolygon","coordinates":[[[[14.5759,50.1367],[14.5771,50.1353],[14.5816,50.1341],[14.5847,50.134],[14.5852,50.1308],[14.5885,50.1316],[14.5911,50.1293],[14.5964,50.1296],[14.5963,50.1288],[14.599,50.1286],[14.5993,50.1301],[14.6002,50.1301],[14.6057,50.1292],[14.6039,50.1222],[14.598,50.1234],[14.5929,50.1236],[14.594,50.1215],[14.5882,50.1215],[14.5882,50.118],[14.581,50.118],[14.5808,50.1195],[14.5777,50.119],[14.5769,50.1182],[14.5637,50.1214],[14.5652,50.1255],[14.5634,50.126],[14.5637,50.1269],[14.563,50.1269],[14.5641,50.1272],[14.5649,50.1298],[14.5647,50.1337],[14.5687,50.134],[14.5695,50.1352],[14.5751,50.1359],[14.5759,50.1367]]]]}},{"type":"Feature","id":"mc-praha-35","properties":{"name":"Koloděje","province":"Praha","department":"Hlavní město Praha","type":"Městská část","country":"República Checa","iso":"CZ"},"geometry":{"type":"MultiPolygon","coordinates":[[[[14.6231,50.0752],[14.6238,50.0756],[14.6254,50.0749],[14.6264,50.0754],[14.6275,50.0735],[14.6267,50.0732],[14.6275,50.0725],[14.6302,50.0734],[14.6326,50.0712],[14.6376,50.073],[14.6377,50.0734],[14.6405,50.0733],[14.6469,50.071],[14.6513,50.0709],[14.6557,50.0683],[14.6617,50.0635],[14.6589,50.0629],[14.6601,50.0625],[14.6592,50.0618],[14.6526,50.0627],[14.6533,50.0603],[14.646,50.0608],[14.647,50.0595],[14.6413,50.0577],[14.6407,50.0582],[14.6389,50.0579],[14.6387,50.0569],[14.634,50.0557],[14.6324,50.0543],[14.6265,50.0563],[14.6265,50.0585],[14.6256,50.0599],[14.6275,50.0601],[14.6284,50.0613],[14.6245,50.0617],[14.6255,50.0635],[14.6232,50.0636],[14.6233,50.0654],[14.6202,50.0655],[14.6191,50.0668],[14.6185,50.0691],[14.6255,50.0712],[14.6241,50.073],[14.625,50.0734],[14.6231,50.0752]]]]}},{"type":"Feature","id":"mc-praha-37","properties":{"name":"Praha 21","province":"Praha","department":"Hlavní město Praha","type":"Městská část","country":"República Checa","iso":"CZ"},"geometry":{"type":"MultiPolygon","coordinates":[[[[14.6909,50.0968],[14.7051,50.0925],[14.7065,50.0909],[14.7065,50.0891],[14.7079,50.0878],[14.7037,50.0773],[14.7029,50.0773],[14.7011,50.0729],[14.692,50.0728],[14.6839,50.0701],[14.6759,50.0683],[14.6683,50.0646],[14.6617,50.0635],[14.6557,50.0683],[14.6514,50.0708],[14.6469,50.071],[14.6405,50.0733],[14.6409,50.0739],[14.6422,50.0734],[14.643,50.0748],[14.6424,50.076],[14.6423,50.0799],[14.6361,50.0808],[14.6356,50.0833],[14.6386,50.085],[14.6379,50.0857],[14.6707,50.0882],[14.6869,50.0861],[14.6909,50.0968]]]]}},{"type":"Feature","id":"mc-praha-39","properties":{"name":"Praha 3","province":"Praha","department":"Hlavní město Praha","type":"Městská část","country":"República Checa","iso":"CZ"},"geometry":{"type":"MultiPolygon","coordinates":[[[[14.4796,50.0985],[14.4803,50.0974],[14.4926,50.0995],[14.4941,50.099],[14.495,50.0997],[14.4968,50.0977],[14.4974,50.0952],[14.4994,50.0926],[14.5034,50.0914],[14.5027,50.0908],[14.5044,50.0905],[14.4928,50.0881],[14.4929,50.0876],[14.4891,50.0866],[14.4878,50.0854],[14.4832,50.0842],[14.4837,50.083],[14.4816,50.0826],[14.4837,50.0812],[14.4774,50.0802],[14.4775,50.0788],[14.4798,50.0786],[14.4794,50.0771],[14.4502,50.0761],[14.4501,50.0779],[14.4485,50.0808],[14.4467,50.082],[14.4406,50.0828],[14.4419,50.0859],[14.4392,50.0871],[14.4408,50.0879],[14.4443,50.0882],[14.4443,50.0896],[14.4688,50.0941],[14.4708,50.0939],[14.4796,50.0985]]]]}},{"type":"Feature","id":"mc-praha-40","properties":{"name":"Praha 19","province":"Praha","department":"Hlavní město Praha","type":"Městská část","country":"República Checa","iso":"CZ"},"geometry":{"type":"MultiPolygon","coordinates":[[[[14.545,50.1478],[14.547,50.148],[14.5478,50.1457],[14.5598,50.1446],[14.561,50.138],[14.5628,50.1339],[14.5683,50.1366],[14.5691,50.1346],[14.5687,50.134],[14.5647,50.1337],[14.5649,50.1298],[14.5641,50.1272],[14.563,50.1269],[14.5637,50.1269],[14.5634,50.126],[14.5652,50.1255],[14.5637,50.1214],[14.5603,50.121],[14.5606,50.1232],[14.5556,50.1237],[14.5552,50.122],[14.5519,50.1227],[14.5462,50.1204],[14.5466,50.1184],[14.5344,50.1172],[14.5345,50.1182],[14.5276,50.1187],[14.5287,50.1221],[14.5263,50.1224],[14.5266,50.1238],[14.5249,50.1238],[14.5248,50.1252],[14.5255,50.1256],[14.5257,50.1268],[14.5229,50.127],[14.5256,50.1271],[14.526,50.1283],[14.5269,50.1282],[14.527,50.1298],[14.5364,50.1318],[14.5368,50.1383],[14.5362,50.1409],[14.5416,50.1411],[14.5416,50.1437],[14.5451,50.1431],[14.545,50.1478]]]]}},{"type":"Feature","id":"mc-praha-42","properties":{"name":"Praha 18","province":"Praha","department":"Hlavní město Praha","type":"Městská část","country":"República Checa","iso":"CZ"},"geometry":{"type":"MultiPolygon","coordinates":[[[[14.5103,50.1491],[14.5107,50.1504],[14.5145,50.1499],[14.5148,50.1492],[14.5184,50.1503],[14.5286,50.1447],[14.5315,50.1404],[14.5362,50.1409],[14.5368,50.1383],[14.5364,50.1318],[14.527,50.1298],[14.5269,50.1282],[14.526,50.1283],[14.5256,50.1271],[14.5232,50.1274],[14.522,50.1254],[14.5214,50.1255],[14.5195,50.1236],[14.5095,50.1266],[14.5078,50.1274],[14.5085,50.1279],[14.5017,50.1274],[14.5022,50.1277],[14.5004,50.1288],[14.4995,50.1283],[14.499,50.1321],[14.4967,50.1322],[14.4957,50.1369],[14.4988,50.1372],[14.4976,50.1431],[14.5054,50.1432],[14.5054,50.1452],[14.5071,50.1452],[14.5076,50.1479],[14.5099,50.1483],[14.5103,50.1491]]]]}},{"type":"Feature","id":"mc-praha-43","properties":{"name":"Praha 1","province":"Praha","department":"Hlavní město Praha","type":"Městská část","country":"República Checa","iso":"CZ"},"geometry":{"type":"MultiPolygon","coordinates":[[[[14.4105,50.0959],[14.4122,50.0962],[14.4116,50.0952],[14.4132,50.094],[14.4125,50.093],[14.4176,50.0947],[14.4181,50.0938],[14.4304,50.0953],[14.433,50.0948],[14.4377,50.0951],[14.4375,50.0921],[14.4384,50.0902],[14.439,50.0903],[14.4391,50.0889],[14.4386,50.0873],[14.4339,50.0818],[14.4347,50.0814],[14.4339,50.0799],[14.4315,50.0779],[14.4224,50.0783],[14.4231,50.0799],[14.4207,50.0799],[14.4206,50.0792],[14.4155,50.0782],[14.415,50.0766],[14.4126,50.0764],[14.412,50.0795],[14.4109,50.0798],[14.4102,50.0821],[14.3999,50.0814],[14.3987,50.0807],[14.3984,50.0818],[14.3968,50.0823],[14.3954,50.0816],[14.3952,50.0827],[14.3936,50.0831],[14.3921,50.0825],[14.3921,50.0837],[14.3906,50.0842],[14.3891,50.0838],[14.389,50.0846],[14.3895,50.0848],[14.3883,50.0858],[14.3859,50.0861],[14.3866,50.0871],[14.3893,50.0881],[14.3891,50.0901],[14.3905,50.0935],[14.3994,50.0941],[14.4105,50.0959]]]]}},{"type":"Feature","id":"mc-praha-46","properties":{"name":"Dolní Chabry","province":"Praha","department":"Hlavní město Praha","type":"Městská část","country":"República Checa","iso":"CZ"},"geometry":{"type":"MultiPolygon","coordinates":[[[[14.4371,50.1599],[14.4378,50.1583],[14.453,50.1586],[14.4532,50.1592],[14.4615,50.1598],[14.4621,50.1554],[14.4681,50.1554],[14.469,50.1451],[14.4571,50.1417],[14.4575,50.1378],[14.4534,50.1361],[14.4509,50.1361],[14.4498,50.1376],[14.4476,50.1371],[14.4458,50.1403],[14.4421,50.1399],[14.4385,50.1413],[14.4371,50.1434],[14.44,50.1447],[14.4398,50.1458],[14.4346,50.1459],[14.4367,50.1495],[14.4367,50.1518],[14.4379,50.1523],[14.4375,50.1527],[14.4272,50.1517],[14.4241,50.1506],[14.4218,50.1511],[14.4211,50.1538],[14.4301,50.1543],[14.4292,50.1585],[14.4371,50.1599]]]]}},{"type":"Feature","id":"mc-praha-47","properties":{"name":"Královice","province":"Praha","department":"Hlavní město Praha","type":"Městská část","country":"República Checa","iso":"CZ"},"geometry":{"type":"MultiPolygon","coordinates":[[[[14.639,50.049],[14.6413,50.0492],[14.6448,50.0449],[14.6452,50.043],[14.6491,50.0444],[14.655,50.05],[14.6613,50.0457],[14.6638,50.0425],[14.668,50.0393],[14.6581,50.0386],[14.6572,50.0317],[14.6625,50.0265],[14.6592,50.0262],[14.659,50.0267],[14.6523,50.027],[14.6494,50.0284],[14.6478,50.028],[14.6469,50.0294],[14.644,50.0284],[14.6444,50.0275],[14.642,50.0272],[14.6418,50.0277],[14.6372,50.0268],[14.637,50.0278],[14.632,50.0274],[14.6299,50.0351],[14.6301,50.0362],[14.6257,50.0372],[14.6259,50.0392],[14.6241,50.0387],[14.6232,50.0417],[14.627,50.043],[14.6286,50.0421],[14.6293,50.0433],[14.6285,50.0449],[14.6322,50.0459],[14.6326,50.047],[14.6348,50.0466],[14.6386,50.048],[14.639,50.049]]]]}},{"type":"Feature","id":"mc-praha-48","properties":{"name":"Nebušice","province":"Praha","department":"Hlavní město Praha","type":"Městská část","country":"República Checa","iso":"CZ"},"geometry":{"type":"MultiPolygon","coordinates":[[[[14.3191,50.1197],[14.3214,50.1174],[14.3217,50.116],[14.3285,50.1175],[14.3405,50.1177],[14.3553,50.1169],[14.3564,50.1161],[14.353,50.1153],[14.3533,50.1137],[14.3555,50.1131],[14.3537,50.1099],[14.3476,50.1098],[14.3457,50.1103],[14.3427,50.1092],[14.337,50.1105],[14.3369,50.1097],[14.3324,50.1105],[14.3324,50.1097],[14.3262,50.1075],[14.3235,50.1076],[14.3088,50.1042],[14.3021,50.1036],[14.2963,50.1076],[14.3052,50.1098],[14.313,50.1163],[14.3191,50.1197]]]]}},{"type":"Feature","id":"mc-praha-50","properties":{"name":"Troja","province":"Praha","department":"Hlavní město Praha","type":"Městská část","country":"República Checa","iso":"CZ"},"geometry":{"type":"MultiPolygon","coordinates":[[[[14.404,50.1309],[14.4075,50.131],[14.4077,50.1301],[14.4071,50.1299],[14.408,50.1279],[14.4093,50.1277],[14.4098,50.1266],[14.4116,50.1259],[14.4132,50.1255],[14.4142,50.1261],[14.4172,50.126],[14.4164,50.1253],[14.4247,50.1246],[14.4262,50.1224],[14.4249,50.1212],[14.4279,50.1216],[14.4352,50.1241],[14.4358,50.1225],[14.4344,50.1208],[14.4357,50.1195],[14.4345,50.1185],[14.4345,50.1172],[14.4384,50.1164],[14.4392,50.1134],[14.4316,50.1124],[14.4249,50.1134],[14.4198,50.1151],[14.4086,50.1142],[14.4046,50.1151],[14.399,50.1194],[14.3969,50.1228],[14.396,50.1226],[14.4019,50.1279],[14.402,50.1302],[14.404,50.1309]]]]}},{"type":"Feature","id":"mc-praha-51","properties":{"name":"Přední Kopanina","province":"Praha","department":"Hlavní město Praha","type":"Městská část","country":"República Checa","iso":"CZ"},"geometry":{"type":"MultiPolygon","coordinates":[[[[14.3035,50.1309],[14.3054,50.1302],[14.3067,50.1309],[14.3072,50.13],[14.3114,50.1286],[14.317,50.1294],[14.3168,50.1237],[14.3181,50.122],[14.3187,50.1197],[14.313,50.1163],[14.3052,50.1098],[14.2947,50.1071],[14.2898,50.1137],[14.2879,50.115],[14.2883,50.1157],[14.2864,50.1165],[14.2899,50.1172],[14.2981,50.1212],[14.2985,50.1218],[14.2968,50.1232],[14.2958,50.1256],[14.3013,50.1274],[14.3021,50.1282],[14.3014,50.1285],[14.3015,50.1295],[14.3035,50.1309]]]]}},{"type":"Feature","id":"mc-praha-53","properties":{"name":"Štìrboholy","province":"Praha","department":"Hlavní město Praha","type":"Městská část","country":"República Checa","iso":"CZ"},"geometry":{"type":"MultiPolygon","coordinates":[[[[14.5438,50.0823],[14.5453,50.0808],[14.5554,50.0833],[14.5578,50.08],[14.5627,50.0809],[14.5627,50.0779],[14.5633,50.0778],[14.5642,50.0789],[14.5667,50.0748],[14.5681,50.0751],[14.5692,50.0718],[14.5638,50.0715],[14.5605,50.0721],[14.5591,50.0713],[14.5597,50.0699],[14.5582,50.0693],[14.5382,50.0654],[14.5378,50.0671],[14.5392,50.0677],[14.5324,50.073],[14.537,50.0741],[14.5387,50.0731],[14.5393,50.0753],[14.5353,50.0762],[14.5367,50.0782],[14.5405,50.0775],[14.5401,50.0817],[14.5438,50.0823]]]]}},{"type":"Feature","id":"mc-praha-55","properties":{"name":"Lochkov","province":"Praha","department":"Hlavní město Praha","type":"Městská část","country":"República Checa","iso":"CZ"},"geometry":{"type":"MultiPolygon","coordinates":[[[[14.3559,50.0095],[14.358,50.0098],[14.3576,50.0071],[14.3612,50.007],[14.3701,50.0083],[14.3702,50.0067],[14.3692,50.0063],[14.3696,50.0053],[14.3709,50.0054],[14.3728,50.0036],[14.367,49.9978],[14.3645,49.9973],[14.3615,49.9956],[14.3581,49.9951],[14.3548,49.994],[14.3543,49.9933],[14.3506,49.9935],[14.3484,49.9952],[14.35,49.9964],[14.351,49.999],[14.3488,49.9984],[14.3476,49.9993],[14.3423,49.9989],[14.3417,49.9997],[14.3426,50.0011],[14.3391,50.003],[14.3397,50.0059],[14.3438,50.0085],[14.3449,50.0078],[14.3559,50.0095]]]]}},{"type":"Feature","id":"mc-praha-56","properties":{"name":"Lysolaje","province":"Praha","department":"Hlavní město Praha","type":"Městská část","country":"República Checa","iso":"CZ"},"geometry":{"type":"MultiPolygon","coordinates":[[[[14.3582,50.1321],[14.3679,50.1323],[14.3683,50.1297],[14.3709,50.1297],[14.3708,50.1287],[14.3728,50.1286],[14.3728,50.1278],[14.3766,50.1275],[14.3767,50.1268],[14.3775,50.1266],[14.3794,50.1273],[14.3828,50.1307],[14.3895,50.1284],[14.391,50.1264],[14.3896,50.1247],[14.3878,50.1252],[14.3869,50.1242],[14.3876,50.1237],[14.3857,50.1227],[14.3714,50.1198],[14.3705,50.1178],[14.3698,50.1179],[14.3696,50.1135],[14.3685,50.1137],[14.3676,50.1127],[14.3635,50.1159],[14.3615,50.1183],[14.3623,50.1187],[14.3599,50.1221],[14.3568,50.1253],[14.3611,50.1303],[14.3585,50.1304],[14.3582,50.1321]]]]}},{"type":"Feature","id":"mc-praha-57","properties":{"name":"Petrovice","province":"Praha","department":"Hlavní město Praha","type":"Městská část","country":"República Checa","iso":"CZ"},"geometry":{"type":"MultiPolygon","coordinates":[[[[14.5561,50.0408],[14.5622,50.0407],[14.565,50.0385],[14.5673,50.0377],[14.568,50.0378],[14.5685,50.0395],[14.5732,50.0375],[14.575,50.036],[14.5744,50.0357],[14.5755,50.0347],[14.5768,50.0349],[14.5727,50.0328],[14.5709,50.0333],[14.5645,50.0317],[14.5615,50.0318],[14.5609,50.0315],[14.5618,50.031],[14.5573,50.0297],[14.5526,50.031],[14.5504,50.0282],[14.5499,50.0292],[14.5507,50.0302],[14.5471,50.0317],[14.5464,50.0311],[14.5458,50.0328],[14.5448,50.0327],[14.5443,50.0341],[14.5434,50.0341],[14.5452,50.0353],[14.5448,50.0358],[14.5452,50.0361],[14.5443,50.0367],[14.5457,50.0373],[14.5485,50.0366],[14.5536,50.0398],[14.556,50.04],[14.5561,50.0408]]]]}}]}