{"type":"FeatureCollection","features":[{"type":"Feature","id":"ht0113","properties":{"name":"Carrefour","province":"Ouest","department":"Ouest","type":"Commune","country":"Haití","iso":"HT"},"geometry":{"type":"Polygon","coordinates":[[[-72.4156,18.5541],[-72.4184,18.5558],[-72.4198,18.555],[-72.4218,18.5507],[-72.4274,18.546],[-72.4304,18.5418],[-72.4318,18.542],[-72.4331,18.5435],[-72.4421,18.5429],[-72.4436,18.5438],[-72.4453,18.5435],[-72.4535,18.545],[-72.4566,18.5468],[-72.4569,18.5419],[-72.4586,18.5397],[-72.4567,18.5268],[-72.4584,18.5225],[-72.4587,18.5171],[-72.4641,18.5196],[-72.465,18.5189],[-72.4613,18.5072],[-72.464,18.5051],[-72.4614,18.5015],[-72.4647,18.5],[-72.4605,18.4981],[-72.4575,18.494],[-72.4546,18.4939],[-72.4533,18.4913],[-72.4454,18.4817],[-72.4449,18.4784],[-72.4474,18.475],[-72.4494,18.4739],[-72.4545,18.4761],[-72.4616,18.4745],[-72.4642,18.4757],[-72.4691,18.4763],[-72.4659,18.4643],[-72.459,18.4584],[-72.4556,18.4567],[-72.4555,18.4506],[-72.4581,18.4469],[-72.4588,18.4445],[-72.455,18.437],[-72.4535,18.4361],[-72.4522,18.4333],[-72.452,18.4313],[-72.4542,18.4288],[-72.4502,18.4212],[-72.4529,18.4182],[-72.4533,18.4163],[-72.4508,18.4128],[-72.4526,18.4103],[-72.4493,18.4062],[-72.4511,18.404],[-72.4498,18.4014],[-72.4514,18.3971],[-72.4452,18.3966],[-72.4425,18.3991],[-72.4235,18.4011],[-72.4221,18.3976],[-72.4278,18.395],[-72.4363,18.3796],[-72.435,18.3733],[-72.4305,18.3764],[-72.4271,18.374],[-72.4188,18.3753],[-72.4098,18.3788],[-72.4044,18.384],[-72.3998,18.3844],[-72.3964,18.3862],[-72.394,18.3918],[-72.389,18.3916],[-72.3838,18.3878],[-72.3835,18.3801],[-72.3796,18.3792],[-72.3707,18.3814],[-72.3671,18.3781],[-72.3563,18.3797],[-72.3521,18.3869],[-72.3509,18.391],[-72.3481,18.3911],[-72.3463,18.3936],[-72.3462,18.3986],[-72.3498,18.4005],[-72.355,18.3999],[-72.3599,18.398],[-72.3682,18.401],[-72.3702,18.4034],[-72.3714,18.4086],[-72.376,18.409],[-72.3833,18.4124],[-72.3878,18.4162],[-72.3858,18.4188],[-72.3861,18.4196],[-72.3902,18.4193],[-72.3904,18.4238],[-72.3873,18.4283],[-72.3905,18.4296],[-72.3901,18.4323],[-72.3887,18.4349],[-72.3904,18.4352],[-72.3863,18.439],[-72.3839,18.4386],[-72.3811,18.4393],[-72.3793,18.4386],[-72.3771,18.4393],[-72.3755,18.4385],[-72.3738,18.4388],[-72.3674,18.4428],[-72.3641,18.4421],[-72.3578,18.4463],[-72.3557,18.4524],[-72.3495,18.4538],[-72.3495,18.4563],[-72.3558,18.4599],[-72.3593,18.459],[-72.3621,18.4572],[-72.3722,18.4619],[-72.3744,18.4642],[-72.3748,18.4668],[-72.3712,18.4662],[-72.3672,18.4684],[-72.3652,18.471],[-72.3653,18.4742],[-72.3674,18.4781],[-72.3641,18.481],[-72.365,18.4885],[-72.3625,18.4899],[-72.3539,18.4906],[-72.3512,18.4916],[-72.3509,18.4932],[-72.353,18.4939],[-72.353,18.4977],[-72.3646,18.497],[-72.3683,18.5],[-72.3685,18.5028],[-72.367,18.5064],[-72.3671,18.5101],[-72.3689,18.5132],[-72.368,18.5167],[-72.3712,18.5202],[-72.3694,18.5235],[-72.3693,18.5302],[-72.3706,18.5336],[-72.3756,18.5324],[-72.3765,18.5338],[-72.3816,18.5345],[-72.3819,18.5362],[-72.3859,18.5373],[-72.3905,18.5432],[-72.3931,18.5438],[-72.3959,18.547],[-72.3946,18.5488],[-72.396,18.5476],[-72.3981,18.5482],[-72.4012,18.551],[-72.4051,18.5512],[-72.4087,18.5535],[-72.4157,18.5533],[-72.4156,18.5541]]]}},{"type":"Feature","id":"ht0117","properties":{"name":"Cite Soleil","province":"Ouest","department":"Ouest","type":"Commune","country":"Haití","iso":"HT"},"geometry":{"type":"Polygon","coordinates":[[[-72.3414,18.6222],[-72.3434,18.6235],[-72.3551,18.6265],[-72.3585,18.6304],[-72.3591,18.6287],[-72.3509,18.6231],[-72.3502,18.6186],[-72.3506,18.6179],[-72.3521,18.6177],[-72.3521,18.6162],[-72.3488,18.6141],[-72.3466,18.6106],[-72.3461,18.6079],[-72.3448,18.6078],[-72.3444,18.6063],[-72.3456,18.603],[-72.3467,18.6022],[-72.3459,18.5974],[-72.3439,18.5961],[-72.3418,18.5958],[-72.3387,18.593],[-72.3398,18.5835],[-72.3419,18.5806],[-72.3393,18.5779],[-72.3389,18.5747],[-72.3427,18.5719],[-72.345,18.5731],[-72.3452,18.575],[-72.3467,18.5736],[-72.3473,18.5707],[-72.3482,18.5702],[-72.3488,18.5709],[-72.3492,18.5699],[-72.351,18.5698],[-72.3529,18.5661],[-72.3509,18.5651],[-72.3466,18.5654],[-72.3414,18.5632],[-72.3386,18.5608],[-72.3333,18.5661],[-72.3257,18.572],[-72.3121,18.5807],[-72.2978,18.5863],[-72.2931,18.5895],[-72.2898,18.593],[-72.2921,18.5956],[-72.2976,18.5991],[-72.3059,18.5997],[-72.3053,18.6061],[-72.3068,18.6068],[-72.3082,18.606],[-72.3104,18.6062],[-72.3129,18.6043],[-72.3161,18.6066],[-72.3156,18.6082],[-72.3141,18.6082],[-72.3153,18.6102],[-72.3208,18.6101],[-72.322,18.6121],[-72.3246,18.6125],[-72.3248,18.6137],[-72.3275,18.6118],[-72.3283,18.6135],[-72.3265,18.6137],[-72.3268,18.616],[-72.3308,18.6166],[-72.3326,18.6177],[-72.3352,18.6176],[-72.3363,18.6186],[-72.3359,18.6211],[-72.3377,18.6214],[-72.3381,18.6221],[-72.3414,18.6222]]]}},{"type":"Feature","id":"ht0112","properties":{"name":"Delmas","province":"Ouest","department":"Ouest","type":"Commune","country":"Haití","iso":"HT"},"geometry":{"type":"Polygon","coordinates":[[[-72.2905,18.5709],[-72.2924,18.5723],[-72.3048,18.5749],[-72.3082,18.5776],[-72.3122,18.5794],[-72.3121,18.5807],[-72.3278,18.5706],[-72.3379,18.5619],[-72.3386,18.5608],[-72.3336,18.5587],[-72.3375,18.5544],[-72.3341,18.5526],[-72.3277,18.5509],[-72.3267,18.5519],[-72.3231,18.5511],[-72.3179,18.5517],[-72.3167,18.5507],[-72.3173,18.546],[-72.3165,18.5454],[-72.3166,18.5438],[-72.3084,18.5395],[-72.3049,18.5402],[-72.2976,18.5388],[-72.2961,18.5374],[-72.2972,18.5359],[-72.2963,18.5342],[-72.2974,18.5301],[-72.2937,18.5304],[-72.2876,18.5283],[-72.2838,18.5221],[-72.2828,18.5224],[-72.2817,18.5229],[-72.2806,18.525],[-72.2804,18.5302],[-72.279,18.5332],[-72.278,18.5327],[-72.2771,18.5333],[-72.2765,18.5355],[-72.2743,18.536],[-72.2709,18.5405],[-72.2703,18.5399],[-72.267,18.5415],[-72.2656,18.5459],[-72.2629,18.5447],[-72.2617,18.5489],[-72.2573,18.5498],[-72.2566,18.5545],[-72.2612,18.5551],[-72.2679,18.5588],[-72.27,18.561],[-72.2747,18.5631],[-72.2769,18.5629],[-72.2791,18.5637],[-72.2861,18.5703],[-72.2905,18.5709]]]}},{"type":"Feature","id":"ht0116","properties":{"name":"Gressier","province":"Ouest","department":"Ouest","type":"Commune","country":"Haití","iso":"HT"},"geometry":{"type":"Polygon","coordinates":[[[-72.5409,18.5443],[-72.543,18.5456],[-72.5461,18.55],[-72.547,18.5455],[-72.5513,18.5404],[-72.5573,18.5297],[-72.5572,18.5276],[-72.5614,18.5222],[-72.5606,18.5195],[-72.5574,18.517],[-72.5578,18.5146],[-72.5604,18.5158],[-72.562,18.5144],[-72.5648,18.5144],[-72.5692,18.5093],[-72.5684,18.5012],[-72.5698,18.4971],[-72.5698,18.4933],[-72.5683,18.4884],[-72.5671,18.4856],[-72.5597,18.4782],[-72.5519,18.4729],[-72.5456,18.4716],[-72.5385,18.4747],[-72.5311,18.4717],[-72.5262,18.4735],[-72.5206,18.4717],[-72.516,18.4727],[-72.5106,18.4718],[-72.4945,18.4736],[-72.4894,18.4721],[-72.4802,18.475],[-72.4712,18.4753],[-72.4691,18.4763],[-72.4642,18.4757],[-72.4616,18.4745],[-72.4545,18.4761],[-72.4494,18.4739],[-72.4474,18.475],[-72.4449,18.4784],[-72.4454,18.4817],[-72.4533,18.4913],[-72.4546,18.4939],[-72.4575,18.494],[-72.4605,18.4981],[-72.4647,18.5],[-72.4614,18.5015],[-72.464,18.5051],[-72.4613,18.5072],[-72.465,18.5189],[-72.4641,18.5196],[-72.4587,18.5171],[-72.4584,18.5225],[-72.4567,18.5268],[-72.4586,18.5397],[-72.4569,18.5419],[-72.4566,18.5468],[-72.4644,18.547],[-72.4672,18.548],[-72.472,18.5477],[-72.4731,18.5486],[-72.4732,18.5476],[-72.4743,18.547],[-72.4803,18.5458],[-72.4806,18.545],[-72.4963,18.5469],[-72.4991,18.5463],[-72.5002,18.5448],[-72.5013,18.5458],[-72.5055,18.5458],[-72.5063,18.5479],[-72.5118,18.5479],[-72.5132,18.549],[-72.5152,18.5466],[-72.5164,18.5469],[-72.5177,18.5454],[-72.5186,18.5454],[-72.5193,18.5467],[-72.5252,18.5473],[-72.5289,18.5471],[-72.5312,18.5456],[-72.5409,18.5443]]]}},{"type":"Feature","id":"ht0115","properties":{"name":"Kenscoff","province":"Ouest","department":"Ouest","type":"Commune","country":"Haití","iso":"HT"},"geometry":{"type":"Polygon","coordinates":[[[-72.2919,18.4768],[-72.2924,18.4782],[-72.2909,18.4821],[-72.2924,18.4851],[-72.2955,18.485],[-72.2981,18.4839],[-72.3024,18.4815],[-72.3032,18.4803],[-72.3016,18.4777],[-72.2964,18.4757],[-72.2994,18.466],[-72.3019,18.4647],[-72.3039,18.4569],[-72.3074,18.4495],[-72.3102,18.4461],[-72.3124,18.4471],[-72.3158,18.4471],[-72.319,18.4462],[-72.3208,18.4449],[-72.3361,18.4527],[-72.3387,18.4559],[-72.3424,18.4585],[-72.3463,18.4587],[-72.3495,18.4563],[-72.3495,18.4538],[-72.3557,18.4524],[-72.3578,18.4463],[-72.3609,18.4438],[-72.3641,18.4421],[-72.3674,18.4428],[-72.3738,18.4388],[-72.3755,18.4385],[-72.3771,18.4393],[-72.3793,18.4386],[-72.3811,18.4393],[-72.3839,18.4386],[-72.3863,18.439],[-72.3904,18.4352],[-72.3887,18.4349],[-72.3901,18.4323],[-72.3905,18.4296],[-72.3873,18.4283],[-72.3904,18.4238],[-72.3902,18.4193],[-72.3861,18.4196],[-72.3858,18.4188],[-72.3878,18.4162],[-72.3833,18.4124],[-72.376,18.409],[-72.3714,18.4086],[-72.3702,18.4034],[-72.3682,18.401],[-72.3599,18.398],[-72.355,18.3999],[-72.3498,18.4005],[-72.3462,18.3986],[-72.3463,18.3936],[-72.3481,18.3911],[-72.3509,18.391],[-72.3521,18.3869],[-72.3563,18.3797],[-72.3671,18.3781],[-72.3697,18.3664],[-72.3669,18.3572],[-72.3639,18.3552],[-72.3648,18.353],[-72.3631,18.3536],[-72.3588,18.3507],[-72.3574,18.3509],[-72.3525,18.3489],[-72.3396,18.3481],[-72.3371,18.3473],[-72.3332,18.3438],[-72.3268,18.3411],[-72.3225,18.3406],[-72.3208,18.3415],[-72.3148,18.34],[-72.308,18.3402],[-72.3043,18.3421],[-72.2971,18.3414],[-72.2893,18.342],[-72.2831,18.3489],[-72.2806,18.3544],[-72.2761,18.3537],[-72.2735,18.3542],[-72.268,18.357],[-72.2637,18.3577],[-72.2592,18.3575],[-72.2573,18.3583],[-72.2449,18.3538],[-72.2351,18.3533],[-72.2282,18.352],[-72.2182,18.3485],[-72.2113,18.3511],[-72.1995,18.3523],[-72.2015,18.3605],[-72.2045,18.3651],[-72.2044,18.37],[-72.2016,18.3787],[-72.2045,18.3837],[-72.2045,18.3879],[-72.2029,18.3903],[-72.2074,18.401],[-72.2103,18.4045],[-72.2096,18.4058],[-72.2061,18.4081],[-72.2061,18.4102],[-72.2054,18.4114],[-72.2037,18.4113],[-72.2028,18.4126],[-72.2017,18.4129],[-72.1982,18.4187],[-72.196,18.4185],[-72.1949,18.4209],[-72.1987,18.4225],[-72.202,18.4217],[-72.2045,18.425],[-72.2066,18.4251],[-72.2119,18.4203],[-72.213,18.4283],[-72.2163,18.4302],[-72.2188,18.4298],[-72.2209,18.4336],[-72.2239,18.436],[-72.2244,18.4397],[-72.2268,18.4424],[-72.2283,18.4435],[-72.2307,18.4425],[-72.2305,18.449],[-72.2263,18.448],[-72.2246,18.4506],[-72.2261,18.4536],[-72.2294,18.4551],[-72.2302,18.4582],[-72.2361,18.4609],[-72.2357,18.4649],[-72.2365,18.468],[-72.2444,18.4642],[-72.2475,18.4601],[-72.2537,18.459],[-72.2583,18.4572],[-72.2622,18.4601],[-72.2668,18.4581],[-72.2756,18.46],[-72.2827,18.4607],[-72.2831,18.4628],[-72.2869,18.4685],[-72.2878,18.4735],[-72.2919,18.4768]]]}},{"type":"Feature","id":"ht0114","properties":{"name":"Petion-Ville","province":"Ouest","department":"Ouest","type":"Commune","country":"Haití","iso":"HT"},"geometry":{"type":"Polygon","coordinates":[[[-72.2571,18.5495],[-72.2617,18.5489],[-72.2629,18.5447],[-72.2656,18.5459],[-72.267,18.5415],[-72.2703,18.5399],[-72.2709,18.5405],[-72.2743,18.536],[-72.2765,18.5355],[-72.2771,18.5333],[-72.278,18.5327],[-72.279,18.5332],[-72.2804,18.5302],[-72.2804,18.5257],[-72.2817,18.5229],[-72.2838,18.5221],[-72.2876,18.5283],[-72.2937,18.5304],[-72.2969,18.5299],[-72.2995,18.5308],[-72.302,18.5302],[-72.3011,18.529],[-72.3014,18.5275],[-72.3032,18.5266],[-72.3046,18.5271],[-72.3071,18.5251],[-72.3062,18.5212],[-72.3104,18.5116],[-72.3153,18.5076],[-72.3182,18.5073],[-72.3207,18.5052],[-72.3291,18.5026],[-72.3519,18.4994],[-72.353,18.4977],[-72.3532,18.4957],[-72.353,18.4939],[-72.3509,18.4932],[-72.3512,18.4916],[-72.3539,18.4906],[-72.3625,18.4899],[-72.365,18.4885],[-72.3641,18.481],[-72.3674,18.4781],[-72.3653,18.4742],[-72.3652,18.471],[-72.3672,18.4684],[-72.3712,18.4662],[-72.3748,18.4668],[-72.3744,18.4642],[-72.3722,18.4619],[-72.3621,18.4572],[-72.3593,18.459],[-72.3558,18.4599],[-72.3495,18.4563],[-72.3463,18.4587],[-72.3424,18.4585],[-72.3387,18.4559],[-72.3361,18.4527],[-72.3208,18.4449],[-72.319,18.4462],[-72.3158,18.4471],[-72.3124,18.4471],[-72.3102,18.4461],[-72.3074,18.4495],[-72.3039,18.4569],[-72.3019,18.4647],[-72.2994,18.466],[-72.2964,18.4757],[-72.3016,18.4777],[-72.3032,18.4803],[-72.3024,18.4815],[-72.2981,18.4839],[-72.2955,18.485],[-72.2924,18.4851],[-72.2909,18.4821],[-72.2924,18.4782],[-72.2919,18.4768],[-72.2878,18.4735],[-72.2869,18.4685],[-72.2831,18.4628],[-72.2827,18.4607],[-72.2756,18.46],[-72.2668,18.4581],[-72.2622,18.4601],[-72.2583,18.4572],[-72.2537,18.459],[-72.2475,18.4601],[-72.2444,18.4642],[-72.2365,18.468],[-72.2357,18.4649],[-72.2361,18.4609],[-72.2302,18.4582],[-72.2294,18.4551],[-72.2261,18.4536],[-72.2246,18.4506],[-72.2263,18.448],[-72.2305,18.449],[-72.2307,18.4425],[-72.2283,18.4435],[-72.2268,18.4424],[-72.2244,18.4397],[-72.2239,18.436],[-72.2209,18.4336],[-72.2188,18.4298],[-72.2163,18.4302],[-72.213,18.4283],[-72.2119,18.4203],[-72.2066,18.4251],[-72.2045,18.425],[-72.202,18.4217],[-72.1987,18.4225],[-72.1923,18.4196],[-72.1822,18.4195],[-72.1783,18.4177],[-72.1769,18.4191],[-72.177,18.4212],[-72.1746,18.4219],[-72.1725,18.4241],[-72.1722,18.4259],[-72.1732,18.4271],[-72.1727,18.4295],[-72.1649,18.4298],[-72.1651,18.4322],[-72.1668,18.4337],[-72.1709,18.4321],[-72.1738,18.4352],[-72.1774,18.4302],[-72.1786,18.4301],[-72.1797,18.4308],[-72.1795,18.4347],[-72.1789,18.4366],[-72.1747,18.4376],[-72.1738,18.439],[-72.1739,18.4406],[-72.1763,18.4429],[-72.1755,18.4463],[-72.172,18.4463],[-72.1704,18.4482],[-72.1644,18.4496],[-72.1626,18.4509],[-72.1612,18.4506],[-72.1596,18.4522],[-72.1589,18.46],[-72.1597,18.4606],[-72.1607,18.465],[-72.1594,18.4688],[-72.1614,18.4698],[-72.1642,18.4698],[-72.1682,18.4687],[-72.1688,18.471],[-72.1661,18.472],[-72.1661,18.4736],[-72.1711,18.4746],[-72.1714,18.4754],[-72.1687,18.4768],[-72.1708,18.4781],[-72.1721,18.4813],[-72.1735,18.4823],[-72.1746,18.4825],[-72.1753,18.4801],[-72.1776,18.4804],[-72.1774,18.4824],[-72.1756,18.4833],[-72.1781,18.485],[-72.1796,18.4853],[-72.1813,18.4809],[-72.1827,18.4799],[-72.1838,18.4803],[-72.1837,18.4813],[-72.1851,18.4817],[-72.1838,18.4834],[-72.1876,18.4833],[-72.189,18.4898],[-72.193,18.4956],[-72.1961,18.4976],[-72.2074,18.5104],[-72.2095,18.5154],[-72.2093,18.5184],[-72.2104,18.5217],[-72.2234,18.5395],[-72.228,18.5365],[-72.2335,18.5427],[-72.2349,18.5425],[-72.2374,18.5464],[-72.2394,18.5451],[-72.2383,18.5405],[-72.2405,18.5398],[-72.2447,18.5365],[-72.2478,18.5425],[-72.2536,18.5448],[-72.2533,18.5466],[-72.2549,18.5471],[-72.2571,18.5495]]]}},{"type":"Feature","id":"ht0111","properties":{"name":"Port-au-Prince","province":"Ouest","department":"Ouest","type":"Commune","country":"Haití","iso":"HT"},"geometry":{"type":"Polygon","coordinates":[[[-72.3484,18.5655],[-72.3474,18.565],[-72.3471,18.5635],[-72.3478,18.5611],[-72.351,18.5582],[-72.352,18.5583],[-72.3521,18.5569],[-72.3477,18.5556],[-72.3489,18.5543],[-72.3476,18.5532],[-72.3504,18.5498],[-72.3492,18.5474],[-72.3492,18.5442],[-72.3525,18.5413],[-72.3558,18.541],[-72.3565,18.5393],[-72.3575,18.5391],[-72.3576,18.5374],[-72.3601,18.5367],[-72.3608,18.5339],[-72.3635,18.5363],[-72.3639,18.533],[-72.3677,18.535],[-72.3706,18.5336],[-72.3693,18.5302],[-72.3694,18.5235],[-72.3712,18.5202],[-72.368,18.5167],[-72.3689,18.5132],[-72.3671,18.5101],[-72.367,18.5064],[-72.3685,18.5028],[-72.3683,18.5],[-72.3646,18.497],[-72.353,18.4977],[-72.3509,18.4998],[-72.3291,18.5026],[-72.3207,18.5052],[-72.3182,18.5073],[-72.3153,18.5076],[-72.3104,18.5116],[-72.3073,18.5179],[-72.3062,18.5212],[-72.3071,18.5251],[-72.3046,18.5271],[-72.3032,18.5266],[-72.3014,18.5275],[-72.3011,18.529],[-72.302,18.5302],[-72.297,18.5304],[-72.2963,18.5344],[-72.2972,18.5359],[-72.2961,18.5374],[-72.2971,18.5384],[-72.3049,18.5402],[-72.3084,18.5395],[-72.3131,18.5416],[-72.3166,18.5438],[-72.3165,18.5454],[-72.3173,18.546],[-72.3167,18.5507],[-72.3179,18.5517],[-72.3231,18.5511],[-72.3267,18.5519],[-72.3276,18.5509],[-72.3348,18.5529],[-72.3375,18.5544],[-72.3336,18.5587],[-72.3396,18.5612],[-72.3419,18.5634],[-72.3484,18.5655]]]}},{"type":"Feature","id":"ht0118","properties":{"name":"Tabarre","province":"Ouest","department":"Ouest","type":"Commune","country":"Haití","iso":"HT"},"geometry":{"type":"Polygon","coordinates":[[[-72.2955,18.6054],[-72.2965,18.6079],[-72.3008,18.6096],[-72.3015,18.6087],[-72.3009,18.6069],[-72.3015,18.6055],[-72.3036,18.6047],[-72.3053,18.6061],[-72.3059,18.5997],[-72.2976,18.5991],[-72.2921,18.5956],[-72.2898,18.593],[-72.2961,18.5872],[-72.3121,18.5807],[-72.3122,18.5794],[-72.3082,18.5776],[-72.3048,18.5749],[-72.2924,18.5723],[-72.29,18.5707],[-72.2861,18.5703],[-72.2791,18.5637],[-72.2769,18.5629],[-72.2747,18.5631],[-72.27,18.561],[-72.2679,18.5588],[-72.2612,18.5551],[-72.2566,18.5545],[-72.2566,18.5518],[-72.2577,18.5503],[-72.2561,18.5481],[-72.2533,18.5466],[-72.2536,18.5448],[-72.2478,18.5425],[-72.2447,18.5365],[-72.2405,18.5398],[-72.2383,18.5405],[-72.2394,18.5451],[-72.2374,18.5464],[-72.2349,18.5425],[-72.2335,18.5427],[-72.228,18.5365],[-72.2234,18.5395],[-72.2277,18.5434],[-72.2292,18.5505],[-72.2305,18.553],[-72.2331,18.5552],[-72.2364,18.5648],[-72.2384,18.5683],[-72.2429,18.5734],[-72.2434,18.5779],[-72.2484,18.5807],[-72.2486,18.5869],[-72.2536,18.5874],[-72.2565,18.5936],[-72.2626,18.5951],[-72.2659,18.597],[-72.2685,18.5962],[-72.2737,18.5999],[-72.2783,18.5982],[-72.2816,18.5992],[-72.2855,18.5978],[-72.2893,18.5977],[-72.2899,18.5984],[-72.2889,18.6013],[-72.2917,18.6031],[-72.295,18.6035],[-72.2955,18.6054]]]}}]}