{"type":"FeatureCollection","features":[{"type":"Feature","id":1,"properties":{"name":"Guamaní","province":"Pichincha","department":"Pichincha","type":"Parroquia Urbana","country":"Ecuador","iso":"EC"},"geometry":{"type":"Polygon","coordinates":[[[-78.5523,-0.3103],[-78.5578,-0.3095],[-78.5589,-0.3101],[-78.5583,-0.3151],[-78.562,-0.3158],[-78.5626,-0.3135],[-78.567,-0.3157],[-78.571,-0.3255],[-78.5751,-0.3312],[-78.5781,-0.3326],[-78.5798,-0.3316],[-78.5825,-0.3332],[-78.5832,-0.3354],[-78.5862,-0.3349],[-78.5896,-0.336],[-78.5904,-0.3374],[-78.5981,-0.3399],[-78.5985,-0.3406],[-78.597,-0.341],[-78.5967,-0.3423],[-78.5979,-0.3446],[-78.5975,-0.3489],[-78.5992,-0.3516],[-78.5938,-0.3518],[-78.5851,-0.355],[-78.5808,-0.354],[-78.5736,-0.3543],[-78.5712,-0.3562],[-78.5652,-0.3573],[-78.5622,-0.3591],[-78.5576,-0.3558],[-78.5491,-0.3602],[-78.5487,-0.344],[-78.5503,-0.3347],[-78.5505,-0.3268],[-78.5482,-0.3134],[-78.5464,-0.3105],[-78.5523,-0.3103]]]}},{"type":"Feature","id":2,"properties":{"name":"La Ecuatoriana","province":"Pichincha","department":"Pichincha","type":"Parroquia Urbana","country":"Ecuador","iso":"EC"},"geometry":{"type":"Polygon","coordinates":[[[-78.5879,-0.2853],[-78.5924,-0.2802],[-78.5988,-0.2814],[-78.6069,-0.286],[-78.6082,-0.2886],[-78.6084,-0.2976],[-78.6105,-0.2959],[-78.6109,-0.2991],[-78.6093,-0.3045],[-78.605,-0.3056],[-78.6009,-0.3106],[-78.6022,-0.3139],[-78.6024,-0.3184],[-78.6073,-0.3232],[-78.607,-0.324],[-78.6047,-0.3237],[-78.6019,-0.3256],[-78.6009,-0.33],[-78.6026,-0.3334],[-78.6,-0.3339],[-78.5997,-0.336],[-78.6009,-0.3388],[-78.5985,-0.3391],[-78.5985,-0.3402],[-78.5904,-0.3374],[-78.5896,-0.336],[-78.5864,-0.3349],[-78.5832,-0.3354],[-78.5825,-0.3332],[-78.5798,-0.3316],[-78.5781,-0.3326],[-78.5751,-0.3312],[-78.571,-0.3255],[-78.567,-0.3157],[-78.5626,-0.3135],[-78.562,-0.3158],[-78.5583,-0.3151],[-78.5594,-0.3081],[-78.5585,-0.2919],[-78.5614,-0.2904],[-78.5617,-0.2911],[-78.5696,-0.292],[-78.5695,-0.2938],[-78.571,-0.2963],[-78.5762,-0.2929],[-78.5765,-0.2916],[-78.579,-0.2908],[-78.5775,-0.2892],[-78.5845,-0.2874],[-78.5879,-0.2853]]]}},{"type":"Feature","id":3,"properties":{"name":"Quitumbe","province":"Pichincha","department":"Pichincha","type":"Parroquia Urbana","country":"Ecuador","iso":"EC"},"geometry":{"type":"Polygon","coordinates":[[[-78.5444,-0.2824],[-78.5528,-0.2792],[-78.5588,-0.2927],[-78.5589,-0.3101],[-78.5578,-0.3095],[-78.547,-0.3103],[-78.544,-0.3121],[-78.5352,-0.3134],[-78.5347,-0.3157],[-78.5304,-0.3195],[-78.5292,-0.3185],[-78.5282,-0.3145],[-78.522,-0.321],[-78.5218,-0.3198],[-78.5205,-0.3255],[-78.514,-0.3275],[-78.5135,-0.3297],[-78.5142,-0.326],[-78.5135,-0.3251],[-78.5161,-0.3172],[-78.5172,-0.3168],[-78.5162,-0.3131],[-78.5182,-0.3116],[-78.5186,-0.3077],[-78.5167,-0.3053],[-78.5171,-0.3034],[-78.5154,-0.3004],[-78.513,-0.2903],[-78.5162,-0.291],[-78.5175,-0.2958],[-78.5188,-0.2973],[-78.5206,-0.2972],[-78.5205,-0.2965],[-78.5277,-0.295],[-78.5271,-0.2941],[-78.5334,-0.2932],[-78.5357,-0.2903],[-78.5362,-0.2911],[-78.5403,-0.2883],[-78.5433,-0.2826],[-78.5444,-0.2824]]]}},{"type":"Feature","id":4,"properties":{"name":"Chillogallo","province":"Pichincha","department":"Pichincha","type":"Parroquia Urbana","country":"Ecuador","iso":"EC"},"geometry":{"type":"Polygon","coordinates":[[[-78.5641,-0.2637],[-78.569,-0.2531],[-78.5693,-0.2472],[-78.5707,-0.2497],[-78.5721,-0.2567],[-78.5784,-0.2617],[-78.5834,-0.2638],[-78.5964,-0.2638],[-78.5986,-0.2675],[-78.6051,-0.2741],[-78.6061,-0.278],[-78.6099,-0.2833],[-78.6105,-0.2959],[-78.6084,-0.2976],[-78.6082,-0.2886],[-78.6069,-0.286],[-78.5988,-0.2814],[-78.5939,-0.2802],[-78.5918,-0.2804],[-78.5892,-0.2847],[-78.5845,-0.2874],[-78.5775,-0.2892],[-78.579,-0.2908],[-78.5765,-0.2916],[-78.5762,-0.2929],[-78.571,-0.2963],[-78.5695,-0.2938],[-78.5696,-0.292],[-78.5617,-0.2911],[-78.5614,-0.2904],[-78.5585,-0.2919],[-78.5531,-0.2801],[-78.5524,-0.2765],[-78.557,-0.2738],[-78.5634,-0.268],[-78.565,-0.2651],[-78.5641,-0.2637]]]}},{"type":"Feature","id":5,"properties":{"name":"Turubamba","province":"Pichincha","department":"Pichincha","type":"Parroquia Urbana","country":"Ecuador","iso":"EC"},"geometry":{"type":"Polygon","coordinates":[[[-78.5305,-0.3195],[-78.5347,-0.3157],[-78.5352,-0.3134],[-78.544,-0.3121],[-78.5464,-0.3105],[-78.5482,-0.3134],[-78.5506,-0.3306],[-78.5487,-0.3431],[-78.5491,-0.3602],[-78.5477,-0.3609],[-78.5465,-0.3604],[-78.545,-0.3622],[-78.537,-0.3589],[-78.5312,-0.3603],[-78.5273,-0.3555],[-78.5224,-0.3567],[-78.5202,-0.3563],[-78.5199,-0.3531],[-78.5182,-0.3504],[-78.5183,-0.3478],[-78.5171,-0.3471],[-78.5162,-0.3448],[-78.5145,-0.3373],[-78.5148,-0.3345],[-78.5135,-0.3333],[-78.5139,-0.3276],[-78.5205,-0.3255],[-78.5218,-0.3198],[-78.522,-0.321],[-78.5282,-0.3145],[-78.5292,-0.3185],[-78.5305,-0.3195]]]}},{"type":"Feature","id":6,"properties":{"name":"La Mena","province":"Pichincha","department":"Pichincha","type":"Parroquia Urbana","country":"Ecuador","iso":"EC"},"geometry":{"type":"Polygon","coordinates":[[[-78.5524,-0.2344],[-78.5536,-0.2281],[-78.5535,-0.2228],[-78.555,-0.2205],[-78.5572,-0.2259],[-78.5579,-0.2332],[-78.5648,-0.24],[-78.5693,-0.2482],[-78.569,-0.2531],[-78.5675,-0.2574],[-78.5637,-0.2632],[-78.565,-0.2651],[-78.5634,-0.268],[-78.557,-0.2738],[-78.5524,-0.2765],[-78.5509,-0.266],[-78.5419,-0.2559],[-78.5447,-0.2545],[-78.5469,-0.2482],[-78.5501,-0.2457],[-78.5495,-0.245],[-78.5511,-0.237],[-78.5524,-0.2344]]]}},{"type":"Feature","id":7,"properties":{"name":"La Magdalena","province":"Pichincha","department":"Pichincha","type":"Parroquia Urbana","country":"Ecuador","iso":"EC"},"geometry":{"type":"Polygon","coordinates":[[[-78.5143,-0.2342],[-78.5186,-0.2362],[-78.5185,-0.2402],[-78.5199,-0.237],[-78.5193,-0.2349],[-78.5213,-0.2362],[-78.523,-0.2351],[-78.5238,-0.2316],[-78.5257,-0.2353],[-78.5321,-0.2415],[-78.5365,-0.2492],[-78.534,-0.2506],[-78.5307,-0.2497],[-78.5298,-0.2524],[-78.5265,-0.252],[-78.5233,-0.2559],[-78.5143,-0.2342]]]}},{"type":"Feature","id":8,"properties":{"name":"San Bartolo","province":"Pichincha","department":"Pichincha","type":"Parroquia Urbana","country":"Ecuador","iso":"EC"},"geometry":{"type":"Polygon","coordinates":[[[-78.5286,-0.2706],[-78.5233,-0.2613],[-78.5223,-0.2543],[-78.5233,-0.2559],[-78.5265,-0.252],[-78.5298,-0.2524],[-78.5307,-0.2497],[-78.534,-0.2506],[-78.5365,-0.2492],[-78.5511,-0.2665],[-78.5428,-0.2656],[-78.538,-0.2627],[-78.5332,-0.2688],[-78.5295,-0.2693],[-78.5286,-0.2706]]]}},{"type":"Feature","id":9,"properties":{"name":"Mariscal Sucre","province":"Pichincha","department":"Pichincha","type":"Parroquia Urbana","country":"Ecuador","iso":"EC"},"geometry":{"type":"Polygon","coordinates":[[[-78.495,-0.1958],[-78.4994,-0.2064],[-78.4917,-0.2125],[-78.4842,-0.2129],[-78.4811,-0.2121],[-78.4791,-0.2047],[-78.4798,-0.2009],[-78.4829,-0.2036],[-78.4865,-0.2021],[-78.4843,-0.1987],[-78.495,-0.1958]]]}},{"type":"Feature","id":10,"properties":{"name":"Iñaquito","province":"Pichincha","department":"Pichincha","type":"Parroquia Urbana","country":"Ecuador","iso":"EC"},"geometry":{"type":"Polygon","coordinates":[[[-78.4489,-0.1566],[-78.4526,-0.1578],[-78.4502,-0.1572],[-78.449,-0.1588],[-78.451,-0.1608],[-78.4547,-0.1608],[-78.4596,-0.1626],[-78.4619,-0.1621],[-78.4668,-0.1655],[-78.4763,-0.1693],[-78.4762,-0.1709],[-78.487,-0.1684],[-78.4892,-0.1796],[-78.495,-0.1958],[-78.4843,-0.1987],[-78.4865,-0.2021],[-78.4829,-0.2036],[-78.4803,-0.202],[-78.4768,-0.1949],[-78.4746,-0.194],[-78.4777,-0.1918],[-78.4782,-0.191],[-78.477,-0.1902],[-78.4684,-0.1943],[-78.4678,-0.1935],[-78.4653,-0.1938],[-78.4601,-0.1923],[-78.4583,-0.1907],[-78.4561,-0.1915],[-78.4525,-0.1891],[-78.4538,-0.1859],[-78.451,-0.1838],[-78.4512,-0.1798],[-78.4486,-0.1793],[-78.4456,-0.1813],[-78.4432,-0.1801],[-78.4438,-0.1784],[-78.4458,-0.1774],[-78.4472,-0.1725],[-78.4469,-0.1718],[-78.4457,-0.172],[-78.4472,-0.1709],[-78.4452,-0.1711],[-78.4456,-0.1699],[-78.4438,-0.1679],[-78.4447,-0.1672],[-78.4431,-0.1643],[-78.4501,-0.1625],[-78.4481,-0.1574],[-78.4489,-0.1566]]]}},{"type":"Feature","id":11,"properties":{"name":"Rumipamba","province":"Pichincha","department":"Pichincha","type":"Parroquia Urbana","country":"Ecuador","iso":"EC"},"geometry":{"type":"Polygon","coordinates":[[[-78.4959,-0.1542],[-78.4974,-0.1541],[-78.4958,-0.1612],[-78.4967,-0.1616],[-78.4969,-0.1604],[-78.5033,-0.1609],[-78.5028,-0.1638],[-78.4986,-0.1635],[-78.4988,-0.1683],[-78.5006,-0.1671],[-78.5037,-0.1671],[-78.5035,-0.1657],[-78.5054,-0.1694],[-78.5081,-0.1699],[-78.5059,-0.1683],[-78.5065,-0.1659],[-78.5069,-0.1674],[-78.5092,-0.1681],[-78.5079,-0.166],[-78.5112,-0.1685],[-78.51,-0.1663],[-78.515,-0.1737],[-78.5142,-0.1693],[-78.5127,-0.1674],[-78.5143,-0.1659],[-78.5135,-0.1674],[-78.516,-0.1691],[-78.5162,-0.1712],[-78.5181,-0.173],[-78.5173,-0.171],[-78.5178,-0.1688],[-78.5169,-0.1674],[-78.5179,-0.1664],[-78.5175,-0.1674],[-78.5192,-0.1691],[-78.5189,-0.1708],[-78.52,-0.1722],[-78.5193,-0.167],[-78.5207,-0.1688],[-78.5209,-0.171],[-78.5208,-0.1669],[-78.5218,-0.1697],[-78.5228,-0.17],[-78.522,-0.1665],[-78.5229,-0.1662],[-78.5222,-0.1669],[-78.5233,-0.1689],[-78.523,-0.1672],[-78.524,-0.1661],[-78.5236,-0.1674],[-78.5245,-0.1688],[-78.5247,-0.1666],[-78.5253,-0.1678],[-78.5257,-0.1663],[-78.5324,-0.1643],[-78.5373,-0.1639],[-78.5415,-0.166],[-78.5463,-0.1631],[-78.5555,-0.1655],[-78.5509,-0.1686],[-78.5474,-0.1685],[-78.5412,-0.1719],[-78.5336,-0.1734],[-78.5306,-0.1759],[-78.5274,-0.1769],[-78.5245,-0.1764],[-78.5146,-0.1799],[-78.5129,-0.1759],[-78.5119,-0.1759],[-78.5084,-0.1774],[-78.5085,-0.1822],[-78.5051,-0.1811],[-78.5029,-0.1838],[-78.4954,-0.1864],[-78.4904,-0.1835],[-78.4856,-0.1602],[-78.4874,-0.1615],[-78.4886,-0.1559],[-78.4918,-0.1566],[-78.4923,-0.1548],[-78.4959,-0.1542]]]}},{"type":"Feature","id":12,"properties":{"name":"Solanda","province":"Pichincha","department":"Pichincha","type":"Parroquia Urbana","country":"Ecuador","iso":"EC"},"geometry":{"type":"Polygon","coordinates":[[[-78.5286,-0.2706],[-78.5295,-0.2693],[-78.5332,-0.2688],[-78.538,-0.2627],[-78.5428,-0.2656],[-78.5507,-0.2662],[-78.5528,-0.2792],[-78.5434,-0.2825],[-78.541,-0.2873],[-78.5405,-0.2842],[-78.5367,-0.2854],[-78.5306,-0.2768],[-78.5286,-0.2706]]]}},{"type":"Feature","id":13,"properties":{"name":"Kennedy","province":"Pichincha","department":"Pichincha","type":"Parroquia Urbana","country":"Ecuador","iso":"EC"},"geometry":{"type":"Polygon","coordinates":[[[-78.4856,-0.1602],[-78.4771,-0.1544],[-78.4675,-0.1538],[-78.4657,-0.1548],[-78.4638,-0.1518],[-78.4693,-0.1475],[-78.4714,-0.1273],[-78.4729,-0.127],[-78.4756,-0.121],[-78.4801,-0.1202],[-78.4808,-0.1263],[-78.4834,-0.1258],[-78.4863,-0.1237],[-78.4901,-0.123],[-78.4892,-0.1277],[-78.4881,-0.1283],[-78.487,-0.1389],[-78.486,-0.1387],[-78.4838,-0.1476],[-78.4856,-0.1602]]]}},{"type":"Feature","id":14,"properties":{"name":"La Argelia","province":"Pichincha","department":"Pichincha","type":"Parroquia Urbana","country":"Ecuador","iso":"EC"},"geometry":{"type":"Polygon","coordinates":[[[-78.521,-0.2702],[-78.5251,-0.269],[-78.5251,-0.2682],[-78.5271,-0.2673],[-78.531,-0.2774],[-78.5367,-0.2854],[-78.5405,-0.2842],[-78.541,-0.2873],[-78.5362,-0.2911],[-78.5357,-0.2903],[-78.5333,-0.2932],[-78.5271,-0.2941],[-78.5277,-0.295],[-78.5188,-0.2973],[-78.5165,-0.2937],[-78.5162,-0.291],[-78.513,-0.2903],[-78.514,-0.2851],[-78.5114,-0.2864],[-78.5085,-0.2846],[-78.5063,-0.2788],[-78.5077,-0.2747],[-78.5102,-0.2737],[-78.5102,-0.2726],[-78.521,-0.2702]]]}},{"type":"Feature","id":15,"properties":{"name":"La Ferroviaria","province":"Pichincha","department":"Pichincha","type":"Parroquia Urbana","country":"Ecuador","iso":"EC"},"geometry":{"type":"Polygon","coordinates":[[[-78.5012,-0.243],[-78.5062,-0.2381],[-78.5068,-0.2415],[-78.506,-0.2443],[-78.507,-0.2474],[-78.5097,-0.2492],[-78.5128,-0.2494],[-78.5124,-0.2508],[-78.5141,-0.252],[-78.5168,-0.2508],[-78.5172,-0.2497],[-78.519,-0.2526],[-78.5218,-0.2543],[-78.5221,-0.2537],[-78.5231,-0.2609],[-78.5271,-0.2673],[-78.5251,-0.2682],[-78.5251,-0.269],[-78.5102,-0.2726],[-78.5102,-0.2737],[-78.5077,-0.2747],[-78.5055,-0.2794],[-78.5047,-0.2782],[-78.5052,-0.2712],[-78.5043,-0.2655],[-78.5007,-0.2583],[-78.4987,-0.2565],[-78.501,-0.251],[-78.5028,-0.2498],[-78.5004,-0.2434],[-78.5012,-0.243]]]}},{"type":"Feature","id":16,"properties":{"name":"La Concepción","province":"Pichincha","department":"Pichincha","type":"Parroquia Urbana","country":"Ecuador","iso":"EC"},"geometry":{"type":"Polygon","coordinates":[[[-78.4856,-0.1602],[-78.4838,-0.1476],[-78.486,-0.1387],[-78.487,-0.1389],[-78.4881,-0.1283],[-78.4892,-0.1277],[-78.4901,-0.123],[-78.4939,-0.1231],[-78.494,-0.1293],[-78.4949,-0.1294],[-78.5015,-0.1292],[-78.5021,-0.1237],[-78.5031,-0.1238],[-78.5025,-0.1283],[-78.5037,-0.1283],[-78.5033,-0.1308],[-78.5022,-0.1306],[-78.5011,-0.1402],[-78.4981,-0.1491],[-78.4974,-0.1541],[-78.4923,-0.1547],[-78.4918,-0.1566],[-78.4886,-0.1559],[-78.4874,-0.1615],[-78.4856,-0.1602]]]}},{"type":"Feature","id":17,"properties":{"name":"Chilibulo","province":"Pichincha","department":"Pichincha","type":"Parroquia Urbana","country":"Ecuador","iso":"EC"},"geometry":{"type":"Polygon","coordinates":[[[-78.5485,-0.2139],[-78.5492,-0.213],[-78.5496,-0.2146],[-78.5544,-0.2189],[-78.555,-0.2205],[-78.5535,-0.2228],[-78.5536,-0.2281],[-78.5511,-0.237],[-78.5495,-0.245],[-78.5501,-0.2457],[-78.5469,-0.2482],[-78.5447,-0.2545],[-78.5419,-0.2559],[-78.5347,-0.2469],[-78.5321,-0.2415],[-78.5253,-0.2348],[-78.5291,-0.2308],[-78.5302,-0.2334],[-78.5324,-0.2331],[-78.533,-0.228],[-78.5348,-0.2303],[-78.5345,-0.2279],[-78.5353,-0.2264],[-78.5338,-0.2253],[-78.533,-0.2228],[-78.5334,-0.2215],[-78.5347,-0.2212],[-78.5354,-0.2186],[-78.5376,-0.2171],[-78.5404,-0.2167],[-78.5392,-0.2159],[-78.5417,-0.2137],[-78.5485,-0.2139]]]}},{"type":"Feature","id":18,"properties":{"name":"Cochapamba","province":"Pichincha","department":"Pichincha","type":"Parroquia Urbana","country":"Ecuador","iso":"EC"},"geometry":{"type":"Polygon","coordinates":[[[-78.5065,-0.1179],[-78.5092,-0.1184],[-78.5137,-0.121],[-78.516,-0.1235],[-78.5163,-0.1255],[-78.5224,-0.129],[-78.5291,-0.1291],[-78.5379,-0.1342],[-78.5408,-0.1368],[-78.5441,-0.1452],[-78.5534,-0.1591],[-78.5603,-0.1604],[-78.5679,-0.1641],[-78.5614,-0.1671],[-78.5494,-0.1634],[-78.5457,-0.1632],[-78.5415,-0.166],[-78.5373,-0.1639],[-78.5324,-0.1643],[-78.5257,-0.1663],[-78.5253,-0.1678],[-78.5247,-0.1666],[-78.5245,-0.1688],[-78.5236,-0.1674],[-78.524,-0.1661],[-78.523,-0.1672],[-78.5233,-0.1689],[-78.5222,-0.1669],[-78.5229,-0.1662],[-78.522,-0.1665],[-78.5228,-0.17],[-78.5218,-0.1697],[-78.5208,-0.1669],[-78.5209,-0.171],[-78.5207,-0.1688],[-78.5193,-0.167],[-78.52,-0.1722],[-78.5189,-0.1708],[-78.5192,-0.1691],[-78.5175,-0.1674],[-78.5179,-0.1664],[-78.5169,-0.1674],[-78.5178,-0.1688],[-78.5173,-0.171],[-78.5181,-0.173],[-78.5162,-0.1712],[-78.516,-0.1691],[-78.5135,-0.1674],[-78.5143,-0.1659],[-78.5127,-0.1674],[-78.5142,-0.1693],[-78.515,-0.1737],[-78.51,-0.1663],[-78.5112,-0.1685],[-78.5079,-0.166],[-78.5092,-0.1681],[-78.5069,-0.1674],[-78.5065,-0.1659],[-78.5059,-0.1683],[-78.5081,-0.1699],[-78.5054,-0.1694],[-78.5035,-0.1657],[-78.5037,-0.1671],[-78.5006,-0.1671],[-78.4988,-0.1683],[-78.4986,-0.1635],[-78.5028,-0.1638],[-78.5033,-0.1609],[-78.4969,-0.1604],[-78.4967,-0.1616],[-78.4958,-0.1612],[-78.4981,-0.1491],[-78.5011,-0.1402],[-78.5022,-0.1306],[-78.5033,-0.1308],[-78.5037,-0.1283],[-78.5025,-0.1283],[-78.5031,-0.124],[-78.5064,-0.12],[-78.5065,-0.1179]]]}},{"type":"Feature","id":19,"properties":{"name":"Cotocollao","province":"Pichincha","department":"Pichincha","type":"Parroquia Urbana","country":"Ecuador","iso":"EC"},"geometry":{"type":"Polygon","coordinates":[[[-78.5064,-0.1176],[-78.5062,-0.1203],[-78.5031,-0.1238],[-78.5021,-0.1237],[-78.5015,-0.1292],[-78.494,-0.1293],[-78.4948,-0.1129],[-78.4982,-0.1071],[-78.4974,-0.1063],[-78.4978,-0.1021],[-78.5006,-0.1032],[-78.4997,-0.1056],[-78.5038,-0.1084],[-78.5064,-0.1176]]]}},{"type":"Feature","id":20,"properties":{"name":"Chimbacalle","province":"Pichincha","department":"Pichincha","type":"Parroquia Urbana","country":"Ecuador","iso":"EC"},"geometry":{"type":"Polygon","coordinates":[[[-78.5143,-0.2342],[-78.5191,-0.2448],[-78.5218,-0.2543],[-78.5189,-0.2525],[-78.5172,-0.2497],[-78.5168,-0.2508],[-78.5141,-0.252],[-78.5124,-0.2508],[-78.5128,-0.2494],[-78.5097,-0.2492],[-78.507,-0.2474],[-78.506,-0.2443],[-78.5068,-0.2415],[-78.5062,-0.2381],[-78.5082,-0.2367],[-78.5062,-0.2372],[-78.5051,-0.2324],[-78.5094,-0.2326],[-78.5089,-0.2336],[-78.5101,-0.2345],[-78.5139,-0.2336],[-78.5143,-0.2342]]]}},{"type":"Feature","id":21,"properties":{"name":"Puengasí","province":"Pichincha","department":"Pichincha","type":"Parroquia Urbana","country":"Ecuador","iso":"EC"},"geometry":{"type":"Polygon","coordinates":[[[-78.4669,-0.2203],[-78.4717,-0.2202],[-78.4713,-0.2184],[-78.4725,-0.2177],[-78.4741,-0.2203],[-78.4777,-0.2203],[-78.4806,-0.2188],[-78.4829,-0.2226],[-78.4853,-0.2229],[-78.487,-0.2217],[-78.4885,-0.222],[-78.4892,-0.2209],[-78.4907,-0.2212],[-78.4924,-0.2239],[-78.4932,-0.2233],[-78.4948,-0.2246],[-78.4945,-0.2262],[-78.4954,-0.2261],[-78.497,-0.2286],[-78.4982,-0.2287],[-78.4992,-0.2305],[-78.5013,-0.231],[-78.503,-0.2328],[-78.5024,-0.2333],[-78.5042,-0.2334],[-78.5051,-0.2324],[-78.5062,-0.2372],[-78.5082,-0.2367],[-78.5004,-0.2434],[-78.5028,-0.2498],[-78.501,-0.251],[-78.5005,-0.2532],[-78.4942,-0.2555],[-78.4911,-0.258],[-78.4841,-0.2548],[-78.4828,-0.251],[-78.4832,-0.249],[-78.479,-0.2492],[-78.4799,-0.2477],[-78.4768,-0.2465],[-78.4747,-0.2428],[-78.473,-0.2362],[-78.471,-0.2348],[-78.4713,-0.2328],[-78.4691,-0.2291],[-78.4689,-0.2248],[-78.4669,-0.2203]]]}},{"type":"Feature","id":22,"properties":{"name":"Zámbiza","province":"Pichincha","department":"Pichincha","type":"Parroquia Rural","country":"Ecuador","iso":"EC"},"geometry":{"type":"Polygon","coordinates":[[[-78.4079,-0.1369],[-78.4121,-0.1385],[-78.4258,-0.1386],[-78.4271,-0.1416],[-78.435,-0.1457],[-78.4375,-0.1461],[-78.4411,-0.145],[-78.447,-0.14],[-78.451,-0.1412],[-78.4526,-0.1404],[-78.4516,-0.1413],[-78.4478,-0.1415],[-78.4461,-0.1435],[-78.4472,-0.1475],[-78.45,-0.1471],[-78.4395,-0.1533],[-78.4255,-0.1526],[-78.4225,-0.1509],[-78.4171,-0.1524],[-78.4136,-0.1502],[-78.412,-0.1502],[-78.411,-0.1516],[-78.4084,-0.1521],[-78.406,-0.155],[-78.4007,-0.1485],[-78.4012,-0.1456],[-78.3989,-0.1449],[-78.3967,-0.141],[-78.3952,-0.1407],[-78.3962,-0.1391],[-78.3943,-0.1387],[-78.3928,-0.1355],[-78.3911,-0.1354],[-78.3896,-0.1338],[-78.3912,-0.1322],[-78.3901,-0.1313],[-78.3942,-0.1313],[-78.3988,-0.1342],[-78.4005,-0.1335],[-78.4037,-0.1344],[-78.4079,-0.1369]]]}},{"type":"Feature","id":23,"properties":{"name":"Nayón","province":"Pichincha","department":"Pichincha","type":"Parroquia Rural","country":"Ecuador","iso":"EC"},"geometry":{"type":"Polygon","coordinates":[[[-78.4526,-0.1578],[-78.4493,-0.1563],[-78.4484,-0.1567],[-78.4501,-0.1625],[-78.4432,-0.1641],[-78.4447,-0.1672],[-78.4438,-0.1679],[-78.4456,-0.1699],[-78.4452,-0.1711],[-78.4471,-0.1709],[-78.4456,-0.172],[-78.4469,-0.1718],[-78.4472,-0.1725],[-78.4458,-0.1774],[-78.4438,-0.1784],[-78.4432,-0.18],[-78.4456,-0.1813],[-78.4486,-0.1793],[-78.4512,-0.1798],[-78.451,-0.1838],[-78.4538,-0.1859],[-78.4532,-0.1886],[-78.4511,-0.1899],[-78.4534,-0.1916],[-78.4532,-0.1927],[-78.4499,-0.191],[-78.4499,-0.193],[-78.4484,-0.1921],[-78.4463,-0.1925],[-78.4464,-0.1943],[-78.4458,-0.1948],[-78.445,-0.1939],[-78.4441,-0.195],[-78.434,-0.1893],[-78.4307,-0.1856],[-78.43,-0.1863],[-78.429,-0.1856],[-78.4268,-0.1862],[-78.423,-0.1844],[-78.4212,-0.1847],[-78.4205,-0.1859],[-78.4134,-0.1848],[-78.4135,-0.1779],[-78.417,-0.1778],[-78.4184,-0.1743],[-78.4174,-0.174],[-78.415,-0.1756],[-78.416,-0.1719],[-78.415,-0.1716],[-78.4147,-0.1729],[-78.4123,-0.1732],[-78.4118,-0.1712],[-78.4104,-0.1705],[-78.4114,-0.1695],[-78.4113,-0.1663],[-78.4125,-0.1653],[-78.4116,-0.1634],[-78.413,-0.1629],[-78.4128,-0.1613],[-78.4116,-0.1581],[-78.4099,-0.1577],[-78.4099,-0.1564],[-78.4083,-0.1572],[-78.4072,-0.1553],[-78.406,-0.155],[-78.4093,-0.1514],[-78.411,-0.1516],[-78.4121,-0.1502],[-78.4171,-0.1524],[-78.4225,-0.1509],[-78.4277,-0.1529],[-78.4312,-0.1523],[-78.4394,-0.1534],[-78.4405,-0.1522],[-78.4452,-0.1574],[-78.4504,-0.1558],[-78.4526,-0.1578]]]}},{"type":"Feature","id":24,"properties":{"name":"Cumbayá","province":"Pichincha","department":"Pichincha","type":"Parroquia Rural","country":"Ecuador","iso":"EC"},"geometry":{"type":"Polygon","coordinates":[[[-78.414,-0.1774],[-78.4132,-0.1806],[-78.414,-0.1823],[-78.4137,-0.1851],[-78.4205,-0.1859],[-78.4212,-0.1847],[-78.423,-0.1844],[-78.4268,-0.1862],[-78.429,-0.1856],[-78.43,-0.1863],[-78.4306,-0.1855],[-78.434,-0.1893],[-78.4392,-0.1918],[-78.4399,-0.1933],[-78.441,-0.1932],[-78.4424,-0.1946],[-78.4442,-0.195],[-78.445,-0.1939],[-78.4458,-0.1948],[-78.446,-0.1939],[-78.448,-0.1939],[-78.4485,-0.195],[-78.4501,-0.1949],[-78.4518,-0.1968],[-78.4539,-0.1957],[-78.4554,-0.1961],[-78.4567,-0.1976],[-78.4566,-0.2013],[-78.4596,-0.2043],[-78.466,-0.2172],[-78.4689,-0.2248],[-78.4691,-0.2291],[-78.4713,-0.2328],[-78.471,-0.2348],[-78.4731,-0.2365],[-78.4714,-0.2369],[-78.4701,-0.2386],[-78.4615,-0.2412],[-78.4559,-0.2469],[-78.4524,-0.2471],[-78.4459,-0.2424],[-78.446,-0.2397],[-78.4439,-0.2393],[-78.444,-0.2371],[-78.4405,-0.2353],[-78.4394,-0.2322],[-78.436,-0.2301],[-78.4332,-0.2319],[-78.4316,-0.231],[-78.4318,-0.2296],[-78.4301,-0.2264],[-78.4318,-0.2244],[-78.429,-0.2194],[-78.4248,-0.2207],[-78.4247,-0.2191],[-78.4215,-0.218],[-78.4229,-0.2165],[-78.4234,-0.2122],[-78.4224,-0.2076],[-78.4188,-0.2074],[-78.4192,-0.204],[-78.4178,-0.204],[-78.4175,-0.2027],[-78.4157,-0.2029],[-78.4151,-0.201],[-78.4134,-0.2001],[-78.4145,-0.199],[-78.4132,-0.1971],[-78.4089,-0.1981],[-78.4073,-0.1932],[-78.4049,-0.1937],[-78.4027,-0.1926],[-78.4028,-0.1918],[-78.4057,-0.1912],[-78.405,-0.1883],[-78.407,-0.1886],[-78.4067,-0.187],[-78.4085,-0.1865],[-78.406,-0.1823],[-78.408,-0.1818],[-78.409,-0.179],[-78.4107,-0.1796],[-78.4122,-0.1774],[-78.4115,-0.1758],[-78.4133,-0.1755],[-78.414,-0.1774]]]}},{"type":"Feature","id":25,"properties":{"name":"Tumbaco","province":"Pichincha","department":"Pichincha","type":"Parroquia Rural","country":"Ecuador","iso":"EC"},"geometry":{"type":"Polygon","coordinates":[[[-78.414,-0.1774],[-78.4133,-0.1755],[-78.4115,-0.1758],[-78.4122,-0.1774],[-78.4107,-0.1796],[-78.409,-0.179],[-78.408,-0.1818],[-78.406,-0.1823],[-78.4085,-0.1865],[-78.4067,-0.187],[-78.407,-0.1886],[-78.405,-0.1883],[-78.4057,-0.1912],[-78.4028,-0.1918],[-78.4028,-0.1929],[-78.4051,-0.1938],[-78.4073,-0.1932],[-78.4089,-0.1981],[-78.413,-0.197],[-78.4145,-0.199],[-78.4134,-0.2001],[-78.4151,-0.201],[-78.4157,-0.2029],[-78.4175,-0.2027],[-78.4178,-0.204],[-78.4192,-0.204],[-78.4188,-0.2074],[-78.4224,-0.2076],[-78.4234,-0.2122],[-78.4229,-0.2165],[-78.4215,-0.218],[-78.4247,-0.2191],[-78.4248,-0.2207],[-78.429,-0.2194],[-78.4318,-0.2244],[-78.4301,-0.2264],[-78.4318,-0.2296],[-78.4315,-0.2308],[-78.4332,-0.2319],[-78.4354,-0.2306],[-78.4349,-0.2341],[-78.4332,-0.2355],[-78.4305,-0.2429],[-78.4262,-0.2465],[-78.4244,-0.2509],[-78.4186,-0.2565],[-78.4175,-0.2604],[-78.4182,-0.262],[-78.4097,-0.262],[-78.4048,-0.2655],[-78.3926,-0.2662],[-78.3896,-0.2677],[-78.387,-0.2678],[-78.3842,-0.266],[-78.3815,-0.2694],[-78.3792,-0.2699],[-78.3783,-0.2713],[-78.3762,-0.2711],[-78.3744,-0.2723],[-78.3718,-0.2719],[-78.3705,-0.2695],[-78.3641,-0.2663],[-78.363,-0.2646],[-78.3623,-0.2582],[-78.3644,-0.2544],[-78.364,-0.2528],[-78.3626,-0.253],[-78.3612,-0.2503],[-78.362,-0.2494],[-78.3614,-0.2474],[-78.3623,-0.245],[-78.3615,-0.2438],[-78.3633,-0.2406],[-78.3627,-0.2384],[-78.3639,-0.2364],[-78.3646,-0.229],[-78.3674,-0.2256],[-78.3665,-0.2231],[-78.3693,-0.2175],[-78.3691,-0.2139],[-78.3701,-0.2136],[-78.3687,-0.2115],[-78.3701,-0.21],[-78.3703,-0.2048],[-78.3713,-0.2045],[-78.3719,-0.2013],[-78.3733,-0.2003],[-78.3714,-0.1987],[-78.3715,-0.1972],[-78.3752,-0.1923],[-78.3758,-0.189],[-78.3748,-0.1874],[-78.3756,-0.1863],[-78.3751,-0.184],[-78.3775,-0.1817],[-78.3795,-0.1817],[-78.3794,-0.1805],[-78.3807,-0.1804],[-78.38,-0.1793],[-78.382,-0.1792],[-78.3804,-0.178],[-78.3809,-0.1769],[-78.38,-0.1754],[-78.3811,-0.1743],[-78.3803,-0.1733],[-78.3817,-0.1731],[-78.3824,-0.1742],[-78.3831,-0.1714],[-78.3843,-0.1714],[-78.3837,-0.1703],[-78.3853,-0.1695],[-78.3851,-0.1678],[-78.3869,-0.1674],[-78.3859,-0.1657],[-78.388,-0.166],[-78.3889,-0.1642],[-78.3907,-0.1649],[-78.3922,-0.1634],[-78.3916,-0.1604],[-78.3943,-0.1589],[-78.3937,-0.1549],[-78.3941,-0.153],[-78.3953,-0.1524],[-78.3943,-0.1506],[-78.3965,-0.1458],[-78.3961,-0.1443],[-78.397,-0.1441],[-78.3974,-0.1427],[-78.3989,-0.1449],[-78.4012,-0.1456],[-78.4007,-0.1485],[-78.4027,-0.1515],[-78.4082,-0.1571],[-78.4096,-0.1562],[-78.4099,-0.1577],[-78.4119,-0.1585],[-78.4131,-0.1627],[-78.4116,-0.1634],[-78.4126,-0.1648],[-78.4113,-0.1663],[-78.4114,-0.1695],[-78.4104,-0.1705],[-78.4118,-0.1712],[-78.4123,-0.1732],[-78.4147,-0.1729],[-78.415,-0.1716],[-78.416,-0.1719],[-78.415,-0.1756],[-78.4174,-0.174],[-78.4184,-0.1743],[-78.417,-0.1778],[-78.414,-0.1774]]]}},{"type":"Feature","id":26,"properties":{"name":"Guangopolo","province":"Pichincha","department":"Pichincha","type":"Parroquia Rural","country":"Ecuador","iso":"EC"},"geometry":{"type":"Polygon","coordinates":[[[-78.4182,-0.262],[-78.4175,-0.2604],[-78.4186,-0.2565],[-78.4244,-0.2509],[-78.4262,-0.2465],[-78.4305,-0.2429],[-78.4332,-0.2355],[-78.4349,-0.2341],[-78.4359,-0.2301],[-78.4397,-0.2324],[-78.4405,-0.2353],[-78.444,-0.2371],[-78.444,-0.2394],[-78.4458,-0.2394],[-78.4466,-0.2408],[-78.4459,-0.2424],[-78.4491,-0.2454],[-78.4523,-0.2469],[-78.4514,-0.2505],[-78.453,-0.251],[-78.4528,-0.2553],[-78.4541,-0.2552],[-78.4549,-0.257],[-78.4579,-0.2582],[-78.4569,-0.2609],[-78.4526,-0.2608],[-78.453,-0.2642],[-78.4483,-0.2709],[-78.4427,-0.2668],[-78.4415,-0.2671],[-78.4346,-0.2632],[-78.4298,-0.2627],[-78.4252,-0.2655],[-78.4218,-0.2655],[-78.4182,-0.262]]]}},{"type":"Feature","id":27,"properties":{"name":"La Merced","province":"Pichincha","department":"Pichincha","type":"Parroquia Rural","country":"Ecuador","iso":"EC"},"geometry":{"type":"Polygon","coordinates":[[[-78.3639,-0.2662],[-78.3694,-0.2686],[-78.3716,-0.2718],[-78.3744,-0.2723],[-78.3815,-0.2694],[-78.3842,-0.266],[-78.387,-0.2678],[-78.3896,-0.2677],[-78.3926,-0.2662],[-78.4048,-0.2655],[-78.4097,-0.262],[-78.4182,-0.262],[-78.4194,-0.2648],[-78.4191,-0.2673],[-78.4152,-0.2743],[-78.4148,-0.2767],[-78.4072,-0.2869],[-78.4088,-0.2881],[-78.4134,-0.2886],[-78.4147,-0.2895],[-78.4151,-0.2915],[-78.419,-0.292],[-78.4196,-0.2931],[-78.4216,-0.2934],[-78.4224,-0.2951],[-78.421,-0.295],[-78.419,-0.2974],[-78.4181,-0.299],[-78.4186,-0.3],[-78.4172,-0.2988],[-78.4156,-0.2999],[-78.4141,-0.2995],[-78.4103,-0.3028],[-78.4101,-0.3076],[-78.4071,-0.3105],[-78.4056,-0.3137],[-78.4006,-0.3143],[-78.4023,-0.3164],[-78.4018,-0.3174],[-78.4055,-0.3196],[-78.4043,-0.3215],[-78.4054,-0.3223],[-78.3981,-0.3239],[-78.3941,-0.3273],[-78.3849,-0.3289],[-78.3813,-0.3267],[-78.3778,-0.3225],[-78.3773,-0.3199],[-78.376,-0.3223],[-78.3744,-0.3201],[-78.3725,-0.3214],[-78.3704,-0.3272],[-78.3714,-0.3197],[-78.3683,-0.3132],[-78.3679,-0.309],[-78.37,-0.3018],[-78.368,-0.2977],[-78.3681,-0.2934],[-78.3653,-0.2767],[-78.3658,-0.27],[-78.3639,-0.2662]]]}},{"type":"Feature","id":28,"properties":{"name":"Alangasí","province":"Pichincha","department":"Pichincha","type":"Parroquia Rural","country":"Ecuador","iso":"EC"},"geometry":{"type":"Polygon","coordinates":[[[-78.4182,-0.262],[-78.4218,-0.2655],[-78.4252,-0.2655],[-78.4302,-0.2626],[-78.4348,-0.2632],[-78.4415,-0.2671],[-78.4427,-0.2668],[-78.4483,-0.2709],[-78.4487,-0.2731],[-78.4514,-0.2737],[-78.4527,-0.2758],[-78.4506,-0.2788],[-78.4552,-0.2814],[-78.458,-0.2816],[-78.4577,-0.2839],[-78.4605,-0.2865],[-78.4613,-0.2889],[-78.4633,-0.2901],[-78.4595,-0.2974],[-78.4579,-0.2975],[-78.4541,-0.3025],[-78.4528,-0.3023],[-78.4523,-0.3037],[-78.4474,-0.3073],[-78.4416,-0.31],[-78.4373,-0.3145],[-78.4335,-0.3156],[-78.4302,-0.3215],[-78.4261,-0.3226],[-78.4241,-0.3247],[-78.4243,-0.327],[-78.4202,-0.3278],[-78.4198,-0.3301],[-78.418,-0.3303],[-78.4173,-0.3292],[-78.4159,-0.331],[-78.4116,-0.3331],[-78.4091,-0.3331],[-78.4041,-0.3375],[-78.403,-0.3399],[-78.4005,-0.3395],[-78.4002,-0.3375],[-78.4011,-0.3366],[-78.4009,-0.3338],[-78.4021,-0.3299],[-78.4018,-0.3261],[-78.4035,-0.3231],[-78.4053,-0.3226],[-78.4043,-0.3215],[-78.4055,-0.3197],[-78.4018,-0.3174],[-78.4023,-0.3164],[-78.4006,-0.3143],[-78.4056,-0.3137],[-78.4071,-0.3105],[-78.4101,-0.3076],[-78.4103,-0.3028],[-78.4141,-0.2995],[-78.4156,-0.2999],[-78.4172,-0.2988],[-78.4186,-0.3],[-78.4181,-0.299],[-78.419,-0.2974],[-78.421,-0.295],[-78.4224,-0.2951],[-78.4216,-0.2934],[-78.4196,-0.2931],[-78.419,-0.292],[-78.4151,-0.2915],[-78.4147,-0.2895],[-78.4134,-0.2886],[-78.4088,-0.2881],[-78.4072,-0.2869],[-78.4148,-0.2767],[-78.4152,-0.2743],[-78.4191,-0.2673],[-78.4194,-0.2648],[-78.4182,-0.262]]]}}]}