{"type":"FeatureCollection","features":[{"type":"Feature","id":"municipality-reykjavik-1","properties":{"name":"Reykjavíkurborg","province":"Reykjavík","department":"Höfuðborgarsvæðið","type":"Sveitarfélag","country":"Islandia","iso":"IS"},"geometry":{"type":"MultiPolygon","coordinates":[[[[-21.8426,64.1279],[-21.8432,64.1284],[-21.8437,64.1271],[-21.8426,64.1279]]],[[[-21.9859,64.1261],[-21.9855,64.1265],[-21.9868,64.1267],[-21.9859,64.1261]]],[[[-21.9834,64.1268],[-21.9843,64.1268],[-21.984,64.1263],[-21.9821,64.1259],[-21.9834,64.1268]]],[[[-21.8162,64.156],[-21.8162,64.156],[-21.8162,64.156],[-21.8162,64.156],[-21.8162,64.156],[-21.8162,64.156],[-21.8162,64.156],[-21.8162,64.156],[-21.8162,64.156],[-21.8162,64.156],[-21.8163,64.156],[-21.8163,64.156],[-21.8163,64.156],[-21.8163,64.156],[-21.8163,64.156],[-21.8163,64.1559],[-21.8164,64.1559],[-21.8163,64.1559],[-21.8163,64.1559],[-21.8163,64.1559],[-21.8163,64.1559],[-21.8163,64.1559],[-21.8163,64.1559],[-21.8163,64.1558],[-21.8163,64.1558],[-21.8163,64.1558],[-21.8163,64.1558],[-21.8163,64.1558],[-21.8162,64.1558],[-21.8162,64.1558],[-21.8162,64.1558],[-21.8162,64.1559],[-21.8161,64.1559],[-21.8161,64.1559],[-21.8161,64.1559],[-21.8161,64.1559],[-21.8161,64.1559],[-21.816,64.1559],[-21.816,64.1559],[-21.816,64.1559],[-21.8161,64.1559],[-21.8161,64.1559],[-21.8161,64.1559],[-21.8161,64.1559],[-21.8162,64.1559],[-21.8162,64.156]]],[[[-21.8151,64.1567],[-21.8156,64.1566],[-21.8151,64.1567],[-21.8151,64.1567]]],[[[-21.816,64.1569],[-21.8165,64.1568],[-21.816,64.1569],[-21.816,64.1569]]],[[[-21.7569,64.1622],[-21.757,64.1628],[-21.7597,64.1636],[-21.7607,64.1628],[-21.7599,64.1618],[-21.7569,64.1622]]],[[[-21.9437,64.1618],[-21.9441,64.1617],[-21.9437,64.1618],[-21.9437,64.1618]]],[[[-21.9443,64.1624],[-21.9443,64.1624],[-21.9443,64.1624],[-21.9442,64.1625],[-21.9442,64.1625],[-21.9442,64.1625],[-21.9442,64.1626],[-21.9442,64.1626],[-21.9442,64.1626],[-21.9442,64.1626],[-21.9442,64.1626],[-21.9442,64.1626],[-21.9443,64.1625],[-21.9443,64.1625],[-21.9443,64.1625],[-21.9444,64.1625],[-21.9444,64.1625],[-21.9444,64.1625],[-21.9444,64.1624],[-21.9444,64.1624],[-21.9444,64.1624],[-21.9444,64.1624],[-21.9444,64.1624],[-21.9443,64.1624]]],[[[-21.866,64.1653],[-21.8665,64.1652],[-21.866,64.1653],[-21.866,64.1653]]],[[[-21.9547,64.1615],[-21.9562,64.1639],[-21.9567,64.1635],[-21.9558,64.1616],[-21.9577,64.1616],[-21.9583,64.1609],[-21.956,64.1595],[-21.9561,64.1604],[-21.9547,64.1615]]],[[[-21.7464,64.165],[-21.7495,64.1642],[-21.7526,64.1618],[-21.7585,64.1599],[-21.7602,64.1599],[-21.7664,64.1575],[-21.7689,64.1559],[-21.7707,64.1562],[-21.7699,64.157],[-21.7706,64.1577],[-21.7784,64.1565],[-21.7824,64.1569],[-21.7871,64.1564],[-21.789,64.1571],[-21.7923,64.1561],[-21.79,64.1572],[-21.7889,64.1591],[-21.7891,64.16],[-21.7903,64.1608],[-21.7839,64.1602],[-21.7818,64.1608],[-21.7805,64.1638],[-21.7818,64.1662],[-21.7798,64.1666],[-21.7809,64.1676],[-21.7944,64.1708],[-21.8004,64.1735],[-21.8048,64.1746],[-21.8182,64.1733],[-21.8196,64.1735],[-21.8195,64.1742],[-21.8205,64.1744],[-21.8213,64.1742],[-21.8214,64.1732],[-21.8257,64.1717],[-21.8245,64.1689],[-21.8222,64.1671],[-21.8173,64.1652],[-21.8177,64.1645],[-21.8168,64.1648],[-21.8148,64.1641],[-21.8037,64.1629],[-21.7896,64.1601],[-21.7905,64.1576],[-21.7933,64.1562],[-21.7942,64.1569],[-21.7968,64.1565],[-21.7975,64.1574],[-21.8131,64.1541],[-21.8147,64.1545],[-21.8151,64.1555],[-21.8166,64.1556],[-21.8181,64.1546],[-21.8213,64.1559],[-21.8187,64.1543],[-21.8202,64.1526],[-21.8238,64.1513],[-21.8196,64.1494],[-21.8213,64.1485],[-21.8231,64.1447],[-21.8253,64.144],[-21.8266,64.1426],[-21.8254,64.1405],[-21.8211,64.1366],[-21.8162,64.1359],[-21.8166,64.1352],[-21.8117,64.1337],[-21.8095,64.1338],[-21.799,64.1312],[-21.7961,64.1314],[-21.7922,64.1305],[-21.7909,64.1295],[-21.7938,64.1272],[-21.8097,64.1297],[-21.8137,64.134],[-21.8158,64.1339],[-21.8163,64.133],[-21.8193,64.1331],[-21.8207,64.1333],[-21.8206,64.1341],[-21.8192,64.135],[-21.8215,64.1344],[-21.8254,64.135],[-21.8268,64.1345],[-21.8263,64.1337],[-21.8308,64.1325],[-21.8316,64.1315],[-21.8328,64.1326],[-21.8356,64.1333],[-21.8365,64.132],[-21.8355,64.1303],[-21.8371,64.1289],[-21.8374,64.1271],[-21.8422,64.1258],[-21.8376,64.1274],[-21.8373,64.1289],[-21.836,64.1305],[-21.8367,64.1313],[-21.8379,64.1313],[-21.8416,64.1296],[-21.842,64.1277],[-21.8443,64.1255],[-21.8446,64.1262],[-21.8454,64.1262],[-21.8455,64.1271],[-21.8445,64.1282],[-21.8448,64.1288],[-21.8378,64.1322],[-21.8363,64.1339],[-21.8386,64.1343],[-21.8372,64.1336],[-21.838,64.1328],[-21.8406,64.1333],[-21.8401,64.1341],[-21.8416,64.1339],[-21.8427,64.1319],[-21.8459,64.1298],[-21.8432,64.1339],[-21.8381,64.1348],[-21.8385,64.1355],[-21.8377,64.1358],[-21.8378,64.1367],[-21.8374,64.1367],[-21.8379,64.1432],[-21.8388,64.1434],[-21.839,64.1463],[-21.8486,64.1508],[-21.8568,64.1492],[-21.8577,64.1485],[-21.861,64.1508],[-21.8563,64.1521],[-21.8649,64.1566],[-21.8663,64.156],[-21.8675,64.1565],[-21.8647,64.1581],[-21.8681,64.1566],[-21.8688,64.1556],[-21.8727,64.1562],[-21.8863,64.154],[-21.8892,64.1528],[-21.8895,64.152],[-21.8884,64.1516],[-21.8883,64.151],[-21.8941,64.148],[-21.9089,64.1472],[-21.9146,64.1462],[-21.92,64.1468],[-21.9303,64.1501],[-21.9317,64.1519],[-21.9332,64.1519],[-21.932,64.1517],[-21.9318,64.1508],[-21.9345,64.1504],[-21.9367,64.1515],[-21.9351,64.1505],[-21.9374,64.1494],[-21.9403,64.1507],[-21.9427,64.1507],[-21.944,64.1513],[-21.94,64.153],[-21.9447,64.1517],[-21.9467,64.1527],[-21.949,64.1529],[-21.9478,64.1534],[-21.947,64.153],[-21.9477,64.1535],[-21.9472,64.1536],[-21.9464,64.1532],[-21.947,64.1537],[-21.9465,64.1538],[-21.9457,64.1534],[-21.9464,64.1539],[-21.9457,64.1541],[-21.9441,64.1534],[-21.9449,64.1539],[-21.9426,64.1546],[-21.9411,64.1537],[-21.9398,64.1541],[-21.9411,64.1549],[-21.9391,64.1556],[-21.9381,64.1551],[-21.9389,64.1557],[-21.938,64.1559],[-21.9351,64.1538],[-21.9343,64.154],[-21.932,64.1528],[-21.934,64.154],[-21.9332,64.1546],[-21.9372,64.1571],[-21.9372,64.158],[-21.9381,64.1581],[-21.9381,64.1595],[-21.9372,64.1596],[-21.9377,64.1601],[-21.9372,64.1603],[-21.9307,64.1596],[-21.9288,64.1601],[-21.9376,64.1605],[-21.9388,64.1612],[-21.9464,64.1604],[-21.9467,64.1586],[-21.9558,64.1558],[-21.954,64.1542],[-21.9566,64.1531],[-21.9565,64.1523],[-21.9593,64.1516],[-21.9711,64.1501],[-21.9811,64.1511],[-21.9838,64.1502],[-21.9828,64.1494],[-21.9761,64.1483],[-21.9771,64.1448],[-21.9723,64.143],[-21.972,64.1425],[-21.9731,64.1419],[-21.9714,64.1424],[-21.968,64.1418],[-21.9656,64.1406],[-21.9655,64.1392],[-21.9633,64.1369],[-21.9628,64.1345],[-21.9599,64.1326],[-21.9598,64.1306],[-21.9587,64.1285],[-21.9568,64.1273],[-21.9527,64.1268],[-21.9494,64.1247],[-21.9452,64.1249],[-21.9423,64.1243],[-21.9378,64.1204],[-21.9295,64.1207],[-21.9286,64.1214],[-21.9073,64.1204],[-21.9017,64.1192],[-21.9009,64.1183],[-21.9011,64.1171],[-21.9001,64.1167],[-21.8935,64.1178],[-21.8573,64.1168],[-21.8477,64.1159],[-21.8458,64.1147],[-21.8468,64.1138],[-21.844,64.1134],[-21.8457,64.1095],[-21.8497,64.1071],[-21.8483,64.1067],[-21.8618,64.1051],[-21.8596,64.0983],[-21.8348,64.0897],[-21.8132,64.0979],[-21.8023,64.0969],[-21.791,64.0975],[-21.7882,64.097],[-21.7838,64.0985],[-21.7829,64.096],[-21.7841,64.0947],[-21.7938,64.0937],[-21.7844,64.0845],[-21.7851,64.0827],[-21.7881,64.0816],[-21.7868,64.0796],[-21.7863,64.0764],[-21.7959,64.0718],[-21.7958,64.0703],[-21.8001,64.0683],[-21.8259,64.0595],[-21.8103,64.0404],[-21.8015,64.0437],[-21.7932,64.048],[-21.7549,64.0566],[-21.6612,64.0007],[-21.6094,63.9898],[-21.569,64.007],[-21.5864,64.0181],[-21.6608,64.0525],[-21.7026,64.0648],[-21.6783,64.0779],[-21.6724,64.079],[-21.6721,64.0801],[-21.6776,64.0819],[-21.6774,64.0825],[-21.6783,64.0835],[-21.6842,64.0851],[-21.6884,64.085],[-21.6943,64.0867],[-21.6981,64.0867],[-21.7022,64.0877],[-21.7038,64.0885],[-21.7041,64.0897],[-21.7025,64.0906],[-21.7067,64.0925],[-21.7006,64.0955],[-21.6973,64.0985],[-21.6801,64.1016],[-21.6985,64.106],[-21.6853,64.133],[-21.6837,64.133],[-21.6834,64.1374],[-21.6815,64.1374],[-21.6802,64.1385],[-21.6771,64.1387],[-21.6692,64.1413],[-21.7087,64.1474],[-21.7207,64.1481],[-21.7205,64.1511],[-21.7425,64.1476],[-21.7512,64.1535],[-21.7498,64.1539],[-21.7496,64.1544],[-21.7505,64.1548],[-21.7501,64.1551],[-21.7448,64.1577],[-21.7464,64.1589],[-21.7452,64.1598],[-21.7458,64.1605],[-21.7458,64.1618],[-21.7448,64.1624],[-21.7465,64.1631],[-21.7455,64.1643],[-21.7464,64.165]]],[[[-21.7329,64.176],[-21.7329,64.176],[-21.7329,64.176],[-21.7329,64.1761],[-21.7329,64.1761],[-21.7329,64.1761],[-21.7329,64.1761],[-21.7329,64.1761],[-21.733,64.1761],[-21.733,64.1761],[-21.733,64.1761],[-21.733,64.1761],[-21.733,64.1761],[-21.7331,64.1761],[-21.7331,64.1761],[-21.7331,64.1761],[-21.7331,64.1761],[-21.7331,64.1761],[-21.7331,64.1761],[-21.7331,64.176],[-21.733,64.176],[-21.733,64.176],[-21.733,64.176],[-21.733,64.176],[-21.7329,64.176]]],[[[-21.8716,64.1755],[-21.8737,64.1741],[-21.8714,64.1728],[-21.8709,64.1717],[-21.8685,64.1716],[-21.8644,64.17],[-21.8572,64.1685],[-21.8573,64.1673],[-21.8598,64.1668],[-21.8595,64.1662],[-21.861,64.1657],[-21.861,64.1647],[-21.8621,64.1645],[-21.8619,64.1637],[-21.8627,64.1629],[-21.86,64.1632],[-21.8569,64.1616],[-21.855,64.1616],[-21.8555,64.1611],[-21.8547,64.1616],[-21.8527,64.1604],[-21.8507,64.1601],[-21.8488,64.1577],[-21.849,64.1568],[-21.8433,64.1563],[-21.841,64.1549],[-21.8327,64.1559],[-21.831,64.1579],[-21.8312,64.1589],[-21.8342,64.1604],[-21.8552,64.1689],[-21.8556,64.1694],[-21.8546,64.1698],[-21.8535,64.172],[-21.854,64.1737],[-21.8587,64.1753],[-21.8716,64.1755]]],[[[-21.9616,64.1724],[-21.9659,64.1746],[-21.9674,64.1744],[-21.9689,64.1733],[-21.9676,64.1723],[-21.9621,64.1718],[-21.9616,64.1713],[-21.9634,64.1707],[-21.962,64.1695],[-21.962,64.1686],[-21.9596,64.1689],[-21.9607,64.1709],[-21.9592,64.1722],[-21.9597,64.1727],[-21.9616,64.1724]]],[[[-21.907,64.1665],[-21.9074,64.1683],[-21.9151,64.174],[-21.9193,64.1756],[-21.9227,64.176],[-21.9248,64.1758],[-21.9256,64.175],[-21.9257,64.1739],[-21.9234,64.1724],[-21.9183,64.1708],[-21.9141,64.1684],[-21.9108,64.1677],[-21.9107,64.1663],[-21.9096,64.1663],[-21.9069,64.1642],[-21.9075,64.1655],[-21.907,64.1665]]],[[[-21.7912,64.187],[-21.7926,64.1872],[-21.7941,64.1863],[-21.7879,64.1831],[-21.7886,64.182],[-21.7924,64.1809],[-21.7895,64.1789],[-21.7848,64.1789],[-21.784,64.1795],[-21.7848,64.1805],[-21.7836,64.1814],[-21.7749,64.1833],[-21.7758,64.1845],[-21.779,64.1856],[-21.7912,64.187]]],[[[-21.8322,64.1879],[-21.8335,64.1876],[-21.8309,64.1867],[-21.8263,64.1864],[-21.8287,64.1876],[-21.8322,64.1879]]],[[[-21.7171,64.2031],[-21.7181,64.2031],[-21.7171,64.2031],[-21.7171,64.2031]]],[[[-21.8836,64.2266],[-21.8834,64.227],[-21.885,64.2269],[-21.8857,64.2264],[-21.8836,64.2266]]],[[[-21.8959,64.2275],[-21.8972,64.2276],[-21.8959,64.2275],[-21.8959,64.2275]]],[[[-21.8623,64.2306],[-21.8635,64.231],[-21.8643,64.2304],[-21.8623,64.2306]]],[[[-21.8649,64.231],[-21.8654,64.2315],[-21.8649,64.231],[-21.8649,64.231]]],[[[-21.9105,64.2331],[-21.9111,64.2331],[-21.9105,64.2331],[-21.9105,64.2331]]],[[[-21.8952,64.238],[-21.896,64.2381],[-21.8952,64.238],[-21.8952,64.238]]],[[[-21.8986,64.238],[-21.8995,64.238],[-21.8986,64.238],[-21.8986,64.238]]],[[[-21.8968,64.2381],[-21.8976,64.2382],[-21.8968,64.2381],[-21.8968,64.2381]]],[[[-21.9002,64.2379],[-21.9008,64.2381],[-21.9002,64.2379],[-21.9002,64.2379]]],[[[-21.9012,64.2383],[-21.9018,64.2384],[-21.9012,64.2383],[-21.9012,64.2383]]],[[[-21.9158,64.2401],[-21.9164,64.2402],[-21.9158,64.2401],[-21.9158,64.2401]]],[[[-21.906,64.2406],[-21.9066,64.2406],[-21.906,64.2406],[-21.906,64.2406]]],[[[-21.9146,64.2412],[-21.9139,64.2415],[-21.9153,64.2414],[-21.9146,64.2412]]],[[[-21.9134,64.242],[-21.9139,64.2418],[-21.9134,64.242],[-21.9134,64.242]]],[[[-21.8996,64.2469],[-21.9007,64.2468],[-21.8996,64.2469],[-21.8996,64.2469]]],[[[-21.9069,64.2526],[-21.9077,64.2526],[-21.9069,64.2526],[-21.9069,64.2526]]],[[[-21.8964,64.2564],[-21.9008,64.2565],[-21.9046,64.2549],[-21.9063,64.253],[-21.9029,64.2536],[-21.9016,64.2546],[-21.8978,64.2551],[-21.8964,64.2564]]],[[[-21.8989,64.2593],[-21.8981,64.2596],[-21.8989,64.2593],[-21.8989,64.2593]]],[[[-21.843,64.2844],[-21.8444,64.2841],[-21.843,64.2844],[-21.843,64.2844]]],[[[-21.839,64.2878],[-21.8403,64.2878],[-21.839,64.2878],[-21.839,64.2878]]],[[[-21.8183,64.2956],[-21.8196,64.2958],[-21.8183,64.2956],[-21.8183,64.2956]]],[[[-21.4078,64.2345],[-21.4121,64.2363],[-21.4116,64.2376],[-21.4106,64.2381],[-21.4146,64.2426],[-21.4328,64.2477],[-21.464,64.2405],[-21.4702,64.2404],[-21.4738,64.2377],[-21.4797,64.2354],[-21.4849,64.2382],[-21.5167,64.2443],[-21.5398,64.2424],[-21.5542,64.2437],[-21.5584,64.2446],[-21.5809,64.2579],[-21.5829,64.2585],[-21.5971,64.2566],[-21.6109,64.2574],[-21.612,64.256],[-21.612,64.2537],[-21.6153,64.251],[-21.6217,64.2506],[-21.624,64.2494],[-21.6326,64.2487],[-21.6511,64.2444],[-21.6553,64.2445],[-21.669,64.2516],[-21.6815,64.2567],[-21.6911,64.2614],[-21.706,64.2667],[-21.7086,64.2698],[-21.7107,64.2708],[-21.7163,64.2722],[-21.7347,64.2726],[-21.7405,64.2744],[-21.7431,64.2761],[-21.7403,64.2792],[-21.7402,64.2818],[-21.7418,64.2832],[-21.7488,64.2852],[-21.7345,64.2923],[-21.7349,64.2937],[-21.7343,64.2978],[-21.7365,64.2984],[-21.736,64.2987],[-21.7399,64.299],[-21.7425,64.2985],[-21.742,64.2989],[-21.7427,64.2991],[-21.7447,64.2981],[-21.7482,64.2983],[-21.748,64.2987],[-21.7537,64.2985],[-21.7547,64.2993],[-21.7595,64.2996],[-21.7597,64.3001],[-21.7584,64.3007],[-21.7606,64.302],[-21.7637,64.3012],[-21.7643,64.3004],[-21.776,64.3024],[-21.7786,64.3022],[-21.782,64.3003],[-21.7887,64.3016],[-21.7902,64.3041],[-21.7881,64.3054],[-21.789,64.3062],[-21.787,64.3068],[-21.7874,64.308],[-21.7852,64.3079],[-21.7855,64.3088],[-21.7832,64.3095],[-21.7834,64.3103],[-21.7804,64.3107],[-21.7774,64.3121],[-21.7763,64.3119],[-21.7731,64.3133],[-21.776,64.314],[-21.7773,64.3137],[-21.776,64.3145],[-21.7762,64.3151],[-21.7818,64.3137],[-21.7856,64.3099],[-21.7917,64.308],[-21.7938,64.3057],[-21.798,64.3038],[-21.7983,64.3025],[-21.7995,64.3014],[-21.8092,64.2989],[-21.8102,64.2969],[-21.8145,64.2938],[-21.8263,64.2924],[-21.8281,64.2909],[-21.8319,64.2908],[-21.8354,64.2897],[-21.8362,64.2868],[-21.8407,64.2853],[-21.8418,64.2834],[-21.8436,64.2825],[-21.8432,64.2821],[-21.844,64.2798],[-21.8495,64.2766],[-21.8504,64.2753],[-21.8523,64.2745],[-21.8522,64.2738],[-21.8574,64.2709],[-21.8585,64.2686],[-21.8625,64.2646],[-21.869,64.2607],[-21.8716,64.26],[-21.873,64.2585],[-21.8784,64.2552],[-21.8772,64.2512],[-21.8784,64.2503],[-21.8786,64.2483],[-21.8813,64.2465],[-21.8809,64.2457],[-21.8824,64.2438],[-21.8907,64.2431],[-21.8931,64.2423],[-21.8979,64.2425],[-21.9007,64.2436],[-21.9066,64.243],[-21.8961,64.2413],[-21.8932,64.2396],[-21.8933,64.2387],[-21.8898,64.2374],[-21.8896,64.2367],[-21.9025,64.2354],[-21.9085,64.2334],[-21.908,64.233],[-21.9086,64.2325],[-21.9063,64.232],[-21.9063,64.2314],[-21.9052,64.231],[-21.9027,64.2311],[-21.9018,64.2302],[-21.9023,64.2296],[-21.8992,64.2287],[-21.8944,64.2288],[-21.8929,64.2308],[-21.8886,64.2314],[-21.8826,64.2301],[-21.8818,64.2286],[-21.8775,64.2285],[-21.8751,64.2296],[-21.8693,64.2305],[-21.8661,64.232],[-21.8676,64.2331],[-21.8664,64.2349],[-21.8607,64.2371],[-21.8513,64.238],[-21.8468,64.2371],[-21.8472,64.2384],[-21.8459,64.2389],[-21.8371,64.2388],[-21.8305,64.2376],[-21.8292,64.2371],[-21.8301,64.2366],[-21.8295,64.2361],[-21.826,64.2362],[-21.8205,64.2338],[-21.8176,64.2318],[-21.8151,64.2279],[-21.8152,64.227],[-21.8118,64.2236],[-21.8117,64.2226],[-21.8142,64.2201],[-21.8151,64.2172],[-21.8182,64.2126],[-21.8219,64.2106],[-21.8265,64.2108],[-21.8276,64.2104],[-21.8284,64.2086],[-21.8257,64.207],[-21.8174,64.2075],[-21.8051,64.2094],[-21.7996,64.2112],[-21.7972,64.2112],[-21.7894,64.2099],[-21.78,64.2062],[-21.7736,64.2055],[-21.7693,64.2046],[-21.7664,64.2031],[-21.7627,64.2028],[-21.7587,64.2029],[-21.7572,64.2042],[-21.755,64.2046],[-21.7509,64.2046],[-21.7398,64.2065],[-21.7363,64.2061],[-21.7353,64.2064],[-21.7357,64.2068],[-21.7213,64.2085],[-21.7175,64.2085],[-21.7117,64.2071],[-21.7096,64.2059],[-21.7084,64.204],[-21.7099,64.2021],[-21.7128,64.202],[-21.7118,64.2017],[-21.7117,64.201],[-21.713,64.2014],[-21.7137,64.2027],[-21.7158,64.2027],[-21.7176,64.2024],[-21.7171,64.202],[-21.7171,64.2006],[-21.7189,64.1998],[-21.7296,64.1993],[-21.7411,64.1997],[-21.7415,64.1994],[-21.7407,64.1983],[-21.7452,64.1951],[-21.7566,64.1963],[-21.769,64.1952],[-21.7704,64.1936],[-21.77,64.1925],[-21.7665,64.1898],[-21.7609,64.1881],[-21.7585,64.1869],[-21.7581,64.186],[-21.7593,64.185],[-21.7633,64.1843],[-21.764,64.183],[-21.766,64.1823],[-21.7701,64.1792],[-21.7769,64.1777],[-21.7769,64.1767],[-21.7754,64.1757],[-21.7703,64.1737],[-21.7683,64.1736],[-21.7648,64.1742],[-21.763,64.1779],[-21.7611,64.1792],[-21.7592,64.1792],[-21.7489,64.1764],[-21.733,64.178],[-21.7331,64.1785],[-21.7311,64.1789],[-21.7295,64.1799],[-21.7295,64.1807],[-21.7205,64.1826],[-21.7182,64.1839],[-21.7161,64.1843],[-21.7111,64.1828],[-21.7077,64.1828],[-21.6899,64.187],[-21.686,64.1885],[-21.6792,64.1891],[-21.6757,64.1908],[-21.669,64.1916],[-21.6676,64.1927],[-21.6641,64.1937],[-21.6591,64.1945],[-21.655,64.1943],[-21.6519,64.1956],[-21.6518,64.1962],[-21.6527,64.1971],[-21.6508,64.1998],[-21.6428,64.2007],[-21.6393,64.2029],[-21.6354,64.2044],[-21.6206,64.2064],[-21.6139,64.2054],[-21.605,64.2057],[-21.6026,64.2075],[-21.5975,64.2082],[-21.5952,64.2075],[-21.5915,64.2077],[-21.5822,64.2097],[-21.5742,64.2076],[-21.5675,64.2066],[-21.5616,64.207],[-21.5562,64.2062],[-21.555,64.2064],[-21.5546,64.2073],[-21.5483,64.2091],[-21.5454,64.2082],[-21.5378,64.2103],[-21.5329,64.21],[-21.5321,64.2111],[-21.5304,64.2114],[-21.5211,64.2111],[-21.5164,64.2098],[-21.5138,64.2107],[-21.5121,64.2097],[-21.5057,64.2101],[-21.5011,64.2094],[-21.4945,64.2107],[-21.4891,64.2109],[-21.4856,64.21],[-21.485,64.2088],[-21.4833,64.2089],[-21.4837,64.2076],[-21.4851,64.2074],[-21.4831,64.2063],[-21.4823,64.2044],[-21.4769,64.2023],[-21.4699,64.2027],[-21.4663,64.2015],[-21.4558,64.2003],[-21.453,64.2005],[-21.4518,64.2017],[-21.4489,64.2011],[-21.4469,64.2017],[-21.4443,64.2006],[-21.4449,64.2016],[-21.4406,64.2022],[-21.4415,64.2034],[-21.4388,64.2025],[-21.4381,64.2027],[-21.4384,64.2031],[-21.436,64.2029],[-21.4349,64.2037],[-21.4322,64.2031],[-21.4327,64.204],[-21.4292,64.2043],[-21.4294,64.2055],[-21.4286,64.2061],[-21.4255,64.2062],[-21.4255,64.207],[-21.4228,64.2074],[-21.4238,64.2082],[-21.4222,64.2084],[-21.4199,64.2103],[-21.4206,64.2115],[-21.4201,64.2126],[-21.4178,64.2131],[-21.4109,64.2165],[-21.4067,64.2164],[-21.4039,64.2174],[-21.4021,64.2205],[-21.4051,64.223],[-21.4069,64.2236],[-21.4067,64.2246],[-21.4076,64.2258],[-21.4109,64.2275],[-21.4043,64.2308],[-21.4049,64.231],[-21.4051,64.2323],[-21.4078,64.2345]]]]}},{"type":"Feature","id":"municipality-reykjavik-2","properties":{"name":"Kópavogsbær","province":"Reykjavík","department":"Höfuðborgarsvæðið","type":"Sveitarfélag","country":"Islandia","iso":"IS"},"geometry":{"type":"MultiPolygon","coordinates":[[[[-21.8103,64.0404],[-21.7991,64.0265],[-21.7011,63.9974],[-21.648,63.9695],[-21.6094,63.9898],[-21.6612,64.0007],[-21.7549,64.0566],[-21.7932,64.048],[-21.8015,64.0437],[-21.8103,64.0404]]],[[[-21.5864,64.0181],[-21.586,64.0195],[-21.5699,64.0296],[-21.558,64.0342],[-21.5514,64.0343],[-21.5496,64.036],[-21.5564,64.0387],[-21.5035,64.0768],[-21.5035,64.0783],[-21.5078,64.0784],[-21.5137,64.0774],[-21.5179,64.0799],[-21.5173,64.0814],[-21.518,64.0821],[-21.5303,64.081],[-21.5335,64.0792],[-21.5511,64.077],[-21.5535,64.0757],[-21.5574,64.076],[-21.5803,64.0735],[-21.5848,64.0719],[-21.5879,64.0727],[-21.5943,64.072],[-21.5967,64.0727],[-21.6103,64.0718],[-21.6131,64.072],[-21.6134,64.0726],[-21.6185,64.0721],[-21.6212,64.0731],[-21.6234,64.0726],[-21.6283,64.073],[-21.6312,64.0721],[-21.6373,64.0717],[-21.642,64.0725],[-21.6441,64.0741],[-21.6435,64.0753],[-21.6418,64.076],[-21.6422,64.0765],[-21.6441,64.0763],[-21.6484,64.0779],[-21.6491,64.0797],[-21.6547,64.0817],[-21.6542,64.0828],[-21.6515,64.0839],[-21.6511,64.0847],[-21.6572,64.0855],[-21.6613,64.0844],[-21.6666,64.0842],[-21.6678,64.0832],[-21.6705,64.0831],[-21.6711,64.0843],[-21.676,64.0847],[-21.676,64.0873],[-21.68,64.0881],[-21.6822,64.0892],[-21.6816,64.0898],[-21.6831,64.0899],[-21.6872,64.0888],[-21.696,64.0893],[-21.7003,64.0874],[-21.6981,64.0867],[-21.6943,64.0867],[-21.6884,64.085],[-21.6842,64.0851],[-21.6804,64.0841],[-21.6783,64.0835],[-21.6773,64.0817],[-21.6721,64.0801],[-21.6724,64.079],[-21.6783,64.0779],[-21.7026,64.0648],[-21.6608,64.0525],[-21.5864,64.0181]]],[[[-21.9011,64.1171],[-21.9102,64.1158],[-21.921,64.1154],[-21.9226,64.116],[-21.9222,64.1155],[-21.923,64.1152],[-21.9248,64.1153],[-21.9248,64.116],[-21.9231,64.1165],[-21.9293,64.1165],[-21.9355,64.1156],[-21.9372,64.1157],[-21.9381,64.1173],[-21.9463,64.1175],[-21.9471,64.1164],[-21.9463,64.115],[-21.9442,64.1135],[-21.9442,64.1128],[-21.9437,64.1125],[-21.9432,64.1136],[-21.9413,64.1133],[-21.9397,64.1119],[-21.9408,64.1118],[-21.9395,64.1117],[-21.9394,64.1113],[-21.9412,64.1109],[-21.9416,64.112],[-21.9414,64.1107],[-21.9395,64.1108],[-21.934,64.1081],[-21.9163,64.1067],[-21.9074,64.1054],[-21.9058,64.1039],[-21.9034,64.1042],[-21.9094,64.1017],[-21.907,64.1011],[-21.9022,64.1015],[-21.905,64.0987],[-21.8979,64.0977],[-21.8885,64.095],[-21.8775,64.0949],[-21.8724,64.0941],[-21.8731,64.0917],[-21.8652,64.0894],[-21.8594,64.0855],[-21.8335,64.0835],[-21.8297,64.0642],[-21.8259,64.0595],[-21.8001,64.0683],[-21.7958,64.0703],[-21.7959,64.0718],[-21.7863,64.0764],[-21.7868,64.0796],[-21.7881,64.0816],[-21.7851,64.0827],[-21.7844,64.0845],[-21.7938,64.0937],[-21.7841,64.0947],[-21.7829,64.096],[-21.7838,64.0985],[-21.7882,64.097],[-21.791,64.0975],[-21.8023,64.0969],[-21.8132,64.0979],[-21.8348,64.0897],[-21.8596,64.0983],[-21.8618,64.1051],[-21.8483,64.1067],[-21.8497,64.1071],[-21.8457,64.1095],[-21.844,64.1134],[-21.8468,64.1138],[-21.8458,64.1147],[-21.8477,64.1159],[-21.8573,64.1168],[-21.8935,64.1178],[-21.9001,64.1167],[-21.9011,64.1171]]]]}},{"type":"Feature","id":"municipality-reykjavik-3","properties":{"name":"Seltjarnarnesbær","province":"Reykjavík","department":"Höfuðborgarsvæðið","type":"Sveitarfélag","country":"Islandia","iso":"IS"},"geometry":{"type":"MultiPolygon","coordinates":[[[[-21.9811,64.1511],[-21.9852,64.1528],[-21.987,64.1571],[-22.0029,64.1602],[-22.0082,64.1624],[-22.0168,64.1633],[-22.0155,64.1616],[-22.0157,64.1603],[-22.0179,64.1577],[-22.0211,64.1559],[-22.0251,64.1548],[-22.0336,64.155],[-22.0352,64.1545],[-22.0361,64.1533],[-22.0347,64.152],[-22.0281,64.1495],[-22.026,64.1501],[-22.0252,64.1521],[-22.0256,64.1527],[-22.0238,64.1536],[-22.0166,64.155],[-22.0115,64.1547],[-22.0065,64.1537],[-22.0047,64.1513],[-22.0054,64.1508],[-22.0042,64.1512],[-22.003,64.1507],[-22.0035,64.1502],[-22.0059,64.1503],[-22.0053,64.15],[-21.9998,64.1499],[-21.9986,64.1488],[-21.9918,64.1488],[-21.9878,64.1469],[-21.9882,64.1466],[-21.9809,64.1453],[-21.9794,64.1457],[-21.9771,64.1448],[-21.9761,64.1483],[-21.9828,64.1494],[-21.9838,64.1502],[-21.9811,64.1511]]],[[[-22.0195,64.164],[-22.0205,64.1654],[-22.0239,64.1645],[-22.0228,64.1632],[-22.0195,64.164]]]]}},{"type":"Feature","id":"municipality-reykjavik-4","properties":{"name":"Garðabær","province":"Reykjavík","department":"Höfuðborgarsvæðið","type":"Sveitarfélag","country":"Islandia","iso":"IS"},"geometry":{"type":"MultiPolygon","coordinates":[[[[-21.9656,64.1029],[-21.9651,64.1031],[-21.9657,64.1034],[-21.9656,64.1029]]],[[[-21.9551,64.1044],[-21.9557,64.1044],[-21.9551,64.1044],[-21.9551,64.1044]]],[[[-21.9739,64.1054],[-21.9739,64.1054],[-21.9738,64.1055],[-21.9738,64.1055],[-21.9739,64.1056],[-21.974,64.1056],[-21.9741,64.1056],[-21.9742,64.1056],[-21.9742,64.1055],[-21.9742,64.1054],[-21.9742,64.1054],[-21.974,64.1054],[-21.9739,64.1054]]],[[[-22.0415,64.1089],[-22.0402,64.1094],[-22.047,64.1086],[-22.0446,64.1081],[-22.0415,64.1089]]],[[[-22.0421,64.1141],[-22.0473,64.114],[-22.0464,64.1128],[-22.0422,64.1129],[-22.0369,64.1104],[-22.0343,64.1099],[-22.039,64.1117],[-22.0421,64.1141]]],[[[-21.8259,64.0595],[-21.8297,64.0642],[-21.8335,64.0835],[-21.8594,64.0855],[-21.8652,64.0894],[-21.8731,64.0917],[-21.872,64.094],[-21.8771,64.0949],[-21.8885,64.095],[-21.8979,64.0977],[-21.905,64.0987],[-21.9022,64.1015],[-21.9086,64.1013],[-21.9094,64.1016],[-21.9091,64.1021],[-21.9067,64.1027],[-21.9195,64.1024],[-21.9263,64.1042],[-21.9288,64.104],[-21.9312,64.1029],[-21.9314,64.1015],[-21.9259,64.0982],[-21.9256,64.0958],[-21.9364,64.0934],[-21.9376,64.0935],[-21.9378,64.095],[-21.9394,64.0954],[-21.9385,64.0956],[-21.9424,64.0958],[-21.9445,64.0952],[-21.9427,64.0938],[-21.9431,64.0936],[-21.9538,64.0929],[-21.9532,64.0939],[-21.9567,64.0952],[-21.9563,64.096],[-21.9578,64.0976],[-21.9556,64.0981],[-21.9532,64.0993],[-21.9537,64.0996],[-21.957,64.0992],[-21.9597,64.0979],[-21.9725,64.0972],[-21.9762,64.096],[-21.9784,64.0961],[-21.9788,64.0954],[-21.982,64.096],[-21.9825,64.0944],[-21.9872,64.0954],[-21.9882,64.0948],[-21.9908,64.095],[-22.0024,64.0981],[-22.0065,64.0997],[-22.0071,64.1013],[-22.0067,64.1016],[-22.0081,64.1016],[-22.0082,64.1023],[-21.9978,64.105],[-21.9952,64.1049],[-21.9944,64.1044],[-21.9949,64.104],[-21.9926,64.1033],[-21.9884,64.1048],[-21.9856,64.1049],[-21.9858,64.1042],[-21.9809,64.1031],[-21.9792,64.1049],[-21.9763,64.1051],[-21.9763,64.1065],[-21.9772,64.1077],[-21.9749,64.109],[-21.9701,64.1081],[-21.9692,64.1067],[-21.9663,64.1049],[-21.9579,64.1031],[-21.9594,64.1039],[-21.9575,64.1048],[-21.9576,64.1064],[-21.9589,64.1076],[-21.9614,64.1084],[-21.9595,64.1111],[-21.961,64.1116],[-21.9621,64.1135],[-21.9637,64.1146],[-21.9662,64.1155],[-21.9714,64.1159],[-21.9771,64.1141],[-21.9848,64.1144],[-21.9868,64.1134],[-21.988,64.1135],[-21.9896,64.1141],[-21.9904,64.1156],[-21.9903,64.1168],[-21.9879,64.1188],[-21.9898,64.1197],[-21.9943,64.1197],[-21.9975,64.1181],[-22.0024,64.1169],[-22.0102,64.116],[-22.0132,64.114],[-22.0177,64.1123],[-22.025,64.1117],[-22.0297,64.1086],[-22.0288,64.1065],[-22.0291,64.1053],[-22.0334,64.1038],[-22.0346,64.1024],[-22.0365,64.1018],[-22.0316,64.0995],[-22.0313,64.0986],[-22.0318,64.0975],[-22.035,64.0962],[-22.0398,64.0964],[-22.0439,64.0955],[-22.0431,64.0948],[-22.0343,64.0955],[-22.0314,64.0946],[-22.0296,64.0951],[-22.0314,64.0964],[-22.0301,64.0969],[-22.0223,64.0962],[-22.0139,64.0969],[-22.0061,64.0953],[-22.0052,64.0941],[-22.0056,64.0938],[-22.0045,64.0938],[-22.005,64.0935],[-22.0045,64.0928],[-22.0022,64.0932],[-22.0015,64.0915],[-22.0077,64.0921],[-22.0104,64.0909],[-22.0159,64.0914],[-22.0164,64.0921],[-22.0169,64.0917],[-22.0169,64.0922],[-22.0181,64.0925],[-22.0185,64.0921],[-22.0178,64.0918],[-22.0183,64.0913],[-22.0216,64.0907],[-22.0243,64.0914],[-22.0254,64.0923],[-22.0276,64.0923],[-22.0298,64.0932],[-22.0294,64.0935],[-22.0324,64.0923],[-22.0321,64.0916],[-22.0287,64.0906],[-22.0237,64.0908],[-22.0205,64.0901],[-22.0172,64.091],[-22.0108,64.0899],[-22.003,64.0857],[-21.9998,64.082],[-21.9902,64.0803],[-21.9879,64.0788],[-21.9857,64.0785],[-21.9781,64.0792],[-21.975,64.0804],[-21.9707,64.0805],[-21.9685,64.0832],[-21.9458,64.0832],[-21.9359,64.082],[-21.9321,64.0798],[-21.9306,64.075],[-21.9311,64.0701],[-21.922,64.0639],[-21.9207,64.06],[-21.9272,64.0561],[-21.9239,64.0539],[-21.9108,64.0487],[-21.8614,64.0315],[-21.8575,64.0256],[-21.8549,64.0241],[-21.8429,64.0241],[-21.8276,64.021],[-21.808,64.0151],[-21.8025,64.0097],[-21.8059,63.9895],[-21.9391,63.9774],[-21.7111,63.9773],[-21.7322,63.9647],[-21.648,63.9695],[-21.7011,63.9974],[-21.7991,64.0265],[-21.8259,64.0595]]]]}},{"type":"Feature","id":"municipality-reykjavik-5","properties":{"name":"Hafnarfjarðarbær","province":"Reykjavík","department":"Höfuðborgarsvæðið","type":"Sveitarfélag","country":"Islandia","iso":"IS"},"geometry":{"type":"MultiPolygon","coordinates":[[[[-22.0843,63.8295],[-22.0842,63.8296],[-22.0841,63.8298],[-22.0844,63.8298],[-22.0846,63.8296],[-22.0846,63.8296],[-22.0846,63.8295],[-22.0843,63.8294],[-22.0843,63.8295]]],[[[-22.0074,63.836],[-22.0076,63.9041],[-22.017,63.9072],[-22.0213,63.9095],[-22.0236,63.912],[-22.0253,63.9128],[-22.0289,63.9125],[-22.0444,63.9194],[-22.0596,63.9143],[-22.0725,63.9074],[-22.0749,63.9048],[-22.0742,63.901],[-22.0711,63.8989],[-22.083,63.8931],[-22.0815,63.8877],[-22.0877,63.8861],[-22.0965,63.8785],[-22.1097,63.8733],[-22.1179,63.8713],[-22.127,63.8669],[-22.1309,63.8579],[-22.1309,63.8367],[-22.1264,63.836],[-22.1264,63.8356],[-22.1242,63.8349],[-22.119,63.8352],[-22.1146,63.8339],[-22.1081,63.8353],[-22.1003,63.8356],[-22.0979,63.835],[-22.0974,63.8338],[-22.0962,63.833],[-22.0905,63.8326],[-22.0863,63.8307],[-22.0814,63.8303],[-22.0803,63.8295],[-22.0798,63.8301],[-22.0763,63.8302],[-22.0703,63.8296],[-22.0646,63.8305],[-22.0547,63.8304],[-22.0497,63.8315],[-22.047,63.8311],[-22.0442,63.8322],[-22.0353,63.8316],[-22.0303,63.8328],[-22.0171,63.834],[-22.0146,63.8349],[-22.0074,63.836]]],[[[-21.9846,64.0785],[-21.9748,64.0759],[-21.9675,64.0718],[-21.9666,64.0706],[-21.9684,64.0691],[-21.9599,64.0688],[-21.9567,64.0663],[-21.9581,64.0639],[-21.96,64.064],[-21.959,64.0635],[-21.9598,64.0633],[-21.9636,64.0631],[-21.964,64.0644],[-21.9614,64.0646],[-21.964,64.0647],[-21.9635,64.0659],[-21.9722,64.0664],[-21.9721,64.067],[-21.9707,64.0669],[-21.9722,64.0672],[-21.9716,64.0684],[-21.9721,64.0679],[-21.9734,64.0681],[-21.9739,64.0668],[-21.9863,64.0676],[-21.9872,64.0686],[-21.9871,64.0694],[-21.9839,64.0695],[-21.9829,64.0701],[-21.9875,64.0697],[-21.988,64.0681],[-21.9896,64.0677],[-21.9898,64.0659],[-21.978,64.0641],[-21.9764,64.0634],[-21.9768,64.062],[-21.9799,64.0611],[-21.9799,64.0607],[-21.9836,64.0604],[-21.986,64.0613],[-21.9842,64.0632],[-21.9781,64.0622],[-21.9786,64.063],[-21.9925,64.0646],[-21.9954,64.0656],[-21.9984,64.0656],[-21.9991,64.0645],[-21.9958,64.0617],[-21.9989,64.0574],[-22.0044,64.0543],[-22.0094,64.0524],[-22.0121,64.0505],[-22.0148,64.0497],[-22.0249,64.0481],[-22.0359,64.0483],[-22.0372,64.0472],[-22.0431,64.0467],[-22.0366,64.0463],[-22.0383,64.0452],[-22.0382,64.0439],[-22.0407,64.0439],[-22.0394,64.0429],[-22.0399,64.0408],[-22.043,64.0402],[-22.0469,64.0405],[-22.0453,64.0407],[-22.0457,64.0411],[-22.0446,64.0416],[-22.0459,64.0418],[-22.0464,64.0422],[-22.046,64.0426],[-22.048,64.0433],[-22.0503,64.0465],[-22.0606,64.0471],[-22.0658,64.0484],[-22.075,64.0462],[-22.0819,64.0457],[-22.0844,64.0463],[-22.0929,64.0463],[-22.0982,64.0437],[-22.108,64.0412],[-22.1153,64.0406],[-22.1194,64.0413],[-22.1255,64.0406],[-22.0233,63.9778],[-21.9391,63.9774],[-21.8059,63.9895],[-21.8025,64.0097],[-21.808,64.0151],[-21.8276,64.021],[-21.8429,64.0241],[-21.8549,64.0241],[-21.8575,64.0256],[-21.8614,64.0315],[-21.9108,64.0487],[-21.9239,64.0539],[-21.9272,64.0561],[-21.9207,64.06],[-21.922,64.0639],[-21.9311,64.0701],[-21.9306,64.075],[-21.9321,64.0798],[-21.9333,64.0808],[-21.9376,64.0824],[-21.9458,64.0832],[-21.9685,64.0832],[-21.9707,64.0805],[-21.975,64.0804],[-21.9781,64.0792],[-21.9846,64.0785]]]]}},{"type":"Feature","id":"municipality-reykjavik-6","properties":{"name":"Mosfellsbær","province":"Reykjavík","department":"Höfuðborgarsvæðið","type":"Sveitarfélag","country":"Islandia","iso":"IS"},"geometry":{"type":"MultiPolygon","coordinates":[[[[-21.7327,64.1749],[-21.7327,64.1749],[-21.7327,64.1749],[-21.7327,64.1749],[-21.7327,64.175],[-21.7327,64.175],[-21.7327,64.175],[-21.7327,64.175],[-21.7327,64.175],[-21.7328,64.175],[-21.7328,64.175],[-21.7328,64.175],[-21.7328,64.175],[-21.7329,64.175],[-21.7329,64.175],[-21.7329,64.1749],[-21.7329,64.1749],[-21.7329,64.1749],[-21.7327,64.1749],[-21.7327,64.1749],[-21.7327,64.1749]]],[[[-21.7003,64.0874],[-21.696,64.0893],[-21.6872,64.0888],[-21.6831,64.0899],[-21.6816,64.0898],[-21.6822,64.0892],[-21.68,64.0881],[-21.676,64.0873],[-21.676,64.0847],[-21.6711,64.0843],[-21.6705,64.0831],[-21.6678,64.0832],[-21.6666,64.0842],[-21.6613,64.0844],[-21.6572,64.0855],[-21.6511,64.0847],[-21.6515,64.0839],[-21.6542,64.0828],[-21.6547,64.0817],[-21.6491,64.0797],[-21.6484,64.0779],[-21.6441,64.0763],[-21.6422,64.0765],[-21.6418,64.076],[-21.6435,64.0753],[-21.6441,64.0741],[-21.642,64.0725],[-21.6373,64.0717],[-21.6312,64.0721],[-21.6283,64.073],[-21.6234,64.0726],[-21.6212,64.0731],[-21.6185,64.0721],[-21.6134,64.0726],[-21.6131,64.072],[-21.6103,64.0718],[-21.5967,64.0727],[-21.5943,64.072],[-21.5879,64.0727],[-21.5848,64.0719],[-21.5803,64.0735],[-21.5574,64.076],[-21.5535,64.0757],[-21.5511,64.077],[-21.5335,64.0792],[-21.5303,64.081],[-21.518,64.0821],[-21.5173,64.0814],[-21.5179,64.0799],[-21.5142,64.0776],[-21.5038,64.0784],[-21.5031,64.0775],[-21.5035,64.0768],[-21.4752,64.0966],[-21.4391,64.1451],[-21.3719,64.1946],[-21.4019,64.2201],[-21.4041,64.2173],[-21.4067,64.2164],[-21.4109,64.2165],[-21.4178,64.2131],[-21.4201,64.2126],[-21.4206,64.2115],[-21.4199,64.2103],[-21.4222,64.2084],[-21.4238,64.2082],[-21.4228,64.2074],[-21.4255,64.207],[-21.4255,64.2062],[-21.4286,64.2061],[-21.4294,64.2055],[-21.4292,64.2043],[-21.4327,64.204],[-21.4322,64.2031],[-21.4349,64.2037],[-21.436,64.2029],[-21.4384,64.2031],[-21.4381,64.2027],[-21.4388,64.2025],[-21.4415,64.2034],[-21.4406,64.2022],[-21.4449,64.2016],[-21.4443,64.2006],[-21.4469,64.2017],[-21.4489,64.2011],[-21.4518,64.2017],[-21.453,64.2005],[-21.4558,64.2003],[-21.4663,64.2015],[-21.4699,64.2027],[-21.4769,64.2023],[-21.4823,64.2044],[-21.4831,64.2063],[-21.4851,64.2074],[-21.4837,64.2076],[-21.4833,64.2089],[-21.485,64.2088],[-21.4856,64.21],[-21.4891,64.2109],[-21.4945,64.2107],[-21.5011,64.2094],[-21.5057,64.2101],[-21.5121,64.2097],[-21.5138,64.2107],[-21.5164,64.2098],[-21.5211,64.2111],[-21.5304,64.2114],[-21.5321,64.2111],[-21.5329,64.21],[-21.5378,64.2103],[-21.5454,64.2082],[-21.5483,64.2091],[-21.5546,64.2073],[-21.555,64.2064],[-21.5562,64.2062],[-21.5616,64.207],[-21.5675,64.2066],[-21.5742,64.2076],[-21.5822,64.2097],[-21.5915,64.2077],[-21.5952,64.2075],[-21.5975,64.2082],[-21.6026,64.2075],[-21.605,64.2057],[-21.6139,64.2054],[-21.6206,64.2064],[-21.6354,64.2044],[-21.6393,64.2029],[-21.6428,64.2007],[-21.6508,64.1998],[-21.6527,64.1971],[-21.6518,64.1962],[-21.6519,64.1956],[-21.655,64.1943],[-21.6591,64.1945],[-21.6641,64.1937],[-21.6676,64.1927],[-21.669,64.1916],[-21.6757,64.1908],[-21.6792,64.1891],[-21.686,64.1885],[-21.6899,64.187],[-21.7077,64.1828],[-21.7111,64.1828],[-21.7161,64.1843],[-21.7182,64.1839],[-21.7157,64.1839],[-21.717,64.1832],[-21.7168,64.1826],[-21.7181,64.182],[-21.7182,64.1814],[-21.7164,64.1811],[-21.7137,64.179],[-21.7107,64.1782],[-21.7096,64.1786],[-21.7057,64.1781],[-21.7053,64.1776],[-21.7068,64.1769],[-21.7072,64.1752],[-21.7103,64.1742],[-21.719,64.1743],[-21.7236,64.1737],[-21.7251,64.1739],[-21.7213,64.1755],[-21.7238,64.1756],[-21.724,64.1743],[-21.7328,64.1722],[-21.7343,64.1703],[-21.7361,64.1695],[-21.7395,64.1688],[-21.7491,64.1698],[-21.7527,64.1693],[-21.7531,64.1675],[-21.7509,64.1662],[-21.7464,64.1652],[-21.7455,64.1643],[-21.7465,64.1631],[-21.7448,64.1624],[-21.7458,64.1618],[-21.7458,64.1605],[-21.7452,64.1598],[-21.7464,64.1589],[-21.7448,64.1577],[-21.7501,64.1551],[-21.7505,64.1548],[-21.7496,64.1544],[-21.7498,64.1539],[-21.7512,64.1535],[-21.7425,64.1476],[-21.7205,64.1511],[-21.7207,64.1481],[-21.7087,64.1474],[-21.6692,64.1413],[-21.6771,64.1387],[-21.6802,64.1385],[-21.6815,64.1374],[-21.6834,64.1374],[-21.6837,64.133],[-21.6853,64.133],[-21.6985,64.106],[-21.6801,64.1016],[-21.6973,64.0985],[-21.7006,64.0955],[-21.7067,64.0925],[-21.7025,64.0906],[-21.7041,64.0897],[-21.7036,64.0884],[-21.7003,64.0874]]]]}},{"type":"Feature","id":"municipality-reykjavik-7","properties":{"name":"Kjósarhreppur","province":"Reykjavík","department":"Höfuðborgarsvæðið","type":"Sveitarfélag","country":"Islandia","iso":"IS"},"geometry":{"type":"MultiPolygon","coordinates":[[[[-21.696,64.3381],[-21.6971,64.3381],[-21.696,64.3381],[-21.696,64.3381]]],[[[-21.687,64.3391],[-21.6862,64.3394],[-21.6876,64.3396],[-21.6885,64.3391],[-21.687,64.3391]]],[[[-21.6337,64.3443],[-21.6326,64.3452],[-21.6346,64.3442],[-21.6337,64.3443]]],[[[-21.6792,64.352],[-21.6799,64.3517],[-21.6792,64.352],[-21.6792,64.352]]],[[[-21.5551,64.371],[-21.5558,64.3714],[-21.5565,64.3709],[-21.5551,64.371]]],[[[-21.416,64.3791],[-21.4141,64.378],[-21.4135,64.3787],[-21.416,64.3791]]],[[[-21.4078,64.2345],[-21.3567,64.2594],[-21.3328,64.2751],[-21.2901,64.3095],[-21.23,64.3218],[-21.1625,64.3512],[-21.1698,64.3507],[-21.1945,64.3523],[-21.1976,64.3548],[-21.2067,64.3577],[-21.2155,64.3577],[-21.2345,64.3592],[-21.2428,64.3607],[-21.2716,64.368],[-21.2932,64.3706],[-21.3295,64.374],[-21.3454,64.3744],[-21.3565,64.374],[-21.3769,64.3719],[-21.37,64.3804],[-21.3829,64.3792],[-21.3851,64.3795],[-21.3965,64.3751],[-21.404,64.373],[-21.4054,64.3734],[-21.408,64.3727],[-21.4098,64.3712],[-21.4142,64.3706],[-21.417,64.3691],[-21.4182,64.3678],[-21.4178,64.3663],[-21.4162,64.3654],[-21.4126,64.3647],[-21.4084,64.3615],[-21.4082,64.3587],[-21.4105,64.3574],[-21.4153,64.3566],[-21.4247,64.3566],[-21.4299,64.3557],[-21.4329,64.3562],[-21.4409,64.3546],[-21.4531,64.3536],[-21.4729,64.355],[-21.4783,64.3561],[-21.4813,64.3575],[-21.4888,64.3585],[-21.4957,64.3606],[-21.4954,64.362],[-21.4966,64.3643],[-21.4961,64.3646],[-21.4973,64.3651],[-21.502,64.3644],[-21.508,64.362],[-21.5212,64.3639],[-21.5314,64.3604],[-21.5372,64.3601],[-21.5492,64.3618],[-21.5624,64.3625],[-21.5665,64.3635],[-21.5685,64.3653],[-21.5687,64.3665],[-21.5669,64.3681],[-21.569,64.369],[-21.5689,64.3696],[-21.5676,64.3696],[-21.5689,64.3697],[-21.5674,64.3716],[-21.5635,64.3738],[-21.5596,64.3742],[-21.5582,64.3752],[-21.5585,64.3755],[-21.5643,64.3757],[-21.5705,64.3771],[-21.5748,64.3756],[-21.5851,64.3762],[-21.5874,64.3756],[-21.5801,64.3743],[-21.5798,64.3735],[-21.5808,64.3724],[-21.5856,64.3725],[-21.5893,64.3739],[-21.5935,64.3725],[-21.5948,64.3712],[-21.5962,64.3708],[-21.6002,64.3708],[-21.6019,64.3701],[-21.6069,64.3705],[-21.6121,64.3693],[-21.6151,64.3694],[-21.6167,64.368],[-21.6213,64.3669],[-21.6232,64.3653],[-21.6303,64.3644],[-21.6344,64.3624],[-21.6393,64.3612],[-21.6585,64.3589],[-21.6607,64.3575],[-21.6661,64.3558],[-21.673,64.356],[-21.6763,64.3552],[-21.6778,64.3523],[-21.6703,64.35],[-21.6685,64.3484],[-21.6672,64.3455],[-21.6656,64.3449],[-21.6597,64.3445],[-21.6554,64.3451],[-21.6524,64.3446],[-21.6463,64.3458],[-21.6425,64.3452],[-21.6335,64.3465],[-21.6213,64.3442],[-21.6208,64.3429],[-21.6153,64.3426],[-21.615,64.3424],[-21.6163,64.3416],[-21.621,64.3393],[-21.6203,64.3385],[-21.6238,64.3376],[-21.6237,64.3371],[-21.6269,64.3372],[-21.627,64.3377],[-21.6252,64.339],[-21.6273,64.339],[-21.6309,64.3368],[-21.6354,64.3372],[-21.6344,64.3364],[-21.6348,64.335],[-21.6343,64.3344],[-21.6384,64.3345],[-21.6443,64.3334],[-21.6459,64.3343],[-21.6519,64.3348],[-21.6555,64.3343],[-21.6574,64.333],[-21.6616,64.3337],[-21.6634,64.3347],[-21.6673,64.3347],[-21.6703,64.3339],[-21.6745,64.3342],[-21.6853,64.3378],[-21.6917,64.3365],[-21.6988,64.3373],[-21.7094,64.3342],[-21.7187,64.3356],[-21.7195,64.3378],[-21.7316,64.3426],[-21.7308,64.3404],[-21.7311,64.3377],[-21.7334,64.3346],[-21.7424,64.3324],[-21.7482,64.3291],[-21.7525,64.3283],[-21.758,64.3254],[-21.7598,64.3236],[-21.7632,64.3223],[-21.7687,64.3181],[-21.7762,64.3151],[-21.776,64.3145],[-21.7773,64.3137],[-21.774,64.3138],[-21.7731,64.3135],[-21.7734,64.3131],[-21.7804,64.3107],[-21.7834,64.3103],[-21.7832,64.3095],[-21.7855,64.3088],[-21.7852,64.3079],[-21.7874,64.308],[-21.787,64.3068],[-21.789,64.3062],[-21.7881,64.3054],[-21.7902,64.3041],[-21.7891,64.3031],[-21.7894,64.3023],[-21.7875,64.301],[-21.7856,64.3011],[-21.7827,64.3003],[-21.7805,64.3008],[-21.7786,64.3022],[-21.776,64.3024],[-21.7643,64.3004],[-21.7637,64.3012],[-21.7606,64.302],[-21.7584,64.3007],[-21.7597,64.3001],[-21.7595,64.2996],[-21.7547,64.2993],[-21.7537,64.2985],[-21.748,64.2987],[-21.7482,64.2983],[-21.7447,64.2981],[-21.7427,64.2991],[-21.742,64.2989],[-21.7425,64.2985],[-21.7399,64.299],[-21.736,64.2987],[-21.7365,64.2984],[-21.7343,64.2978],[-21.7349,64.2937],[-21.7345,64.2923],[-21.7488,64.2852],[-21.7418,64.2832],[-21.7402,64.2818],[-21.7403,64.2792],[-21.7431,64.2761],[-21.7405,64.2744],[-21.7347,64.2726],[-21.7163,64.2722],[-21.7107,64.2708],[-21.7086,64.2698],[-21.706,64.2667],[-21.6911,64.2614],[-21.6815,64.2567],[-21.669,64.2516],[-21.6553,64.2445],[-21.6511,64.2444],[-21.6326,64.2487],[-21.624,64.2494],[-21.6217,64.2506],[-21.6153,64.251],[-21.612,64.2537],[-21.612,64.256],[-21.6109,64.2574],[-21.5971,64.2566],[-21.5829,64.2585],[-21.5809,64.2579],[-21.5584,64.2446],[-21.5542,64.2437],[-21.5398,64.2424],[-21.5167,64.2443],[-21.4849,64.2382],[-21.4797,64.2354],[-21.4738,64.2377],[-21.4702,64.2404],[-21.464,64.2405],[-21.4328,64.2477],[-21.4146,64.2426],[-21.4106,64.2381],[-21.4116,64.2376],[-21.4121,64.2363],[-21.4078,64.2345]]],[[[-21.5448,64.3762],[-21.5481,64.3766],[-21.5501,64.3779],[-21.5527,64.3773],[-21.5517,64.3762],[-21.5538,64.376],[-21.5513,64.3756],[-21.5496,64.3737],[-21.5456,64.3732],[-21.5421,64.3735],[-21.5416,64.374],[-21.5448,64.3762]]]]}}]}