{"type":"FeatureCollection","features":[{"type":"Feature","id":"apkaime-riga-13","properties":{"name":"Zolitūde","province":"Rīga","department":"Rīgas pilsēta","type":"Apkaime","country":"Letonia","iso":"LV"},"geometry":{"type":"MultiPolygon","coordinates":[[[[24.0122,56.9338],[24.0092,56.9317],[24.0065,56.9328],[23.9928,56.9465],[23.9902,56.948],[23.9826,56.95],[23.9846,56.9511],[23.9909,56.9504],[24.0169,56.9498],[24.0264,56.9486],[24.0254,56.9466],[24.0273,56.9429],[24.0122,56.9338]]]]}},{"type":"Feature","id":"apkaime-riga-28","properties":{"name":"Pļavnieki","province":"Rīga","department":"Rīgas pilsēta","type":"Apkaime","country":"Letonia","iso":"LV"},"geometry":{"type":"MultiPolygon","coordinates":[[[[24.2362,56.9425],[24.2405,56.9422],[24.2262,56.9376],[24.2136,56.9321],[24.2106,56.9315],[24.1955,56.9319],[24.195,56.9393],[24.1963,56.9478],[24.2362,56.9425]]]]}},{"type":"Feature","id":"apkaime-riga-36","properties":{"name":"Maskavas forstate","province":"Rīga","department":"Rīgas pilsēta","type":"Apkaime","country":"Letonia","iso":"LV"},"geometry":{"type":"MultiPolygon","coordinates":[[[[24.118,56.9466],[24.1184,56.9461],[24.1437,56.9465],[24.1521,56.9449],[24.1609,56.9407],[24.1755,56.9273],[24.1697,56.9233],[24.1567,56.9163],[24.1509,56.9204],[24.1474,56.9204],[24.1246,56.9327],[24.1052,56.9416],[24.1154,56.9463],[24.118,56.9466]]]]}},{"type":"Feature","id":"apkaime-riga-51","properties":{"name":"Brasa","province":"Rīga","department":"Rīgas pilsēta","type":"Apkaime","country":"Letonia","iso":"LV"},"geometry":{"type":"MultiPolygon","coordinates":[[[[24.1372,56.9631],[24.1333,56.9654],[24.1336,56.9659],[24.1303,56.967],[24.1323,56.9696],[24.1288,56.9705],[24.132,56.9756],[24.1353,56.9759],[24.1369,56.9807],[24.142,56.9805],[24.1463,56.9786],[24.1455,56.9779],[24.1545,56.9694],[24.1372,56.9631]]]]}},{"type":"Feature","id":"apkaime-riga-53","properties":{"name":"Bišumuiža","province":"Rīga","department":"Rīgas pilsēta","type":"Apkaime","country":"Letonia","iso":"LV"},"geometry":{"type":"MultiPolygon","coordinates":[[[[24.1323,56.9171],[24.1393,56.9171],[24.1388,56.9159],[24.1462,56.9106],[24.1465,56.9098],[24.1458,56.9093],[24.1471,56.8964],[24.1416,56.8954],[24.1353,56.8995],[24.1325,56.9021],[24.122,56.9144],[24.1246,56.9176],[24.1323,56.9171]]]]}},{"type":"Feature","id":"apkaime-riga-2","properties":{"name":"Ķengarags","province":"Rīga","department":"Rīgas pilsēta","type":"Apkaime","country":"Letonia","iso":"LV"},"geometry":{"type":"MultiPolygon","coordinates":[[[[24.2137,56.9035],[24.2175,56.9015],[24.2173,56.9008],[24.2111,56.8967],[24.1991,56.9017],[24.1982,56.9001],[24.1956,56.8993],[24.1868,56.8987],[24.1851,56.9005],[24.1694,56.9069],[24.1567,56.9163],[24.1697,56.9233],[24.1755,56.9273],[24.1908,56.9153],[24.2137,56.9035]]]]}},{"type":"Feature","id":"apkaime-riga-4","properties":{"name":"Vecpilsēta","province":"Rīga","department":"Rīgas pilsēta","type":"Apkaime","country":"Letonia","iso":"LV"},"geometry":{"type":"MultiPolygon","coordinates":[[[[24.1098,56.9438],[24.1052,56.9416],[24.0988,56.9458],[24.0942,56.951],[24.1055,56.9532],[24.1098,56.9517],[24.1135,56.9493],[24.1154,56.9463],[24.1098,56.9438]]]]}},{"type":"Feature","id":"apkaime-riga-6","properties":{"name":"Daugavgrīva","province":"Rīga","department":"Rīgas pilsēta","type":"Apkaime","country":"Letonia","iso":"LV"},"geometry":{"type":"MultiPolygon","coordinates":[[[[24.0124,57.0669],[24.0284,57.0609],[24.0464,57.0531],[24.0561,57.0481],[24.0681,57.0409],[24.0649,57.0396],[24.0565,57.0386],[24.0418,57.0393],[24.0373,57.039],[24.0316,57.0367],[24.0298,57.035],[24.0293,57.0307],[24.0276,57.0286],[24.0188,57.0244],[24.0039,57.0204],[23.995,57.0248],[23.9918,57.0245],[23.9828,57.0292],[24.0045,57.0434],[24.0181,57.0547],[24.021,57.0584],[24.0213,57.0593],[24.0206,57.0602],[24.0101,57.0654],[24.0124,57.0669]]]]}},{"type":"Feature","id":"apkaime-riga-19","properties":{"name":"Vecdaugava","province":"Rīga","department":"Rīgas pilsēta","type":"Apkaime","country":"Letonia","iso":"LV"},"geometry":{"type":"MultiPolygon","coordinates":[[[[24.1062,57.0408],[24.1062,57.0404],[24.1028,57.0419],[24.0914,57.0438],[24.0809,57.0497],[24.0826,57.0508],[24.0886,57.0585],[24.0927,57.0671],[24.0995,57.0659],[24.1065,57.0622],[24.1076,57.0477],[24.1062,57.0408]]]]}},{"type":"Feature","id":"apkaime-riga-44","properties":{"name":"Grīziņkalns","province":"Rīga","department":"Rīgas pilsēta","type":"Apkaime","country":"Letonia","iso":"LV"},"geometry":{"type":"MultiPolygon","coordinates":[[[[24.1605,56.9538],[24.1606,56.9525],[24.152,56.9537],[24.1464,56.9536],[24.1483,56.9544],[24.1405,56.9585],[24.1426,56.9596],[24.1371,56.963],[24.1545,56.9694],[24.1554,56.9683],[24.1605,56.9538]]]]}},{"type":"Feature","id":"apkaime-riga-57","properties":{"name":"Avoti","province":"Rīga","department":"Rīgas pilsēta","type":"Apkaime","country":"Letonia","iso":"LV"},"geometry":{"type":"MultiPolygon","coordinates":[[[[24.1483,56.9544],[24.1464,56.9536],[24.152,56.9537],[24.1606,56.9525],[24.1587,56.9495],[24.155,56.9473],[24.1482,56.9458],[24.1381,56.9468],[24.1257,56.9466],[24.1244,56.9503],[24.1405,56.9585],[24.1483,56.9544]]]]}},{"type":"Feature","id":"apkaime-riga-1","properties":{"name":"Rumbula","province":"Rīga","department":"Rīgas pilsēta","type":"Apkaime","country":"Letonia","iso":"LV"},"geometry":{"type":"MultiPolygon","coordinates":[[[[24.2075,56.8983],[24.2111,56.8967],[24.2166,56.9002],[24.2175,56.9015],[24.2489,56.8859],[24.245,56.8827],[24.251,56.8802],[24.2477,56.8752],[24.2445,56.8741],[24.2447,56.8737],[24.2388,56.8708],[24.2319,56.8737],[24.214,56.8785],[24.1996,56.8856],[24.1868,56.8987],[24.1956,56.8993],[24.1982,56.9001],[24.1991,56.9017],[24.2075,56.8983]]]]}},{"type":"Feature","id":"apkaime-riga-3","properties":{"name":"Čiekurkalns","province":"Rīga","department":"Rīgas pilsēta","type":"Apkaime","country":"Letonia","iso":"LV"},"geometry":{"type":"MultiPolygon","coordinates":[[[[24.1529,56.9713],[24.1534,56.9703],[24.1455,56.9779],[24.1484,56.9811],[24.16,56.9857],[24.1652,56.9894],[24.1683,56.9926],[24.1743,56.9957],[24.1764,56.999],[24.1884,57.006],[24.1982,57.0047],[24.2029,56.9954],[24.2025,56.993],[24.2032,56.9906],[24.2058,56.9865],[24.1803,56.982],[24.1714,56.9795],[24.156,56.9771],[24.1544,56.9761],[24.1533,56.9744],[24.1529,56.9713]]]]}},{"type":"Feature","id":"apkaime-riga-12","properties":{"name":"Āgenskalns","province":"Rīga","department":"Rīgas pilsēta","type":"Apkaime","country":"Letonia","iso":"LV"},"geometry":{"type":"MultiPolygon","coordinates":[[[[24.0717,56.9515],[24.0803,56.9487],[24.0869,56.9453],[24.095,56.9498],[24.0988,56.9458],[24.101,56.9446],[24.0875,56.9376],[24.0869,56.9337],[24.0828,56.9328],[24.0825,56.9318],[24.0812,56.9322],[24.0783,56.9295],[24.0793,56.9285],[24.0782,56.9274],[24.0793,56.9265],[24.0752,56.9263],[24.0675,56.9274],[24.0634,56.9289],[24.0616,56.9302],[24.0534,56.9395],[24.0606,56.9414],[24.0584,56.9441],[24.0561,56.9447],[24.0649,56.9508],[24.0678,56.9523],[24.0695,56.9524],[24.0717,56.9515]]]]}},{"type":"Feature","id":"apkaime-riga-15","properties":{"name":"Zasulauks","province":"Rīga","department":"Rīgas pilsēta","type":"Apkaime","country":"Letonia","iso":"LV"},"geometry":{"type":"MultiPolygon","coordinates":[[[[24.0525,56.9511],[24.0633,56.9519],[24.0649,56.9508],[24.0561,56.9447],[24.0584,56.9441],[24.0606,56.9414],[24.0536,56.9395],[24.0481,56.9451],[24.0355,56.9472],[24.0363,56.9486],[24.042,56.9503],[24.0427,56.9519],[24.0525,56.9511]]]]}},{"type":"Feature","id":"apkaime-riga-5","properties":{"name":"Dārziņi","province":"Rīga","department":"Rīgas pilsēta","type":"Apkaime","country":"Letonia","iso":"LV"},"geometry":{"type":"MultiPolygon","coordinates":[[[[24.2477,56.8754],[24.251,56.8802],[24.2851,56.866],[24.3106,56.8593],[24.307,56.8584],[24.2914,56.8574],[24.2826,56.8592],[24.2698,56.8592],[24.2645,56.8601],[24.262,56.8581],[24.2435,56.8689],[24.2388,56.8708],[24.2477,56.8754]]]]}},{"type":"Feature","id":"apkaime-riga-7","properties":{"name":"Šķirotava","province":"Rīga","department":"Rīgas pilsēta","type":"Apkaime","country":"Letonia","iso":"LV"},"geometry":{"type":"MultiPolygon","coordinates":[[[[24.2354,56.9339],[24.2377,56.9227],[24.2361,56.9227],[24.2368,56.9129],[24.2336,56.9021],[24.23,56.9003],[24.2337,56.8984],[24.232,56.8974],[24.2307,56.8981],[24.228,56.8966],[24.1931,56.9139],[24.1755,56.9273],[24.1805,56.931],[24.1822,56.9314],[24.1884,56.9309],[24.1965,56.932],[24.2121,56.9317],[24.2262,56.9376],[24.2405,56.9422],[24.2334,56.9374],[24.2351,56.9361],[24.2354,56.9339]]]]}},{"type":"Feature","id":"apkaime-riga-14","properties":{"name":"Ziepniekkalns","province":"Rīga","department":"Rīgas pilsēta","type":"Apkaime","country":"Letonia","iso":"LV"},"geometry":{"type":"MultiPolygon","coordinates":[[[[24.127,56.9085],[24.1353,56.8995],[24.1309,56.8981],[24.126,56.8987],[24.1221,56.8983],[24.1231,56.8965],[24.1195,56.8955],[24.1177,56.8942],[24.1116,56.895],[24.1005,56.8918],[24.1049,56.8805],[24.069,56.8758],[24.0749,56.8878],[24.0753,56.8908],[24.0743,56.894],[24.0857,56.9101],[24.0881,56.9185],[24.1006,56.921],[24.1085,56.9255],[24.1092,56.9229],[24.1112,56.9209],[24.1144,56.9193],[24.1201,56.9179],[24.1246,56.9176],[24.122,56.9144],[24.127,56.9085]]]]}},{"type":"Feature","id":"apkaime-riga-16","properties":{"name":"Voleri","province":"Rīga","department":"Rīgas pilsēta","type":"Apkaime","country":"Letonia","iso":"LV"},"geometry":{"type":"MultiPolygon","coordinates":[[[[24.0882,56.989],[24.0827,56.9889],[24.0789,56.9918],[24.078,56.9931],[24.0776,56.9951],[24.0761,57.0074],[24.0716,57.0116],[24.0655,57.0151],[24.0708,57.0211],[24.0706,57.0229],[24.07,57.0239],[24.0633,57.0271],[24.0611,57.0289],[24.0607,57.0303],[24.0612,57.0313],[24.0638,57.0334],[24.064,57.0344],[24.0629,57.0393],[24.0681,57.0409],[24.0754,57.0352],[24.0836,57.03],[24.0883,57.0246],[24.0897,57.0217],[24.0908,57.0147],[24.0915,57.0014],[24.09,56.9894],[24.0882,56.989]]]]}},{"type":"Feature","id":"apkaime-riga-17","properties":{"name":"Vecāķi","province":"Rīga","department":"Rīgas pilsēta","type":"Apkaime","country":"Letonia","iso":"LV"},"geometry":{"type":"MultiPolygon","coordinates":[[[[24.106,57.0672],[24.1065,57.0622],[24.0995,57.0659],[24.0927,57.0671],[24.092,57.0721],[24.093,57.0744],[24.0955,57.0764],[24.0957,57.0789],[24.1189,57.0861],[24.1211,57.0831],[24.117,57.0816],[24.1222,57.0775],[24.1094,57.0725],[24.1061,57.0692],[24.106,57.0672]]]]}},{"type":"Feature","id":"apkaime-riga-8","properties":{"name":"Mangaļsala","province":"Rīga","department":"Rīgas pilsēta","type":"Apkaime","country":"Letonia","iso":"LV"},"geometry":{"type":"MultiPolygon","coordinates":[[[[24.0959,57.078],[24.0955,57.0764],[24.093,57.0744],[24.092,57.0721],[24.0927,57.0671],[24.0886,57.0585],[24.0826,57.0508],[24.0801,57.0492],[24.0779,57.049],[24.0697,57.0501],[24.0574,57.0474],[24.0464,57.0531],[24.0284,57.0609],[24.0124,57.0669],[24.0147,57.0685],[24.0241,57.0664],[24.029,57.0645],[24.0478,57.0691],[24.0754,57.0737],[24.0957,57.0789],[24.0959,57.078]]]]}},{"type":"Feature","id":"apkaime-riga-9","properties":{"name":"Buļļi","province":"Rīga","department":"Rīgas pilsēta","type":"Apkaime","country":"Letonia","iso":"LV"},"geometry":{"type":"MultiPolygon","coordinates":[[[[23.9833,57.0289],[23.9918,57.0245],[23.995,57.0248],[24.0039,57.0204],[23.9933,57.0175],[23.983,57.0131],[23.981,57.0117],[23.972,57.0008],[23.9687,56.9986],[23.9623,56.997],[23.9566,56.9967],[23.9485,56.997],[23.9484,56.9975],[23.9375,56.9967],[23.9359,56.9982],[23.9352,56.9996],[23.9358,57.0043],[23.9353,57.0084],[23.9336,57.0099],[23.9361,57.0114],[23.9641,57.0205],[23.9828,57.0292],[23.9833,57.0289]]]]}},{"type":"Feature","id":"apkaime-riga-10","properties":{"name":"Šampēteris","province":"Rīga","department":"Rīgas pilsēta","type":"Apkaime","country":"Letonia","iso":"LV"},"geometry":{"type":"MultiPolygon","coordinates":[[[[24.0498,56.9439],[24.0536,56.9395],[24.0432,56.9348],[24.0402,56.9357],[24.0409,56.9362],[24.0382,56.939],[24.0366,56.9394],[24.0352,56.9411],[24.0332,56.9405],[24.0276,56.9424],[24.0254,56.9466],[24.0264,56.9486],[24.0481,56.9451],[24.0498,56.9439]]]]}},{"type":"Feature","id":"apkaime-riga-11","properties":{"name":"Ķīpsala","province":"Rīga","department":"Rīgas pilsēta","type":"Apkaime","country":"Letonia","iso":"LV"},"geometry":{"type":"MultiPolygon","coordinates":[[[[24.0886,56.9463],[24.0869,56.9453],[24.0793,56.9493],[24.0767,56.9536],[24.0768,56.9639],[24.0779,56.9682],[24.0786,56.9692],[24.0803,56.9699],[24.0877,56.9702],[24.0875,56.9635],[24.0881,56.9603],[24.095,56.9498],[24.0886,56.9463]]]]}},{"type":"Feature","id":"apkaime-riga-18","properties":{"name":"Vecmilgrāvis","province":"Rīga","department":"Rīgas pilsēta","type":"Apkaime","country":"Letonia","iso":"LV"},"geometry":{"type":"MultiPolygon","coordinates":[[[[24.0748,57.0493],[24.0779,57.049],[24.0809,57.0497],[24.0914,57.0438],[24.1028,57.0419],[24.1062,57.0404],[24.1073,57.0383],[24.1088,57.0377],[24.1189,57.0348],[24.1257,57.0343],[24.1318,57.0325],[24.1235,57.0253],[24.1201,57.0239],[24.1173,57.0237],[24.112,57.024],[24.0865,57.0305],[24.0836,57.03],[24.0754,57.0352],[24.0681,57.0409],[24.0574,57.0474],[24.0697,57.0501],[24.0748,57.0493]]]]}},{"type":"Feature","id":"apkaime-riga-20","properties":{"name":"Trīsciems","province":"Rīga","department":"Rīgas pilsēta","type":"Apkaime","country":"Letonia","iso":"LV"},"geometry":{"type":"MultiPolygon","coordinates":[[[[24.125,57.0782],[24.1273,57.0754],[24.1355,57.0773],[24.1403,57.0716],[24.1416,57.0712],[24.1427,57.0692],[24.1435,57.0669],[24.1424,57.0654],[24.141,57.0648],[24.1425,57.0644],[24.1431,57.0627],[24.1447,57.0617],[24.1498,57.0626],[24.1517,57.0606],[24.1511,57.059],[24.1519,57.0585],[24.1516,57.058],[24.1476,57.0576],[24.1472,57.0568],[24.1483,57.0561],[24.1619,57.0546],[24.1613,57.051],[24.1587,57.049],[24.1318,57.0325],[24.1289,57.0336],[24.1189,57.0348],[24.1126,57.0365],[24.1073,57.0383],[24.1062,57.0398],[24.1076,57.0477],[24.1061,57.0692],[24.1094,57.0725],[24.125,57.0782]]]]}},{"type":"Feature","id":"apkaime-riga-21","properties":{"name":"Torņakalns","province":"Rīga","department":"Rīgas pilsēta","type":"Apkaime","country":"Letonia","iso":"LV"},"geometry":{"type":"MultiPolygon","coordinates":[[[[24.1034,56.9431],[24.1039,56.9427],[24.1016,56.9427],[24.1004,56.9418],[24.1005,56.9397],[24.1072,56.9339],[24.1084,56.9309],[24.1085,56.9255],[24.1006,56.921],[24.0938,56.9192],[24.0881,56.9185],[24.081,56.9205],[24.0848,56.9284],[24.0793,56.9265],[24.0782,56.9274],[24.0793,56.9285],[24.0783,56.9295],[24.0812,56.9322],[24.0825,56.9318],[24.0828,56.9328],[24.0869,56.9337],[24.0875,56.9376],[24.101,56.9446],[24.1034,56.9431]]]]}},{"type":"Feature","id":"apkaime-riga-22","properties":{"name":"Teika","province":"Rīga","department":"Rīgas pilsēta","type":"Apkaime","country":"Letonia","iso":"LV"},"geometry":{"type":"MultiPolygon","coordinates":[[[[24.2059,56.9864],[24.2067,56.9849],[24.2089,56.9855],[24.2101,56.9824],[24.2094,56.9817],[24.2076,56.981],[24.1993,56.9802],[24.1958,56.9767],[24.1955,56.9687],[24.1981,56.9661],[24.1907,56.9653],[24.1831,56.966],[24.1564,56.9649],[24.1554,56.9683],[24.1529,56.9713],[24.1533,56.9744],[24.1544,56.9761],[24.156,56.9771],[24.1714,56.9795],[24.1803,56.982],[24.2059,56.9864]]]]}},{"type":"Feature","id":"apkaime-riga-23","properties":{"name":"Suži","province":"Rīga","department":"Rīgas pilsēta","type":"Apkaime","country":"Letonia","iso":"LV"},"geometry":{"type":"MultiPolygon","coordinates":[[[[24.214,57.0051],[24.2118,57.0044],[24.2008,57.0045],[24.1884,57.006],[24.1918,57.0199],[24.1956,57.0245],[24.198,57.0255],[24.2098,57.0194],[24.2129,57.0169],[24.2376,57.0134],[24.2358,57.0104],[24.2353,57.0085],[24.2332,57.0073],[24.2235,57.0071],[24.214,57.0051]]]]}},{"type":"Feature","id":"apkaime-riga-24","properties":{"name":"Spilve","province":"Rīga","department":"Rīgas pilsēta","type":"Apkaime","country":"Letonia","iso":"LV"},"geometry":{"type":"MultiPolygon","coordinates":[[[[24.0827,56.9889],[24.09,56.9894],[24.0877,56.9702],[24.0803,56.9699],[24.0786,56.9692],[24.0779,56.9682],[24.0741,56.9691],[24.0727,56.9696],[24.0666,56.9759],[24.0638,56.9775],[24.0618,56.9778],[24.0567,56.977],[24.0486,56.9737],[24.0464,56.9719],[24.0486,57.0062],[24.0497,57.0127],[24.0496,57.0202],[24.0655,57.0151],[24.0747,57.0092],[24.0761,57.0074],[24.078,56.9931],[24.0827,56.9889]]]]}},{"type":"Feature","id":"apkaime-riga-25","properties":{"name":"Skanste","province":"Rīga","department":"Rīgas pilsēta","type":"Apkaime","country":"Letonia","iso":"LV"},"geometry":{"type":"MultiPolygon","coordinates":[[[[24.1369,56.9807],[24.1353,56.9759],[24.132,56.9756],[24.1253,56.9662],[24.1181,56.9614],[24.1162,56.9624],[24.1061,56.9626],[24.1067,56.9681],[24.1138,56.9771],[24.1369,56.9807]]]]}},{"type":"Feature","id":"apkaime-riga-46","properties":{"name":"Dzirciems","province":"Rīga","department":"Rīgas pilsēta","type":"Apkaime","country":"Letonia","iso":"LV"},"geometry":{"type":"MultiPolygon","coordinates":[[[[24.0771,56.9652],[24.0767,56.9536],[24.0784,56.9503],[24.0803,56.9487],[24.0737,56.9505],[24.0695,56.9524],[24.0678,56.9523],[24.0651,56.9508],[24.0633,56.9519],[24.0541,56.951],[24.0457,56.9518],[24.0457,56.9615],[24.0594,56.9597],[24.061,56.9626],[24.0636,56.9649],[24.0771,56.9652]]]]}},{"type":"Feature","id":"apkaime-riga-26","properties":{"name":"Sarkandaugava","province":"Rīga","department":"Rīgas pilsēta","type":"Apkaime","country":"Letonia","iso":"LV"},"geometry":{"type":"MultiPolygon","coordinates":[[[[24.1219,57.0244],[24.1238,57.0214],[24.1255,57.0169],[24.1291,57.0149],[24.1291,57.0041],[24.1341,56.9964],[24.1306,56.9959],[24.1386,56.9888],[24.1402,56.9843],[24.1439,56.9798],[24.1407,56.9808],[24.1369,56.9807],[24.1146,56.9769],[24.1098,56.9782],[24.0885,56.9792],[24.09,56.9894],[24.0928,56.989],[24.1024,56.9907],[24.108,56.9925],[24.1126,56.9958],[24.1131,57.0058],[24.1158,57.0115],[24.1161,57.0144],[24.115,57.0182],[24.112,57.024],[24.1173,57.0237],[24.1219,57.0244]]]]}},{"type":"Feature","id":"apkaime-riga-27","properties":{"name":"Salas","province":"Rīga","department":"Rīgas pilsēta","type":"Apkaime","country":"Letonia","iso":"LV"},"geometry":{"type":"MultiPolygon","coordinates":[[[[24.1393,56.9171],[24.1279,56.9172],[24.1201,56.9179],[24.1144,56.9193],[24.1112,56.9209],[24.1092,56.9229],[24.1085,56.9257],[24.1084,56.9309],[24.1072,56.9339],[24.1005,56.9397],[24.1004,56.9418],[24.1016,56.9427],[24.1039,56.9427],[24.1246,56.9327],[24.1455,56.9217],[24.1477,56.9194],[24.1444,56.9177],[24.1393,56.9171]]]]}},{"type":"Feature","id":"apkaime-riga-29","properties":{"name":"Pētersala-Andrejsala","province":"Rīga","department":"Rīgas pilsēta","type":"Apkaime","country":"Letonia","iso":"LV"},"geometry":{"type":"MultiPolygon","coordinates":[[[[24.1061,56.9627],[24.0981,56.9624],[24.0982,56.9552],[24.0921,56.9543],[24.0881,56.9603],[24.0875,56.9635],[24.0885,56.9792],[24.1098,56.9782],[24.1138,56.9771],[24.1067,56.9681],[24.1061,56.9627]]]]}},{"type":"Feature","id":"apkaime-riga-30","properties":{"name":"Purvciems","province":"Rīga","department":"Rīgas pilsēta","type":"Apkaime","country":"Letonia","iso":"LV"},"geometry":{"type":"MultiPolygon","coordinates":[[[[24.1981,56.9661],[24.2001,56.9636],[24.1997,56.9622],[24.2003,56.9614],[24.209,56.9541],[24.2093,56.952],[24.2071,56.9463],[24.1606,56.9525],[24.1598,56.9565],[24.1564,56.9649],[24.1831,56.966],[24.1907,56.9653],[24.1981,56.9661]]]]}},{"type":"Feature","id":"apkaime-riga-31","properties":{"name":"Pleskodāle","province":"Rīga","department":"Rīgas pilsēta","type":"Apkaime","country":"Letonia","iso":"LV"},"geometry":{"type":"MultiPolygon","coordinates":[[[[24.0286,56.9419],[24.0332,56.9405],[24.0352,56.9411],[24.0366,56.9394],[24.0382,56.939],[24.0409,56.9362],[24.0402,56.9357],[24.0432,56.9348],[24.0534,56.9395],[24.0634,56.9289],[24.062,56.9273],[24.056,56.9279],[24.04,56.9271],[24.0398,56.9266],[24.0297,56.927],[24.0151,56.929],[24.0092,56.9317],[24.0272,56.9428],[24.0286,56.9419]]]]}},{"type":"Feature","id":"apkaime-riga-32","properties":{"name":"Mūkupurvs","province":"Rīga","department":"Rīgas pilsēta","type":"Apkaime","country":"Letonia","iso":"LV"},"geometry":{"type":"MultiPolygon","coordinates":[[[[23.9928,56.9465],[24.0065,56.9328],[24.0151,56.929],[23.9975,56.9274],[23.9926,56.9287],[23.9778,56.9357],[23.9709,56.9358],[23.9677,56.9333],[23.9572,56.9377],[23.9587,56.9386],[23.9579,56.9389],[23.961,56.9407],[23.96,56.9412],[23.9608,56.9415],[23.9593,56.9422],[23.9617,56.9432],[23.961,56.9442],[23.9672,56.9457],[23.9657,56.9497],[23.9815,56.9501],[23.9902,56.948],[23.9928,56.9465]]]]}},{"type":"Feature","id":"apkaime-riga-33","properties":{"name":"Mīlgrāvis","province":"Rīga","department":"Rīgas pilsēta","type":"Apkaime","country":"Letonia","iso":"LV"},"geometry":{"type":"MultiPolygon","coordinates":[[[[24.1522,57.0232],[24.1505,57.0218],[24.1494,57.0222],[24.1488,57.0207],[24.1469,57.0202],[24.1455,57.02],[24.143,57.0213],[24.1403,57.0209],[24.138,57.0198],[24.1359,57.0173],[24.1327,57.0161],[24.1312,57.0164],[24.1291,57.0149],[24.1255,57.0169],[24.1238,57.0214],[24.1219,57.0244],[24.1261,57.0273],[24.1318,57.0325],[24.1413,57.038],[24.1461,57.0376],[24.1539,57.0356],[24.161,57.032],[24.1642,57.0291],[24.1552,57.0282],[24.1513,57.0265],[24.1522,57.0232]]]]}},{"type":"Feature","id":"apkaime-riga-34","properties":{"name":"Mežciems","province":"Rīga","department":"Rīgas pilsēta","type":"Apkaime","country":"Letonia","iso":"LV"},"geometry":{"type":"MultiPolygon","coordinates":[[[[24.2101,56.9824],[24.2178,56.9769],[24.2249,56.9749],[24.2292,56.9752],[24.2343,56.9746],[24.2348,56.9759],[24.242,56.9753],[24.2413,56.9737],[24.2422,56.9736],[24.2545,56.9759],[24.2537,56.9704],[24.2523,56.9684],[24.2528,56.9616],[24.2567,56.9599],[24.2574,56.9565],[24.2519,56.9564],[24.238,56.9577],[24.2263,56.9606],[24.2264,56.9592],[24.2156,56.9531],[24.209,56.954],[24.2003,56.9614],[24.1997,56.9622],[24.2001,56.9636],[24.1955,56.9687],[24.1956,56.9755],[24.1958,56.9767],[24.1993,56.9802],[24.2076,56.981],[24.2101,56.9824]]]]}},{"type":"Feature","id":"apkaime-riga-35","properties":{"name":"Mežaparks","province":"Rīga","department":"Rīgas pilsēta","type":"Apkaime","country":"Letonia","iso":"LV"},"geometry":{"type":"MultiPolygon","coordinates":[[[[24.1694,57.0237],[24.1884,57.006],[24.1764,56.999],[24.1743,56.9957],[24.1683,56.9926],[24.1652,56.9894],[24.16,56.9857],[24.1502,56.9821],[24.1484,56.9811],[24.1463,56.9786],[24.1446,56.979],[24.1408,56.9832],[24.1386,56.9888],[24.1306,56.9959],[24.1341,56.9964],[24.1291,57.0041],[24.1291,57.0149],[24.1312,57.0164],[24.1343,57.0164],[24.1359,57.0173],[24.138,57.0198],[24.1419,57.0214],[24.1455,57.02],[24.1488,57.0207],[24.1494,57.0222],[24.1505,57.0218],[24.1522,57.0232],[24.1513,57.0265],[24.1552,57.0282],[24.1642,57.0291],[24.1694,57.0237]]]]}},{"type":"Feature","id":"apkaime-riga-37","properties":{"name":"Kundziņsala","province":"Rīga","department":"Rīgas pilsēta","type":"Apkaime","country":"Letonia","iso":"LV"},"geometry":{"type":"MultiPolygon","coordinates":[[[[24.0964,56.9895],[24.0928,56.989],[24.09,56.9894],[24.0915,57.0014],[24.0902,57.0186],[24.0897,57.0217],[24.0883,57.0246],[24.0836,57.03],[24.0865,57.0305],[24.112,57.024],[24.115,57.0182],[24.1161,57.0144],[24.1158,57.0115],[24.1131,57.0058],[24.1126,56.9958],[24.108,56.9925],[24.0964,56.9895]]]]}},{"type":"Feature","id":"apkaime-riga-49","properties":{"name":"Bukulti","province":"Rīga","department":"Rīgas pilsēta","type":"Apkaime","country":"Letonia","iso":"LV"},"geometry":{"type":"MultiPolygon","coordinates":[[[[24.2605,57.0098],[24.2631,57.0091],[24.2724,57.0102],[24.2775,57.0064],[24.2805,57.005],[24.2807,57.0044],[24.2779,57.0034],[24.2787,57.0025],[24.2809,57.0018],[24.2832,57.0022],[24.2532,56.9929],[24.2499,56.9966],[24.2486,56.997],[24.2417,56.997],[24.2351,56.9957],[24.2307,56.9963],[24.2239,56.9997],[24.2189,57.0031],[24.2118,57.0044],[24.2216,57.0068],[24.2332,57.0073],[24.2353,57.0085],[24.2358,57.0104],[24.2376,57.0134],[24.2605,57.0098]]]]}},{"type":"Feature","id":"apkaime-riga-38","properties":{"name":"Kleisti","province":"Rīga","department":"Rīgas pilsēta","type":"Apkaime","country":"Letonia","iso":"LV"},"geometry":{"type":"MultiPolygon","coordinates":[[[[24.0261,57.007],[24.0271,57.0045],[24.0381,57.0089],[24.0383,57.0103],[24.0497,57.0127],[24.0486,57.0062],[24.0464,56.9747],[24.0455,56.9755],[24.0426,56.9765],[24.0355,56.9768],[24.0256,56.9652],[24.0118,56.9717],[23.9887,56.981],[23.9979,56.9829],[24.0027,56.9825],[24.0035,56.9829],[24.0073,56.9819],[24.0125,56.9852],[24.0098,56.9876],[24.0022,56.9877],[23.9883,56.9891],[23.9842,56.9884],[23.9823,56.9873],[23.9756,56.9864],[23.971,56.9864],[23.9485,56.9964],[23.9485,56.997],[23.9623,56.997],[23.9687,56.9986],[23.972,57.0008],[23.981,57.0117],[23.983,57.0131],[23.9933,57.0175],[24.0059,57.0209],[24.0236,57.0102],[24.0261,57.007]]]]}},{"type":"Feature","id":"apkaime-riga-39","properties":{"name":"Katlakalns","province":"Rīga","department":"Rīgas pilsēta","type":"Apkaime","country":"Letonia","iso":"LV"},"geometry":{"type":"MultiPolygon","coordinates":[[[[24.1465,56.9098],[24.1462,56.9106],[24.1388,56.9159],[24.1393,56.9171],[24.1427,56.9173],[24.1466,56.9186],[24.1477,56.9194],[24.1474,56.9204],[24.1509,56.9204],[24.1694,56.907],[24.1637,56.9044],[24.158,56.9061],[24.1581,56.9049],[24.1524,56.905],[24.1526,56.9071],[24.1514,56.9072],[24.1517,56.9088],[24.1504,56.9101],[24.1465,56.9098]]]]}},{"type":"Feature","id":"apkaime-riga-40","properties":{"name":"Jugla","province":"Rīga","department":"Rīgas pilsēta","type":"Apkaime","country":"Letonia","iso":"LV"},"geometry":{"type":"MultiPolygon","coordinates":[[[[24.2327,56.9959],[24.2375,56.9959],[24.2417,56.997],[24.2499,56.9966],[24.2532,56.9929],[24.2559,56.9912],[24.2812,56.9795],[24.2843,56.9726],[24.2866,56.9707],[24.2939,56.967],[24.2953,56.9649],[24.2947,56.9624],[24.2865,56.9587],[24.2826,56.9587],[24.2825,56.9573],[24.2684,56.9576],[24.2608,56.9563],[24.2575,56.9565],[24.2567,56.9599],[24.2528,56.9616],[24.2523,56.9684],[24.2537,56.9704],[24.2545,56.9759],[24.2422,56.9736],[24.2413,56.9737],[24.242,56.9753],[24.2348,56.9759],[24.2343,56.9746],[24.2292,56.9752],[24.2249,56.9749],[24.2178,56.9769],[24.2101,56.9824],[24.2089,56.9855],[24.2067,56.9849],[24.2032,56.9906],[24.2025,56.993],[24.2029,56.9954],[24.1982,57.0047],[24.2118,57.0044],[24.2165,57.0038],[24.2214,57.0019],[24.2268,56.9982],[24.2327,56.9959]]]]}},{"type":"Feature","id":"apkaime-riga-41","properties":{"name":"Jaunciems","province":"Rīga","department":"Rīgas pilsēta","type":"Apkaime","country":"Letonia","iso":"LV"},"geometry":{"type":"MultiPolygon","coordinates":[[[[24.1627,57.0545],[24.1747,57.0542],[24.1823,57.0528],[24.1871,57.0539],[24.19,57.0445],[24.1968,57.0453],[24.1992,57.0397],[24.1943,57.0391],[24.1988,57.0345],[24.1942,57.034],[24.198,57.0255],[24.1956,57.0245],[24.1918,57.0199],[24.1884,57.006],[24.161,57.032],[24.1539,57.0356],[24.1461,57.0376],[24.1413,57.038],[24.1587,57.049],[24.1613,57.051],[24.1619,57.0546],[24.1627,57.0545]]]]}},{"type":"Feature","id":"apkaime-riga-42","properties":{"name":"Iļģuciems","province":"Rīga","department":"Rīgas pilsēta","type":"Apkaime","country":"Letonia","iso":"LV"},"geometry":{"type":"MultiPolygon","coordinates":[[[[24.0722,56.9649],[24.0636,56.9649],[24.061,56.9626],[24.0594,56.9597],[24.0457,56.9615],[24.0464,56.9719],[24.0486,56.9737],[24.0584,56.9776],[24.0618,56.9778],[24.0651,56.977],[24.0709,56.972],[24.0727,56.9696],[24.0779,56.9682],[24.0771,56.9652],[24.0722,56.9649]]]]}},{"type":"Feature","id":"apkaime-riga-43","properties":{"name":"Imanta","province":"Rīga","department":"Rīgas pilsēta","type":"Apkaime","country":"Letonia","iso":"LV"},"geometry":{"type":"MultiPolygon","coordinates":[[[[24.0118,56.9717],[24.0256,56.9652],[24.0355,56.9768],[24.0426,56.9765],[24.0455,56.9755],[24.0464,56.9747],[24.0454,56.9574],[24.0457,56.9518],[24.0427,56.9519],[24.042,56.9503],[24.0363,56.9486],[24.0355,56.9472],[24.0188,56.9497],[23.986,56.9509],[23.9752,56.9524],[23.9575,56.9561],[23.9615,56.9575],[23.9611,56.9587],[23.9714,56.9596],[23.9727,56.9587],[23.9759,56.9589],[23.9773,56.9594],[23.9771,56.9603],[23.9906,56.9628],[23.9947,56.9627],[24.0118,56.9717]]]]}},{"type":"Feature","id":"apkaime-riga-45","properties":{"name":"Dārzciems","province":"Rīga","department":"Rīgas pilsēta","type":"Apkaime","country":"Letonia","iso":"LV"},"geometry":{"type":"MultiPolygon","coordinates":[[[[24.1927,56.9314],[24.1884,56.9309],[24.1822,56.9314],[24.1805,56.931],[24.1755,56.9273],[24.1609,56.9407],[24.1521,56.9449],[24.1482,56.9458],[24.155,56.9473],[24.1587,56.9495],[24.1606,56.9525],[24.1963,56.9478],[24.195,56.9393],[24.1955,56.9319],[24.1927,56.9314]]]]}},{"type":"Feature","id":"apkaime-riga-47","properties":{"name":"Dreiliņi","province":"Rīga","department":"Rīgas pilsēta","type":"Apkaime","country":"Letonia","iso":"LV"},"geometry":{"type":"MultiPolygon","coordinates":[[[[24.246,56.957],[24.2608,56.9563],[24.2701,56.9575],[24.2701,56.9566],[24.2685,56.9539],[24.2699,56.9507],[24.2634,56.9489],[24.2584,56.9524],[24.2565,56.9561],[24.2531,56.9558],[24.2527,56.9543],[24.2477,56.9487],[24.2442,56.9433],[24.2394,56.9421],[24.2071,56.9463],[24.2093,56.952],[24.209,56.954],[24.2156,56.9531],[24.2264,56.9592],[24.2263,56.9606],[24.238,56.9577],[24.246,56.957]]]]}},{"type":"Feature","id":"apkaime-riga-48","properties":{"name":"Centrs","province":"Rīga","department":"Rīgas pilsēta","type":"Apkaime","country":"Letonia","iso":"LV"},"geometry":{"type":"MultiPolygon","coordinates":[[[[24.1371,56.963],[24.1426,56.9596],[24.1244,56.9503],[24.1257,56.9466],[24.1184,56.9461],[24.1177,56.947],[24.1154,56.9463],[24.1135,56.9493],[24.1098,56.9517],[24.1055,56.9532],[24.0942,56.951],[24.0921,56.9543],[24.0982,56.9552],[24.0981,56.9624],[24.1162,56.9624],[24.1181,56.9614],[24.1253,56.9662],[24.1289,56.9705],[24.1323,56.9696],[24.1303,56.967],[24.1336,56.9659],[24.1333,56.9654],[24.1371,56.963]]]]}},{"type":"Feature","id":"apkaime-riga-50","properties":{"name":"Brekši","province":"Rīga","department":"Rīgas pilsēta","type":"Apkaime","country":"Letonia","iso":"LV"},"geometry":{"type":"MultiPolygon","coordinates":[[[[24.3239,56.9695],[24.3248,56.9685],[24.3222,56.9668],[24.3177,56.9662],[24.3143,56.9668],[24.3069,56.9632],[24.3052,56.9615],[24.2912,56.9571],[24.2875,56.9551],[24.2838,56.9572],[24.2825,56.9573],[24.2826,56.9587],[24.2865,56.9587],[24.2947,56.9624],[24.2953,56.9649],[24.2939,56.967],[24.2866,56.9707],[24.2843,56.9726],[24.2962,56.9693],[24.2999,56.9699],[24.3039,56.9717],[24.3157,56.9738],[24.3215,56.9716],[24.3239,56.9695]]]]}},{"type":"Feature","id":"apkaime-riga-52","properties":{"name":"Bolderāja","province":"Rīga","department":"Rīgas pilsēta","type":"Apkaime","country":"Letonia","iso":"LV"},"geometry":{"type":"MultiPolygon","coordinates":[[[[24.0511,57.039],[24.0565,57.0386],[24.0629,57.0393],[24.064,57.0344],[24.0638,57.0334],[24.0612,57.0313],[24.0607,57.0303],[24.0611,57.0289],[24.0633,57.0271],[24.07,57.0239],[24.0706,57.0229],[24.0708,57.0211],[24.0655,57.0151],[24.0496,57.0202],[24.0497,57.0127],[24.0383,57.0103],[24.0381,57.0089],[24.0271,57.0045],[24.0261,57.007],[24.0236,57.0102],[24.0059,57.0209],[24.0188,57.0244],[24.0276,57.0286],[24.0293,57.0307],[24.0298,57.035],[24.0316,57.0367],[24.0373,57.039],[24.0511,57.039]]]]}},{"type":"Feature","id":"apkaime-riga-54","properties":{"name":"Bieriņi","province":"Rīga","department":"Rīgas pilsēta","type":"Apkaime","country":"Letonia","iso":"LV"},"geometry":{"type":"MultiPolygon","coordinates":[[[[24.0675,56.9274],[24.0778,56.9263],[24.0806,56.9267],[24.0848,56.9284],[24.0761,56.9091],[24.0454,56.9126],[24.0449,56.9152],[24.0435,56.9169],[24.0443,56.9175],[24.0415,56.9178],[24.0397,56.9266],[24.04,56.9271],[24.056,56.9279],[24.062,56.9273],[24.0634,56.9289],[24.0675,56.9274]]]]}},{"type":"Feature","id":"apkaime-riga-55","properties":{"name":"Berģi","province":"Rīga","department":"Rīgas pilsēta","type":"Apkaime","country":"Letonia","iso":"LV"},"geometry":{"type":"MultiPolygon","coordinates":[[[[24.2811,56.9977],[24.281,56.9968],[24.2789,56.9965],[24.2916,56.9906],[24.3061,56.9871],[24.3055,56.9851],[24.3085,56.983],[24.3068,56.9822],[24.3049,56.98],[24.309,56.9783],[24.3144,56.9779],[24.314,56.9774],[24.3146,56.9767],[24.3168,56.9752],[24.3164,56.9736],[24.3145,56.9737],[24.3039,56.9717],[24.2978,56.9694],[24.2945,56.9696],[24.2929,56.9706],[24.2861,56.972],[24.2843,56.9726],[24.2812,56.9795],[24.261,56.9887],[24.2532,56.9929],[24.2832,57.0022],[24.2797,57.0007],[24.2808,56.9993],[24.2811,56.9977]]]]}},{"type":"Feature","id":"apkaime-riga-56","properties":{"name":"Beberbeķi","province":"Rīga","department":"Rīgas pilsēta","type":"Apkaime","country":"Letonia","iso":"LV"},"geometry":{"type":"MultiPolygon","coordinates":[[[[23.9845,56.951],[23.9826,56.95],[23.9657,56.9497],[23.9672,56.9457],[23.961,56.9442],[23.9617,56.9432],[23.9593,56.9422],[23.9608,56.9415],[23.96,56.9412],[23.961,56.9407],[23.9579,56.9389],[23.9587,56.9386],[23.9572,56.9377],[23.9487,56.9413],[23.9455,56.9441],[23.9703,56.9534],[23.9845,56.951]]]]}},{"type":"Feature","id":"apkaime-riga-58","properties":{"name":"Atgāzene","province":"Rīga","department":"Rīgas pilsēta","type":"Apkaime","country":"Letonia","iso":"LV"},"geometry":{"type":"MultiPolygon","coordinates":[[[[24.0857,56.9101],[24.0821,56.9052],[24.076,56.9065],[24.077,56.909],[24.0761,56.9091],[24.081,56.9205],[24.0881,56.9185],[24.0857,56.9101]]]]}}]}