{"type":"FeatureCollection","features":[{"type":"Feature","id":"rione-roma-3","properties":{"name":"Castro Pretorio","province":"Roma","department":"Lazio","type":"Rione","country":"Italia","iso":"IT"},"geometry":{"type":"MultiPolygon","coordinates":[[[[12.4907,41.9019],[12.5015,41.9094],[12.5026,41.9085],[12.5046,41.9081],[12.5083,41.9091],[12.5108,41.9041],[12.5071,41.9028],[12.5109,41.8967],[12.5008,41.9034],[12.4982,41.9018],[12.5016,41.8998],[12.4996,41.8976],[12.4907,41.9019]]]]}},{"type":"Feature","id":"rione-roma-1","properties":{"name":"Monti","province":"Roma","department":"Lazio","type":"Rione","country":"Italia","iso":"IT"},"geometry":{"type":"MultiPolygon","coordinates":[[[[12.4871,41.8996],[12.4907,41.9019],[12.4996,41.8976],[12.4993,41.8968],[12.5047,41.8872],[12.5058,41.8873],[12.5089,41.8859],[12.5032,41.8833],[12.4992,41.8825],[12.4966,41.8833],[12.4956,41.8853],[12.503,41.8874],[12.493,41.8909],[12.4911,41.8906],[12.4833,41.8956],[12.487,41.8963],[12.4871,41.8996]]]]}},{"type":"Feature","id":"rione-roma-2","properties":{"name":"Esquilino","province":"Roma","department":"Lazio","type":"Rione","country":"Italia","iso":"IT"},"geometry":{"type":"MultiPolygon","coordinates":[[[[12.4996,41.8976],[12.5016,41.8998],[12.4982,41.9018],[12.5008,41.9034],[12.5158,41.8929],[12.5148,41.8909],[12.5189,41.8891],[12.5178,41.8878],[12.5089,41.8859],[12.5058,41.8873],[12.5047,41.8872],[12.4993,41.8968],[12.4996,41.8976]]]]}},{"type":"Feature","id":"rione-roma-4","properties":{"name":"Sallustiano","province":"Roma","department":"Lazio","type":"Rione","country":"Italia","iso":"IT"},"geometry":{"type":"MultiPolygon","coordinates":[[[[12.5015,41.9094],[12.4941,41.9043],[12.4909,41.9059],[12.4915,41.9071],[12.4924,41.9074],[12.492,41.908],[12.497,41.9093],[12.4984,41.9109],[12.5015,41.9094]]]]}},{"type":"Feature","id":"rione-roma-19","properties":{"name":"Testaccio","province":"Roma","department":"Lazio","type":"Rione","country":"Italia","iso":"IT"},"geometry":{"type":"MultiPolygon","coordinates":[[[[12.4817,41.8765],[12.4747,41.8731],[12.4723,41.8729],[12.4704,41.8776],[12.4709,41.8793],[12.4759,41.883],[12.4803,41.8773],[12.4817,41.8765]]]]}},{"type":"Feature","id":"rione-roma-5","properties":{"name":"Ludovisi","province":"Roma","department":"Lazio","type":"Rione","country":"Italia","iso":"IT"},"geometry":{"type":"MultiPolygon","coordinates":[[[[12.4984,41.9109],[12.497,41.9093],[12.492,41.908],[12.4924,41.9074],[12.4887,41.9041],[12.4875,41.9056],[12.4859,41.9051],[12.4862,41.9073],[12.4883,41.9094],[12.4921,41.9107],[12.4984,41.9109]]]]}},{"type":"Feature","id":"rione-roma-6","properties":{"name":"Trevi","province":"Roma","department":"Lazio","type":"Rione","country":"Italia","iso":"IT"},"geometry":{"type":"MultiPolygon","coordinates":[[[[12.4935,41.905],[12.4941,41.9043],[12.4871,41.8996],[12.487,41.8963],[12.4833,41.8956],[12.4822,41.8966],[12.4808,41.9001],[12.4819,41.9003],[12.4813,41.9023],[12.488,41.9035],[12.4909,41.9059],[12.4935,41.905]]]]}},{"type":"Feature","id":"rione-roma-7","properties":{"name":"Colonna","province":"Roma","department":"Lazio","type":"Rione","country":"Italia","iso":"IT"},"geometry":{"type":"MultiPolygon","coordinates":[[[[12.4859,41.9051],[12.4875,41.9056],[12.4887,41.9041],[12.488,41.9035],[12.4813,41.9023],[12.4819,41.9003],[12.4808,41.9001],[12.4811,41.8994],[12.4769,41.8991],[12.4763,41.9012],[12.4769,41.9012],[12.4778,41.9025],[12.478,41.9037],[12.483,41.9046],[12.4835,41.9038],[12.4857,41.904],[12.4859,41.9051]]]]}},{"type":"Feature","id":"rione-roma-8","properties":{"name":"Campo Marzio","province":"Roma","department":"Lazio","type":"Rione","country":"Italia","iso":"IT"},"geometry":{"type":"MultiPolygon","coordinates":[[[[12.4883,41.9094],[12.4859,41.9067],[12.4857,41.904],[12.4835,41.9038],[12.483,41.9046],[12.478,41.9037],[12.4769,41.9012],[12.4739,41.9019],[12.4734,41.9029],[12.4748,41.9043],[12.4753,41.9059],[12.4725,41.9109],[12.481,41.913],[12.4817,41.9104],[12.4846,41.9087],[12.4883,41.9094]]]]}},{"type":"Feature","id":"rione-roma-9","properties":{"name":"Pigna","province":"Roma","department":"Lazio","type":"Rione","country":"Italia","iso":"IT"},"geometry":{"type":"MultiPolygon","coordinates":[[[[12.4822,41.8966],[12.4824,41.8954],[12.4763,41.8949],[12.4764,41.9],[12.4769,41.8991],[12.4811,41.8994],[12.4822,41.8966]]]]}},{"type":"Feature","id":"rione-roma-10","properties":{"name":"Sant'Eustachio","province":"Roma","department":"Lazio","type":"Rione","country":"Italia","iso":"IT"},"geometry":{"type":"MultiPolygon","coordinates":[[[[12.4766,41.9],[12.4765,41.894],[12.4742,41.8943],[12.4737,41.9004],[12.4743,41.9018],[12.4758,41.9016],[12.4765,41.9012],[12.4766,41.9]]]]}},{"type":"Feature","id":"rione-roma-11","properties":{"name":"Ponte","province":"Roma","department":"Lazio","type":"Rione","country":"Italia","iso":"IT"},"geometry":{"type":"MultiPolygon","coordinates":[[[[12.4734,41.9029],[12.4743,41.9018],[12.4741,41.9006],[12.4726,41.9005],[12.4723,41.8992],[12.4686,41.8993],[12.4683,41.8982],[12.4659,41.8968],[12.4642,41.8993],[12.4643,41.9004],[12.4652,41.9011],[12.4734,41.9029]]]]}},{"type":"Feature","id":"rione-roma-12","properties":{"name":"Parione","province":"Roma","department":"Lazio","type":"Rione","country":"Italia","iso":"IT"},"geometry":{"type":"MultiPolygon","coordinates":[[[[12.4676,41.8977],[12.4686,41.8993],[12.4723,41.8992],[12.4726,41.9005],[12.4737,41.9004],[12.4742,41.8943],[12.4698,41.8972],[12.4676,41.8977]]]]}},{"type":"Feature","id":"rione-roma-13","properties":{"name":"Regola","province":"Roma","department":"Lazio","type":"Rione","country":"Italia","iso":"IT"},"geometry":{"type":"MultiPolygon","coordinates":[[[[12.4659,41.8968],[12.4675,41.8978],[12.4698,41.8972],[12.4736,41.8945],[12.4764,41.894],[12.4762,41.8934],[12.4768,41.8932],[12.4765,41.8919],[12.4721,41.8921],[12.4659,41.8968]]]]}},{"type":"Feature","id":"rione-roma-14","properties":{"name":"Sant'Angelo","province":"Roma","department":"Lazio","type":"Rione","country":"Italia","iso":"IT"},"geometry":{"type":"MultiPolygon","coordinates":[[[[12.4765,41.8919],[12.4768,41.8932],[12.4762,41.8934],[12.4763,41.8949],[12.4808,41.8945],[12.4792,41.8935],[12.4805,41.8924],[12.4803,41.8915],[12.4765,41.8919]]]]}},{"type":"Feature","id":"rione-roma-15","properties":{"name":"Campitelli","province":"Roma","department":"Lazio","type":"Rione","country":"Italia","iso":"IT"},"geometry":{"type":"MultiPolygon","coordinates":[[[[12.4911,41.8906],[12.4892,41.8848],[12.4832,41.8882],[12.4842,41.8905],[12.4819,41.891],[12.4792,41.8935],[12.4808,41.8945],[12.4798,41.895],[12.4824,41.8954],[12.4822,41.8966],[12.4911,41.8906]]]]}},{"type":"Feature","id":"rione-roma-16","properties":{"name":"Ripa","province":"Roma","department":"Lazio","type":"Rione","country":"Italia","iso":"IT"},"geometry":{"type":"MultiPolygon","coordinates":[[[[12.4785,41.8914],[12.4803,41.8915],[12.4805,41.8924],[12.4819,41.891],[12.4842,41.8905],[12.4832,41.8882],[12.4892,41.8848],[12.4837,41.8803],[12.4792,41.8787],[12.4759,41.883],[12.4798,41.8868],[12.4802,41.8889],[12.4785,41.8912],[12.4781,41.8909],[12.4792,41.8895],[12.4743,41.8911],[12.4779,41.8909],[12.4785,41.8914]]]]}},{"type":"Feature","id":"rione-roma-17","properties":{"name":"Celio","province":"Roma","department":"Lazio","type":"Rione","country":"Italia","iso":"IT"},"geometry":{"type":"MultiPolygon","coordinates":[[[[12.4911,41.8906],[12.493,41.8909],[12.503,41.8874],[12.4956,41.8853],[12.4966,41.8833],[12.4987,41.8824],[12.4987,41.8813],[12.5001,41.8794],[12.5023,41.8782],[12.5022,41.876],[12.5035,41.8748],[12.5033,41.8743],[12.5015,41.8734],[12.499,41.8773],[12.4889,41.8844],[12.4911,41.8906]]]]}},{"type":"Feature","id":"rione-roma-18","properties":{"name":"San Saba","province":"Roma","department":"Lazio","type":"Rione","country":"Italia","iso":"IT"},"geometry":{"type":"MultiPolygon","coordinates":[[[[12.5015,41.8734],[12.4927,41.8738],[12.4882,41.8777],[12.487,41.8765],[12.4855,41.8762],[12.4817,41.8765],[12.4792,41.8787],[12.4837,41.8803],[12.4889,41.8844],[12.499,41.8773],[12.5015,41.8734]]]]}},{"type":"Feature","id":"rione-roma-20","properties":{"name":"Trastevere","province":"Roma","department":"Lazio","type":"Rione","country":"Italia","iso":"IT"},"geometry":{"type":"MultiPolygon","coordinates":[[[[12.4626,41.8996],[12.4655,41.8958],[12.4718,41.8909],[12.4785,41.8891],[12.479,41.8876],[12.4785,41.8868],[12.4746,41.8837],[12.4735,41.8843],[12.473,41.8838],[12.4722,41.8844],[12.4705,41.8842],[12.4674,41.8835],[12.4658,41.8824],[12.4638,41.8826],[12.4628,41.8839],[12.4613,41.8844],[12.4619,41.8862],[12.4612,41.887],[12.4616,41.8884],[12.4603,41.889],[12.461,41.8898],[12.4607,41.891],[12.46,41.8915],[12.4603,41.8922],[12.4593,41.8934],[12.4579,41.8985],[12.4606,41.8999],[12.4626,41.8996]]]]}},{"type":"Feature","id":"rione-roma-21","properties":{"name":"Prati","province":"Roma","department":"Lazio","type":"Rione","country":"Italia","iso":"IT"},"geometry":{"type":"MultiPolygon","coordinates":[[[[12.4555,41.9076],[12.4549,41.9105],[12.47,41.9141],[12.4737,41.9059],[12.4729,41.904],[12.4682,41.9027],[12.4687,41.9043],[12.4662,41.9055],[12.4638,41.904],[12.4588,41.9058],[12.4588,41.9064],[12.4558,41.9064],[12.4555,41.9076]]]]}},{"type":"Feature","id":"rione-roma-22","properties":{"name":"Borgo","province":"Roma","department":"Lazio","type":"Rione","country":"Italia","iso":"IT"},"geometry":{"type":"MultiPolygon","coordinates":[[[[12.4579,41.8985],[12.4564,41.9004],[12.4565,41.9013],[12.4579,41.9012],[12.4586,41.9023],[12.4577,41.9036],[12.4578,41.906],[12.4567,41.9065],[12.4588,41.9064],[12.4588,41.9058],[12.4638,41.904],[12.4662,41.9055],[12.4687,41.9043],[12.4682,41.9027],[12.4651,41.9024],[12.4626,41.8996],[12.4606,41.8999],[12.4579,41.8985]]]]}}]}