{"type":"FeatureCollection","features":[{"type":"Feature","id":"sv10001001","properties":{"name":"Ayutuxtepeque","province":"San Salvador","department":"San Salvador","type":"Distrito","country":"El Salvador","iso":"SV"},"geometry":{"type":"MultiPolygon","coordinates":[[[[-89.2019,13.752],[-89.2029,13.746],[-89.2066,13.7416],[-89.2065,13.7397],[-89.2033,13.7357],[-89.2034,13.7334],[-89.2048,13.7304],[-89.2041,13.7285],[-89.2027,13.7277],[-89.1966,13.7263],[-89.1925,13.7264],[-89.1912,13.7272],[-89.1896,13.7305],[-89.1907,13.7376],[-89.1885,13.7444],[-89.1836,13.7529],[-89.1792,13.7584],[-89.1788,13.7599],[-89.1804,13.7636],[-89.1803,13.7661],[-89.1834,13.7642],[-89.1928,13.7536],[-89.1966,13.752],[-89.2019,13.752]]],[[[-89.2125,13.7496],[-89.2157,13.7486],[-89.221,13.7496],[-89.2303,13.7461],[-89.229,13.7434],[-89.2259,13.7402],[-89.2228,13.7391],[-89.22,13.7415],[-89.2147,13.7414],[-89.2138,13.7422],[-89.2125,13.7496]]]]}},{"type":"Feature","id":"sv10001002","properties":{"name":"Cuscatancingo","province":"San Salvador","department":"San Salvador","type":"Distrito","country":"El Salvador","iso":"SV"},"geometry":{"type":"MultiPolygon","coordinates":[[[[-89.1788,13.7599],[-89.1767,13.7596],[-89.1754,13.7585],[-89.1729,13.7515],[-89.1714,13.7498],[-89.1694,13.7495],[-89.1677,13.7502],[-89.1664,13.7524],[-89.1637,13.7604],[-89.1636,13.7636],[-89.1649,13.7675],[-89.1645,13.7701],[-89.1662,13.7742],[-89.1661,13.777],[-89.1736,13.7822],[-89.177,13.782],[-89.179,13.781],[-89.1834,13.7777],[-89.1845,13.7752],[-89.1804,13.7712],[-89.1804,13.7636],[-89.1788,13.7599]]],[[[-89.1671,13.7182],[-89.1674,13.7301],[-89.1692,13.7363],[-89.1703,13.7372],[-89.1766,13.7367],[-89.1793,13.731],[-89.1795,13.7291],[-89.1782,13.724],[-89.1802,13.7192],[-89.1774,13.7198],[-89.1671,13.7182]]]]}},{"type":"Feature","id":"sv10001003","properties":{"name":"Delgado","province":"San Salvador","department":"San Salvador","type":"Distrito","country":"El Salvador","iso":"SV"},"geometry":{"type":"Polygon","coordinates":[[[-89.1671,13.7182],[-89.1681,13.7094],[-89.1697,13.7049],[-89.168,13.7033],[-89.1661,13.7029],[-89.1597,13.7036],[-89.1581,13.7048],[-89.1571,13.7069],[-89.1567,13.713],[-89.1553,13.7138],[-89.1433,13.713],[-89.1417,13.7143],[-89.1404,13.7179],[-89.1412,13.727],[-89.1449,13.7329],[-89.1471,13.7413],[-89.1468,13.7422],[-89.1447,13.7431],[-89.1404,13.744],[-89.1382,13.7436],[-89.1378,13.7482],[-89.1348,13.7539],[-89.1346,13.756],[-89.1359,13.7625],[-89.1347,13.7653],[-89.1363,13.7706],[-89.138,13.7904],[-89.1393,13.7928],[-89.1439,13.7947],[-89.1516,13.7952],[-89.1569,13.7927],[-89.1616,13.7843],[-89.1634,13.7827],[-89.1637,13.779],[-89.1662,13.7761],[-89.1645,13.7701],[-89.1649,13.7675],[-89.1636,13.7636],[-89.1637,13.7604],[-89.1677,13.7502],[-89.1694,13.7495],[-89.1714,13.7498],[-89.1742,13.7541],[-89.1754,13.7585],[-89.1767,13.7596],[-89.1788,13.7599],[-89.1866,13.7482],[-89.1903,13.7396],[-89.1908,13.736],[-89.1896,13.7305],[-89.1888,13.7312],[-89.1863,13.7311],[-89.1854,13.7363],[-89.1839,13.7377],[-89.1794,13.7386],[-89.1766,13.7367],[-89.1703,13.7372],[-89.1692,13.7363],[-89.1674,13.7301],[-89.1671,13.7182]]]}},{"type":"Feature","id":"sv10001004","properties":{"name":"Mejicanos","province":"San Salvador","department":"San Salvador","type":"Distrito","country":"El Salvador","iso":"SV"},"geometry":{"type":"Polygon","coordinates":[[[-89.2019,13.752],[-89.2064,13.7527],[-89.211,13.7508],[-89.2125,13.7496],[-89.2138,13.7422],[-89.2147,13.7414],[-89.22,13.7415],[-89.2228,13.7391],[-89.2259,13.7402],[-89.229,13.7434],[-89.2303,13.7461],[-89.234,13.7471],[-89.2384,13.7414],[-89.245,13.7399],[-89.2499,13.7368],[-89.25,13.7248],[-89.2447,13.7172],[-89.2433,13.717],[-89.2351,13.7228],[-89.2332,13.7224],[-89.2288,13.7194],[-89.2198,13.7195],[-89.2141,13.7203],[-89.209,13.7178],[-89.1904,13.7172],[-89.1802,13.7192],[-89.1782,13.724],[-89.1795,13.7291],[-89.1793,13.731],[-89.1766,13.7367],[-89.1794,13.7386],[-89.1849,13.7372],[-89.1863,13.7311],[-89.1888,13.7312],[-89.1912,13.7272],[-89.1925,13.7264],[-89.2006,13.727],[-89.2041,13.7285],[-89.2048,13.7304],[-89.2034,13.7334],[-89.2033,13.7357],[-89.2065,13.7397],[-89.2066,13.7416],[-89.2029,13.746],[-89.2019,13.752]]]}},{"type":"Feature","id":"sv10001005","properties":{"name":"San Salvador","province":"San Salvador","department":"San Salvador","type":"Distrito","country":"El Salvador","iso":"SV"},"geometry":{"type":"Polygon","coordinates":[[[-89.2161,13.6532],[-89.2146,13.6502],[-89.2137,13.6444],[-89.2127,13.6436],[-89.2032,13.6428],[-89.2,13.6388],[-89.1998,13.6375],[-89.1972,13.6358],[-89.1969,13.631],[-89.1934,13.6298],[-89.1915,13.6262],[-89.1888,13.6277],[-89.1844,13.6262],[-89.1825,13.6287],[-89.179,13.641],[-89.1791,13.6423],[-89.181,13.6442],[-89.1825,13.6487],[-89.1881,13.6534],[-89.1852,13.6607],[-89.1853,13.6671],[-89.1843,13.6681],[-89.178,13.6636],[-89.1757,13.6643],[-89.1743,13.6675],[-89.1732,13.6681],[-89.1704,13.6661],[-89.1689,13.6662],[-89.1676,13.6698],[-89.166,13.6708],[-89.166,13.6737],[-89.1624,13.6816],[-89.1642,13.6868],[-89.1641,13.6893],[-89.1624,13.6918],[-89.1587,13.6932],[-89.1575,13.6964],[-89.1551,13.6994],[-89.1558,13.7007],[-89.1597,13.7036],[-89.1661,13.7029],[-89.168,13.7033],[-89.1697,13.7049],[-89.1681,13.7094],[-89.1671,13.7182],[-89.1774,13.7198],[-89.1904,13.7172],[-89.209,13.7178],[-89.2141,13.7203],[-89.2198,13.7195],[-89.2288,13.7194],[-89.2332,13.7224],[-89.2351,13.7228],[-89.2416,13.7177],[-89.2447,13.7172],[-89.25,13.7248],[-89.2499,13.7368],[-89.2535,13.7369],[-89.2566,13.7357],[-89.2575,13.7349],[-89.2559,13.7328],[-89.2566,13.7283],[-89.2598,13.7235],[-89.2674,13.7167],[-89.268,13.714],[-89.2659,13.7094],[-89.2661,13.7081],[-89.2696,13.7065],[-89.2698,13.7054],[-89.2683,13.7032],[-89.2584,13.7011],[-89.2379,13.6923],[-89.2357,13.6891],[-89.2319,13.6732],[-89.229,13.6667],[-89.2253,13.6622],[-89.2162,13.6566],[-89.2156,13.655],[-89.2161,13.6532]]]}},{"type":"Feature","id":"sv10002001","properties":{"name":"Ilopango","province":"San Salvador","department":"San Salvador","type":"Distrito","country":"El Salvador","iso":"SV"},"geometry":{"type":"Polygon","coordinates":[[[-89.0891,13.6729],[-89.0893,13.6761],[-89.0852,13.6779],[-89.0855,13.6842],[-89.083,13.6861],[-89.0813,13.6893],[-89.0767,13.6918],[-89.0729,13.6925],[-89.0721,13.6935],[-89.0728,13.696],[-89.075,13.6976],[-89.0786,13.7025],[-89.0808,13.7034],[-89.0884,13.7038],[-89.0892,13.7053],[-89.089,13.7087],[-89.0875,13.7156],[-89.0943,13.7123],[-89.0962,13.7125],[-89.1017,13.7158],[-89.1053,13.7156],[-89.1076,13.7142],[-89.1116,13.7067],[-89.1149,13.7037],[-89.1221,13.701],[-89.1247,13.6988],[-89.1291,13.6895],[-89.1293,13.6823],[-89.1302,13.6784],[-89.1337,13.6732],[-89.1359,13.6661],[-89.1382,13.6634],[-89.1384,13.661],[-89.1349,13.657],[-89.1342,13.6571],[-89.128,13.66],[-89.1197,13.6696],[-89.1155,13.6699],[-89.1082,13.667],[-89.1049,13.6668],[-89.1007,13.6679],[-89.0959,13.6716],[-89.0913,13.6714],[-89.0897,13.6718],[-89.0891,13.6729]]]}},{"type":"Feature","id":"sv10002002","properties":{"name":"San Martín","province":"San Salvador","department":"San Salvador","type":"Distrito","country":"El Salvador","iso":"SV"},"geometry":{"type":"Polygon","coordinates":[[[-89.0233,13.6969],[-89.0223,13.6983],[-89.0224,13.7015],[-89.0273,13.7101],[-89.0431,13.7429],[-89.0507,13.763],[-89.0547,13.7698],[-89.0578,13.7731],[-89.064,13.7824],[-89.0655,13.7941],[-89.0772,13.7971],[-89.0877,13.7979],[-89.0875,13.7941],[-89.085,13.7891],[-89.0855,13.7792],[-89.0841,13.7758],[-89.0818,13.7629],[-89.0825,13.7594],[-89.0862,13.7537],[-89.0871,13.7487],[-89.0859,13.7438],[-89.084,13.7413],[-89.0833,13.7381],[-89.0853,13.7364],[-89.086,13.7344],[-89.086,13.7206],[-89.089,13.7087],[-89.0888,13.7044],[-89.0863,13.7032],[-89.0808,13.7034],[-89.0786,13.7025],[-89.075,13.6976],[-89.0728,13.696],[-89.0721,13.6942],[-89.0688,13.6943],[-89.0645,13.6973],[-89.0557,13.7001],[-89.0547,13.6999],[-89.0542,13.6988],[-89.0541,13.6961],[-89.0507,13.6955],[-89.0454,13.7005],[-89.0383,13.7008],[-89.0352,13.703],[-89.0328,13.7036],[-89.0272,13.6981],[-89.0249,13.6968],[-89.0233,13.6969]]]}},{"type":"Feature","id":"sv10002003","properties":{"name":"Soyapango","province":"San Salvador","department":"San Salvador","type":"Distrito","country":"El Salvador","iso":"SV"},"geometry":{"type":"Polygon","coordinates":[[[-89.1582,13.6636],[-89.1568,13.6637],[-89.1527,13.6617],[-89.1498,13.6575],[-89.1478,13.6564],[-89.1424,13.6575],[-89.1349,13.657],[-89.1376,13.6598],[-89.1386,13.662],[-89.1359,13.6661],[-89.1337,13.6732],[-89.1302,13.6784],[-89.1293,13.6823],[-89.1291,13.6895],[-89.1247,13.6988],[-89.1221,13.701],[-89.1149,13.7037],[-89.1116,13.7067],[-89.107,13.7149],[-89.1086,13.7218],[-89.1107,13.7237],[-89.1144,13.7243],[-89.1217,13.7284],[-89.126,13.7343],[-89.1315,13.7373],[-89.1347,13.7418],[-89.1394,13.7439],[-89.1464,13.7425],[-89.1472,13.7399],[-89.1449,13.7329],[-89.1419,13.7286],[-89.1409,13.7257],[-89.1403,13.7193],[-89.1417,13.7143],[-89.1433,13.713],[-89.1553,13.7138],[-89.1567,13.713],[-89.1573,13.7063],[-89.1597,13.7036],[-89.1558,13.7007],[-89.1551,13.6994],[-89.1575,13.6964],[-89.1587,13.6932],[-89.1624,13.6918],[-89.1641,13.6893],[-89.1642,13.6868],[-89.1624,13.6816],[-89.166,13.6737],[-89.166,13.6708],[-89.1612,13.6646],[-89.1582,13.6636]]]}},{"type":"Feature","id":"sv10002004","properties":{"name":"Tonacatepeque","province":"San Salvador","department":"San Salvador","type":"Distrito","country":"El Salvador","iso":"SV"},"geometry":{"type":"Polygon","coordinates":[[[-89.0877,13.7979],[-89.0925,13.799],[-89.0951,13.8009],[-89.101,13.8122],[-89.107,13.8189],[-89.1125,13.8342],[-89.1177,13.8412],[-89.1202,13.8432],[-89.1239,13.8444],[-89.128,13.8442],[-89.1332,13.8423],[-89.1392,13.8428],[-89.1365,13.8235],[-89.137,13.8159],[-89.141,13.8053],[-89.1425,13.7942],[-89.1393,13.7928],[-89.138,13.7904],[-89.1363,13.7706],[-89.1348,13.7659],[-89.1359,13.7625],[-89.1346,13.756],[-89.1348,13.7539],[-89.1378,13.7482],[-89.1382,13.7436],[-89.1347,13.7418],[-89.1315,13.7373],[-89.126,13.7343],[-89.1217,13.7284],[-89.1144,13.7243],[-89.1107,13.7237],[-89.1086,13.7218],[-89.107,13.7149],[-89.1017,13.7158],[-89.095,13.7123],[-89.0875,13.7156],[-89.086,13.7206],[-89.086,13.7344],[-89.0853,13.7364],[-89.0833,13.7381],[-89.084,13.7413],[-89.0859,13.7438],[-89.0871,13.7487],[-89.0862,13.7537],[-89.0822,13.7602],[-89.082,13.7657],[-89.0855,13.7792],[-89.085,13.7891],[-89.0875,13.7941],[-89.0877,13.7979]]]}},{"type":"Feature","id":"sv10003001","properties":{"name":"Aguilares","province":"San Salvador","department":"San Salvador","type":"Distrito","country":"El Salvador","iso":"SV"},"geometry":{"type":"Polygon","coordinates":[[[-89.1676,13.9557],[-89.1658,13.9612],[-89.1584,13.9654],[-89.1569,13.9672],[-89.1532,13.9786],[-89.1575,13.981],[-89.1606,13.981],[-89.1628,13.9822],[-89.1637,13.9811],[-89.1647,13.9809],[-89.1661,13.982],[-89.1673,13.9809],[-89.1704,13.9827],[-89.1712,13.9812],[-89.1711,13.9785],[-89.1731,13.9774],[-89.1751,13.9708],[-89.1862,13.9716],[-89.1854,13.9671],[-89.1871,13.9616],[-89.1878,13.9612],[-89.1903,13.9628],[-89.1968,13.9704],[-89.1967,13.9718],[-89.1933,13.9721],[-89.1937,13.9743],[-89.193,13.9765],[-89.1974,13.9773],[-89.2013,13.9736],[-89.2069,13.9724],[-89.2092,13.9683],[-89.2139,13.9673],[-89.2192,13.9615],[-89.2245,13.9597],[-89.2299,13.9558],[-89.23,13.9527],[-89.2271,13.9509],[-89.227,13.9495],[-89.2314,13.9455],[-89.2316,13.9435],[-89.2289,13.9416],[-89.2272,13.9378],[-89.2195,13.9366],[-89.2183,13.9351],[-89.2172,13.9257],[-89.2177,13.9172],[-89.2186,13.915],[-89.2245,13.9117],[-89.2215,13.9098],[-89.219,13.907],[-89.2167,13.8988],[-89.2154,13.8982],[-89.2143,13.8995],[-89.2132,13.9033],[-89.2107,13.903],[-89.2082,13.8999],[-89.2052,13.8993],[-89.2025,13.9023],[-89.2009,13.903],[-89.2,13.9012],[-89.1971,13.9045],[-89.1947,13.9155],[-89.195,13.9253],[-89.1918,13.9343],[-89.1823,13.9403],[-89.1819,13.9434],[-89.1789,13.9509],[-89.1741,13.9543],[-89.1676,13.9557]]]}},{"type":"Feature","id":"sv10003002","properties":{"name":"El Paisnal","province":"San Salvador","department":"San Salvador","type":"Distrito","country":"El Salvador","iso":"SV"},"geometry":{"type":"Polygon","coordinates":[[[-89.2611,13.9482],[-89.2522,13.945],[-89.2447,13.941],[-89.2365,13.9397],[-89.2315,13.9381],[-89.2272,13.9378],[-89.2289,13.9416],[-89.2319,13.9441],[-89.2314,13.9455],[-89.227,13.9495],[-89.2271,13.9509],[-89.23,13.9527],[-89.2299,13.9558],[-89.2245,13.9597],[-89.2192,13.9615],[-89.2139,13.9673],[-89.2096,13.9679],[-89.2069,13.9724],[-89.2013,13.9736],[-89.1974,13.9773],[-89.1938,13.9771],[-89.193,13.976],[-89.1937,13.9743],[-89.1933,13.9721],[-89.1967,13.9718],[-89.1968,13.9704],[-89.1903,13.9628],[-89.1878,13.9612],[-89.1871,13.9616],[-89.1854,13.9671],[-89.1862,13.9716],[-89.1751,13.9708],[-89.1731,13.9774],[-89.1711,13.9785],[-89.1712,13.9812],[-89.1704,13.9827],[-89.1673,13.9809],[-89.1661,13.982],[-89.1647,13.9809],[-89.1637,13.9811],[-89.1628,13.9822],[-89.1606,13.981],[-89.1575,13.981],[-89.1532,13.9786],[-89.149,13.9888],[-89.1474,14.0032],[-89.1488,14.0146],[-89.1529,14.0201],[-89.1527,14.0288],[-89.1518,14.0312],[-89.1465,14.036],[-89.1447,14.039],[-89.1412,14.0504],[-89.1439,14.0495],[-89.1441,14.0507],[-89.1423,14.0532],[-89.1428,14.0549],[-89.1485,14.0522],[-89.1498,14.0469],[-89.1564,14.0443],[-89.1589,14.041],[-89.1618,14.0346],[-89.1681,14.0344],[-89.1741,14.0324],[-89.1752,14.0336],[-89.1754,14.036],[-89.1804,14.0397],[-89.1825,14.0423],[-89.1827,14.0446],[-89.1809,14.048],[-89.1814,14.0512],[-89.1841,14.0552],[-89.1866,14.0566],[-89.1891,14.0567],[-89.193,14.0553],[-89.1977,14.0522],[-89.2019,14.0469],[-89.2046,14.045],[-89.2159,14.041],[-89.2189,14.0417],[-89.2242,14.0461],[-89.2268,14.0473],[-89.2347,14.0478],[-89.2443,14.0502],[-89.2487,14.0483],[-89.2492,14.0444],[-89.2505,14.043],[-89.2607,14.0404],[-89.2637,14.0423],[-89.2651,14.0419],[-89.2681,14.0374],[-89.2696,14.0366],[-89.2692,14.0333],[-89.2734,14.0299],[-89.2743,14.026],[-89.2774,14.0252],[-89.2798,14.0234],[-89.2797,14.016],[-89.2819,14.0113],[-89.2829,14.005],[-89.2837,14.004],[-89.2861,14.0047],[-89.2882,14.0024],[-89.2873,13.9964],[-89.2889,13.9918],[-89.2802,13.9775],[-89.2782,13.9768],[-89.2743,13.9786],[-89.2718,13.9769],[-89.2683,13.9727],[-89.2666,13.9719],[-89.2638,13.9735],[-89.2612,13.9684],[-89.2603,13.9646],[-89.259,13.9628],[-89.2551,13.9611],[-89.2543,13.9589],[-89.2555,13.9576],[-89.2611,13.9563],[-89.2631,13.9541],[-89.2629,13.9517],[-89.2611,13.9482]]]}},{"type":"Feature","id":"sv10003003","properties":{"name":"Guazapa","province":"San Salvador","department":"San Salvador","type":"Distrito","country":"El Salvador","iso":"SV"},"geometry":{"type":"Polygon","coordinates":[[[-89.1179,13.8878],[-89.1182,13.8889],[-89.1217,13.8912],[-89.1255,13.8955],[-89.1329,13.8974],[-89.1368,13.8994],[-89.1438,13.9069],[-89.1469,13.9173],[-89.1515,13.9239],[-89.1581,13.9387],[-89.1676,13.9557],[-89.1741,13.9543],[-89.1789,13.9509],[-89.1819,13.9434],[-89.1823,13.9403],[-89.1909,13.9352],[-89.1926,13.9325],[-89.195,13.9253],[-89.1945,13.9172],[-89.1964,13.9063],[-89.1971,13.9045],[-89.2,13.9012],[-89.1952,13.8891],[-89.194,13.8818],[-89.1927,13.8789],[-89.1889,13.8715],[-89.1829,13.8659],[-89.1819,13.8612],[-89.1787,13.8563],[-89.179,13.8468],[-89.1777,13.845],[-89.1752,13.8432],[-89.1527,13.8355],[-89.1494,13.8364],[-89.1465,13.8387],[-89.1435,13.838],[-89.1414,13.8388],[-89.1399,13.8405],[-89.1392,13.8428],[-89.1416,13.8458],[-89.1432,13.8566],[-89.1454,13.8584],[-89.1505,13.8598],[-89.1512,13.8618],[-89.1506,13.864],[-89.1498,13.8655],[-89.1469,13.8676],[-89.1348,13.8721],[-89.1285,13.8784],[-89.1197,13.8847],[-89.1179,13.8878]]]}},{"type":"Feature","id":"sv10004001","properties":{"name":"Apopa","province":"San Salvador","department":"San Salvador","type":"Distrito","country":"El Salvador","iso":"SV"},"geometry":{"type":"Polygon","coordinates":[[[-89.179,13.8477],[-89.1823,13.8472],[-89.1862,13.8453],[-89.1883,13.8456],[-89.1915,13.8477],[-89.1946,13.8472],[-89.1954,13.8461],[-89.1958,13.8417],[-89.1942,13.8326],[-89.1886,13.8241],[-89.1879,13.8198],[-89.1917,13.8096],[-89.1987,13.8026],[-89.2014,13.7979],[-89.2033,13.7962],[-89.2055,13.7957],[-89.2162,13.7952],[-89.2174,13.7893],[-89.2214,13.787],[-89.2239,13.7868],[-89.2317,13.7897],[-89.2333,13.7886],[-89.2349,13.7847],[-89.2347,13.7757],[-89.237,13.7723],[-89.2384,13.764],[-89.2403,13.7598],[-89.2413,13.7503],[-89.2394,13.7482],[-89.2343,13.7465],[-89.234,13.7471],[-89.2303,13.7461],[-89.221,13.7496],[-89.214,13.7488],[-89.2088,13.7521],[-89.2064,13.7527],[-89.2008,13.7518],[-89.1954,13.7523],[-89.1908,13.7554],[-89.1834,13.7642],[-89.1803,13.7661],[-89.1804,13.7712],[-89.1845,13.7752],[-89.1834,13.7777],[-89.179,13.781],[-89.1755,13.7823],[-89.1715,13.781],[-89.1661,13.777],[-89.1646,13.7773],[-89.1637,13.779],[-89.1637,13.7821],[-89.1601,13.7867],[-89.1569,13.7927],[-89.1496,13.7955],[-89.1425,13.7942],[-89.141,13.8053],[-89.137,13.8159],[-89.1365,13.8235],[-89.1392,13.8428],[-89.1399,13.8405],[-89.142,13.8385],[-89.144,13.838],[-89.1465,13.8387],[-89.1494,13.8364],[-89.1527,13.8355],[-89.1752,13.8432],[-89.1777,13.845],[-89.179,13.8477]]]}},{"type":"Feature","id":"sv10004002","properties":{"name":"Nejapa","province":"San Salvador","department":"San Salvador","type":"Distrito","country":"El Salvador","iso":"SV"},"geometry":{"type":"Polygon","coordinates":[[[-89.2499,13.7368],[-89.245,13.7399],[-89.2384,13.7414],[-89.2343,13.7465],[-89.2394,13.7482],[-89.2409,13.7492],[-89.2413,13.7509],[-89.2403,13.7598],[-89.2384,13.764],[-89.237,13.7723],[-89.2347,13.7757],[-89.2349,13.7847],[-89.2333,13.7886],[-89.2317,13.7897],[-89.2239,13.7868],[-89.2214,13.787],[-89.2174,13.7893],[-89.2162,13.7952],[-89.2055,13.7957],[-89.2033,13.7962],[-89.2014,13.7979],[-89.1987,13.8026],[-89.1917,13.8096],[-89.1879,13.8198],[-89.1886,13.8241],[-89.1942,13.8326],[-89.1958,13.8417],[-89.1954,13.8461],[-89.1946,13.8472],[-89.1915,13.8477],[-89.1883,13.8456],[-89.1862,13.8453],[-89.1823,13.8472],[-89.179,13.8477],[-89.1787,13.8563],[-89.1819,13.8612],[-89.1829,13.8659],[-89.1889,13.8715],[-89.1927,13.8789],[-89.194,13.8818],[-89.1952,13.8891],[-89.2009,13.903],[-89.2025,13.9023],[-89.2052,13.8993],[-89.2071,13.8993],[-89.2107,13.903],[-89.2132,13.9033],[-89.2143,13.8995],[-89.2154,13.8982],[-89.2163,13.8985],[-89.219,13.907],[-89.2215,13.9098],[-89.2245,13.9117],[-89.2279,13.9088],[-89.2283,13.9068],[-89.2274,13.9032],[-89.2285,13.8987],[-89.2343,13.8942],[-89.2352,13.8909],[-89.2365,13.8693],[-89.2409,13.8512],[-89.2464,13.8357],[-89.2503,13.8184],[-89.2528,13.8147],[-89.2583,13.8027],[-89.2582,13.7977],[-89.2558,13.7918],[-89.256,13.7883],[-89.258,13.7839],[-89.2622,13.7657],[-89.2673,13.7534],[-89.2677,13.7496],[-89.2734,13.7366],[-89.2766,13.7341],[-89.2772,13.7325],[-89.2758,13.7301],[-89.2718,13.7291],[-89.2698,13.7313],[-89.267,13.7313],[-89.2656,13.7326],[-89.2623,13.7331],[-89.2548,13.7365],[-89.2499,13.7368]]]}},{"type":"Feature","id":"sv10005001","properties":{"name":"Panchimalco","province":"San Salvador","department":"San Salvador","type":"Distrito","country":"El Salvador","iso":"SV"},"geometry":{"type":"Polygon","coordinates":[[[-89.1495,13.6027],[-89.1529,13.6064],[-89.1532,13.6085],[-89.1522,13.612],[-89.1551,13.6159],[-89.1561,13.62],[-89.1626,13.631],[-89.1683,13.6379],[-89.1753,13.6361],[-89.1803,13.6367],[-89.1825,13.6287],[-89.1844,13.6262],[-89.1888,13.6277],[-89.1915,13.6262],[-89.1934,13.6298],[-89.1969,13.631],[-89.1972,13.6358],[-89.1998,13.6375],[-89.202,13.6334],[-89.2055,13.631],[-89.2122,13.6245],[-89.2125,13.6225],[-89.2186,13.6176],[-89.2204,13.6113],[-89.2228,13.6077],[-89.2216,13.5994],[-89.2245,13.5941],[-89.2251,13.5907],[-89.2241,13.5851],[-89.2215,13.5811],[-89.2168,13.583],[-89.2099,13.5791],[-89.2025,13.5812],[-89.1977,13.5799],[-89.1931,13.5796],[-89.1904,13.5778],[-89.1903,13.5722],[-89.1885,13.5715],[-89.1846,13.5717],[-89.1829,13.5691],[-89.1847,13.5656],[-89.1842,13.562],[-89.1824,13.559],[-89.1838,13.5523],[-89.1809,13.5466],[-89.1804,13.5409],[-89.1831,13.5306],[-89.1835,13.5205],[-89.1826,13.5169],[-89.1834,13.5072],[-89.1854,13.5027],[-89.1876,13.5007],[-89.1879,13.4989],[-89.186,13.493],[-89.1869,13.4906],[-89.1862,13.4883],[-89.1932,13.4792],[-89.1984,13.477],[-89.2007,13.4747],[-89.1995,13.4739],[-89.1858,13.4719],[-89.179,13.4692],[-89.1754,13.4696],[-89.174,13.4717],[-89.1741,13.4812],[-89.1724,13.4829],[-89.174,13.4847],[-89.1733,13.4864],[-89.1707,13.4871],[-89.1664,13.487],[-89.16,13.4857],[-89.1564,13.4866],[-89.1509,13.5022],[-89.1459,13.5047],[-89.1434,13.5069],[-89.142,13.5131],[-89.1382,13.5184],[-89.1392,13.5283],[-89.1368,13.5326],[-89.1303,13.5387],[-89.1298,13.5456],[-89.1322,13.5511],[-89.1319,13.5597],[-89.1335,13.5669],[-89.135,13.5696],[-89.1444,13.5799],[-89.1464,13.5848],[-89.1478,13.5924],[-89.1519,13.5988],[-89.1516,13.6008],[-89.1495,13.6027]]]}},{"type":"Feature","id":"sv10005002","properties":{"name":"Rosario de Mora","province":"San Salvador","department":"San Salvador","type":"Distrito","country":"El Salvador","iso":"SV"},"geometry":{"type":"Polygon","coordinates":[[[-89.2007,13.4747],[-89.1984,13.477],[-89.1932,13.4792],[-89.1862,13.4883],[-89.1869,13.4906],[-89.186,13.493],[-89.1879,13.4989],[-89.1876,13.5007],[-89.1854,13.5027],[-89.1834,13.5072],[-89.1826,13.5169],[-89.1835,13.5205],[-89.1831,13.5306],[-89.1804,13.5409],[-89.1809,13.5466],[-89.1838,13.5523],[-89.1824,13.559],[-89.1842,13.562],[-89.1847,13.5656],[-89.1829,13.5691],[-89.1846,13.5717],[-89.1885,13.5715],[-89.1903,13.5722],[-89.1904,13.5778],[-89.1931,13.5796],[-89.1977,13.5799],[-89.2025,13.5812],[-89.2099,13.5791],[-89.2153,13.5826],[-89.2182,13.5829],[-89.2215,13.5811],[-89.218,13.5763],[-89.215,13.5699],[-89.2164,13.5563],[-89.2168,13.5544],[-89.2217,13.5478],[-89.2241,13.5417],[-89.225,13.5332],[-89.2237,13.5293],[-89.2193,13.5222],[-89.216,13.5143],[-89.2115,13.508],[-89.2088,13.4974],[-89.2012,13.4903],[-89.2004,13.4842],[-89.2021,13.4805],[-89.2026,13.4771],[-89.2007,13.4747]]]}},{"type":"Feature","id":"sv10005003","properties":{"name":"San Marcos","province":"San Salvador","department":"San Salvador","type":"Distrito","country":"El Salvador","iso":"SV"},"geometry":{"type":"MultiPolygon","coordinates":[[[[-89.1582,13.6636],[-89.1612,13.6646],[-89.166,13.6708],[-89.1676,13.6698],[-89.1689,13.6662],[-89.1704,13.6661],[-89.1732,13.6681],[-89.1769,13.6635],[-89.18,13.6645],[-89.1849,13.668],[-89.1852,13.6607],[-89.1881,13.6534],[-89.1825,13.6487],[-89.181,13.6442],[-89.1791,13.6423],[-89.1803,13.6367],[-89.1753,13.6361],[-89.1695,13.638],[-89.1683,13.6379],[-89.1666,13.6362],[-89.1655,13.6383],[-89.163,13.6382],[-89.1615,13.6391],[-89.1606,13.6416],[-89.1543,13.643],[-89.1512,13.6448],[-89.1512,13.6461],[-89.1544,13.6495],[-89.1524,13.6521],[-89.1548,13.6541],[-89.1539,13.6572],[-89.1582,13.6636]]],[[[-89.1998,13.6375],[-89.2,13.6388],[-89.2032,13.6428],[-89.2127,13.6436],[-89.2137,13.6444],[-89.2146,13.6502],[-89.2161,13.6532],[-89.2187,13.6512],[-89.2253,13.6501],[-89.2274,13.6484],[-89.2304,13.6417],[-89.2319,13.6299],[-89.2312,13.6286],[-89.2294,13.6278],[-89.2229,13.6283],[-89.2196,13.6277],[-89.2132,13.6256],[-89.2122,13.6245],[-89.202,13.6334],[-89.1998,13.6375]]]]}},{"type":"Feature","id":"sv10005004","properties":{"name":"Santiago Texacuangos","province":"San Salvador","department":"San Salvador","type":"Distrito","country":"El Salvador","iso":"SV"},"geometry":{"type":"Polygon","coordinates":[[[-89.1001,13.6109],[-89.0973,13.6143],[-89.0877,13.6309],[-89.0799,13.6388],[-89.0815,13.6411],[-89.081,13.6475],[-89.0818,13.6512],[-89.0808,13.6542],[-89.0783,13.6559],[-89.0741,13.6561],[-89.0721,13.6582],[-89.0717,13.6617],[-89.0734,13.6637],[-89.0789,13.6645],[-89.083,13.663],[-89.0846,13.6695],[-89.0891,13.6729],[-89.0897,13.6718],[-89.0913,13.6714],[-89.0959,13.6716],[-89.1026,13.6672],[-89.1074,13.6669],[-89.1146,13.6551],[-89.121,13.6468],[-89.121,13.6425],[-89.1185,13.6373],[-89.1186,13.6349],[-89.1206,13.6322],[-89.1196,13.6264],[-89.1227,13.6227],[-89.1229,13.6189],[-89.125,13.6178],[-89.1242,13.6063],[-89.1066,13.6074],[-89.1036,13.6082],[-89.1001,13.6109]]]}},{"type":"Feature","id":"sv10005005","properties":{"name":"Santo Tomás","province":"San Salvador","department":"San Salvador","type":"Distrito","country":"El Salvador","iso":"SV"},"geometry":{"type":"Polygon","coordinates":[[[-89.1242,13.6063],[-89.125,13.6178],[-89.1229,13.6189],[-89.1227,13.6227],[-89.1196,13.6264],[-89.1206,13.6322],[-89.1186,13.6349],[-89.1185,13.6373],[-89.121,13.6425],[-89.121,13.6468],[-89.1146,13.6551],[-89.1074,13.6669],[-89.1155,13.6699],[-89.1197,13.6696],[-89.128,13.66],[-89.1357,13.6569],[-89.1424,13.6575],[-89.1478,13.6564],[-89.1498,13.6575],[-89.1527,13.6617],[-89.1568,13.6637],[-89.1582,13.6636],[-89.1539,13.6572],[-89.1548,13.6541],[-89.1524,13.6521],[-89.1544,13.6495],[-89.1512,13.6461],[-89.1512,13.6448],[-89.1543,13.643],[-89.1606,13.6416],[-89.1615,13.6391],[-89.163,13.6382],[-89.1655,13.6383],[-89.1666,13.6362],[-89.159,13.6252],[-89.1561,13.62],[-89.1551,13.6159],[-89.1522,13.612],[-89.1532,13.6085],[-89.1529,13.6064],[-89.1495,13.6027],[-89.142,13.6054],[-89.1242,13.6063]]]}}]}