{"type":"FeatureCollection","features":[{"type":"Feature","id":"cr10101","properties":{"name":"Carmen","province":"San José","department":"San José","type":"Distrito","country":"Costa Rica","iso":"CR"},"geometry":{"type":"Polygon","coordinates":[[[-84.0657,9.9396],[-84.0666,9.9406],[-84.0674,9.9401],[-84.0691,9.9409],[-84.0699,9.9408],[-84.0705,9.9394],[-84.0716,9.94],[-84.0737,9.9391],[-84.0786,9.9402],[-84.0791,9.934],[-84.069,9.9331],[-84.0666,9.9321],[-84.0616,9.9319],[-84.0608,9.9394],[-84.0621,9.9395],[-84.0627,9.9405],[-84.064,9.939],[-84.0657,9.9396]]]}},{"type":"Feature","id":"cr10102","properties":{"name":"Merced","province":"San José","department":"San José","type":"Distrito","country":"Costa Rica","iso":"CR"},"geometry":{"type":"Polygon","coordinates":[[[-84.0785,9.9416],[-84.0822,9.9416],[-84.0817,9.9423],[-84.0823,9.9432],[-84.0813,9.9427],[-84.0806,9.9433],[-84.0811,9.9446],[-84.0822,9.9445],[-84.0825,9.9458],[-84.084,9.9453],[-84.0846,9.9459],[-84.0857,9.9438],[-84.0899,9.9452],[-84.0915,9.9443],[-84.0922,9.9458],[-84.0933,9.944],[-84.0937,9.9446],[-84.095,9.9441],[-84.0952,9.943],[-84.0968,9.9443],[-84.0977,9.944],[-84.0982,9.9447],[-84.0987,9.9444],[-84.0982,9.9358],[-84.0791,9.934],[-84.0785,9.9416]]]}},{"type":"Feature","id":"cr10103","properties":{"name":"Hospital","province":"San José","department":"San José","type":"Distrito","country":"Costa Rica","iso":"CR"},"geometry":{"type":"Polygon","coordinates":[[[-84.0791,9.934],[-84.0982,9.9358],[-84.0991,9.9256],[-84.0979,9.9252],[-84.0984,9.9235],[-84.097,9.9244],[-84.0957,9.9243],[-84.0963,9.9231],[-84.0949,9.9213],[-84.0921,9.9207],[-84.0905,9.9191],[-84.0896,9.9201],[-84.0894,9.9192],[-84.088,9.9189],[-84.0874,9.9195],[-84.0882,9.9206],[-84.0874,9.9208],[-84.0859,9.9182],[-84.0848,9.9173],[-84.0836,9.9174],[-84.0831,9.9194],[-84.081,9.9204],[-84.0801,9.9238],[-84.0791,9.934]]]}},{"type":"Feature","id":"cr10104","properties":{"name":"Catedral","province":"San José","department":"San José","type":"Distrito","country":"Costa Rica","iso":"CR"},"geometry":{"type":"Polygon","coordinates":[[[-84.0616,9.9319],[-84.0666,9.9321],[-84.069,9.9331],[-84.0791,9.934],[-84.0798,9.9253],[-84.081,9.9204],[-84.076,9.9198],[-84.0752,9.9162],[-84.0698,9.9153],[-84.0694,9.9157],[-84.0717,9.92],[-84.0616,9.9319]]]}},{"type":"Feature","id":"cr10105","properties":{"name":"Zapote","province":"San José","department":"San José","type":"Distrito","country":"Costa Rica","iso":"CR"},"geometry":{"type":"Polygon","coordinates":[[[-84.0468,9.9249],[-84.0502,9.9233],[-84.0507,9.9225],[-84.0524,9.9221],[-84.0526,9.9229],[-84.0515,9.9243],[-84.0524,9.9256],[-84.0557,9.9268],[-84.0567,9.9262],[-84.0587,9.9276],[-84.0608,9.9279],[-84.0637,9.927],[-84.0656,9.9274],[-84.0717,9.92],[-84.0694,9.9157],[-84.0677,9.9163],[-84.0671,9.9154],[-84.0663,9.9161],[-84.0639,9.9142],[-84.0624,9.9153],[-84.0608,9.9128],[-84.0598,9.9128],[-84.0593,9.9138],[-84.0584,9.9137],[-84.0579,9.9144],[-84.0558,9.9135],[-84.0551,9.9142],[-84.0551,9.9134],[-84.0544,9.9131],[-84.0537,9.9139],[-84.0527,9.9135],[-84.0514,9.9152],[-84.0504,9.9155],[-84.0511,9.9168],[-84.0506,9.9192],[-84.0468,9.9249]]]}},{"type":"Feature","id":"cr10106","properties":{"name":"San Francisco de Dos Ríos","province":"San José","department":"San José","type":"Distrito","country":"Costa Rica","iso":"CR"},"geometry":{"type":"Polygon","coordinates":[[[-84.0674,9.9157],[-84.0677,9.9163],[-84.0694,9.9157],[-84.0684,9.9065],[-84.0675,9.9062],[-84.0672,9.9044],[-84.0659,9.9048],[-84.066,9.9039],[-84.0635,9.9029],[-84.058,9.9016],[-84.0579,9.9003],[-84.057,9.9011],[-84.0555,9.9011],[-84.0548,9.9028],[-84.0539,9.9023],[-84.0538,9.9013],[-84.0532,9.9023],[-84.0507,9.9004],[-84.0495,9.9017],[-84.0486,9.9016],[-84.049,9.9032],[-84.0475,9.9029],[-84.0472,9.9041],[-84.0491,9.9049],[-84.0512,9.9085],[-84.0507,9.9096],[-84.0516,9.9104],[-84.0525,9.9139],[-84.0538,9.9138],[-84.0544,9.9131],[-84.0551,9.9134],[-84.0551,9.9142],[-84.0558,9.9135],[-84.0579,9.9144],[-84.0584,9.9137],[-84.0593,9.9138],[-84.0598,9.9128],[-84.0607,9.9128],[-84.0624,9.9153],[-84.0639,9.9142],[-84.0663,9.9161],[-84.0674,9.9157]]]}},{"type":"Feature","id":"cr10107","properties":{"name":"Uruca","province":"San José","department":"San José","type":"Distrito","country":"Costa Rica","iso":"CR"},"geometry":{"type":"Polygon","coordinates":[[[-84.1557,9.9689],[-84.1589,9.9668],[-84.1605,9.9669],[-84.1618,9.966],[-84.1629,9.9666],[-84.164,9.9661],[-84.167,9.9668],[-84.1684,9.9656],[-84.1731,9.9718],[-84.1764,9.9715],[-84.1794,9.97],[-84.1803,9.9686],[-84.1772,9.9679],[-84.1744,9.968],[-84.1722,9.9658],[-84.1698,9.9649],[-84.1683,9.9634],[-84.1641,9.963],[-84.1609,9.9638],[-84.1566,9.9633],[-84.1533,9.9597],[-84.1492,9.958],[-84.1458,9.9601],[-84.1407,9.9602],[-84.1375,9.9609],[-84.1322,9.96],[-84.128,9.9584],[-84.1215,9.9544],[-84.121,9.9529],[-84.1216,9.95],[-84.1203,9.9481],[-84.1181,9.9465],[-84.1161,9.9469],[-84.1134,9.9446],[-84.1102,9.9449],[-84.1099,9.9435],[-84.1082,9.9442],[-84.108,9.9434],[-84.1073,9.944],[-84.106,9.9435],[-84.1053,9.9444],[-84.1028,9.9437],[-84.1019,9.9451],[-84.101,9.9436],[-84.1002,9.9442],[-84.1008,9.945],[-84.0998,9.9459],[-84.0993,9.9433],[-84.0981,9.9447],[-84.0952,9.943],[-84.095,9.9441],[-84.0937,9.9446],[-84.0933,9.944],[-84.0921,9.9458],[-84.0915,9.9443],[-84.0899,9.9452],[-84.0881,9.9443],[-84.0854,9.944],[-84.0891,9.9464],[-84.0887,9.9493],[-84.0917,9.9499],[-84.0923,9.9507],[-84.093,9.9505],[-84.0937,9.9517],[-84.0959,9.9513],[-84.0972,9.952],[-84.0968,9.953],[-84.0978,9.9542],[-84.0972,9.9553],[-84.0979,9.9566],[-84.1009,9.9579],[-84.1047,9.9568],[-84.106,9.9595],[-84.1078,9.9605],[-84.1088,9.9621],[-84.11,9.9606],[-84.1118,9.9606],[-84.1139,9.9594],[-84.1154,9.9616],[-84.1194,9.9624],[-84.1209,9.9634],[-84.1232,9.9635],[-84.1239,9.9645],[-84.1265,9.9649],[-84.1275,9.9661],[-84.1306,9.9657],[-84.1315,9.9668],[-84.1337,9.9675],[-84.1377,9.9638],[-84.1397,9.9644],[-84.142,9.963],[-84.144,9.9633],[-84.1453,9.9618],[-84.1463,9.9641],[-84.1483,9.9638],[-84.1502,9.9651],[-84.1526,9.9657],[-84.154,9.9667],[-84.155,9.9688],[-84.1557,9.9689]]]}},{"type":"Feature","id":"cr10108","properties":{"name":"Mata Redonda","province":"San José","department":"San José","type":"Distrito","country":"Costa Rica","iso":"CR"},"geometry":{"type":"Polygon","coordinates":[[[-84.0987,9.9444],[-84.0994,9.9434],[-84.0994,9.9457],[-84.0999,9.9459],[-84.1008,9.945],[-84.1002,9.9442],[-84.101,9.9436],[-84.1019,9.9451],[-84.1028,9.9437],[-84.1052,9.9444],[-84.106,9.9435],[-84.1073,9.944],[-84.108,9.9434],[-84.1082,9.9442],[-84.1102,9.9437],[-84.115,9.9379],[-84.1157,9.9362],[-84.12,9.9353],[-84.123,9.9354],[-84.1231,9.9344],[-84.1222,9.9348],[-84.1218,9.9343],[-84.1224,9.9309],[-84.121,9.9299],[-84.1193,9.9317],[-84.1186,9.93],[-84.1178,9.9306],[-84.1156,9.9304],[-84.1148,9.932],[-84.1139,9.9301],[-84.113,9.93],[-84.1123,9.9287],[-84.11,9.9283],[-84.1092,9.9268],[-84.1084,9.9281],[-84.1073,9.9276],[-84.1074,9.9265],[-84.1062,9.9272],[-84.1047,9.9256],[-84.1034,9.9261],[-84.1027,9.9246],[-84.1012,9.9256],[-84.1004,9.9251],[-84.0991,9.9256],[-84.0981,9.9332],[-84.0987,9.9444]]]}},{"type":"Feature","id":"cr10109","properties":{"name":"Pavas","province":"San José","department":"San José","type":"Distrito","country":"Costa Rica","iso":"CR"},"geometry":{"type":"Polygon","coordinates":[[[-84.1102,9.9437],[-84.1102,9.9449],[-84.1134,9.9446],[-84.1161,9.9469],[-84.1181,9.9465],[-84.1203,9.9481],[-84.1216,9.95],[-84.121,9.9529],[-84.1215,9.9544],[-84.128,9.9584],[-84.1322,9.96],[-84.1375,9.9609],[-84.1407,9.9602],[-84.1458,9.9601],[-84.1492,9.958],[-84.1533,9.9597],[-84.1566,9.9633],[-84.1609,9.9638],[-84.1641,9.963],[-84.1683,9.9634],[-84.1648,9.957],[-84.1629,9.9571],[-84.1614,9.9558],[-84.159,9.956],[-84.1578,9.9553],[-84.155,9.952],[-84.1515,9.951],[-84.1502,9.9473],[-84.1474,9.9467],[-84.1467,9.9449],[-84.1443,9.9446],[-84.145,9.9434],[-84.1433,9.9415],[-84.1379,9.9389],[-84.1284,9.938],[-84.1257,9.9374],[-84.1252,9.9363],[-84.1232,9.9367],[-84.123,9.9354],[-84.1197,9.9354],[-84.1157,9.9362],[-84.115,9.9379],[-84.1102,9.9437]]]}},{"type":"Feature","id":"cr10110","properties":{"name":"Hatillo","province":"San José","department":"San José","type":"Distrito","country":"Costa Rica","iso":"CR"},"geometry":{"type":"Polygon","coordinates":[[[-84.0991,9.9256],[-84.1004,9.9251],[-84.1012,9.9256],[-84.1027,9.9246],[-84.1034,9.9261],[-84.1047,9.9256],[-84.1062,9.9272],[-84.1074,9.9265],[-84.1073,9.9276],[-84.1084,9.9281],[-84.1092,9.9268],[-84.11,9.9283],[-84.1123,9.9287],[-84.113,9.93],[-84.1139,9.9301],[-84.1148,9.932],[-84.1155,9.9304],[-84.1178,9.9306],[-84.1186,9.93],[-84.1178,9.9297],[-84.1146,9.9247],[-84.1128,9.9185],[-84.1109,9.9166],[-84.1104,9.9146],[-84.1086,9.9138],[-84.1082,9.9123],[-84.1058,9.9118],[-84.1057,9.9103],[-84.1042,9.9099],[-84.1037,9.909],[-84.1001,9.9092],[-84.0997,9.908],[-84.0984,9.9077],[-84.0981,9.9054],[-84.0948,9.9068],[-84.0945,9.9077],[-84.0932,9.9078],[-84.0926,9.9103],[-84.0912,9.9103],[-84.0909,9.9117],[-84.0918,9.9122],[-84.0911,9.9141],[-84.0908,9.9147],[-84.0902,9.9144],[-84.0887,9.9174],[-84.0881,9.9172],[-84.0876,9.919],[-84.0894,9.9192],[-84.0896,9.9201],[-84.0905,9.9191],[-84.0921,9.9207],[-84.0949,9.9213],[-84.0963,9.9231],[-84.0955,9.9242],[-84.097,9.9244],[-84.0982,9.9234],[-84.0979,9.9252],[-84.0991,9.9256]]]}},{"type":"Feature","id":"cr10111","properties":{"name":"San Sebastián","province":"San José","department":"San José","type":"Distrito","country":"Costa Rica","iso":"CR"},"geometry":{"type":"Polygon","coordinates":[[[-84.081,9.9204],[-84.0831,9.9194],[-84.0836,9.9174],[-84.0847,9.9173],[-84.0862,9.9185],[-84.0873,9.9207],[-84.0881,9.9207],[-84.0874,9.9195],[-84.0881,9.9172],[-84.0887,9.9174],[-84.0902,9.9144],[-84.0908,9.9147],[-84.0918,9.9122],[-84.0909,9.9117],[-84.0912,9.9103],[-84.0926,9.9103],[-84.0931,9.9079],[-84.0945,9.9077],[-84.0947,9.9068],[-84.0962,9.9061],[-84.0951,9.9029],[-84.0942,9.902],[-84.0914,9.9015],[-84.0906,9.8999],[-84.0882,9.9024],[-84.0872,9.9024],[-84.087,9.9014],[-84.0849,9.9023],[-84.0846,9.9037],[-84.0831,9.9025],[-84.0832,9.904],[-84.0814,9.9036],[-84.0807,9.9043],[-84.0792,9.903],[-84.078,9.9038],[-84.0786,9.9048],[-84.0778,9.9062],[-84.0748,9.9067],[-84.0738,9.9083],[-84.0725,9.9079],[-84.0717,9.9089],[-84.0708,9.9082],[-84.0718,9.9059],[-84.0684,9.9065],[-84.0694,9.9157],[-84.0705,9.9151],[-84.0751,9.9161],[-84.076,9.9197],[-84.081,9.9204]]]}}]}