{"type":"FeatureCollection","features":[{"type":"Feature","id":"do080101","properties":{"name":"Santo Domingo de Guzmán","province":"Distrito Nacional","department":"Distrito Nacional","type":"Municipio","country":"República Dominicana","iso":"DO"},"geometry":{"type":"Polygon","coordinates":[[[-69.9748,18.5453],[-69.9806,18.5476],[-69.9821,18.5429],[-69.9867,18.5442],[-69.9868,18.5426],[-69.9894,18.5431],[-69.9919,18.5414],[-69.9898,18.536],[-69.9921,18.5351],[-69.9903,18.5333],[-69.9901,18.5305],[-69.9921,18.5303],[-69.9953,18.5273],[-69.9928,18.5233],[-69.9896,18.5235],[-69.9896,18.5121],[-69.9914,18.5103],[-69.9923,18.5075],[-69.9968,18.5078],[-69.9993,18.5053],[-69.9989,18.5028],[-69.9823,18.4903],[-69.9718,18.4802],[-69.9676,18.479],[-69.969,18.4622],[-69.9721,18.4539],[-69.974,18.4512],[-69.9731,18.4498],[-69.9757,18.4478],[-69.9777,18.4424],[-69.9797,18.4397],[-69.9844,18.434],[-69.9901,18.4291],[-69.9887,18.4227],[-69.9829,18.425],[-69.9822,18.426],[-69.9675,18.4271],[-69.9661,18.4282],[-69.9634,18.4284],[-69.9539,18.4321],[-69.9519,18.4317],[-69.9438,18.4338],[-69.9433,18.4348],[-69.9396,18.4366],[-69.9348,18.4379],[-69.9275,18.4426],[-69.923,18.4472],[-69.9209,18.4523],[-69.9157,18.4556],[-69.9027,18.4584],[-69.8969,18.4616],[-69.8951,18.4637],[-69.8934,18.4645],[-69.8912,18.464],[-69.8921,18.4652],[-69.8908,18.4664],[-69.8863,18.4681],[-69.8839,18.4669],[-69.8836,18.4683],[-69.8816,18.4695],[-69.8805,18.4716],[-69.8827,18.4824],[-69.8826,18.4874],[-69.8818,18.49],[-69.8767,18.4951],[-69.8746,18.4994],[-69.8759,18.5047],[-69.8783,18.5076],[-69.8878,18.5122],[-69.8975,18.5144],[-69.9025,18.5109],[-69.9065,18.5097],[-69.9154,18.5113],[-69.9214,18.5096],[-69.9306,18.5142],[-69.9324,18.5165],[-69.9325,18.5186],[-69.9363,18.5208],[-69.9392,18.5204],[-69.9409,18.5193],[-69.9458,18.514],[-69.9495,18.5148],[-69.957,18.519],[-69.9602,18.5227],[-69.9606,18.5289],[-69.9591,18.532],[-69.96,18.5358],[-69.9621,18.5367],[-69.9614,18.5381],[-69.9619,18.5395],[-69.9638,18.541],[-69.9661,18.5413],[-69.9684,18.5445],[-69.972,18.5443],[-69.972,18.5458],[-69.9748,18.5453]]]}},{"type":"Feature","id":"do080204","properties":{"name":"Boca Chica","province":"Distrito Nacional","department":"Distrito Nacional","type":"Municipio","country":"República Dominicana","iso":"DO"},"geometry":{"type":"MultiPolygon","coordinates":[[[[-69.6374,18.5127],[-69.6413,18.5123],[-69.6437,18.5105],[-69.645,18.5077],[-69.6527,18.5048],[-69.6564,18.5],[-69.6578,18.4997],[-69.6666,18.5027],[-69.668,18.4892],[-69.6812,18.4884],[-69.6812,18.4876],[-69.6926,18.4876],[-69.6927,18.4859],[-69.6937,18.4851],[-69.7007,18.4891],[-69.7064,18.4821],[-69.7071,18.48],[-69.707,18.4738],[-69.7053,18.4737],[-69.7051,18.4687],[-69.707,18.4687],[-69.7068,18.4546],[-69.695,18.4528],[-69.6857,18.4492],[-69.6832,18.4474],[-69.6818,18.4453],[-69.6822,18.4383],[-69.6804,18.4296],[-69.6789,18.4278],[-69.6758,18.4197],[-69.6717,18.4139],[-69.6673,18.4094],[-69.6634,18.4077],[-69.6471,18.4046],[-69.6383,18.4008],[-69.6336,18.4003],[-69.6296,18.4017],[-69.6276,18.4042],[-69.6271,18.4093],[-69.6328,18.4344],[-69.6327,18.4388],[-69.6297,18.4423],[-69.6282,18.4415],[-69.6274,18.4443],[-69.6213,18.4476],[-69.6159,18.4478],[-69.6148,18.4468],[-69.6105,18.4463],[-69.6005,18.4482],[-69.5976,18.448],[-69.5893,18.4453],[-69.5798,18.4392],[-69.5775,18.4362],[-69.5751,18.4366],[-69.5744,18.4337],[-69.5731,18.4339],[-69.5699,18.4317],[-69.5693,18.4282],[-69.5701,18.4274],[-69.567,18.4273],[-69.5677,18.4244],[-69.564,18.4227],[-69.5646,18.4219],[-69.5633,18.42],[-69.5597,18.419],[-69.559,18.4175],[-69.5565,18.4167],[-69.5469,18.409],[-69.5382,18.4063],[-69.5212,18.4038],[-69.5212,18.4232],[-69.5232,18.4657],[-69.5149,18.4658],[-69.515,18.4748],[-69.5362,18.4745],[-69.56,18.4765],[-69.5662,18.4806],[-69.574,18.4829],[-69.5883,18.4898],[-69.5938,18.4951],[-69.6088,18.5014],[-69.6132,18.5051],[-69.635,18.5102],[-69.6374,18.5127]]],[[[-69.6247,18.4415],[-69.6266,18.4411],[-69.6302,18.4372],[-69.6292,18.437],[-69.6257,18.4384],[-69.6242,18.4403],[-69.6247,18.4415]]],[[[-69.6141,18.443],[-69.613,18.4437],[-69.6134,18.4441],[-69.6155,18.4434],[-69.6147,18.4426],[-69.6141,18.443]]]]}},{"type":"Feature","id":"do080206","properties":{"name":"Los Alcarrizos","province":"Distrito Nacional","department":"Distrito Nacional","type":"Municipio","country":"República Dominicana","iso":"DO"},"geometry":{"type":"Polygon","coordinates":[[[-69.9945,18.5625],[-69.9972,18.5581],[-70.0008,18.5592],[-70.0017,18.5581],[-70.0039,18.5579],[-70.0038,18.5563],[-70.005,18.5561],[-70.0036,18.5549],[-70.0066,18.5544],[-70.0048,18.5527],[-70.0067,18.5524],[-70.0081,18.5533],[-70.0084,18.5511],[-70.0097,18.5512],[-70.0113,18.5485],[-70.0135,18.5488],[-70.0142,18.5477],[-70.0179,18.5474],[-70.0179,18.5455],[-70.0217,18.5454],[-70.0244,18.5404],[-70.0285,18.5399],[-70.0297,18.5384],[-70.0322,18.5379],[-70.0336,18.536],[-70.0349,18.5373],[-70.0355,18.5347],[-70.0375,18.5366],[-70.0384,18.5357],[-70.0405,18.5359],[-70.0406,18.5344],[-70.0417,18.5342],[-70.0429,18.5353],[-70.041,18.5363],[-70.0418,18.5368],[-70.0437,18.5358],[-70.048,18.537],[-70.0496,18.5358],[-70.052,18.5367],[-70.0523,18.5358],[-70.0533,18.5358],[-70.057,18.5402],[-70.0598,18.5377],[-70.0599,18.5405],[-70.0578,18.5407],[-70.058,18.5426],[-70.059,18.5445],[-70.062,18.5451],[-70.0615,18.5459],[-70.0621,18.5484],[-70.0611,18.5496],[-70.0617,18.5505],[-70.063,18.5503],[-70.0638,18.5512],[-70.0657,18.5498],[-70.066,18.5519],[-70.0672,18.5518],[-70.0693,18.5535],[-70.0699,18.5524],[-70.0693,18.5507],[-70.0702,18.5502],[-70.0729,18.5535],[-70.0729,18.5545],[-70.0742,18.5541],[-70.076,18.5557],[-70.0791,18.5548],[-70.0802,18.5551],[-70.0812,18.5575],[-70.0846,18.5575],[-70.0867,18.5551],[-70.0884,18.5479],[-70.0875,18.5444],[-70.0849,18.541],[-70.0819,18.5396],[-70.0824,18.5389],[-70.0814,18.538],[-70.0862,18.5365],[-70.0857,18.539],[-70.0876,18.5391],[-70.087,18.5377],[-70.0876,18.537],[-70.0922,18.535],[-70.0876,18.5307],[-70.086,18.5252],[-70.0827,18.5202],[-70.0807,18.5184],[-70.0746,18.5174],[-70.0728,18.5163],[-70.0713,18.5138],[-70.0712,18.5107],[-70.0688,18.5088],[-70.0681,18.5097],[-70.0665,18.5098],[-70.0609,18.5075],[-70.0607,18.5023],[-70.0529,18.5001],[-70.0522,18.5],[-70.0523,18.5016],[-70.0452,18.5],[-70.0435,18.5009],[-70.0381,18.5005],[-70.0281,18.5061],[-70.0243,18.5058],[-70.0185,18.5039],[-70.0174,18.5043],[-70.0133,18.5112],[-70.0106,18.5125],[-70.0087,18.5121],[-70.0066,18.5088],[-69.9989,18.5028],[-69.9989,18.5061],[-69.9965,18.5078],[-69.9923,18.5075],[-69.9914,18.5103],[-69.9896,18.5121],[-69.9896,18.5235],[-69.9928,18.5233],[-69.9953,18.5273],[-69.9921,18.5303],[-69.9901,18.5305],[-69.9903,18.5333],[-69.9921,18.5351],[-69.9898,18.536],[-69.9919,18.5414],[-69.9894,18.5431],[-69.9868,18.5426],[-69.9867,18.5441],[-69.9889,18.546],[-69.9868,18.5541],[-69.9905,18.5543],[-69.9925,18.5567],[-69.9935,18.5555],[-69.9944,18.5557],[-69.9929,18.5581],[-69.9928,18.5598],[-69.9933,18.5621],[-69.9945,18.5625]]]}},{"type":"Feature","id":"do080207","properties":{"name":"Pedro Brand","province":"Distrito Nacional","department":"Distrito Nacional","type":"Municipio","country":"República Dominicana","iso":"DO"},"geometry":{"type":"Polygon","coordinates":[[[-70.1409,18.7289],[-70.1554,18.7286],[-70.1579,18.7278],[-70.1638,18.7285],[-70.174,18.7242],[-70.1751,18.7228],[-70.1755,18.7201],[-70.1719,18.7132],[-70.1697,18.7127],[-70.1644,18.7085],[-70.1625,18.7024],[-70.1579,18.6979],[-70.1593,18.6963],[-70.1592,18.6953],[-70.1604,18.6949],[-70.1597,18.6942],[-70.1603,18.6933],[-70.1579,18.6908],[-70.1577,18.6895],[-70.156,18.6896],[-70.1569,18.6863],[-70.1552,18.6832],[-70.1555,18.6809],[-70.1549,18.68],[-70.1537,18.6804],[-70.1527,18.6798],[-70.153,18.6756],[-70.1541,18.6734],[-70.1555,18.6734],[-70.1558,18.6726],[-70.1545,18.6716],[-70.1553,18.6693],[-70.1535,18.6688],[-70.1541,18.6659],[-70.1525,18.6639],[-70.1543,18.6641],[-70.1553,18.6632],[-70.1548,18.6612],[-70.1554,18.6605],[-70.1525,18.6604],[-70.153,18.6586],[-70.1508,18.6567],[-70.1507,18.6556],[-70.1496,18.6558],[-70.1491,18.6547],[-70.1456,18.6529],[-70.1448,18.6538],[-70.1439,18.6534],[-70.1448,18.6515],[-70.1431,18.6506],[-70.1436,18.6486],[-70.1426,18.6474],[-70.1404,18.647],[-70.1427,18.6451],[-70.137,18.6404],[-70.1371,18.6395],[-70.1386,18.6393],[-70.138,18.6386],[-70.1395,18.6364],[-70.1374,18.6364],[-70.1384,18.6341],[-70.1368,18.6342],[-70.1356,18.6328],[-70.1345,18.6336],[-70.1318,18.6337],[-70.1259,18.631],[-70.127,18.6299],[-70.1305,18.6302],[-70.1331,18.6283],[-70.1357,18.6281],[-70.1416,18.6286],[-70.1469,18.631],[-70.1486,18.6305],[-70.1503,18.6283],[-70.151,18.6237],[-70.1467,18.6165],[-70.146,18.608],[-70.1464,18.6057],[-70.1481,18.6041],[-70.1468,18.6027],[-70.1475,18.6001],[-70.152,18.5966],[-70.1529,18.5946],[-70.1491,18.594],[-70.1491,18.5881],[-70.1479,18.5857],[-70.1382,18.5764],[-70.1374,18.5732],[-70.1391,18.5692],[-70.1374,18.5661],[-70.1343,18.5643],[-70.13,18.5662],[-70.128,18.5657],[-70.1289,18.5634],[-70.1328,18.5594],[-70.1239,18.5507],[-70.1258,18.546],[-70.1239,18.5449],[-70.1232,18.5436],[-70.1219,18.5441],[-70.1191,18.5424],[-70.1189,18.5414],[-70.1233,18.5313],[-70.1251,18.5292],[-70.1248,18.5263],[-70.1211,18.5243],[-70.1139,18.5231],[-70.1126,18.5258],[-70.1075,18.5277],[-70.0991,18.5241],[-70.096,18.5243],[-70.0939,18.5269],[-70.0968,18.5307],[-70.0941,18.5348],[-70.0889,18.536],[-70.087,18.5377],[-70.0876,18.5391],[-70.0857,18.539],[-70.0862,18.5365],[-70.0814,18.538],[-70.0824,18.5389],[-70.0819,18.5396],[-70.0849,18.541],[-70.0875,18.5444],[-70.0884,18.5479],[-70.0867,18.5551],[-70.0837,18.5577],[-70.0812,18.5575],[-70.0802,18.5551],[-70.0791,18.5548],[-70.076,18.5557],[-70.0742,18.5541],[-70.0729,18.5545],[-70.0729,18.5535],[-70.0702,18.5502],[-70.0693,18.5507],[-70.0699,18.5524],[-70.0693,18.5535],[-70.0672,18.5518],[-70.066,18.5519],[-70.0657,18.5498],[-70.0638,18.5512],[-70.063,18.5503],[-70.0617,18.5505],[-70.0611,18.5496],[-70.0621,18.5484],[-70.0615,18.5459],[-70.062,18.5451],[-70.059,18.5445],[-70.058,18.5426],[-70.0578,18.5407],[-70.0599,18.5405],[-70.0598,18.5377],[-70.057,18.5402],[-70.0533,18.5358],[-70.0523,18.5358],[-70.052,18.5367],[-70.0496,18.5358],[-70.048,18.537],[-70.0437,18.5358],[-70.0418,18.5368],[-70.041,18.5363],[-70.0429,18.5354],[-70.0418,18.5342],[-70.0406,18.5344],[-70.0405,18.5359],[-70.0384,18.5357],[-70.0375,18.5366],[-70.0355,18.5347],[-70.0349,18.5373],[-70.0336,18.536],[-70.0322,18.5379],[-70.0297,18.5384],[-70.0285,18.5399],[-70.0243,18.5405],[-70.0217,18.5454],[-70.0179,18.5455],[-70.0179,18.5474],[-70.0142,18.5477],[-70.0135,18.5488],[-70.0113,18.5485],[-70.0097,18.5512],[-70.0084,18.5511],[-70.0081,18.5533],[-70.0067,18.5524],[-70.0048,18.5527],[-70.0065,18.5546],[-70.0036,18.5549],[-70.005,18.5561],[-70.0038,18.5563],[-70.0039,18.5579],[-70.0021,18.5582],[-70.0031,18.5593],[-70.0036,18.5634],[-70.0044,18.5634],[-70.0047,18.562],[-70.0063,18.562],[-70.008,18.5638],[-70.0082,18.5674],[-70.0112,18.5705],[-70.0111,18.5726],[-70.0126,18.5735],[-70.0177,18.5741],[-70.0166,18.5751],[-70.0166,18.5762],[-70.0195,18.5781],[-70.0193,18.5795],[-70.0209,18.5797],[-70.0228,18.5814],[-70.0208,18.5858],[-70.0227,18.5881],[-70.0209,18.5897],[-70.0231,18.5929],[-70.0245,18.593],[-70.0242,18.5957],[-70.0251,18.598],[-70.0214,18.6008],[-70.0217,18.6036],[-70.0256,18.6048],[-70.0268,18.6037],[-70.0268,18.6026],[-70.0291,18.6058],[-70.0301,18.6059],[-70.0306,18.6047],[-70.0316,18.6056],[-70.032,18.6108],[-70.0288,18.6123],[-70.0285,18.614],[-70.0266,18.6148],[-70.0276,18.6161],[-70.0272,18.6189],[-70.0287,18.623],[-70.0355,18.6291],[-70.0391,18.6333],[-70.0411,18.6369],[-70.0332,18.6372],[-70.0313,18.6378],[-70.0312,18.643],[-70.0294,18.6473],[-70.0245,18.6529],[-70.0194,18.657],[-70.0178,18.6572],[-70.018,18.66],[-70.0203,18.6601],[-70.0235,18.6622],[-70.0321,18.663],[-70.0412,18.6672],[-70.0441,18.6688],[-70.0524,18.6758],[-70.0581,18.6768],[-70.0601,18.6781],[-70.0686,18.6865],[-70.0718,18.6861],[-70.0745,18.6882],[-70.0788,18.6877],[-70.0831,18.6847],[-70.0868,18.6834],[-70.0952,18.6827],[-70.0991,18.6889],[-70.1061,18.6959],[-70.1075,18.6971],[-70.1165,18.6999],[-70.1225,18.7053],[-70.1237,18.7081],[-70.1261,18.7102],[-70.1264,18.7116],[-70.128,18.7134],[-70.1295,18.7135],[-70.1303,18.7158],[-70.1326,18.7176],[-70.1373,18.7267],[-70.1409,18.7289]]]}},{"type":"Feature","id":"do080205","properties":{"name":"San Antonio de Guerra","province":"Distrito Nacional","department":"Distrito Nacional","type":"Municipio","country":"República Dominicana","iso":"DO"},"geometry":{"type":"Polygon","coordinates":[[[-69.6165,18.6773],[-69.6322,18.6715],[-69.6414,18.6657],[-69.6444,18.6625],[-69.6461,18.6627],[-69.6468,18.6639],[-69.6499,18.6633],[-69.6554,18.6585],[-69.6599,18.6576],[-69.6615,18.6557],[-69.6613,18.6533],[-69.6683,18.6512],[-69.673,18.6463],[-69.6764,18.6466],[-69.6788,18.6457],[-69.6891,18.6402],[-69.694,18.6402],[-69.6971,18.6425],[-69.6979,18.6401],[-69.7005,18.6417],[-69.7023,18.6415],[-69.7031,18.6406],[-69.7024,18.6394],[-69.7029,18.6386],[-69.7041,18.6399],[-69.7062,18.6394],[-69.7062,18.6407],[-69.7074,18.6411],[-69.708,18.6427],[-69.7087,18.6419],[-69.7117,18.6418],[-69.7135,18.6397],[-69.7155,18.6402],[-69.7142,18.6421],[-69.716,18.642],[-69.7185,18.6402],[-69.7191,18.6419],[-69.7202,18.6423],[-69.7196,18.6436],[-69.7212,18.6424],[-69.7216,18.6428],[-69.7215,18.6467],[-69.7232,18.6455],[-69.724,18.643],[-69.7256,18.6424],[-69.7271,18.6394],[-69.7296,18.6384],[-69.7285,18.6346],[-69.7334,18.6344],[-69.734,18.6314],[-69.7349,18.6312],[-69.7358,18.6323],[-69.7377,18.6319],[-69.7384,18.6287],[-69.7423,18.6276],[-69.7441,18.6253],[-69.7438,18.6223],[-69.7443,18.6194],[-69.7454,18.6179],[-69.7451,18.6157],[-69.7483,18.6141],[-69.7486,18.6118],[-69.75,18.6105],[-69.7503,18.6071],[-69.7519,18.6046],[-69.7517,18.6028],[-69.7533,18.6017],[-69.7529,18.5995],[-69.755,18.5966],[-69.7561,18.5975],[-69.7561,18.5963],[-69.7559,18.5951],[-69.7509,18.5941],[-69.7382,18.5955],[-69.738,18.5929],[-69.7395,18.5909],[-69.7399,18.588],[-69.7389,18.5873],[-69.7384,18.5852],[-69.7371,18.585],[-69.7355,18.5816],[-69.7356,18.58],[-69.7373,18.5779],[-69.7408,18.5779],[-69.7463,18.5724],[-69.7434,18.5695],[-69.7421,18.5624],[-69.7468,18.5615],[-69.7513,18.563],[-69.751,18.5487],[-69.7484,18.545],[-69.7522,18.5363],[-69.7524,18.5304],[-69.75,18.5298],[-69.7431,18.5304],[-69.7396,18.5289],[-69.7429,18.5263],[-69.7395,18.5228],[-69.7362,18.5198],[-69.7265,18.5155],[-69.7275,18.5099],[-69.7271,18.5065],[-69.7278,18.5059],[-69.7284,18.5008],[-69.7267,18.4977],[-69.7257,18.4917],[-69.7224,18.4844],[-69.716,18.486],[-69.7084,18.4868],[-69.7026,18.4863],[-69.7007,18.4891],[-69.6937,18.4851],[-69.6927,18.4859],[-69.6926,18.4876],[-69.6812,18.4876],[-69.6812,18.4884],[-69.668,18.4892],[-69.6666,18.5027],[-69.6578,18.4997],[-69.6564,18.5],[-69.6527,18.5048],[-69.645,18.5077],[-69.6437,18.5105],[-69.6413,18.5123],[-69.6376,18.513],[-69.635,18.5102],[-69.6132,18.5051],[-69.609,18.5015],[-69.5986,18.4971],[-69.5985,18.5003],[-69.5975,18.5018],[-69.598,18.503],[-69.5989,18.5029],[-69.5986,18.5046],[-69.5997,18.5051],[-69.5985,18.5064],[-69.5992,18.5063],[-69.5994,18.5076],[-69.5981,18.5073],[-69.5974,18.5085],[-69.5991,18.5099],[-69.5987,18.5152],[-69.6003,18.5165],[-69.6001,18.5177],[-69.6024,18.5206],[-69.604,18.5201],[-69.6039,18.5179],[-69.6045,18.5173],[-69.6073,18.5173],[-69.6075,18.5191],[-69.6102,18.5216],[-69.612,18.5216],[-69.6141,18.5227],[-69.6133,18.5241],[-69.6142,18.5271],[-69.6095,18.5302],[-69.6063,18.5308],[-69.6048,18.5299],[-69.6031,18.5322],[-69.5995,18.5333],[-69.5991,18.5351],[-69.5968,18.5373],[-69.597,18.5385],[-69.5953,18.5398],[-69.5962,18.5411],[-69.5948,18.5438],[-69.5941,18.5521],[-69.5914,18.5521],[-69.5896,18.554],[-69.5866,18.5617],[-69.5851,18.5633],[-69.5844,18.563],[-69.5833,18.5653],[-69.5838,18.5666],[-69.5822,18.5676],[-69.5797,18.5711],[-69.5794,18.5733],[-69.578,18.5744],[-69.5778,18.5779],[-69.5747,18.577],[-69.5747,18.5782],[-69.5726,18.5804],[-69.5721,18.5829],[-69.5731,18.5838],[-69.5724,18.5855],[-69.574,18.5864],[-69.5753,18.5891],[-69.578,18.5898],[-69.5804,18.5938],[-69.5827,18.5939],[-69.5826,18.5967],[-69.5841,18.6028],[-69.5833,18.6069],[-69.581,18.6081],[-69.58,18.612],[-69.5771,18.6155],[-69.576,18.6221],[-69.5772,18.6258],[-69.5787,18.627],[-69.5813,18.6274],[-69.5835,18.6223],[-69.5846,18.6224],[-69.5857,18.6236],[-69.5887,18.6223],[-69.5885,18.6241],[-69.5874,18.6242],[-69.5869,18.6252],[-69.5876,18.6266],[-69.5892,18.6266],[-69.5905,18.6286],[-69.5898,18.6288],[-69.5894,18.6302],[-69.5877,18.6299],[-69.5869,18.631],[-69.5867,18.6322],[-69.5874,18.6331],[-69.5866,18.634],[-69.5854,18.6339],[-69.5861,18.635],[-69.5845,18.6343],[-69.5835,18.6356],[-69.5829,18.6352],[-69.5808,18.6358],[-69.581,18.6381],[-69.5794,18.6396],[-69.579,18.6415],[-69.5771,18.6428],[-69.5771,18.6457],[-69.5745,18.6486],[-69.5723,18.6488],[-69.5706,18.6511],[-69.5713,18.6523],[-69.5861,18.6553],[-69.5961,18.6598],[-69.6165,18.6773]]]}},{"type":"Feature","id":"do080201","properties":{"name":"Santo Domingo Este","province":"Distrito Nacional","department":"Distrito Nacional","type":"Municipio","country":"República Dominicana","iso":"DO"},"geometry":{"type":"Polygon","coordinates":[[[-69.7561,18.5975],[-69.7579,18.5982],[-69.7584,18.5972],[-69.7608,18.5975],[-69.7617,18.5962],[-69.7646,18.5964],[-69.7658,18.5945],[-69.7671,18.5947],[-69.767,18.5957],[-69.7678,18.5955],[-69.77,18.5919],[-69.7684,18.5922],[-69.7681,18.5896],[-69.7691,18.5873],[-69.7717,18.587],[-69.7729,18.5831],[-69.7781,18.5838],[-69.7783,18.582],[-69.7799,18.5817],[-69.7791,18.5777],[-69.783,18.5785],[-69.7838,18.5761],[-69.7864,18.5745],[-69.7877,18.5705],[-69.7916,18.572],[-69.7941,18.5708],[-69.7943,18.5689],[-69.7916,18.5664],[-69.7925,18.5651],[-69.7998,18.5668],[-69.8053,18.5642],[-69.8075,18.5623],[-69.8107,18.5659],[-69.8126,18.5664],[-69.8201,18.5641],[-69.8232,18.5562],[-69.8222,18.5517],[-69.8226,18.5472],[-69.8241,18.545],[-69.8299,18.5415],[-69.8388,18.5387],[-69.8421,18.5392],[-69.848,18.5419],[-69.8526,18.5412],[-69.8592,18.5308],[-69.8603,18.5265],[-69.8651,18.5199],[-69.8689,18.5179],[-69.8704,18.518],[-69.8757,18.5248],[-69.879,18.5259],[-69.8917,18.5213],[-69.8965,18.5181],[-69.8979,18.5143],[-69.8878,18.5122],[-69.8789,18.508],[-69.8765,18.5057],[-69.875,18.5022],[-69.875,18.4979],[-69.8772,18.4945],[-69.8818,18.49],[-69.8829,18.4854],[-69.8823,18.4803],[-69.8801,18.4776],[-69.8805,18.4749],[-69.8785,18.4721],[-69.8772,18.4721],[-69.8762,18.4689],[-69.8767,18.4673],[-69.8806,18.4681],[-69.8855,18.4637],[-69.8827,18.4659],[-69.8784,18.4671],[-69.8766,18.4666],[-69.8766,18.4637],[-69.872,18.4667],[-69.8661,18.4681],[-69.8643,18.4673],[-69.8571,18.4687],[-69.8502,18.4675],[-69.8455,18.4682],[-69.8377,18.4675],[-69.8327,18.4687],[-69.8286,18.4682],[-69.8246,18.4657],[-69.8135,18.464],[-69.8013,18.464],[-69.7988,18.465],[-69.7913,18.4652],[-69.7904,18.4658],[-69.7867,18.4648],[-69.7857,18.4656],[-69.7677,18.4637],[-69.7409,18.4623],[-69.7283,18.4597],[-69.7138,18.4553],[-69.7068,18.4546],[-69.707,18.4687],[-69.7051,18.4687],[-69.7053,18.4737],[-69.707,18.4738],[-69.7071,18.48],[-69.7064,18.4821],[-69.7026,18.4863],[-69.7084,18.4868],[-69.716,18.486],[-69.7224,18.4844],[-69.7257,18.4917],[-69.7267,18.4977],[-69.7284,18.5008],[-69.7278,18.5059],[-69.7271,18.5065],[-69.7275,18.5099],[-69.7265,18.5155],[-69.7362,18.5198],[-69.7395,18.5228],[-69.7429,18.5263],[-69.7396,18.5289],[-69.7431,18.5304],[-69.75,18.5298],[-69.7524,18.5304],[-69.7522,18.5363],[-69.7484,18.545],[-69.751,18.5487],[-69.7513,18.563],[-69.7468,18.5615],[-69.7421,18.5624],[-69.7434,18.5695],[-69.7463,18.5724],[-69.7408,18.5779],[-69.7373,18.5779],[-69.7356,18.58],[-69.7355,18.5816],[-69.7371,18.585],[-69.7384,18.5852],[-69.7389,18.5873],[-69.7399,18.588],[-69.7395,18.5909],[-69.738,18.5929],[-69.7382,18.5955],[-69.7509,18.5941],[-69.7559,18.5951],[-69.7561,18.5975]]]}},{"type":"Feature","id":"do080203","properties":{"name":"Santo Domingo Norte","province":"Distrito Nacional","department":"Distrito Nacional","type":"Municipio","country":"República Dominicana","iso":"DO"},"geometry":{"type":"Polygon","coordinates":[[[-69.9579,18.7148],[-69.9585,18.7145],[-69.9591,18.7109],[-69.96,18.7099],[-69.9619,18.7105],[-69.9621,18.7091],[-69.9558,18.7044],[-69.9524,18.6987],[-69.9534,18.6948],[-69.9548,18.693],[-69.9582,18.694],[-69.9606,18.6921],[-69.9621,18.6905],[-69.962,18.687],[-69.9662,18.6826],[-69.9698,18.6829],[-69.9729,18.6846],[-69.9751,18.6833],[-69.9759,18.6851],[-69.9772,18.6849],[-69.9778,18.684],[-69.9766,18.6813],[-69.9771,18.6775],[-69.9789,18.6757],[-69.981,18.6762],[-69.9823,18.6754],[-69.9827,18.6736],[-69.9853,18.6723],[-69.9864,18.6693],[-69.9915,18.6706],[-69.9922,18.6686],[-69.9937,18.6684],[-69.9946,18.6696],[-69.9931,18.6715],[-69.9939,18.6724],[-69.9957,18.6701],[-69.9983,18.6703],[-70.0013,18.6686],[-70.0115,18.6679],[-70.0152,18.6662],[-70.0179,18.6603],[-70.0178,18.6572],[-70.0194,18.657],[-70.0245,18.6529],[-70.0295,18.647],[-70.0312,18.643],[-70.0313,18.6378],[-70.0332,18.6372],[-70.0411,18.6369],[-70.0391,18.6333],[-70.0355,18.6291],[-70.0287,18.623],[-70.0273,18.6193],[-70.0276,18.6165],[-70.0266,18.6148],[-70.0285,18.614],[-70.0288,18.6123],[-70.032,18.6108],[-70.0316,18.6056],[-70.0306,18.6047],[-70.0301,18.6059],[-70.0291,18.6058],[-70.0268,18.6026],[-70.0264,18.6042],[-70.0248,18.6049],[-70.0234,18.6037],[-70.0217,18.6036],[-70.0211,18.6022],[-70.0214,18.6008],[-70.0251,18.598],[-70.0242,18.5957],[-70.0245,18.593],[-70.0231,18.5929],[-70.0209,18.5897],[-70.0227,18.5881],[-70.0208,18.5858],[-70.0227,18.5811],[-70.0193,18.5795],[-70.0195,18.5781],[-70.0166,18.5762],[-70.0166,18.5751],[-70.0177,18.5741],[-70.0126,18.5735],[-70.0111,18.5726],[-70.0109,18.57],[-70.0079,18.5667],[-70.0079,18.5635],[-70.0057,18.5618],[-70.0047,18.562],[-70.0038,18.5637],[-70.0031,18.5593],[-70.0021,18.5582],[-70.0008,18.5592],[-69.9972,18.5581],[-69.9946,18.5625],[-69.9933,18.5621],[-69.9928,18.5587],[-69.9944,18.5557],[-69.9935,18.5555],[-69.9925,18.5567],[-69.9905,18.5543],[-69.9877,18.5546],[-69.9867,18.5535],[-69.9885,18.5496],[-69.9889,18.546],[-69.988,18.5447],[-69.9821,18.5429],[-69.9809,18.5473],[-69.9801,18.5476],[-69.9749,18.5453],[-69.972,18.5458],[-69.9719,18.5443],[-69.9684,18.5445],[-69.9661,18.5413],[-69.9632,18.5406],[-69.9616,18.5389],[-69.9621,18.5367],[-69.9599,18.5356],[-69.9591,18.532],[-69.9606,18.5289],[-69.9598,18.522],[-69.957,18.519],[-69.9482,18.5142],[-69.9457,18.514],[-69.9409,18.5193],[-69.9392,18.5204],[-69.9363,18.5208],[-69.9325,18.5186],[-69.9324,18.5165],[-69.9306,18.5142],[-69.9227,18.51],[-69.92,18.5097],[-69.9131,18.5113],[-69.9072,18.5096],[-69.9025,18.5109],[-69.9005,18.5122],[-69.8971,18.5153],[-69.8965,18.5181],[-69.8937,18.5202],[-69.879,18.5259],[-69.8757,18.5248],[-69.8704,18.518],[-69.8689,18.5179],[-69.8651,18.5199],[-69.8603,18.5265],[-69.8592,18.5308],[-69.8522,18.5414],[-69.848,18.5419],[-69.8421,18.5392],[-69.8377,18.5388],[-69.8305,18.5411],[-69.8241,18.545],[-69.8226,18.5472],[-69.8222,18.5517],[-69.8232,18.5562],[-69.8208,18.5636],[-69.8192,18.5646],[-69.8126,18.5664],[-69.8107,18.5659],[-69.8075,18.5623],[-69.8053,18.5642],[-69.7998,18.5668],[-69.7934,18.565],[-69.792,18.5654],[-69.7919,18.5673],[-69.7943,18.5689],[-69.7941,18.5708],[-69.7916,18.572],[-69.7877,18.5705],[-69.7864,18.5731],[-69.7864,18.5782],[-69.7869,18.5798],[-69.7897,18.5825],[-69.7908,18.5893],[-69.7935,18.5929],[-69.7909,18.5975],[-69.7911,18.5998],[-69.7902,18.602],[-69.7916,18.6057],[-69.7913,18.6097],[-69.7931,18.6112],[-69.7957,18.6106],[-69.7961,18.6113],[-69.7933,18.6124],[-69.7933,18.6152],[-69.7963,18.6182],[-69.7968,18.6216],[-69.7999,18.6259],[-69.802,18.6247],[-69.803,18.6265],[-69.8052,18.6257],[-69.8075,18.6285],[-69.8111,18.6254],[-69.8143,18.6248],[-69.819,18.6273],[-69.8184,18.6296],[-69.8218,18.6318],[-69.8223,18.6342],[-69.8211,18.6362],[-69.8213,18.6399],[-69.8204,18.6426],[-69.8214,18.6498],[-69.8188,18.6509],[-69.8185,18.6527],[-69.8237,18.6555],[-69.8228,18.6586],[-69.8213,18.6589],[-69.8202,18.6569],[-69.8189,18.6574],[-69.8192,18.6587],[-69.8205,18.6595],[-69.8215,18.6617],[-69.8233,18.662],[-69.8252,18.6602],[-69.8302,18.659],[-69.8305,18.657],[-69.832,18.6549],[-69.8328,18.6541],[-69.8338,18.6545],[-69.8339,18.6565],[-69.8372,18.6596],[-69.8375,18.6652],[-69.8413,18.665],[-69.8417,18.6664],[-69.8411,18.6686],[-69.8437,18.6714],[-69.8468,18.6775],[-69.8507,18.6808],[-69.8547,18.6821],[-69.8547,18.6848],[-69.8531,18.6868],[-69.8534,18.6892],[-69.8559,18.6889],[-69.8585,18.6911],[-69.8569,18.6916],[-69.8558,18.6936],[-69.8593,18.6959],[-69.8601,18.6975],[-69.8597,18.7009],[-69.862,18.7026],[-69.8646,18.702],[-69.867,18.7037],[-69.8671,18.7049],[-69.8646,18.7074],[-69.8665,18.7086],[-69.8692,18.709],[-69.8704,18.7078],[-69.8722,18.7082],[-69.874,18.7053],[-69.8764,18.7054],[-69.8779,18.706],[-69.8786,18.7075],[-69.8816,18.7073],[-69.8829,18.7088],[-69.8814,18.7106],[-69.8831,18.7106],[-69.8833,18.7119],[-69.8857,18.712],[-69.8863,18.7113],[-69.8851,18.7113],[-69.8851,18.7094],[-69.8869,18.7089],[-69.8886,18.7057],[-69.8909,18.7071],[-69.8922,18.7068],[-69.8946,18.7045],[-69.8962,18.7049],[-69.8987,18.7034],[-69.9008,18.7041],[-69.9007,18.7027],[-69.9019,18.7029],[-69.9031,18.7007],[-69.9025,18.6993],[-69.9029,18.6989],[-69.9057,18.6985],[-69.9089,18.6962],[-69.9151,18.6945],[-69.9179,18.696],[-69.9178,18.6975],[-69.9209,18.6998],[-69.9224,18.7031],[-69.9252,18.7022],[-69.9253,18.7012],[-69.9273,18.7002],[-69.9268,18.6988],[-69.9277,18.6986],[-69.9296,18.701],[-69.9312,18.701],[-69.9323,18.7027],[-69.934,18.7031],[-69.9339,18.7016],[-69.9345,18.7023],[-69.9361,18.7013],[-69.9373,18.7017],[-69.9384,18.703],[-69.9377,18.7046],[-69.9394,18.7053],[-69.9403,18.705],[-69.9401,18.7036],[-69.9415,18.7037],[-69.9434,18.705],[-69.9449,18.7075],[-69.947,18.7085],[-69.9485,18.7063],[-69.9502,18.7071],[-69.9532,18.7067],[-69.9536,18.7104],[-69.9551,18.7138],[-69.9579,18.7148]]]}},{"type":"Feature","id":"do080202","properties":{"name":"Santo Domingo Oeste","province":"Distrito Nacional","department":"Distrito Nacional","type":"Municipio","country":"República Dominicana","iso":"DO"},"geometry":{"type":"Polygon","coordinates":[[[-70.009,18.5121],[-70.0108,18.5125],[-70.0133,18.5112],[-70.0175,18.5042],[-70.0192,18.5039],[-70.0243,18.5058],[-70.0281,18.5061],[-70.0385,18.5005],[-70.0435,18.5009],[-70.0454,18.5],[-70.0523,18.5016],[-70.0522,18.5],[-70.0528,18.5],[-70.0607,18.5023],[-70.0609,18.5075],[-70.0665,18.5098],[-70.0681,18.5097],[-70.0688,18.5088],[-70.0709,18.5107],[-70.0722,18.5061],[-70.0723,18.5022],[-70.0707,18.4999],[-70.0703,18.497],[-70.0642,18.4932],[-70.0639,18.4911],[-70.0657,18.4874],[-70.0719,18.4848],[-70.0737,18.4823],[-70.0733,18.4807],[-70.0721,18.4799],[-70.0686,18.4801],[-70.0654,18.4814],[-70.0641,18.48],[-70.0639,18.4767],[-70.0671,18.4745],[-70.0684,18.4698],[-70.0652,18.4642],[-70.0623,18.4659],[-70.0621,18.4696],[-70.0596,18.4721],[-70.056,18.4726],[-70.0515,18.4765],[-70.0483,18.4772],[-70.0439,18.4751],[-70.0434,18.4706],[-70.0415,18.4683],[-70.037,18.4661],[-70.0336,18.462],[-70.0307,18.4623],[-70.0287,18.4612],[-70.0258,18.463],[-70.0242,18.4652],[-70.0222,18.4665],[-70.0192,18.4764],[-70.0135,18.4764],[-70.0132,18.4649],[-70.0153,18.4624],[-70.0156,18.4604],[-70.0138,18.4591],[-70.0104,18.4612],[-70.0093,18.4604],[-70.0076,18.4574],[-70.0106,18.4534],[-70.0067,18.4506],[-70.0027,18.4493],[-70.002,18.4476],[-70.0025,18.4458],[-70.0059,18.4447],[-70.0066,18.4431],[-70.0072,18.4375],[-70.0061,18.4331],[-70.0065,18.4306],[-70.0082,18.429],[-70.0163,18.4279],[-70.0185,18.4261],[-70.0193,18.4209],[-70.0178,18.4211],[-70.0163,18.4224],[-70.0148,18.4211],[-70.0174,18.4184],[-70.0162,18.4168],[-70.0165,18.4131],[-70.0158,18.4143],[-70.0154,18.4181],[-70.0056,18.4249],[-70.0039,18.423],[-70.0013,18.4237],[-69.9971,18.4214],[-69.9933,18.4212],[-69.9887,18.4227],[-69.9901,18.4291],[-69.9844,18.434],[-69.9797,18.4397],[-69.9777,18.4424],[-69.9757,18.4478],[-69.9731,18.4498],[-69.974,18.4512],[-69.9721,18.4539],[-69.969,18.4622],[-69.9676,18.479],[-69.9718,18.4802],[-69.9823,18.4903],[-70.0053,18.5076],[-70.009,18.5121]]]}}]}