{"type":"FeatureCollection","features":[{"type":"Feature","id":"opcina-sarajevo-1","properties":{"name":"Centar","province":"Sarajevo","department":"Kanton Sarajevo","type":"Općina","country":"Bosnia y Herzegovina","iso":"BA"},"geometry":{"type":"MultiPolygon","coordinates":[[[[18.3882,43.876],[18.3881,43.877],[18.3857,43.879],[18.3856,43.8799],[18.3866,43.8815],[18.3903,43.8842],[18.3913,43.8836],[18.3944,43.8835],[18.3918,43.8864],[18.3924,43.8891],[18.3945,43.889],[18.3907,43.8914],[18.3922,43.8929],[18.393,43.8956],[18.3866,43.8982],[18.3863,43.9018],[18.3836,43.9034],[18.3845,43.9047],[18.3909,43.9086],[18.3886,43.912],[18.3922,43.9153],[18.3959,43.9163],[18.3962,43.9186],[18.3985,43.9198],[18.3985,43.9224],[18.3972,43.9237],[18.3999,43.9277],[18.4075,43.9247],[18.4069,43.9268],[18.4097,43.9259],[18.4097,43.9253],[18.4117,43.9258],[18.4137,43.9282],[18.4133,43.9297],[18.4141,43.9308],[18.4131,43.9319],[18.4141,43.9325],[18.416,43.9323],[18.415,43.9343],[18.4133,43.9356],[18.4121,43.9383],[18.4111,43.9388],[18.4137,43.9396],[18.4138,43.9405],[18.4152,43.941],[18.4167,43.9429],[18.4221,43.9457],[18.4222,43.9464],[18.4236,43.9466],[18.4243,43.9486],[18.4268,43.9484],[18.4288,43.9504],[18.4329,43.9505],[18.4359,43.9522],[18.4378,43.9516],[18.4399,43.9523],[18.4403,43.953],[18.4449,43.954],[18.4484,43.9538],[18.4481,43.9521],[18.4491,43.9498],[18.4467,43.94],[18.4457,43.9395],[18.4442,43.9402],[18.4435,43.9381],[18.4423,43.9373],[18.4336,43.9352],[18.4326,43.936],[18.4331,43.9351],[18.4324,43.9323],[18.4331,43.9307],[18.4348,43.9305],[18.435,43.9288],[18.4367,43.9287],[18.4359,43.9276],[18.4369,43.9274],[18.4366,43.9264],[18.4383,43.9267],[18.4349,43.9226],[18.436,43.9211],[18.4329,43.922],[18.4327,43.9159],[18.4308,43.9124],[18.4292,43.9131],[18.429,43.9139],[18.4278,43.9121],[18.4299,43.9109],[18.4404,43.9105],[18.4445,43.9094],[18.4454,43.9086],[18.4516,43.9084],[18.4492,43.9078],[18.4481,43.9069],[18.4475,43.905],[18.4467,43.9046],[18.4476,43.9035],[18.4468,43.902],[18.4446,43.901],[18.4436,43.8996],[18.4435,43.8982],[18.4439,43.8985],[18.4443,43.8977],[18.4436,43.8958],[18.4458,43.8944],[18.442,43.8933],[18.4411,43.8914],[18.4406,43.8918],[18.4362,43.8883],[18.4348,43.8855],[18.4354,43.8841],[18.435,43.8819],[18.4325,43.8801],[18.4324,43.8773],[18.4337,43.8771],[18.4304,43.8736],[18.4286,43.8725],[18.4265,43.8724],[18.427,43.8722],[18.4261,43.8703],[18.4266,43.8695],[18.425,43.8644],[18.4255,43.8635],[18.4249,43.8615],[18.4224,43.8608],[18.4225,43.8593],[18.4235,43.8593],[18.4239,43.8568],[18.4235,43.8548],[18.4228,43.8544],[18.4231,43.8536],[18.422,43.8529],[18.4221,43.8521],[18.4244,43.8513],[18.4219,43.8493],[18.4211,43.8502],[18.4199,43.8494],[18.4201,43.8474],[18.4193,43.8474],[18.4194,43.8468],[18.4184,43.847],[18.4157,43.8453],[18.4091,43.8444],[18.4097,43.8452],[18.4095,43.8461],[18.4108,43.8462],[18.4114,43.847],[18.4111,43.848],[18.4083,43.8473],[18.4073,43.8482],[18.4083,43.8485],[18.4067,43.8502],[18.4068,43.8512],[18.4078,43.8522],[18.4068,43.852],[18.4062,43.8533],[18.4017,43.8534],[18.4004,43.8609],[18.403,43.8655],[18.4024,43.8671],[18.4029,43.8706],[18.4019,43.8698],[18.4015,43.8717],[18.4,43.8721],[18.3996,43.8731],[18.398,43.8723],[18.3941,43.8765],[18.3925,43.8758],[18.3919,43.8763],[18.3911,43.8758],[18.3917,43.8746],[18.3898,43.8741],[18.3882,43.876]]]]}},{"type":"Feature","id":"opcina-sarajevo-2","properties":{"name":"Novo Sarajevo","province":"Sarajevo","department":"Kanton Sarajevo","type":"Općina","country":"Bosnia y Herzegovina","iso":"BA"},"geometry":{"type":"MultiPolygon","coordinates":[[[[18.3655,43.8361],[18.3956,43.8425],[18.4091,43.8444],[18.4097,43.8452],[18.4095,43.8461],[18.4108,43.8462],[18.4114,43.847],[18.4111,43.848],[18.4083,43.8473],[18.4073,43.8482],[18.4083,43.8485],[18.4067,43.8502],[18.4068,43.8512],[18.4078,43.8522],[18.4068,43.852],[18.4062,43.8533],[18.4017,43.8534],[18.4004,43.8609],[18.403,43.8655],[18.4024,43.8671],[18.4029,43.8706],[18.4019,43.8698],[18.4015,43.8717],[18.4,43.8721],[18.3996,43.8731],[18.398,43.8723],[18.3941,43.8765],[18.3925,43.8758],[18.3919,43.8763],[18.3911,43.8758],[18.3917,43.8746],[18.3898,43.8741],[18.3882,43.876],[18.3848,43.8778],[18.3834,43.8769],[18.3844,43.8755],[18.3814,43.8751],[18.3826,43.8735],[18.3771,43.8728],[18.3775,43.8715],[18.3767,43.8655],[18.3737,43.8636],[18.3724,43.8616],[18.3683,43.8593],[18.3704,43.8587],[18.3696,43.8575],[18.3701,43.8573],[18.3687,43.8567],[18.3673,43.8543],[18.3651,43.8535],[18.3669,43.849],[18.3763,43.8488],[18.3775,43.8468],[18.3776,43.8454],[18.3782,43.8451],[18.3775,43.843],[18.377,43.843],[18.3778,43.8398],[18.3703,43.8397],[18.3679,43.8376],[18.3658,43.837],[18.3655,43.8361]]]]}},{"type":"Feature","id":"opcina-sarajevo-3","properties":{"name":"Novi Grad","province":"Sarajevo","department":"Kanton Sarajevo","type":"Općina","country":"Bosnia y Herzegovina","iso":"BA"},"geometry":{"type":"MultiPolygon","coordinates":[[[[18.2495,43.8984],[18.25,43.8973],[18.2537,43.8954],[18.2528,43.8934],[18.255,43.8918],[18.2535,43.8911],[18.2532,43.89],[18.2569,43.8828],[18.2578,43.8827],[18.2583,43.8817],[18.2631,43.8777],[18.2643,43.8753],[18.2611,43.8695],[18.261,43.8685],[18.2665,43.8646],[18.2697,43.8633],[18.2719,43.8641],[18.2732,43.8656],[18.2804,43.8686],[18.2816,43.8674],[18.2834,43.8678],[18.284,43.8691],[18.2851,43.8694],[18.2892,43.8689],[18.2903,43.8693],[18.2911,43.8683],[18.2905,43.8678],[18.2907,43.8673],[18.2921,43.8674],[18.2926,43.8666],[18.2952,43.8668],[18.2953,43.8662],[18.2942,43.8659],[18.2958,43.8643],[18.2974,43.864],[18.297,43.8636],[18.298,43.863],[18.2983,43.8616],[18.2991,43.8614],[18.3,43.8625],[18.3009,43.8624],[18.3001,43.8604],[18.3024,43.8599],[18.3016,43.8578],[18.3019,43.8573],[18.3057,43.8573],[18.3061,43.8561],[18.3097,43.8557],[18.3099,43.855],[18.3088,43.8541],[18.3067,43.8541],[18.3061,43.8529],[18.3069,43.8522],[18.31,43.8518],[18.311,43.8504],[18.3116,43.8518],[18.3133,43.8519],[18.3151,43.8504],[18.3152,43.8487],[18.3195,43.8471],[18.3291,43.8469],[18.3338,43.846],[18.3343,43.8451],[18.3351,43.8453],[18.3355,43.844],[18.3384,43.8446],[18.3398,43.8428],[18.3366,43.8405],[18.331,43.8345],[18.3277,43.837],[18.3261,43.8358],[18.3283,43.8328],[18.3302,43.8326],[18.3301,43.8309],[18.337,43.8281],[18.3416,43.8247],[18.3514,43.8215],[18.3518,43.8219],[18.3529,43.8209],[18.3557,43.8236],[18.3548,43.824],[18.3565,43.8266],[18.358,43.8269],[18.3574,43.8278],[18.3584,43.8285],[18.3579,43.8289],[18.3583,43.8295],[18.357,43.8299],[18.3572,43.8302],[18.3587,43.8306],[18.3627,43.8357],[18.3655,43.8361],[18.3658,43.837],[18.3679,43.8376],[18.3703,43.8397],[18.3778,43.8398],[18.377,43.843],[18.3775,43.843],[18.3782,43.8451],[18.3776,43.8454],[18.3775,43.8468],[18.3763,43.8488],[18.3669,43.849],[18.3651,43.8535],[18.3673,43.8543],[18.3687,43.8567],[18.3701,43.8573],[18.3696,43.8575],[18.3704,43.8587],[18.3683,43.8593],[18.3724,43.8616],[18.3737,43.8636],[18.3767,43.8655],[18.3773,43.8688],[18.3775,43.8715],[18.377,43.8727],[18.3742,43.8743],[18.3725,43.8737],[18.3707,43.8751],[18.3675,43.8756],[18.3667,43.877],[18.3659,43.8772],[18.3692,43.8787],[18.3682,43.879],[18.366,43.8783],[18.364,43.8766],[18.3631,43.8771],[18.3635,43.879],[18.3621,43.8801],[18.3532,43.8813],[18.3476,43.8863],[18.3471,43.8844],[18.3436,43.882],[18.3367,43.8858],[18.3359,43.8868],[18.3359,43.8885],[18.3351,43.8892],[18.332,43.8891],[18.3306,43.8906],[18.328,43.8908],[18.3272,43.8873],[18.3258,43.8868],[18.3255,43.8877],[18.3242,43.8879],[18.3233,43.8892],[18.3237,43.8896],[18.322,43.8898],[18.3208,43.8914],[18.3161,43.8926],[18.316,43.8944],[18.3151,43.8949],[18.3144,43.8968],[18.3132,43.8974],[18.3137,43.8997],[18.3116,43.8996],[18.3095,43.9007],[18.3069,43.8999],[18.3065,43.9008],[18.2995,43.9042],[18.2984,43.9062],[18.2947,43.9074],[18.2928,43.912],[18.2848,43.9136],[18.2824,43.9152],[18.2824,43.913],[18.2796,43.9114],[18.277,43.9084],[18.2729,43.9076],[18.2713,43.9079],[18.2713,43.906],[18.2694,43.9039],[18.268,43.9034],[18.2668,43.8996],[18.2647,43.8998],[18.2641,43.8989],[18.2627,43.9003],[18.2611,43.9004],[18.2589,43.8992],[18.2571,43.9015],[18.256,43.9009],[18.256,43.8994],[18.2542,43.8994],[18.2522,43.8982],[18.2495,43.8984]]]]}},{"type":"Feature","id":"opcina-sarajevo-4","properties":{"name":"Stari Grad","province":"Sarajevo","department":"Kanton Sarajevo","type":"Općina","country":"Bosnia y Herzegovina","iso":"BA"},"geometry":{"type":"MultiPolygon","coordinates":[[[[18.4157,43.8453],[18.4181,43.8457],[18.4332,43.8435],[18.4467,43.8301],[18.4485,43.8289],[18.4535,43.8265],[18.4571,43.8264],[18.4603,43.8273],[18.4622,43.8302],[18.4633,43.8351],[18.4634,43.8432],[18.4677,43.8579],[18.4676,43.8612],[18.4706,43.8745],[18.4788,43.8781],[18.4833,43.8832],[18.4826,43.8858],[18.4807,43.8884],[18.4778,43.8906],[18.474,43.8923],[18.4687,43.8931],[18.4682,43.8964],[18.4795,43.9066],[18.4836,43.9118],[18.4911,43.9259],[18.5172,43.9606],[18.516,43.9621],[18.5117,43.9635],[18.5068,43.9667],[18.505,43.9668],[18.4961,43.9602],[18.4976,43.9568],[18.4936,43.9542],[18.4927,43.9515],[18.4882,43.9522],[18.4869,43.9511],[18.4819,43.9504],[18.48,43.948],[18.4784,43.9472],[18.4723,43.9496],[18.4664,43.9502],[18.4529,43.9539],[18.4484,43.9538],[18.4481,43.9521],[18.4491,43.9498],[18.4467,43.94],[18.4457,43.9395],[18.4442,43.9402],[18.4435,43.9381],[18.4423,43.9373],[18.4336,43.9352],[18.4326,43.936],[18.4331,43.9351],[18.4324,43.9323],[18.4331,43.9307],[18.4348,43.9305],[18.435,43.9288],[18.4367,43.9287],[18.4359,43.9276],[18.4369,43.9274],[18.4366,43.9264],[18.4383,43.9267],[18.4349,43.9226],[18.436,43.9211],[18.4329,43.922],[18.4327,43.9159],[18.4308,43.9124],[18.4292,43.9131],[18.429,43.9139],[18.4278,43.9121],[18.4299,43.9109],[18.4404,43.9105],[18.4445,43.9094],[18.4454,43.9086],[18.4516,43.9084],[18.4492,43.9078],[18.4481,43.9069],[18.4475,43.905],[18.4467,43.9046],[18.4476,43.9035],[18.4468,43.902],[18.4446,43.901],[18.4436,43.8996],[18.4435,43.8982],[18.4439,43.8985],[18.4443,43.8977],[18.4436,43.8958],[18.4458,43.8944],[18.442,43.8933],[18.4411,43.8914],[18.4406,43.8918],[18.4362,43.8883],[18.4348,43.8855],[18.4354,43.8841],[18.435,43.8819],[18.4325,43.8801],[18.4324,43.8773],[18.4337,43.8771],[18.4304,43.8736],[18.4286,43.8725],[18.4265,43.8724],[18.427,43.8722],[18.4261,43.8703],[18.4266,43.8695],[18.425,43.8644],[18.4255,43.8635],[18.4249,43.8615],[18.4224,43.8608],[18.4225,43.8593],[18.4235,43.8593],[18.4239,43.8568],[18.4235,43.8548],[18.4228,43.8544],[18.4231,43.8536],[18.422,43.8529],[18.4221,43.8521],[18.4244,43.8513],[18.4219,43.8493],[18.4211,43.8502],[18.4199,43.8494],[18.4201,43.8473],[18.418,43.8469],[18.4157,43.8453]]]]}}]}