{"type":"FeatureCollection","features":[{"type":"Feature","id":"singapore-area-1","properties":{"name":"Bishan","province":"Central Region","department":"Singapur","type":"Planning Area","country":"Singapur","iso":"SG"},"geometry":{"type":"Polygon","coordinates":[[[103.8492,1.3628],[103.8532,1.3595],[103.8552,1.3563],[103.8569,1.3555],[103.8572,1.3527],[103.8604,1.3434],[103.8543,1.3432],[103.8445,1.344],[103.8414,1.3451],[103.8365,1.342],[103.8359,1.3427],[103.8371,1.3435],[103.8368,1.3464],[103.8358,1.3463],[103.8346,1.3477],[103.8356,1.3474],[103.8338,1.3496],[103.8324,1.3498],[103.8298,1.3531],[103.8267,1.3542],[103.8235,1.3523],[103.8185,1.3549],[103.8207,1.3612],[103.8243,1.3618],[103.8251,1.3635],[103.8271,1.3627],[103.8283,1.368],[103.8331,1.3674],[103.841,1.3646],[103.8465,1.3639],[103.8492,1.3628]]]}},{"type":"Feature","id":"singapore-area-2","properties":{"name":"Bukit Batok","province":"Central Region","department":"Singapur","type":"Planning Area","country":"Singapur","iso":"SG"},"geometry":{"type":"Polygon","coordinates":[[[103.7641,1.37],[103.7675,1.3645],[103.7671,1.361],[103.7675,1.3579],[103.7696,1.3533],[103.7704,1.349],[103.767,1.3472],[103.7632,1.3467],[103.7642,1.345],[103.7671,1.3428],[103.7669,1.3422],[103.7651,1.3421],[103.7647,1.3396],[103.7641,1.3394],[103.7645,1.3366],[103.7653,1.3355],[103.7656,1.3358],[103.7656,1.3325],[103.744,1.3443],[103.7373,1.346],[103.7383,1.349],[103.7366,1.3544],[103.7372,1.357],[103.7443,1.3654],[103.7513,1.3717],[103.7543,1.3766],[103.7612,1.3797],[103.7641,1.37]]]}},{"type":"Feature","id":"singapore-area-3","properties":{"name":"Bukit Merah","province":"Central Region","department":"Singapur","type":"Planning Area","country":"Singapur","iso":"SG"},"geometry":{"type":"Polygon","coordinates":[[[103.8174,1.2943],[103.8216,1.2936],[103.8244,1.2919],[103.8286,1.2927],[103.831,1.2921],[103.8334,1.2924],[103.835,1.2892],[103.8348,1.2859],[103.8353,1.2841],[103.8392,1.2808],[103.8422,1.2726],[103.8457,1.2726],[103.8516,1.2693],[103.8518,1.2636],[103.8507,1.263],[103.8521,1.2615],[103.8512,1.2607],[103.8457,1.2668],[103.8443,1.2655],[103.8467,1.2624],[103.8459,1.2615],[103.8395,1.2676],[103.8321,1.2674],[103.8241,1.2631],[103.8243,1.2605],[103.8305,1.2636],[103.8362,1.2638],[103.8425,1.2579],[103.8364,1.2548],[103.8313,1.2564],[103.8319,1.2572],[103.8311,1.2574],[103.8305,1.2567],[103.8278,1.2569],[103.8287,1.2572],[103.8259,1.2581],[103.8242,1.2601],[103.824,1.2582],[103.8237,1.2602],[103.8232,1.2586],[103.8233,1.2631],[103.8199,1.2631],[103.8199,1.2619],[103.8181,1.262],[103.8196,1.2622],[103.8196,1.2632],[103.8151,1.2644],[103.8131,1.2635],[103.8134,1.263],[103.8113,1.2626],[103.8103,1.2637],[103.8116,1.2649],[103.8129,1.2644],[103.813,1.2637],[103.8149,1.2645],[103.8128,1.2664],[103.8112,1.2664],[103.8102,1.265],[103.8086,1.265],[103.8072,1.2659],[103.8054,1.2637],[103.8051,1.2623],[103.801,1.2659],[103.8013,1.2665],[103.7992,1.2682],[103.8016,1.2728],[103.8022,1.2727],[103.802,1.2753],[103.8031,1.2789],[103.8013,1.2831],[103.8027,1.2862],[103.8089,1.2924],[103.8154,1.2915],[103.816,1.2941],[103.8174,1.2943]],[[103.8235,1.2608],[103.8236,1.2631],[103.8235,1.2608],[103.8235,1.2608]],[[103.8236,1.2607],[103.8236,1.2607],[103.8236,1.2608],[103.8236,1.2608],[103.8236,1.2608],[103.8236,1.2608],[103.8236,1.2607],[103.8236,1.2607],[103.8236,1.2607],[103.8236,1.2607],[103.8236,1.2607],[103.8236,1.2607],[103.8236,1.2607],[103.8236,1.2607],[103.8236,1.2607],[103.8236,1.2607],[103.8236,1.2607],[103.8236,1.2607],[103.8236,1.2607],[103.8236,1.2607],[103.8236,1.2607]]]}},{"type":"Feature","id":"singapore-area-4","properties":{"name":"Bukit Panjang","province":"Central Region","department":"Singapur","type":"Planning Area","country":"Singapur","iso":"SG"},"geometry":{"type":"Polygon","coordinates":[[[103.7745,1.3903],[103.776,1.3798],[103.7806,1.3611],[103.7837,1.3565],[103.7894,1.3523],[103.7917,1.3493],[103.7894,1.3479],[103.7893,1.3491],[103.7878,1.3489],[103.7877,1.3494],[103.7862,1.3486],[103.7883,1.3457],[103.7872,1.3446],[103.7819,1.3425],[103.7778,1.3419],[103.7758,1.3441],[103.7721,1.3463],[103.7703,1.3491],[103.7696,1.3533],[103.7675,1.3579],[103.7674,1.3648],[103.7633,1.3716],[103.7619,1.3784],[103.7594,1.383],[103.7551,1.3889],[103.7581,1.389],[103.765,1.3908],[103.7745,1.3903]]]}},{"type":"Feature","id":"singapore-area-5","properties":{"name":"Bukit Timah","province":"Central Region","department":"Singapur","type":"Planning Area","country":"Singapur","iso":"SG"},"geometry":{"type":"Polygon","coordinates":[[[103.7977,1.3481],[103.8042,1.3414],[103.8074,1.341],[103.8086,1.3418],[103.8099,1.3417],[103.8099,1.3409],[103.8117,1.3405],[103.8124,1.339],[103.8136,1.3382],[103.8146,1.3383],[103.8167,1.3363],[103.8186,1.3358],[103.8141,1.3286],[103.8129,1.3216],[103.8049,1.3149],[103.8023,1.3072],[103.7998,1.3097],[103.799,1.308],[103.7968,1.3096],[103.7944,1.3103],[103.794,1.3128],[103.7931,1.3134],[103.7912,1.3113],[103.7912,1.3103],[103.7896,1.3133],[103.7867,1.3158],[103.7848,1.315],[103.7858,1.3136],[103.7853,1.3111],[103.7787,1.3131],[103.7711,1.3192],[103.7711,1.3219],[103.7728,1.3244],[103.7756,1.3264],[103.7691,1.33],[103.7681,1.3312],[103.7655,1.3318],[103.7646,1.3328],[103.7656,1.3325],[103.7656,1.3358],[103.7653,1.3355],[103.7645,1.3366],[103.7641,1.3394],[103.7647,1.3396],[103.7651,1.3421],[103.7669,1.3422],[103.7671,1.3428],[103.7642,1.345],[103.7632,1.3467],[103.767,1.3472],[103.7704,1.349],[103.7721,1.3463],[103.7758,1.3441],[103.7778,1.3419],[103.7819,1.3425],[103.7874,1.3447],[103.7883,1.3457],[103.7862,1.3486],[103.7877,1.3494],[103.7878,1.3489],[103.7894,1.3491],[103.7894,1.3479],[103.7904,1.3489],[103.7934,1.3495],[103.7977,1.3481]]]}},{"type":"Feature","id":"singapore-area-6","properties":{"name":"Central Water Catchment","province":"Central Region","department":"Singapur","type":"Planning Area","country":"Singapur","iso":"SG"},"geometry":{"type":"Polygon","coordinates":[[[103.807,1.4113],[103.8088,1.407],[103.8118,1.4027],[103.8145,1.3967],[103.8164,1.3951],[103.8188,1.3943],[103.818,1.3899],[103.8184,1.3886],[103.8167,1.3869],[103.8174,1.3864],[103.8187,1.3868],[103.8195,1.3853],[103.8193,1.3834],[103.8178,1.3803],[103.8205,1.3805],[103.8239,1.3787],[103.8258,1.3797],[103.8277,1.3784],[103.8278,1.3774],[103.8263,1.3762],[103.8263,1.3734],[103.8279,1.372],[103.8273,1.3693],[103.8283,1.3675],[103.8271,1.3627],[103.8251,1.3635],[103.8243,1.3618],[103.8207,1.3612],[103.8185,1.3549],[103.8235,1.3523],[103.8267,1.3542],[103.8298,1.3531],[103.8324,1.3498],[103.8338,1.3496],[103.8356,1.3474],[103.8346,1.3477],[103.8358,1.3463],[103.8368,1.3464],[103.8371,1.3435],[103.8359,1.3427],[103.8365,1.342],[103.8353,1.3413],[103.833,1.3404],[103.8264,1.3412],[103.8232,1.3407],[103.8201,1.3392],[103.8186,1.3358],[103.8167,1.3363],[103.8146,1.3383],[103.8136,1.3382],[103.8124,1.339],[103.8117,1.3405],[103.8099,1.3409],[103.8099,1.3417],[103.8086,1.3418],[103.8074,1.341],[103.8042,1.3414],[103.7977,1.3481],[103.7951,1.3493],[103.7917,1.3493],[103.7894,1.3523],[103.7832,1.357],[103.7803,1.3622],[103.7754,1.3831],[103.7736,1.4013],[103.7717,1.41],[103.7772,1.4109],[103.7832,1.4109],[103.8024,1.4162],[103.8058,1.4144],[103.807,1.4113]]]}},{"type":"Feature","id":"singapore-area-7","properties":{"name":"Changi","province":"Central Region","department":"Singapur","type":"Planning Area","country":"Singapur","iso":"SG"},"geometry":{"type":"Polygon","coordinates":[[[103.9824,1.3936],[103.988,1.3931],[103.9946,1.3915],[103.9991,1.3889],[104.0062,1.3745],[104.0076,1.3735],[104.0089,1.3736],[104.0087,1.3726],[104.0068,1.3725],[104.0059,1.3694],[104.0065,1.3698],[104.0103,1.3687],[104.0136,1.3701],[104.028,1.3637],[104.0336,1.3604],[104.033,1.3588],[104.0313,1.3576],[104.0322,1.3569],[104.0152,1.3157],[104.0107,1.3152],[104.0031,1.3106],[103.9992,1.3108],[103.9913,1.3142],[103.9839,1.312],[103.9852,1.3132],[103.9846,1.316],[103.9838,1.3167],[103.9848,1.319],[103.9805,1.3209],[103.9796,1.3222],[103.9847,1.3345],[103.9796,1.3364],[103.9798,1.3368],[103.9709,1.3412],[103.9654,1.3495],[103.9643,1.3527],[103.9683,1.3541],[103.9703,1.3602],[103.9742,1.3629],[103.9758,1.3669],[103.9799,1.3705],[103.9793,1.3723],[103.9757,1.3733],[103.9749,1.374],[103.9781,1.3773],[103.9785,1.379],[103.9747,1.386],[103.9729,1.3877],[103.9738,1.3904],[103.9754,1.3918],[103.9824,1.3936]]]}},{"type":"Feature","id":"singapore-area-8","properties":{"name":"Changi Bay","province":"Central Region","department":"Singapur","type":"Planning Area","country":"Singapur","iso":"SG"},"geometry":{"type":"MultiPolygon","coordinates":[[[[104.0208,1.3257],[104.0214,1.3243],[104.0325,1.3246],[104.0327,1.318],[104.0336,1.3174],[104.0327,1.3162],[104.0291,1.3161],[104.029,1.3204],[104.0227,1.3202],[104.0228,1.3159],[104.0152,1.3157],[104.0322,1.3569],[104.0325,1.3557],[104.0212,1.329],[104.0208,1.3257]]],[[[104.0349,1.3596],[104.0422,1.3538],[104.0435,1.3505],[104.0432,1.3488],[104.0418,1.3491],[104.0427,1.3514],[104.0413,1.3542],[104.0379,1.3569],[104.033,1.3588],[104.0336,1.3604],[104.0349,1.3596]]],[[[104.0717,1.2919],[104.0716,1.2911],[104.0706,1.291],[104.0709,1.2919],[104.0717,1.2919]]],[[[104.0841,1.3224],[104.0832,1.3226],[104.0841,1.3233],[104.0841,1.3224]]]]}},{"type":"Feature","id":"singapore-area-9","properties":{"name":"Choa Chu Kang","province":"Central Region","department":"Singapur","type":"Planning Area","country":"Singapur","iso":"SG"},"geometry":{"type":"Polygon","coordinates":[[[103.7466,1.4054],[103.751,1.4049],[103.7525,1.4038],[103.7528,1.4028],[103.752,1.3984],[103.7533,1.389],[103.7551,1.3889],[103.7612,1.3797],[103.7538,1.3763],[103.7517,1.3722],[103.7485,1.3691],[103.7454,1.3718],[103.738,1.374],[103.7327,1.3789],[103.7416,1.3866],[103.7403,1.3895],[103.7403,1.3915],[103.7427,1.3961],[103.7439,1.4027],[103.746,1.4055],[103.7466,1.4054]]]}},{"type":"Feature","id":"singapore-area-10","properties":{"name":"Clementi","province":"Central Region","department":"Singapur","type":"Planning Area","country":"Singapur","iso":"SG"},"geometry":{"type":"Polygon","coordinates":[[[103.7586,1.2993],[103.7573,1.2984],[103.7528,1.3076],[103.7507,1.309],[103.7477,1.3098],[103.7476,1.3137],[103.7522,1.3229],[103.75,1.3271],[103.7486,1.3395],[103.7494,1.3413],[103.7646,1.3328],[103.7655,1.3318],[103.7681,1.3312],[103.7691,1.33],[103.7756,1.3264],[103.7727,1.3243],[103.7708,1.3213],[103.7723,1.3121],[103.7691,1.2939],[103.7674,1.2916],[103.7667,1.2922],[103.7623,1.3013],[103.7586,1.2993]],[[103.7586,1.2993],[103.7586,1.2993],[103.7586,1.2993],[103.7586,1.2993]]]}},{"type":"Feature","id":"singapore-area-11","properties":{"name":"Geylang","province":"Central Region","department":"Singapur","type":"Planning Area","country":"Singapur","iso":"SG"},"geometry":{"type":"Polygon","coordinates":[[[103.9018,1.3097],[103.8946,1.3096],[103.8897,1.3086],[103.8901,1.3071],[103.8896,1.3063],[103.8846,1.3054],[103.8838,1.3046],[103.881,1.3069],[103.876,1.3088],[103.8747,1.3164],[103.8759,1.3201],[103.8687,1.3278],[103.8798,1.3315],[103.8906,1.3341],[103.8937,1.3356],[103.8962,1.3378],[103.9048,1.3295],[103.9058,1.3276],[103.9049,1.3193],[103.9052,1.3169],[103.9067,1.3133],[103.9018,1.3097]]]}},{"type":"Feature","id":"singapore-area-12","properties":{"name":"Novena","province":"Central Region","department":"Singapur","type":"Planning Area","country":"Singapur","iso":"SG"},"geometry":{"type":"Polygon","coordinates":[[[103.836,1.3417],[103.8372,1.3395],[103.8372,1.3347],[103.8406,1.3288],[103.8427,1.3296],[103.8478,1.3298],[103.8566,1.3291],[103.8624,1.3304],[103.8612,1.3266],[103.8557,1.3211],[103.8463,1.3155],[103.8443,1.3106],[103.8395,1.3127],[103.8351,1.3175],[103.8201,1.3224],[103.8134,1.3233],[103.8141,1.3286],[103.8183,1.3349],[103.8204,1.3395],[103.8248,1.3412],[103.833,1.3404],[103.836,1.3417]]]}},{"type":"Feature","id":"singapore-area-13","properties":{"name":"Pasir Ris","province":"Central Region","department":"Singapur","type":"Planning Area","country":"Singapur","iso":"SG"},"geometry":{"type":"MultiPolygon","coordinates":[[[[103.9532,1.382],[103.9584,1.3813],[103.9645,1.3821],[103.9662,1.3806],[103.9675,1.3811],[103.9674,1.3832],[103.9729,1.3877],[103.9747,1.386],[103.9785,1.379],[103.9781,1.3773],[103.9749,1.374],[103.9757,1.3733],[103.9793,1.3723],[103.9799,1.3705],[103.9758,1.3669],[103.9742,1.3629],[103.9703,1.3602],[103.9683,1.3541],[103.9643,1.3527],[103.962,1.3589],[103.9578,1.3635],[103.9543,1.3653],[103.9456,1.3675],[103.9407,1.3712],[103.9348,1.3744],[103.929,1.3771],[103.9206,1.3797],[103.9143,1.3859],[103.9179,1.3922],[103.9199,1.3943],[103.9193,1.3938],[103.9198,1.3935],[103.9225,1.3958],[103.9221,1.3963],[103.9225,1.3958],[103.9246,1.3974],[103.924,1.3978],[103.925,1.3976],[103.9298,1.3993],[103.9296,1.4004],[103.9302,1.4006],[103.9301,1.3997],[103.9344,1.4012],[103.9387,1.3971],[103.9365,1.3947],[103.9364,1.393],[103.9407,1.3953],[103.9432,1.3926],[103.9426,1.3883],[103.9438,1.3867],[103.9492,1.383],[103.9532,1.382]],[[103.9535,1.3819],[103.9536,1.3819],[103.9536,1.3819],[103.9535,1.3819]]],[[[103.921,1.3953],[103.921,1.3953],[103.9212,1.3955],[103.921,1.3953]]]]}},{"type":"Feature","id":"singapore-area-14","properties":{"name":"Paya Lebar","province":"Central Region","department":"Singapur","type":"Planning Area","country":"Singapur","iso":"SG"},"geometry":{"type":"Polygon","coordinates":[[[103.9185,1.3813],[103.9222,1.379],[103.9319,1.3758],[103.9304,1.3719],[103.9309,1.3661],[103.9304,1.3583],[103.9253,1.3489],[103.9192,1.3457],[103.9159,1.3423],[103.913,1.3445],[103.9089,1.3408],[103.9085,1.3411],[103.9076,1.3392],[103.9023,1.3392],[103.9021,1.3387],[103.8993,1.3396],[103.8979,1.3404],[103.8992,1.3435],[103.8984,1.3474],[103.8962,1.3468],[103.8938,1.3478],[103.8935,1.3488],[103.8957,1.354],[103.897,1.3535],[103.8985,1.3562],[103.902,1.3572],[103.9062,1.365],[103.9095,1.3747],[103.9108,1.3768],[103.9154,1.3798],[103.9175,1.3824],[103.9185,1.3813]]]}},{"type":"Feature","id":"singapore-area-15","properties":{"name":"Seletar","province":"Central Region","department":"Singapur","type":"Planning Area","country":"Singapur","iso":"SG"},"geometry":{"type":"MultiPolygon","coordinates":[[[[103.8971,1.415],[103.8968,1.4144],[103.8932,1.4151],[103.8929,1.4138],[103.8936,1.4139],[103.8947,1.4128],[103.8947,1.4112],[103.8923,1.4084],[103.8927,1.4076],[103.892,1.4082],[103.8869,1.4045],[103.886,1.4016],[103.8868,1.4012],[103.8576,1.4005],[103.8556,1.4012],[103.8549,1.4027],[103.8555,1.4056],[103.8602,1.409],[103.8613,1.4105],[103.8619,1.4129],[103.8617,1.4177],[103.864,1.4219],[103.8692,1.4268],[103.8692,1.4279],[103.8702,1.429],[103.875,1.4317],[103.8771,1.432],[103.8796,1.4314],[103.8881,1.4258],[103.8865,1.4236],[103.8873,1.4232],[103.8887,1.4254],[103.8969,1.4206],[103.8978,1.4187],[103.8965,1.4153],[103.8971,1.415]],[[103.8698,1.4246],[103.871,1.4241],[103.8718,1.4246],[103.8694,1.4265],[103.8674,1.4247],[103.8698,1.4246]],[[103.8737,1.4233],[103.8728,1.4235],[103.8743,1.4221],[103.8756,1.4186],[103.8771,1.4178],[103.878,1.4192],[103.8737,1.4233]],[[103.8838,1.4181],[103.887,1.4227],[103.8862,1.4231],[103.8828,1.4178],[103.8783,1.419],[103.8773,1.4175],[103.8782,1.4178],[103.8782,1.4169],[103.8789,1.4172],[103.8785,1.4167],[103.8805,1.4154],[103.8822,1.4168],[103.8846,1.4168],[103.8877,1.415],[103.8925,1.4139],[103.8929,1.4151],[103.8885,1.4157],[103.8836,1.4176],[103.8838,1.4181]]],[[[103.8937,1.4087],[103.8937,1.4087],[103.8935,1.4085],[103.8937,1.4087]]],[[[103.8974,1.4149],[103.8975,1.415],[103.8975,1.415],[103.8974,1.4149],[103.8974,1.4149]]]]}},{"type":"Feature","id":"singapore-area-16","properties":{"name":"Sembawang","province":"Central Region","department":"Singapur","type":"Planning Area","country":"Singapur","iso":"SG"},"geometry":{"type":"Polygon","coordinates":[[[103.8173,1.4708],[103.8222,1.4686],[103.8203,1.4673],[103.8186,1.465],[103.8194,1.4645],[103.8205,1.4661],[103.8228,1.4672],[103.8225,1.466],[103.8234,1.4658],[103.8217,1.4627],[103.8222,1.4624],[103.8243,1.4657],[103.8223,1.4612],[103.8226,1.461],[103.8275,1.4686],[103.8343,1.4647],[103.8319,1.4605],[103.8329,1.46],[103.8353,1.4641],[103.8372,1.4648],[103.8478,1.4605],[103.8331,1.4514],[103.8367,1.4456],[103.8303,1.4416],[103.8282,1.4369],[103.8248,1.4351],[103.823,1.4356],[103.8196,1.4396],[103.8166,1.4419],[103.8072,1.4462],[103.8046,1.4481],[103.8029,1.4503],[103.8005,1.4567],[103.7976,1.4555],[103.795,1.4576],[103.7918,1.462],[103.7971,1.4659],[103.799,1.467],[103.7999,1.4668],[103.803,1.469],[103.8086,1.4706],[103.8097,1.4698],[103.8173,1.4708]]]}},{"type":"Feature","id":"singapore-area-17","properties":{"name":"Bedok","province":"Central Region","department":"Singapur","type":"Planning Area","country":"Singapur","iso":"SG"},"geometry":{"type":"Polygon","coordinates":[[[103.9319,1.3431],[103.9388,1.3364],[103.949,1.3343],[103.9542,1.3266],[103.9604,1.3214],[103.9636,1.3144],[103.9607,1.3138],[103.9557,1.3112],[103.955,1.3116],[103.9534,1.3109],[103.9486,1.3104],[103.9431,1.3085],[103.9412,1.3085],[103.9398,1.3073],[103.9364,1.3064],[103.9336,1.3049],[103.9322,1.3056],[103.9281,1.3037],[103.926,1.3032],[103.9252,1.3036],[103.9238,1.3028],[103.9233,1.3032],[103.9198,1.3018],[103.9183,1.3075],[103.91,1.3055],[103.9052,1.3169],[103.9049,1.3193],[103.9059,1.3268],[103.9055,1.3285],[103.8962,1.3378],[103.8979,1.3404],[103.9021,1.3387],[103.9023,1.3392],[103.9076,1.3392],[103.9085,1.3411],[103.9089,1.3408],[103.913,1.3445],[103.9159,1.3423],[103.9192,1.3457],[103.925,1.3486],[103.9319,1.3431]]]}},{"type":"Feature","id":"singapore-area-18","properties":{"name":"Boon Lay","province":"Central Region","department":"Singapur","type":"Planning Area","country":"Singapur","iso":"SG"},"geometry":{"type":"Polygon","coordinates":[[[103.6973,1.3075],[103.6953,1.3079],[103.6958,1.3067],[103.6969,1.3064],[103.6994,1.3034],[103.6994,1.2995],[103.6962,1.2996],[103.6956,1.3005],[103.6953,1.3032],[103.6944,1.3049],[103.6956,1.3066],[103.6951,1.3079],[103.6935,1.3051],[103.6938,1.3009],[103.691,1.2999],[103.6839,1.2991],[103.6825,1.3089],[103.6816,1.3092],[103.6811,1.3106],[103.69,1.3148],[103.6959,1.3152],[103.6965,1.3278],[103.7067,1.3278],[103.7211,1.3317],[103.7209,1.3292],[103.7192,1.3258],[103.7203,1.3195],[103.7195,1.3143],[103.7098,1.3141],[103.7098,1.3078],[103.7084,1.3076],[103.7085,1.3054],[103.7073,1.3029],[103.7078,1.3021],[103.7024,1.3018],[103.7023,1.304],[103.6993,1.305],[103.6973,1.3075]],[[103.6973,1.3075],[103.6973,1.3075],[103.6973,1.3075],[103.6973,1.3075],[103.6973,1.3075]]]}},{"type":"Feature","id":"singapore-area-19","properties":{"name":"Sengkang","province":"Central Region","department":"Singapur","type":"Planning Area","country":"Singapur","iso":"SG"},"geometry":{"type":"Polygon","coordinates":[[[103.8879,1.4011],[103.8953,1.4001],[103.9004,1.3986],[103.9045,1.3963],[103.9082,1.393],[103.9175,1.3824],[103.9155,1.3799],[103.91,1.3759],[103.9079,1.3787],[103.9051,1.3804],[103.8971,1.3794],[103.8909,1.3803],[103.8837,1.3863],[103.8801,1.3884],[103.8779,1.3887],[103.8728,1.3874],[103.8581,1.3911],[103.8572,1.3965],[103.8552,1.3977],[103.8524,1.3971],[103.8552,1.3992],[103.8556,1.4012],[103.8579,1.4005],[103.8782,1.4014],[103.8879,1.4011]],[[103.8873,1.4009],[103.8859,1.401],[103.8851,1.3979],[103.8865,1.3977],[103.8873,1.4009]],[[103.8863,1.3974],[103.885,1.3976],[103.8838,1.3953],[103.8853,1.395],[103.8863,1.3974]],[[103.8824,1.3939],[103.8824,1.3933],[103.885,1.3947],[103.8832,1.395],[103.8824,1.3939]],[[103.882,1.3936],[103.882,1.3943],[103.8813,1.3938],[103.8809,1.3922],[103.882,1.3922],[103.882,1.3936]],[[103.8811,1.3883],[103.882,1.3911],[103.881,1.3919],[103.8812,1.3901],[103.8804,1.3885],[103.8811,1.3883]]]}},{"type":"Feature","id":"singapore-area-20","properties":{"name":"Serangoon","province":"Central Region","department":"Singapur","type":"Planning Area","country":"Singapur","iso":"SG"},"geometry":{"type":"Polygon","coordinates":[[[103.8824,1.3445],[103.8851,1.3409],[103.877,1.3443],[103.8697,1.3427],[103.8651,1.3443],[103.8604,1.3434],[103.8569,1.3546],[103.8571,1.3572],[103.8609,1.3689],[103.8584,1.3777],[103.8581,1.3911],[103.8731,1.3873],[103.8766,1.3842],[103.8767,1.3714],[103.8759,1.368],[103.8733,1.3622],[103.8742,1.3587],[103.8781,1.3539],[103.8765,1.3524],[103.8792,1.351],[103.8805,1.3469],[103.8824,1.3445]]]}},{"type":"Feature","id":"singapore-area-21","properties":{"name":"Ang Mo Kio","province":"Central Region","department":"Singapur","type":"Planning Area","country":"Singapur","iso":"SG"},"geometry":{"type":"Polygon","coordinates":[[[103.8572,1.3965],[103.858,1.3932],[103.8584,1.3777],[103.8609,1.3692],[103.8569,1.3555],[103.8549,1.3567],[103.8519,1.3607],[103.8476,1.3636],[103.841,1.3646],[103.8319,1.3677],[103.8283,1.368],[103.8283,1.3675],[103.8273,1.3693],[103.828,1.3706],[103.8278,1.3723],[103.8263,1.3735],[103.8263,1.3763],[103.8278,1.3774],[103.8273,1.3791],[103.8257,1.3798],[103.8239,1.3787],[103.8205,1.3805],[103.8178,1.3803],[103.8193,1.3834],[103.8195,1.3853],[103.8187,1.3868],[103.8174,1.3864],[103.8167,1.3869],[103.8184,1.3886],[103.818,1.3899],[103.8188,1.3943],[103.8234,1.3931],[103.8271,1.3929],[103.8427,1.3964],[103.8501,1.3965],[103.8552,1.3977],[103.8572,1.3965]]]}},{"type":"Feature","id":"singapore-area-22","properties":{"name":"Tengah","province":"Central Region","department":"Singapur","type":"Planning Area","country":"Singapur","iso":"SG"},"geometry":{"type":"Polygon","coordinates":[[[103.7376,1.3465],[103.7373,1.346],[103.7366,1.3464],[103.7313,1.3517],[103.7267,1.3543],[103.7233,1.3554],[103.7179,1.3558],[103.7145,1.3572],[103.7062,1.3643],[103.7103,1.3669],[103.723,1.3708],[103.7268,1.3734],[103.7327,1.3789],[103.7384,1.3738],[103.7454,1.3718],[103.7485,1.3691],[103.7443,1.3654],[103.737,1.3566],[103.7367,1.3539],[103.7383,1.3488],[103.7376,1.3465]]]}},{"type":"Feature","id":"singapore-area-23","properties":{"name":"Toa Payoh","province":"Central Region","department":"Singapur","type":"Planning Area","country":"Singapur","iso":"SG"},"geometry":{"type":"Polygon","coordinates":[[[103.8448,1.3439],[103.8543,1.3432],[103.8615,1.3435],[103.8651,1.3443],[103.8695,1.3427],[103.8772,1.3443],[103.8832,1.3412],[103.8851,1.3409],[103.8866,1.3389],[103.8889,1.3336],[103.8798,1.3315],[103.8687,1.3278],[103.8617,1.3305],[103.8566,1.3291],[103.8478,1.3298],[103.8427,1.3296],[103.8406,1.3288],[103.8372,1.3347],[103.8372,1.3395],[103.836,1.3417],[103.841,1.345],[103.8448,1.3439]]]}},{"type":"Feature","id":"singapore-area-24","properties":{"name":"Western Water Catchment","province":"Central Region","department":"Singapur","type":"Planning Area","country":"Singapur","iso":"SG"},"geometry":{"type":"MultiPolygon","coordinates":[[[[103.693,1.4337],[103.6934,1.4326],[103.695,1.4315],[103.6958,1.4277],[103.6971,1.4261],[103.697,1.4243],[103.7001,1.4232],[103.6986,1.4186],[103.7016,1.4181],[103.701,1.4168],[103.7056,1.4122],[103.7129,1.4129],[103.7156,1.4145],[103.7171,1.4134],[103.7186,1.4111],[103.7279,1.4112],[103.7393,1.4223],[103.7421,1.414],[103.7419,1.4083],[103.7433,1.4065],[103.746,1.4055],[103.7436,1.4021],[103.7427,1.3961],[103.7403,1.3915],[103.7403,1.3895],[103.7416,1.3866],[103.724,1.3714],[103.7103,1.3669],[103.7072,1.3651],[103.7022,1.3601],[103.6907,1.3462],[103.6827,1.34],[103.6779,1.3384],[103.6749,1.331],[103.6677,1.328],[103.6654,1.3301],[103.6571,1.3336],[103.652,1.3388],[103.6514,1.3398],[103.6521,1.3424],[103.6517,1.3435],[103.6499,1.3449],[103.647,1.3454],[103.6388,1.3531],[103.6404,1.3581],[103.6407,1.3577],[103.6438,1.3607],[103.6468,1.3676],[103.6491,1.371],[103.6493,1.3726],[103.6511,1.3732],[103.6509,1.3743],[103.6514,1.3747],[103.6527,1.373],[103.6527,1.3746],[103.6536,1.3748],[103.6572,1.3823],[103.657,1.3835],[103.658,1.3833],[103.6575,1.3842],[103.6591,1.3857],[103.6598,1.386],[103.6599,1.385],[103.6602,1.3853],[103.6598,1.387],[103.6616,1.3889],[103.6616,1.3905],[103.6627,1.3925],[103.6624,1.3949],[103.6629,1.3973],[103.6621,1.3987],[103.6627,1.4003],[103.6633,1.4003],[103.6627,1.4007],[103.663,1.4015],[103.6639,1.402],[103.6625,1.4055],[103.6643,1.4063],[103.6651,1.4089],[103.6669,1.4093],[103.6681,1.4087],[103.6706,1.4117],[103.6706,1.4133],[103.6727,1.4138],[103.6715,1.4159],[103.6722,1.418],[103.673,1.4178],[103.6731,1.4185],[103.6723,1.4192],[103.6739,1.4201],[103.6748,1.4193],[103.6744,1.42],[103.6749,1.4207],[103.6741,1.4205],[103.6735,1.422],[103.6743,1.4252],[103.6759,1.4262],[103.6769,1.4261],[103.6766,1.4269],[103.6781,1.4291],[103.679,1.4285],[103.6814,1.4291],[103.6833,1.4312],[103.6858,1.43],[103.6858,1.4314],[103.6863,1.4319],[103.6878,1.4317],[103.6886,1.433],[103.6896,1.4334],[103.693,1.4337]]],[[[103.6611,1.3968],[103.6603,1.3971],[103.6613,1.3992],[103.6619,1.3979],[103.6611,1.3968]]],[[[103.6853,1.4335],[103.6843,1.4342],[103.6854,1.4351],[103.6853,1.4335]]]]}},{"type":"Feature","id":"singapore-area-25","properties":{"name":"Yishun","province":"Central Region","department":"Singapur","type":"Planning Area","country":"Singapur","iso":"SG"},"geometry":{"type":"Polygon","coordinates":[[[103.8556,1.4273],[103.8638,1.4238],[103.8674,1.425],[103.8642,1.4221],[103.8621,1.4186],[103.8614,1.4161],[103.8618,1.4121],[103.8609,1.4098],[103.8551,1.4049],[103.8549,1.4027],[103.8557,1.4008],[103.8554,1.3994],[103.851,1.3966],[103.8427,1.3964],[103.8269,1.3929],[103.8234,1.3931],[103.8164,1.3951],[103.8145,1.3967],[103.8118,1.4027],[103.8088,1.407],[103.8058,1.4144],[103.8104,1.4154],[103.8153,1.4136],[103.8208,1.4143],[103.8231,1.4134],[103.8256,1.4249],[103.8268,1.4283],[103.8258,1.4357],[103.8278,1.4365],[103.8291,1.438],[103.8303,1.4416],[103.8367,1.4456],[103.8441,1.4397],[103.8472,1.4343],[103.8528,1.429],[103.8556,1.4273]],[[103.8573,1.4255],[103.8631,1.423],[103.8634,1.4234],[103.8576,1.4262],[103.8573,1.4255]]]}},{"type":"Feature","id":"singapore-area-26","properties":{"name":"Downtown Core","province":"Central Region","department":"Singapur","type":"Planning Area","country":"Singapur","iso":"SG"},"geometry":{"type":"Polygon","coordinates":[[[103.8634,1.2939],[103.8645,1.294],[103.865,1.2893],[103.8643,1.2885],[103.8616,1.2886],[103.8615,1.2844],[103.8607,1.2817],[103.8525,1.2687],[103.8457,1.2726],[103.8422,1.2726],[103.8415,1.2744],[103.8431,1.2746],[103.8433,1.2757],[103.8445,1.2755],[103.8452,1.2792],[103.8441,1.2806],[103.8448,1.2813],[103.8454,1.2802],[103.8459,1.2807],[103.8476,1.2795],[103.8492,1.2818],[103.8485,1.2822],[103.8497,1.2838],[103.8472,1.2854],[103.8478,1.2864],[103.8495,1.2856],[103.8508,1.2863],[103.8494,1.289],[103.8481,1.2898],[103.8507,1.2946],[103.8559,1.3006],[103.8541,1.303],[103.8562,1.3025],[103.8588,1.3005],[103.861,1.2977],[103.8617,1.2948],[103.8634,1.2939]]]}},{"type":"Feature","id":"singapore-area-27","properties":{"name":"Marina East","province":"Central Region","department":"Singapur","type":"Planning Area","country":"Singapur","iso":"SG"},"geometry":{"type":"MultiPolygon","coordinates":[[[[103.8802,1.2838],[103.8759,1.2808],[103.8774,1.281],[103.8773,1.2805],[103.8753,1.2809],[103.8738,1.2822],[103.8725,1.2813],[103.8736,1.2823],[103.8691,1.2877],[103.8665,1.2936],[103.8645,1.2933],[103.8645,1.294],[103.8716,1.2953],[103.8777,1.2955],[103.8759,1.2937],[103.8754,1.2915],[103.8811,1.2848],[103.8802,1.2838]]],[[[103.8725,1.2813],[103.8725,1.2813],[103.8725,1.2813],[103.8725,1.2813]]],[[[103.865,1.2895],[103.865,1.2896],[103.865,1.2897],[103.865,1.2897],[103.865,1.2897],[103.865,1.2896],[103.865,1.2895]]],[[[103.865,1.2901],[103.865,1.2902],[103.865,1.2902],[103.865,1.2901]]],[[[103.865,1.2902],[103.865,1.2903],[103.865,1.2902],[103.865,1.2902]]],[[[103.8649,1.2906],[103.8649,1.2906],[103.8649,1.2907],[103.8649,1.2906],[103.8649,1.2906]]],[[[103.8649,1.2908],[103.8649,1.291],[103.8648,1.2912],[103.8649,1.291],[103.8649,1.2908]]],[[[103.8648,1.2914],[103.8648,1.2914],[103.8648,1.2915],[103.8648,1.2914],[103.8648,1.2914]]],[[[103.8647,1.2925],[103.8646,1.2926],[103.8646,1.2926],[103.8646,1.2926],[103.8647,1.2925]]],[[[103.8646,1.2931],[103.8646,1.2931],[103.8646,1.2932],[103.8646,1.2931],[103.8646,1.2931]]]]}},{"type":"Feature","id":"singapore-area-28","properties":{"name":"Newton","province":"Central Region","department":"Singapur","type":"Planning Area","country":"Singapur","iso":"SG"},"geometry":{"type":"Polygon","coordinates":[[[103.8458,1.3098],[103.847,1.3081],[103.8466,1.3069],[103.8487,1.3054],[103.8482,1.3035],[103.8459,1.3047],[103.8454,1.3022],[103.8459,1.302],[103.8454,1.3014],[103.8451,1.3017],[103.8443,1.2996],[103.843,1.3],[103.8432,1.301],[103.8412,1.3028],[103.8398,1.3033],[103.8392,1.3016],[103.8377,1.3023],[103.8377,1.3038],[103.8368,1.3047],[103.8353,1.3042],[103.834,1.3051],[103.8337,1.306],[103.8359,1.3068],[103.8351,1.3084],[103.8355,1.3091],[103.8349,1.3095],[103.8342,1.3098],[103.8332,1.308],[103.8317,1.308],[103.8313,1.3071],[103.8282,1.3082],[103.8278,1.3075],[103.8267,1.3091],[103.828,1.3121],[103.8294,1.3126],[103.8353,1.3174],[103.8395,1.3127],[103.8458,1.3098]]]}},{"type":"Feature","id":"singapore-area-29","properties":{"name":"Orchard","province":"Central Region","department":"Singapur","type":"Planning Area","country":"Singapur","iso":"SG"},"geometry":{"type":"Polygon","coordinates":[[[103.8353,1.3081],[103.8359,1.3068],[103.8337,1.306],[103.8339,1.3052],[103.8353,1.3042],[103.8368,1.3047],[103.8377,1.3038],[103.8377,1.3023],[103.8392,1.3016],[103.8398,1.3033],[103.8412,1.3028],[103.8432,1.301],[103.8428,1.2994],[103.8416,1.2998],[103.8414,1.2991],[103.8397,1.2992],[103.8388,1.2982],[103.8378,1.2985],[103.8374,1.2997],[103.8348,1.3004],[103.8316,1.3034],[103.8293,1.3046],[103.8234,1.3027],[103.8234,1.3042],[103.8227,1.3051],[103.8251,1.3056],[103.8282,1.3082],[103.8313,1.3071],[103.8317,1.308],[103.8332,1.308],[103.8342,1.3098],[103.8355,1.3091],[103.8353,1.3081]]]}},{"type":"Feature","id":"singapore-area-30","properties":{"name":"Woodlands","province":"Central Region","department":"Singapur","type":"Planning Area","country":"Singapur","iso":"SG"},"geometry":{"type":"Polygon","coordinates":[[[103.7766,1.4514],[103.7835,1.4556],[103.7857,1.4579],[103.7918,1.462],[103.795,1.4576],[103.7976,1.4555],[103.8005,1.4567],[103.8035,1.4492],[103.8072,1.4462],[103.8117,1.4443],[103.8115,1.4424],[103.8105,1.4404],[103.795,1.4226],[103.7885,1.4258],[103.7825,1.4266],[103.7762,1.425],[103.7713,1.4215],[103.7709,1.4254],[103.7688,1.4319],[103.7684,1.4405],[103.7668,1.4407],[103.7644,1.4434],[103.7671,1.4442],[103.7674,1.4464],[103.7696,1.4487],[103.7699,1.4498],[103.7691,1.4525],[103.7694,1.4527],[103.7708,1.4485],[103.7766,1.4514]],[[103.7767,1.4515],[103.7767,1.4515],[103.7767,1.4515],[103.7767,1.4515]],[[103.7804,1.4538],[103.7806,1.4539],[103.7806,1.454],[103.7804,1.4538]]]}},{"type":"Feature","id":"singapore-area-31","properties":{"name":"Marina South","province":"Central Region","department":"Singapur","type":"Planning Area","country":"Singapur","iso":"SG"},"geometry":{"type":"MultiPolygon","coordinates":[[[[103.8725,1.2813],[103.8725,1.2813],[103.8725,1.2813],[103.8725,1.2813]]],[[[103.8725,1.2813],[103.8714,1.2805],[103.8721,1.2785],[103.8717,1.2769],[103.8664,1.2728],[103.8584,1.278],[103.8613,1.2835],[103.8616,1.2886],[103.8617,1.2861],[103.8667,1.2842],[103.8714,1.2806],[103.8725,1.2813]]],[[[103.8619,1.2886],[103.862,1.2886],[103.8619,1.2886],[103.8619,1.2886]]],[[[103.8626,1.2885],[103.8626,1.2885],[103.8627,1.2885],[103.8626,1.2885],[103.8626,1.2885]]]]}},{"type":"Feature","id":"singapore-area-32","properties":{"name":"Museum","province":"Central Region","department":"Singapur","type":"Planning Area","country":"Singapur","iso":"SG"},"geometry":{"type":"Polygon","coordinates":[[[103.8457,1.3009],[103.8464,1.3001],[103.8489,1.3],[103.8495,1.2986],[103.8523,1.2964],[103.8505,1.2944],[103.8483,1.2901],[103.8419,1.2944],[103.8433,1.2967],[103.8422,1.2987],[103.8414,1.2991],[103.8416,1.2998],[103.8443,1.2996],[103.8451,1.3017],[103.8457,1.3009]]]}},{"type":"Feature","id":"singapore-area-33","properties":{"name":"Hougang","province":"Central Region","department":"Singapur","type":"Planning Area","country":"Singapur","iso":"SG"},"geometry":{"type":"Polygon","coordinates":[[[103.8815,1.3877],[103.8909,1.3803],[103.8971,1.3794],[103.9051,1.3804],[103.9079,1.3787],[103.91,1.3759],[103.9062,1.365],[103.902,1.3572],[103.8985,1.3562],[103.897,1.3535],[103.8957,1.354],[103.8935,1.3488],[103.8938,1.3478],[103.8962,1.3468],[103.8984,1.3474],[103.8992,1.3439],[103.8985,1.3412],[103.8947,1.3363],[103.8889,1.3336],[103.8866,1.3389],[103.8834,1.3425],[103.8805,1.3469],[103.8792,1.351],[103.8765,1.3524],[103.8781,1.3539],[103.8742,1.3587],[103.8733,1.3622],[103.8761,1.3688],[103.877,1.3756],[103.8767,1.3839],[103.8731,1.3873],[103.8781,1.3887],[103.8815,1.3877]],[[103.8797,1.3856],[103.8809,1.3875],[103.8803,1.3882],[103.8802,1.3865],[103.8783,1.3852],[103.8775,1.3834],[103.8797,1.3856]],[[103.8772,1.383],[103.8773,1.3834],[103.8772,1.383],[103.8772,1.383]]]}},{"type":"Feature","id":"singapore-area-34","properties":{"name":"Jurong East","province":"Central Region","department":"Singapur","type":"Planning Area","country":"Singapur","iso":"SG"},"geometry":{"type":"MultiPolygon","coordinates":[[[[103.7119,1.2986],[103.7119,1.2974],[103.7113,1.2974],[103.7114,1.3072],[103.7108,1.3084],[103.7098,1.3078],[103.7098,1.3141],[103.7195,1.3143],[103.7203,1.3195],[103.7196,1.3236],[103.726,1.325],[103.7248,1.3287],[103.725,1.337],[103.7232,1.3403],[103.7216,1.3416],[103.7214,1.3428],[103.7219,1.3449],[103.7282,1.3444],[103.7281,1.3536],[103.7321,1.3511],[103.7373,1.346],[103.7435,1.3445],[103.7494,1.3413],[103.7486,1.3395],[103.75,1.3271],[103.7522,1.3229],[103.7476,1.3137],[103.7477,1.3099],[103.7479,1.3093],[103.7502,1.3092],[103.7528,1.3076],[103.7573,1.2984],[103.7554,1.2971],[103.7491,1.2965],[103.7442,1.2981],[103.7439,1.2991],[103.7448,1.3009],[103.7434,1.3013],[103.7409,1.2988],[103.7297,1.3016],[103.7276,1.3003],[103.7225,1.3028],[103.7158,1.3084],[103.7134,1.3084],[103.7122,1.3084],[103.7125,1.3065],[103.7154,1.3059],[103.7209,1.3012],[103.7204,1.2998],[103.7227,1.2996],[103.7119,1.2996],[103.7119,1.2986]],[[103.7204,1.2995],[103.7204,1.2995],[103.7204,1.2995],[103.7204,1.2995]],[[103.7119,1.2996],[103.7119,1.2996],[103.7119,1.2996],[103.7119,1.2996]],[[103.756,1.2976],[103.756,1.2975],[103.7561,1.2977],[103.756,1.2976]],[[103.756,1.2975],[103.756,1.2975],[103.756,1.2975],[103.756,1.2975]],[[103.7117,1.3079],[103.712,1.309],[103.7112,1.3087],[103.7117,1.3079]]],[[[103.7098,1.3078],[103.7098,1.3078],[103.7098,1.3078],[103.7098,1.3078],[103.7098,1.3078]]]]}},{"type":"Feature","id":"singapore-area-35","properties":{"name":"Lim Chu Kang","province":"Central Region","department":"Singapur","type":"Planning Area","country":"Singapur","iso":"SG"},"geometry":{"type":"Polygon","coordinates":[[[103.7225,1.4512],[103.7291,1.4507],[103.7314,1.4489],[103.7316,1.4481],[103.7311,1.449],[103.7306,1.4479],[103.7326,1.4471],[103.7312,1.4461],[103.7328,1.4468],[103.7321,1.4462],[103.7335,1.4462],[103.7338,1.4452],[103.7346,1.4453],[103.7379,1.4428],[103.738,1.4421],[103.7366,1.4404],[103.737,1.4377],[103.7376,1.4374],[103.7385,1.4383],[103.7408,1.4383],[103.7432,1.4318],[103.7433,1.4264],[103.7281,1.4112],[103.7186,1.4111],[103.7171,1.4134],[103.7156,1.4145],[103.7129,1.4129],[103.7053,1.4123],[103.701,1.4168],[103.7016,1.4181],[103.6986,1.4186],[103.7001,1.4232],[103.697,1.4243],[103.6971,1.4261],[103.6958,1.4277],[103.695,1.4315],[103.6934,1.4326],[103.693,1.4337],[103.6961,1.435],[103.7001,1.4396],[103.7025,1.441],[103.7065,1.4448],[103.7066,1.4459],[103.7073,1.4454],[103.7099,1.4478],[103.7128,1.4494],[103.7196,1.4511],[103.7225,1.4512]],[[103.7068,1.4451],[103.7068,1.4451],[103.7067,1.4451],[103.7068,1.4451]]]}},{"type":"Feature","id":"singapore-area-36","properties":{"name":"Mandai","province":"Central Region","department":"Singapur","type":"Planning Area","country":"Singapur","iso":"SG"},"geometry":{"type":"Polygon","coordinates":[[[103.8244,1.4351],[103.8259,1.4354],[103.8268,1.4283],[103.8256,1.4249],[103.8231,1.4134],[103.8208,1.4143],[103.8153,1.4136],[103.8104,1.4154],[103.8061,1.4143],[103.8024,1.4162],[103.7832,1.4109],[103.7772,1.4109],[103.7717,1.41],[103.7713,1.4215],[103.7762,1.425],[103.7825,1.4266],[103.7885,1.4258],[103.795,1.4226],[103.8105,1.4404],[103.8117,1.4443],[103.8175,1.4413],[103.8229,1.4357],[103.8244,1.4351]]]}},{"type":"Feature","id":"singapore-area-37","properties":{"name":"Marine Parade","province":"Central Region","department":"Singapur","type":"Planning Area","country":"Singapur","iso":"SG"},"geometry":{"type":"Polygon","coordinates":[[[103.9081,1.3098],[103.91,1.3055],[103.9183,1.3075],[103.9195,1.302],[103.9175,1.3018],[103.9119,1.2992],[103.8988,1.2954],[103.8949,1.2932],[103.8933,1.2935],[103.8901,1.2904],[103.8887,1.2908],[103.8854,1.2878],[103.8839,1.2879],[103.8811,1.2848],[103.8755,1.2913],[103.8759,1.2937],[103.8777,1.2955],[103.8853,1.2958],[103.8855,1.3012],[103.8838,1.3046],[103.8846,1.3054],[103.8896,1.3063],[103.8901,1.3071],[103.8897,1.3086],[103.8946,1.3096],[103.9015,1.3095],[103.9067,1.3133],[103.9081,1.3098]]]}},{"type":"Feature","id":"singapore-area-38","properties":{"name":"North-Eastern Islands","province":"Central Region","department":"Singapur","type":"Planning Area","country":"Singapur","iso":"SG"},"geometry":{"type":"MultiPolygon","coordinates":[[[[103.928,1.4197],[103.9275,1.4218],[103.9264,1.4224],[103.9264,1.4237],[103.9292,1.4243],[103.9305,1.4261],[103.9324,1.4267],[103.9337,1.4281],[103.9429,1.4243],[103.9458,1.4239],[103.9481,1.4226],[103.9495,1.4204],[103.9533,1.4187],[103.9536,1.4192],[103.9554,1.4191],[103.956,1.4177],[103.9614,1.4177],[103.9704,1.4197],[103.9729,1.4192],[103.9742,1.4182],[103.9757,1.4184],[103.9788,1.4176],[103.9836,1.4179],[103.9857,1.4191],[103.9939,1.4193],[103.997,1.418],[103.9992,1.4156],[104.0013,1.4106],[104.0031,1.4038],[104.0015,1.4028],[103.9964,1.4041],[103.9887,1.4041],[103.9881,1.4027],[103.987,1.4041],[103.9782,1.4042],[103.9747,1.4025],[103.9729,1.4035],[103.9707,1.4021],[103.9697,1.4024],[103.9682,1.4011],[103.9584,1.3995],[103.9556,1.4028],[103.9549,1.4049],[103.9535,1.4058],[103.9505,1.4056],[103.9487,1.409],[103.9489,1.4099],[103.9411,1.4127],[103.939,1.4143],[103.9377,1.4142],[103.9369,1.4152],[103.9344,1.4157],[103.9337,1.4172],[103.9307,1.4172],[103.928,1.4197]],[[103.928,1.4197],[103.9281,1.4197],[103.9281,1.4197],[103.928,1.4197]]],[[[104.0541,1.4323],[104.0548,1.4313],[104.0558,1.4318],[104.0583,1.4316],[104.0698,1.4271],[104.0805,1.419],[104.0851,1.4101],[104.0851,1.409],[104.0837,1.4072],[104.0866,1.4063],[104.0882,1.4039],[104.0884,1.3998],[104.0877,1.3962],[104.0795,1.3811],[104.0762,1.3716],[104.0746,1.3631],[104.0747,1.3583],[104.0755,1.3548],[104.0841,1.3405],[104.084,1.3388],[104.0826,1.3376],[104.0805,1.338],[104.0216,1.3887],[104.0178,1.3943],[104.0155,1.4012],[104.0165,1.402],[104.0249,1.4018],[104.0285,1.4031],[104.0296,1.4047],[104.0283,1.4081],[104.0302,1.4114],[104.0286,1.4121],[104.027,1.412],[104.0246,1.4095],[104.0224,1.4086],[104.0144,1.409],[104.0122,1.4108],[104.0093,1.4187],[104.0091,1.4225],[104.0108,1.4259],[104.0213,1.4354],[104.0245,1.4371],[104.0364,1.4405],[104.0404,1.4406],[104.0437,1.4396],[104.0468,1.435],[104.0536,1.4338],[104.0543,1.4332],[104.0541,1.4323]]],[[[103.947,1.4076],[103.9496,1.4042],[103.9536,1.403],[103.9545,1.3995],[103.9541,1.3986],[103.9523,1.3997],[103.9448,1.4069],[103.9441,1.4082],[103.947,1.4076]]],[[[104.0645,1.4355],[104.0647,1.436],[104.0645,1.4355],[104.0645,1.4355]]]]}},{"type":"Feature","id":"singapore-area-39","properties":{"name":"Pioneer","province":"Central Region","department":"Singapur","type":"Planning Area","country":"Singapur","iso":"SG"},"geometry":{"type":"Polygon","coordinates":[[[103.6759,1.3305],[103.6795,1.3302],[103.6793,1.3278],[103.6965,1.3278],[103.6959,1.3152],[103.69,1.3148],[103.6811,1.3106],[103.6816,1.3092],[103.6807,1.3084],[103.6819,1.298],[103.6784,1.2966],[103.673,1.3026],[103.6727,1.3068],[103.6688,1.3063],[103.6695,1.3004],[103.6743,1.2954],[103.6666,1.2887],[103.6647,1.2919],[103.6586,1.2949],[103.659,1.2957],[103.6577,1.2968],[103.6566,1.2959],[103.6559,1.2967],[103.6568,1.2975],[103.6538,1.301],[103.6518,1.2994],[103.6498,1.3017],[103.6575,1.3101],[103.6571,1.3111],[103.6582,1.3123],[103.6559,1.3145],[103.6629,1.322],[103.6661,1.3266],[103.6715,1.33],[103.6749,1.331],[103.6759,1.3305]],[[103.6526,1.3047],[103.6526,1.3047],[103.6526,1.3047],[103.6526,1.3047]]]}},{"type":"Feature","id":"singapore-area-40","properties":{"name":"Punggol","province":"Central Region","department":"Singapur","type":"Planning Area","country":"Singapur","iso":"SG"},"geometry":{"type":"MultiPolygon","coordinates":[[[[103.913,1.42],[103.9139,1.4184],[103.9141,1.4162],[103.9163,1.4172],[103.9187,1.415],[103.9191,1.4136],[103.9235,1.4112],[103.9312,1.403],[103.9298,1.4016],[103.9302,1.4006],[103.9296,1.4004],[103.9296,1.4016],[103.9288,1.402],[103.928,1.4035],[103.9239,1.4044],[103.9232,1.4036],[103.9245,1.4028],[103.9246,1.4013],[103.9256,1.4006],[103.9257,1.3998],[103.9238,1.3986],[103.9244,1.398],[103.9233,1.3983],[103.9216,1.397],[103.9221,1.3963],[103.9216,1.397],[103.9198,1.3954],[103.9189,1.3941],[103.9196,1.394],[103.9165,1.3903],[103.9143,1.3859],[103.9074,1.3939],[103.9013,1.3982],[103.8953,1.4001],[103.8868,1.4012],[103.8877,1.4015],[103.8886,1.404],[103.8927,1.4066],[103.8933,1.4072],[103.8929,1.4079],[103.8935,1.4075],[103.8959,1.4094],[103.8975,1.4133],[103.8982,1.4139],[103.8991,1.4136],[103.8982,1.414],[103.8975,1.4134],[103.8979,1.4142],[103.8972,1.4145],[103.8975,1.415],[103.8981,1.4147],[103.8994,1.4171],[103.9012,1.4187],[103.904,1.4202],[103.907,1.42],[103.9079,1.421],[103.9107,1.4215],[103.9126,1.4211],[103.913,1.42]],[[103.9236,1.4045],[103.9219,1.4066],[103.9181,1.4091],[103.9166,1.4117],[103.9151,1.4161],[103.9142,1.416],[103.9148,1.4128],[103.9171,1.4085],[103.9161,1.407],[103.9172,1.4084],[103.9213,1.4047],[103.9206,1.4035],[103.9214,1.4046],[103.923,1.4038],[103.9236,1.4045]]],[[[103.921,1.3953],[103.9206,1.395],[103.921,1.3953],[103.921,1.3953]]],[[[103.8871,1.4032],[103.8871,1.4032],[103.8871,1.4032],[103.8871,1.4032]]],[[[103.8937,1.4087],[103.8937,1.4087],[103.8938,1.4088],[103.8937,1.4087]]],[[[103.895,1.4103],[103.895,1.4103],[103.8951,1.4103],[103.895,1.4103]]]]}},{"type":"Feature","id":"singapore-area-41","properties":{"name":"Queenstown","province":"Central Region","department":"Singapur","type":"Planning Area","country":"Singapur","iso":"SG"},"geometry":{"type":"Polygon","coordinates":[[[103.7847,1.311],[103.7853,1.3111],[103.7858,1.3136],[103.7848,1.315],[103.7867,1.3158],[103.7896,1.3133],[103.7912,1.3103],[103.7912,1.3113],[103.7931,1.3134],[103.794,1.3128],[103.7944,1.3103],[103.7968,1.3096],[103.799,1.308],[103.7998,1.3097],[103.8032,1.3067],[103.8039,1.3025],[103.8048,1.3005],[103.8077,1.2997],[103.8084,1.3003],[103.8089,1.2996],[103.8086,1.2984],[103.8105,1.2968],[103.8166,1.2968],[103.8154,1.2915],[103.809,1.2925],[103.8051,1.288],[103.803,1.2866],[103.8013,1.2832],[103.8031,1.2789],[103.802,1.2753],[103.8022,1.2727],[103.8016,1.2728],[103.7983,1.2666],[103.794,1.2692],[103.7855,1.255],[103.7786,1.2592],[103.7866,1.2728],[103.7769,1.2787],[103.7707,1.2682],[103.7502,1.2806],[103.753,1.2853],[103.7565,1.2859],[103.7691,1.2783],[103.7723,1.2836],[103.7607,1.2906],[103.7631,1.2945],[103.7587,1.2992],[103.7623,1.3013],[103.7667,1.2922],[103.7674,1.2916],[103.7691,1.2939],[103.7723,1.3121],[103.7712,1.3187],[103.7787,1.3131],[103.7847,1.311]]]}},{"type":"Feature","id":"singapore-area-42","properties":{"name":"Southern Islands","province":"Central Region","department":"Singapur","type":"Planning Area","country":"Singapur","iso":"SG"},"geometry":{"type":"MultiPolygon","coordinates":[[[[103.8233,1.2575],[103.8236,1.2567],[103.8236,1.2584],[103.824,1.2582],[103.824,1.2563],[103.8271,1.2547],[103.8321,1.2547],[103.8352,1.2532],[103.8372,1.2532],[103.8384,1.2541],[103.8415,1.2537],[103.8423,1.2522],[103.8465,1.2532],[103.8484,1.2521],[103.8482,1.2512],[103.844,1.2448],[103.8397,1.2404],[103.8372,1.2387],[103.8364,1.2386],[103.8371,1.2392],[103.8367,1.2394],[103.8326,1.2379],[103.8298,1.2396],[103.8304,1.2406],[103.8286,1.2425],[103.8274,1.2428],[103.8272,1.2419],[103.8235,1.2458],[103.8233,1.2465],[103.8238,1.2462],[103.8241,1.2468],[103.8237,1.2476],[103.821,1.2497],[103.82,1.2496],[103.8205,1.2492],[103.8199,1.2488],[103.8177,1.25],[103.816,1.2513],[103.8158,1.2523],[103.8149,1.2526],[103.811,1.2561],[103.81,1.2562],[103.8109,1.2552],[103.8105,1.2548],[103.8067,1.2594],[103.8088,1.2601],[103.8147,1.2588],[103.8179,1.26],[103.8197,1.2589],[103.8201,1.2592],[103.8212,1.2577],[103.8213,1.2584],[103.823,1.2576],[103.8232,1.2586],[103.8233,1.2575]],[[103.8233,1.2575],[103.8231,1.2576],[103.8231,1.2576],[103.8232,1.2575],[103.8232,1.2575],[103.8232,1.2575],[103.8232,1.2575],[103.8233,1.2575]],[[103.8235,1.2565],[103.8235,1.2565],[103.8236,1.2565],[103.8236,1.2565],[103.8236,1.2565],[103.8236,1.2566],[103.8236,1.2566],[103.8236,1.2566],[103.8235,1.2566],[103.8235,1.2566],[103.8235,1.2565],[103.8235,1.2565],[103.8235,1.2565]]],[[[103.8487,1.2309],[103.8495,1.2297],[103.8517,1.2306],[103.851,1.2309],[103.8513,1.2315],[103.8578,1.2323],[103.8584,1.2319],[103.8574,1.2294],[103.8549,1.2285],[103.855,1.229],[103.8541,1.2291],[103.8532,1.2275],[103.8541,1.2256],[103.8552,1.2256],[103.8551,1.2262],[103.8559,1.2259],[103.8563,1.2236],[103.8583,1.2219],[103.8594,1.2198],[103.8583,1.2199],[103.8579,1.2187],[103.8584,1.2182],[103.857,1.2176],[103.8573,1.2179],[103.8525,1.2227],[103.8513,1.2209],[103.8516,1.2191],[103.8516,1.2197],[103.8508,1.2195],[103.8511,1.2175],[103.8516,1.2178],[103.8512,1.2152],[103.8521,1.2149],[103.8522,1.2141],[103.8516,1.2134],[103.8493,1.2149],[103.8432,1.2222],[103.8455,1.2235],[103.8486,1.2221],[103.8483,1.2215],[103.8502,1.2205],[103.8506,1.221],[103.8498,1.2216],[103.8512,1.221],[103.8524,1.2242],[103.8502,1.2258],[103.8511,1.2265],[103.8522,1.2263],[103.8521,1.2279],[103.8502,1.2278],[103.85,1.2291],[103.8481,1.2267],[103.8468,1.2265],[103.847,1.2273],[103.849,1.2281],[103.8494,1.2295],[103.8482,1.2309],[103.8481,1.2302],[103.8474,1.2302],[103.8455,1.2321],[103.8459,1.2325],[103.8485,1.2317],[103.8487,1.2309]],[[103.8592,1.2205],[103.8592,1.2205],[103.8592,1.2205],[103.8592,1.2205]],[[103.8523,1.2229],[103.8523,1.2229],[103.8523,1.2229],[103.8523,1.2229]],[[103.8485,1.2307],[103.8486,1.2307],[103.8486,1.2307],[103.8485,1.2307]]],[[[103.8554,1.2409],[103.8552,1.2395],[103.8541,1.2389],[103.8502,1.2405],[103.846,1.2377],[103.8447,1.2384],[103.8452,1.2398],[103.8493,1.2425],[103.8521,1.2455],[103.8542,1.2441],[103.8554,1.2409]]],[[[103.8406,1.2287],[103.8398,1.2275],[103.8372,1.229],[103.8353,1.2329],[103.836,1.2348],[103.8377,1.2342],[103.8393,1.2322],[103.8406,1.2287]]],[[[103.8606,1.2243],[103.8614,1.2246],[103.8609,1.225],[103.8613,1.2247],[103.8625,1.2228],[103.8628,1.2219],[103.862,1.2208],[103.8614,1.221],[103.862,1.2208],[103.8626,1.2216],[103.8604,1.2226],[103.8606,1.222],[103.8596,1.2234],[103.8604,1.2237],[103.8596,1.224],[103.8592,1.2234],[103.858,1.2248],[103.8591,1.2254],[103.8606,1.2243]]],[[[103.835,1.2156],[103.8366,1.214],[103.836,1.2143],[103.8351,1.2128],[103.8355,1.2126],[103.8343,1.2123],[103.8334,1.2135],[103.835,1.2156]],[[103.835,1.2152],[103.8351,1.2153],[103.835,1.2152],[103.8349,1.2151],[103.835,1.2152]]],[[[103.8321,1.217],[103.8337,1.2163],[103.8325,1.2148],[103.8318,1.2156],[103.8321,1.217]],[[103.8327,1.2149],[103.8327,1.2149],[103.8326,1.2148],[103.8327,1.2149]],[[103.8323,1.217],[103.8323,1.2169],[103.8323,1.217],[103.8323,1.217]],[[103.8321,1.2163],[103.832,1.2162],[103.8321,1.2163],[103.8322,1.2164],[103.8321,1.2163]]],[[[103.8159,1.2491],[103.8161,1.2485],[103.8148,1.249],[103.8143,1.25],[103.8159,1.2491]]],[[[103.8145,1.2602],[103.8147,1.2595],[103.8131,1.2596],[103.8145,1.2602]]],[[[103.8223,1.2473],[103.8212,1.2484],[103.8223,1.2473],[103.8223,1.2473]]],[[[103.8127,1.2537],[103.8135,1.253],[103.8127,1.2537],[103.8127,1.2537]]],[[[103.8142,1.2526],[103.815,1.252],[103.8142,1.2526],[103.8142,1.2526]]],[[[103.8289,1.2406],[103.8282,1.2413],[103.8289,1.2406],[103.8289,1.2406]]],[[[103.8112,1.2548],[103.812,1.2541],[103.8112,1.2548],[103.8112,1.2548]]],[[[103.836,1.2127],[103.8366,1.2135],[103.836,1.2127],[103.836,1.2127]]],[[[103.8599,1.2254],[103.8605,1.2251],[103.8599,1.2254],[103.8599,1.2254]]],[[[103.8609,1.2217],[103.8612,1.2213],[103.8609,1.2217],[103.8609,1.2217]]]]}},{"type":"Feature","id":"singapore-area-43","properties":{"name":"Tuas","province":"Central Region","department":"Singapur","type":"Planning Area","country":"Singapur","iso":"SG"},"geometry":{"type":"MultiPolygon","coordinates":[[[[103.6392,1.3527],[103.647,1.3454],[103.6499,1.3449],[103.6517,1.3435],[103.6521,1.3424],[103.6514,1.3398],[103.652,1.3388],[103.6571,1.3336],[103.6654,1.3301],[103.6677,1.328],[103.6559,1.3145],[103.6582,1.3123],[103.6571,1.3111],[103.6561,1.3115],[103.6505,1.3056],[103.6493,1.3054],[103.6468,1.3078],[103.6463,1.309],[103.6519,1.3148],[103.6517,1.3157],[103.6498,1.3174],[103.6436,1.3115],[103.6408,1.313],[103.6376,1.3162],[103.6345,1.312],[103.645,1.3006],[103.6465,1.2918],[103.6501,1.2845],[103.6497,1.2816],[103.6477,1.2796],[103.6404,1.2791],[103.6397,1.2698],[103.6434,1.2698],[103.6434,1.2609],[103.6173,1.2609],[103.6173,1.254],[103.6444,1.254],[103.6444,1.248],[103.6378,1.245],[103.6173,1.245],[103.6173,1.2382],[103.6498,1.2382],[103.6498,1.2292],[103.6173,1.2292],[103.6173,1.2216],[103.6569,1.2216],[103.6586,1.2172],[103.6481,1.2133],[103.6428,1.2107],[103.6093,1.219],[103.6067,1.2206],[103.6057,1.223],[103.6057,1.2437],[103.6124,1.2437],[103.6124,1.2464],[103.6088,1.2464],[103.6088,1.2529],[103.612,1.2529],[103.612,1.2557],[103.6097,1.2557],[103.6097,1.2602],[103.6057,1.2602],[103.6059,1.2622],[103.6114,1.277],[103.6128,1.2784],[103.6174,1.2805],[103.6199,1.284],[103.6202,1.2878],[103.6182,1.2933],[103.6175,1.2934],[103.6178,1.2967],[103.618,1.2963],[103.6181,1.2972],[103.6187,1.2971],[103.6315,1.3312],[103.6348,1.3408],[103.6345,1.3423],[103.6365,1.3454],[103.6364,1.3459],[103.6354,1.3455],[103.6346,1.3463],[103.6341,1.348],[103.6345,1.3497],[103.6332,1.3506],[103.6346,1.3499],[103.6371,1.3517],[103.6382,1.3505],[103.6388,1.3531],[103.6392,1.3527]]],[[[103.6481,1.2399],[103.6488,1.2395],[103.6477,1.2393],[103.6481,1.2399]]],[[[103.6476,1.2395],[103.6476,1.2395],[103.6475,1.2395],[103.6475,1.2396],[103.6475,1.2397],[103.6476,1.2397],[103.6477,1.2397],[103.6477,1.2397],[103.6476,1.2397],[103.6476,1.2396],[103.6476,1.2395]]]]}},{"type":"Feature","id":"singapore-area-44","properties":{"name":"Jurong West","province":"Central Region","department":"Singapur","type":"Planning Area","country":"Singapur","iso":"SG"},"geometry":{"type":"Polygon","coordinates":[[[103.7282,1.3481],[103.7282,1.3444],[103.7219,1.3449],[103.7214,1.3428],[103.7216,1.3416],[103.7232,1.3403],[103.725,1.337],[103.7248,1.3287],[103.726,1.325],[103.7196,1.3236],[103.7192,1.3258],[103.7209,1.3292],[103.7211,1.3317],[103.7067,1.3278],[103.6793,1.3278],[103.6795,1.3302],[103.6749,1.331],[103.6779,1.3384],[103.6827,1.34],[103.6907,1.3462],[103.7062,1.3643],[103.7149,1.357],[103.7185,1.3557],[103.724,1.3553],[103.7281,1.3536],[103.7282,1.3481]]]}},{"type":"Feature","id":"singapore-area-45","properties":{"name":"Kallang","province":"Central Region","department":"Singapur","type":"Planning Area","country":"Singapur","iso":"SG"},"geometry":{"type":"Polygon","coordinates":[[[103.8628,1.3303],[103.8698,1.3271],[103.8759,1.3201],[103.8747,1.3164],[103.876,1.3088],[103.881,1.3069],[103.8843,1.304],[103.8855,1.3012],[103.8853,1.2958],[103.8728,1.2954],[103.8627,1.294],[103.8615,1.295],[103.861,1.2976],[103.8594,1.2998],[103.8623,1.3016],[103.8596,1.3058],[103.8545,1.3106],[103.8554,1.3118],[103.8544,1.3136],[103.8531,1.312],[103.8526,1.3124],[103.8488,1.3066],[103.8458,1.3098],[103.8443,1.3106],[103.8455,1.3143],[103.8467,1.3159],[103.8557,1.3211],[103.8612,1.3266],[103.8624,1.3304],[103.8628,1.3303]]]}},{"type":"Feature","id":"singapore-area-46","properties":{"name":"Simpang","province":"Central Region","department":"Singapur","type":"Planning Area","country":"Singapur","iso":"SG"},"geometry":{"type":"MultiPolygon","coordinates":[[[[103.8635,1.4343],[103.8653,1.4343],[103.8647,1.432],[103.8578,1.4265],[103.862,1.4245],[103.8541,1.4281],[103.8468,1.4347],[103.8441,1.4397],[103.8369,1.4454],[103.8331,1.4514],[103.8478,1.4605],[103.8542,1.4575],[103.8583,1.4547],[103.8577,1.4536],[103.855,1.4525],[103.8588,1.4424],[103.8634,1.4364],[103.8628,1.436],[103.8635,1.4343]]],[[[103.8724,1.44],[103.8722,1.4379],[103.8695,1.4358],[103.8675,1.4353],[103.8656,1.436],[103.8617,1.4416],[103.8599,1.443],[103.8597,1.4459],[103.8578,1.4497],[103.8576,1.4514],[103.8604,1.4527],[103.8615,1.4525],[103.8724,1.44]]]]}},{"type":"Feature","id":"singapore-area-47","properties":{"name":"Sungei Kadut","province":"Central Region","department":"Singapur","type":"Planning Area","country":"Singapur","iso":"SG"},"geometry":{"type":"Polygon","coordinates":[[[103.7582,1.4434],[103.7621,1.4443],[103.7652,1.443],[103.7668,1.4407],[103.7684,1.4405],[103.7688,1.4319],[103.7711,1.424],[103.7715,1.4115],[103.7736,1.4013],[103.7745,1.3903],[103.765,1.3908],[103.7581,1.389],[103.7533,1.389],[103.752,1.3984],[103.7528,1.4028],[103.7525,1.4038],[103.751,1.4049],[103.7441,1.4061],[103.7418,1.4085],[103.7421,1.414],[103.7393,1.4223],[103.7433,1.4264],[103.7434,1.4303],[103.7408,1.4383],[103.7385,1.4383],[103.7372,1.4374],[103.7375,1.4402],[103.7382,1.4411],[103.7387,1.4389],[103.7427,1.4393],[103.743,1.4387],[103.7429,1.4455],[103.744,1.4463],[103.7582,1.4434]]]}},{"type":"Feature","id":"singapore-area-48","properties":{"name":"Tampines","province":"Central Region","department":"Singapur","type":"Planning Area","country":"Singapur","iso":"SG"},"geometry":{"type":"Polygon","coordinates":[[[103.9706,1.3415],[103.9798,1.3368],[103.9796,1.3364],[103.9847,1.3345],[103.9796,1.3222],[103.9805,1.3209],[103.9848,1.319],[103.9838,1.3167],[103.9828,1.3163],[103.9793,1.3166],[103.9767,1.3154],[103.9766,1.3162],[103.9705,1.3159],[103.9642,1.3141],[103.9604,1.3214],[103.9542,1.3266],[103.949,1.3343],[103.9384,1.3367],[103.9298,1.3452],[103.925,1.3486],[103.9308,1.3594],[103.9304,1.3719],[103.9319,1.3758],[103.9407,1.3712],[103.9446,1.368],[103.9549,1.365],[103.9591,1.3626],[103.9621,1.3587],[103.9653,1.3497],[103.9706,1.3415]]]}},{"type":"Feature","id":"singapore-area-49","properties":{"name":"Western Islands","province":"Central Region","department":"Singapur","type":"Planning Area","country":"Singapur","iso":"SG"},"geometry":{"type":"MultiPolygon","coordinates":[[[[103.7125,1.2916],[103.7174,1.2907],[103.7182,1.292],[103.7198,1.2915],[103.7189,1.29],[103.721,1.2913],[103.7245,1.2896],[103.7259,1.2872],[103.7265,1.2842],[103.7292,1.281],[103.7304,1.2809],[103.7309,1.2793],[103.7316,1.2797],[103.732,1.2787],[103.7359,1.278],[103.74,1.2738],[103.7401,1.273],[103.7372,1.2706],[103.7329,1.2692],[103.7316,1.2704],[103.7262,1.2717],[103.7236,1.2693],[103.7242,1.2691],[103.7263,1.271],[103.727,1.2709],[103.7313,1.2699],[103.7331,1.2675],[103.7311,1.2633],[103.7293,1.2619],[103.7225,1.259],[103.7178,1.263],[103.7108,1.2667],[103.7102,1.2693],[103.7087,1.267],[103.7061,1.2684],[103.7048,1.2656],[103.7138,1.2602],[103.7141,1.259],[103.7061,1.2545],[103.6941,1.2503],[103.6904,1.2634],[103.685,1.2684],[103.6801,1.2631],[103.6859,1.2577],[103.6904,1.242],[103.6904,1.24],[103.6878,1.2367],[103.687,1.2376],[103.6826,1.2329],[103.683,1.2319],[103.6744,1.2232],[103.6721,1.2228],[103.6698,1.227],[103.6697,1.2284],[103.6722,1.2236],[103.676,1.2274],[103.6762,1.2287],[103.6729,1.2345],[103.6688,1.2349],[103.665,1.2426],[103.663,1.245],[103.6537,1.268],[103.6537,1.2729],[103.6588,1.2769],[103.6608,1.274],[103.6764,1.2849],[103.6842,1.2896],[103.6886,1.2908],[103.6963,1.2912],[103.6968,1.2904],[103.6916,1.2848],[103.691,1.2826],[103.6842,1.2765],[103.6881,1.2728],[103.6921,1.2771],[103.6934,1.276],[103.6957,1.2769],[103.6954,1.2776],[103.6966,1.2775],[103.6956,1.2792],[103.6963,1.2809],[103.6957,1.2814],[103.704,1.2909],[103.7053,1.291],[103.7064,1.2925],[103.7085,1.2927],[103.7118,1.2916],[103.7113,1.2929],[103.7113,1.2974],[103.7119,1.2974],[103.7118,1.2931],[103.7125,1.2916]],[[103.7237,1.2688],[103.7232,1.2689],[103.7237,1.2688],[103.7237,1.2688]]],[[[103.76,1.213],[103.7615,1.2129],[103.761,1.2118],[103.7615,1.2101],[103.7608,1.2099],[103.7625,1.2104],[103.7629,1.2099],[103.7624,1.2086],[103.763,1.2082],[103.7616,1.2074],[103.7606,1.2078],[103.7616,1.2073],[103.7632,1.2079],[103.7625,1.2073],[103.7634,1.2074],[103.7632,1.2061],[103.7636,1.2071],[103.766,1.2081],[103.77,1.2076],[103.7753,1.2103],[103.7804,1.2104],[103.7815,1.2058],[103.7814,1.2002],[103.78,1.1986],[103.7762,1.1965],[103.7753,1.1923],[103.771,1.1887],[103.7687,1.1883],[103.7665,1.189],[103.7606,1.195],[103.7605,1.1963],[103.7631,1.1995],[103.7638,1.2015],[103.7633,1.2039],[103.7628,1.2031],[103.7626,1.2039],[103.7616,1.2041],[103.7626,1.2037],[103.7626,1.2029],[103.7616,1.2019],[103.7609,1.203],[103.7596,1.201],[103.7584,1.2031],[103.7576,1.2061],[103.7592,1.2121],[103.7588,1.2172],[103.76,1.213]],[[103.7635,1.2042],[103.7635,1.2041],[103.7635,1.204],[103.7635,1.2039],[103.7635,1.2039],[103.7636,1.2038],[103.7635,1.2038],[103.7636,1.2039],[103.7636,1.2041],[103.7637,1.2042],[103.7636,1.2042],[103.7636,1.2042],[103.7636,1.2042],[103.7635,1.2042]]],[[[103.7235,1.2131],[103.7249,1.2126],[103.7236,1.2131],[103.7233,1.2121],[103.7253,1.21],[103.727,1.2102],[103.7285,1.2111],[103.7281,1.2117],[103.7294,1.2109],[103.7306,1.2079],[103.73,1.2094],[103.7292,1.2096],[103.7281,1.2092],[103.7274,1.2079],[103.7316,1.2052],[103.7324,1.2054],[103.732,1.206],[103.7337,1.2035],[103.7318,1.2033],[103.7317,1.2044],[103.7298,1.2049],[103.7297,1.2031],[103.7309,1.2033],[103.7269,1.2025],[103.7232,1.2033],[103.7169,1.2025],[103.7078,1.2041],[103.7071,1.2047],[103.7075,1.2057],[103.7107,1.2077],[103.7139,1.2112],[103.7219,1.2135],[103.7235,1.2131]]],[[[103.7507,1.2357],[103.7545,1.2343],[103.755,1.2354],[103.7574,1.2367],[103.7598,1.2312],[103.7636,1.2298],[103.7673,1.23],[103.7708,1.2274],[103.7689,1.225],[103.7638,1.2252],[103.7591,1.2263],[103.7521,1.2299],[103.7453,1.2314],[103.7427,1.2313],[103.7406,1.2324],[103.7397,1.2344],[103.7431,1.2366],[103.7472,1.2373],[103.7497,1.2368],[103.7507,1.2357]]],[[[103.7618,1.2404],[103.7652,1.2396],[103.7694,1.236],[103.7705,1.2342],[103.7713,1.2337],[103.7717,1.2343],[103.7744,1.2319],[103.7771,1.2287],[103.7768,1.2276],[103.7777,1.2272],[103.779,1.2241],[103.7733,1.2249],[103.7725,1.2277],[103.7708,1.2293],[103.7671,1.2307],[103.763,1.2311],[103.7607,1.2325],[103.7596,1.2388],[103.7601,1.2398],[103.7618,1.2404]]],[[[103.7274,1.1923],[103.7292,1.192],[103.7296,1.1914],[103.7278,1.1904],[103.729,1.1912],[103.7303,1.1909],[103.7317,1.1886],[103.7309,1.1879],[103.7317,1.1879],[103.7315,1.1867],[103.7305,1.1869],[103.7293,1.186],[103.7283,1.1883],[103.7292,1.1865],[103.7289,1.1859],[103.7283,1.187],[103.7267,1.1869],[103.7283,1.1869],[103.7287,1.1862],[103.7284,1.1834],[103.727,1.1834],[103.7254,1.1826],[103.7244,1.1832],[103.7221,1.1815],[103.7212,1.1812],[103.7207,1.1817],[103.7191,1.1801],[103.719,1.183],[103.7173,1.187],[103.7213,1.1876],[103.7223,1.1868],[103.7221,1.1882],[103.7238,1.1911],[103.7274,1.1923]]],[[[103.7331,1.1763],[103.7345,1.1757],[103.7349,1.1748],[103.7367,1.1756],[103.7366,1.174],[103.7369,1.1756],[103.7377,1.1758],[103.7395,1.1752],[103.74,1.1743],[103.7415,1.1744],[103.7405,1.1721],[103.7392,1.1727],[103.7386,1.1722],[103.7398,1.1719],[103.7392,1.1699],[103.7396,1.1673],[103.738,1.1664],[103.7352,1.1676],[103.734,1.1671],[103.732,1.1694],[103.7311,1.1722],[103.7283,1.173],[103.7282,1.1738],[103.7295,1.1753],[103.7301,1.1751],[103.7314,1.1763],[103.7317,1.1758],[103.7331,1.1763]]],[[[103.793,1.2106],[103.7966,1.2079],[103.7984,1.2048],[103.8013,1.2018],[103.8014,1.2007],[103.7984,1.2014],[103.7935,1.2045],[103.7919,1.2079],[103.7918,1.2106],[103.793,1.2106]]],[[[103.7476,1.2283],[103.7484,1.228],[103.7471,1.2282],[103.7473,1.2266],[103.7502,1.2258],[103.7494,1.2242],[103.7504,1.2235],[103.7486,1.223],[103.7469,1.2243],[103.7477,1.2239],[103.748,1.2245],[103.7474,1.2255],[103.7467,1.225],[103.7472,1.2266],[103.7468,1.228],[103.7476,1.2283]]],[[[103.7581,1.1972],[103.7589,1.1972],[103.7589,1.1963],[103.7553,1.1963],[103.7553,1.1972],[103.7581,1.1972]]],[[[103.7528,1.2258],[103.754,1.2246],[103.7533,1.2253],[103.7529,1.2238],[103.7539,1.224],[103.7513,1.2234],[103.7522,1.2239],[103.7516,1.2261],[103.7492,1.2277],[103.7528,1.2258]]],[[[103.7368,1.1888],[103.7355,1.189],[103.7379,1.1911],[103.7368,1.1888]]],[[[103.7413,1.1609],[103.7407,1.1587],[103.7404,1.1597],[103.7413,1.1609]]],[[[103.7074,1.2163],[103.7063,1.2172],[103.7074,1.2163],[103.7074,1.2163]]],[[[103.7233,1.1905],[103.7227,1.1908],[103.7229,1.1915],[103.7236,1.191],[103.7233,1.1905]]],[[[103.7865,1.2157],[103.7871,1.215],[103.7863,1.2153],[103.7865,1.2157]]],[[[103.7424,1.1639],[103.742,1.1652],[103.7424,1.1639],[103.7424,1.1639]]],[[[103.7413,1.16],[103.7413,1.1598],[103.7413,1.1598],[103.7413,1.16],[103.7413,1.16]]]]}},{"type":"Feature","id":"singapore-area-50","properties":{"name":"Tanglin","province":"Central Region","department":"Singapur","type":"Planning Area","country":"Singapur","iso":"SG"},"geometry":{"type":"Polygon","coordinates":[[[103.8239,1.3004],[103.8267,1.2992],[103.8299,1.2992],[103.8302,1.2959],[103.8318,1.2922],[103.8286,1.2927],[103.8244,1.2919],[103.8216,1.2936],[103.816,1.2941],[103.8166,1.2968],[103.8105,1.2968],[103.8086,1.2984],[103.8089,1.2996],[103.8084,1.3003],[103.8077,1.2997],[103.8048,1.3005],[103.8039,1.3025],[103.8033,1.3065],[103.8023,1.3072],[103.8046,1.3144],[103.809,1.3187],[103.8116,1.3201],[103.8129,1.3216],[103.8134,1.3233],[103.8201,1.3224],[103.8353,1.3174],[103.8279,1.312],[103.8267,1.3091],[103.8278,1.3079],[103.8275,1.3071],[103.8249,1.3055],[103.8227,1.3051],[103.8234,1.304],[103.8233,1.3012],[103.8239,1.3004]]]}},{"type":"Feature","id":"singapore-area-51","properties":{"name":"Outram","province":"Central Region","department":"Singapur","type":"Planning Area","country":"Singapur","iso":"SG"},"geometry":{"type":"Polygon","coordinates":[[[103.8431,1.2878],[103.8497,1.2838],[103.8485,1.2822],[103.8492,1.2818],[103.8476,1.2795],[103.8459,1.2807],[103.8454,1.2802],[103.8448,1.2813],[103.8441,1.2806],[103.8452,1.2792],[103.8445,1.2755],[103.8433,1.2757],[103.8431,1.2746],[103.8419,1.2748],[103.8414,1.2742],[103.8392,1.2808],[103.8355,1.2838],[103.8348,1.2862],[103.835,1.2873],[103.8364,1.2869],[103.8369,1.2879],[103.8398,1.2892],[103.8431,1.2878]]]}},{"type":"Feature","id":"singapore-area-52","properties":{"name":"River Valley","province":"Central Region","department":"Singapur","type":"Planning Area","country":"Singapur","iso":"SG"},"geometry":{"type":"Polygon","coordinates":[[[103.8306,1.304],[103.8348,1.3004],[103.8374,1.2997],[103.8378,1.2985],[103.8388,1.2982],[103.8397,1.2992],[103.8422,1.2987],[103.8433,1.2967],[103.8407,1.2921],[103.8388,1.291],[103.8363,1.2927],[103.8358,1.2918],[103.8355,1.2925],[103.8341,1.2925],[103.8326,1.2952],[103.8329,1.2963],[103.8303,1.2956],[103.8299,1.2992],[103.8265,1.2992],[103.8235,1.3007],[103.8234,1.3027],[103.8255,1.303],[103.8281,1.3046],[103.8306,1.304]]]}},{"type":"Feature","id":"singapore-area-53","properties":{"name":"Rochor","province":"Central Region","department":"Singapur","type":"Planning Area","country":"Singapur","iso":"SG"},"geometry":{"type":"Polygon","coordinates":[[[103.8552,1.312],[103.8545,1.3106],[103.8596,1.3058],[103.8623,1.3016],[103.8594,1.2998],[103.8562,1.3025],[103.8542,1.303],[103.8559,1.3006],[103.8523,1.2964],[103.8495,1.2986],[103.8489,1.3],[103.8464,1.3001],[103.8454,1.3014],[103.8459,1.302],[103.8454,1.3022],[103.8458,1.3033],[103.8454,1.304],[103.846,1.3048],[103.8484,1.3038],[103.8487,1.3054],[103.8466,1.3069],[103.847,1.3081],[103.8488,1.3066],[103.8526,1.3124],[103.8531,1.312],[103.8544,1.3136],[103.8552,1.312]]]}},{"type":"Feature","id":"singapore-area-54","properties":{"name":"Singapore River","province":"Central Region","department":"Singapur","type":"Planning Area","country":"Singapur","iso":"SG"},"geometry":{"type":"Polygon","coordinates":[[[103.8341,1.2925],[103.8355,1.2925],[103.8358,1.2918],[103.8363,1.2927],[103.8388,1.291],[103.8407,1.2921],[103.8421,1.2941],[103.8483,1.2901],[103.8508,1.2863],[103.8495,1.2856],[103.8478,1.2864],[103.8472,1.2854],[103.8401,1.2892],[103.8369,1.2879],[103.8364,1.2869],[103.8358,1.2874],[103.8352,1.287],[103.8349,1.2896],[103.8334,1.2924],[103.8318,1.2922],[103.8303,1.2956],[103.8329,1.2963],[103.8326,1.2952],[103.8341,1.2925]]]}},{"type":"Feature","id":"singapore-area-55","properties":{"name":"Straits View","province":"Central Region","department":"Singapur","type":"Planning Area","country":"Singapur","iso":"SG"},"geometry":{"type":"MultiPolygon","coordinates":[[[[103.8627,1.2698],[103.86,1.2678],[103.8617,1.2653],[103.8609,1.2647],[103.8591,1.2672],[103.8559,1.2656],[103.8526,1.2681],[103.8516,1.2681],[103.8516,1.2693],[103.8525,1.2687],[103.8584,1.278],[103.8664,1.2728],[103.8627,1.2698]]],[[[103.8508,1.2629],[103.8508,1.2629],[103.8507,1.263],[103.8508,1.2629],[103.8508,1.2629],[103.8508,1.2629]]]]}}]}