{"type":"FeatureCollection","features":[{"type":"Feature","id":"opstina-skopje-1","properties":{"name":"Centar","province":"Skopje","department":"Grad Skopje","type":"Opština","country":"Macedonia del Norte","iso":"MK"},"geometry":{"type":"MultiPolygon","coordinates":[[[[21.4219,42.0067],[21.4243,42.009],[21.4196,42.0128],[21.4148,42.0141],[21.4267,42.0118],[21.4318,42.0095],[21.4346,42.0071],[21.4353,42.0056],[21.4347,42.0018],[21.4365,42.0007],[21.4357,41.9991],[21.4403,41.9987],[21.4404,41.9997],[21.4416,42.0001],[21.4427,42.0016],[21.4444,42.0013],[21.4449,42.0017],[21.4476,41.9996],[21.4511,41.9991],[21.4494,41.9951],[21.4499,41.9947],[21.4468,41.9926],[21.4407,41.9865],[21.4393,41.9862],[21.4368,41.9868],[21.4329,41.9886],[21.4296,41.9861],[21.4276,41.986],[21.4259,41.983],[21.4262,41.982],[21.4284,41.9809],[21.4269,41.9803],[21.4272,41.98],[21.4267,41.9796],[21.4276,41.9785],[21.4265,41.978],[21.4249,41.9787],[21.4238,41.9802],[21.4209,41.9814],[21.419,41.9803],[21.413,41.9813],[21.4113,41.9826],[21.4102,41.9857],[21.4072,41.9868],[21.4059,41.9889],[21.4059,41.9912],[21.4083,41.9933],[21.4112,41.9935],[21.4136,42.0017],[21.4169,42.0055],[21.4187,42.0045],[21.4212,42.0071],[21.4219,42.0067]]]]}},{"type":"Feature","id":"opstina-skopje-2","properties":{"name":"Karpoš","province":"Skopje","department":"Grad Skopje","type":"Opština","country":"Macedonia del Norte","iso":"MK"},"geometry":{"type":"MultiPolygon","coordinates":[[[[21.3639,41.9636],[21.3697,41.9643],[21.3894,41.9636],[21.3971,41.9655],[21.3993,41.9649],[21.4051,41.9652],[21.4099,41.9636],[21.4104,41.9653],[21.4145,41.9654],[21.4289,41.9638],[21.4301,41.9647],[21.4351,41.9659],[21.436,41.9668],[21.4378,41.9662],[21.4395,41.9671],[21.4404,41.9688],[21.4401,41.9695],[21.4327,41.9727],[21.4323,41.974],[21.4276,41.9778],[21.4251,41.9786],[21.4238,41.9802],[21.4209,41.9814],[21.419,41.9803],[21.4135,41.9811],[21.4119,41.982],[21.4102,41.9857],[21.4072,41.9868],[21.4057,41.9895],[21.4063,41.9919],[21.4079,41.9931],[21.4112,41.9935],[21.4136,42.0017],[21.4163,42.0049],[21.4169,42.0055],[21.4187,42.0045],[21.4212,42.0071],[21.4219,42.0067],[21.4243,42.009],[21.4196,42.0128],[21.4148,42.0141],[21.4267,42.0118],[21.4279,42.0122],[21.4281,42.0115],[21.4298,42.0118],[21.4297,42.0135],[21.4305,42.0142],[21.4286,42.0167],[21.4295,42.0174],[21.4282,42.0185],[21.4279,42.0201],[21.429,42.0205],[21.4295,42.0225],[21.4304,42.0226],[21.4298,42.0253],[21.4215,42.0272],[21.4117,42.0251],[21.4095,42.0251],[21.4093,42.0266],[21.408,42.0272],[21.4022,42.0267],[21.3997,42.0285],[21.3966,42.0327],[21.3924,42.0356],[21.3901,42.0408],[21.3889,42.0409],[21.3896,42.0437],[21.3889,42.0445],[21.3829,42.0452],[21.3809,42.0433],[21.3767,42.0431],[21.3746,42.045],[21.3733,42.0441],[21.3698,42.0445],[21.3692,42.0452],[21.3676,42.0445],[21.3673,42.0425],[21.3687,42.0369],[21.3676,42.0344],[21.3675,42.0303],[21.3638,42.0262],[21.3636,42.0247],[21.3653,42.0224],[21.3688,42.0201],[21.3697,42.0165],[21.3744,42.0142],[21.3715,42.0142],[21.3726,42.0101],[21.3688,42.0092],[21.3674,42.0073],[21.3772,42.0014],[21.3754,41.9997],[21.3706,41.9971],[21.3694,41.9971],[21.3679,41.9982],[21.3656,41.9969],[21.3642,41.9908],[21.362,41.9888],[21.3606,41.9861],[21.3592,41.9852],[21.3579,41.9832],[21.3578,41.982],[21.3587,41.9812],[21.3584,41.9786],[21.3595,41.974],[21.3595,41.971],[21.3604,41.9684],[21.3626,41.9662],[21.3639,41.9636]]]]}},{"type":"Feature","id":"opstina-skopje-3","properties":{"name":"Gazi Baba","province":"Skopje","department":"Grad Skopje","type":"Opština","country":"Macedonia del Norte","iso":"MK"},"geometry":{"type":"MultiPolygon","coordinates":[[[[21.447,42.0165],[21.4456,42.0135],[21.4467,42.0131],[21.4474,42.0106],[21.4471,42.0077],[21.4505,42.0037],[21.4489,42.0026],[21.4503,42.0016],[21.4511,41.9991],[21.4494,41.9951],[21.4539,41.9914],[21.4575,41.9906],[21.4623,41.9942],[21.4652,41.9947],[21.4736,41.9912],[21.4818,41.9905],[21.4892,41.9876],[21.4921,41.9846],[21.4978,41.9826],[21.4991,41.9811],[21.5002,41.9778],[21.502,41.9765],[21.5038,41.9762],[21.5057,41.9774],[21.5095,41.9763],[21.5106,41.9769],[21.5107,41.9788],[21.5136,41.9789],[21.5154,41.9781],[21.5158,41.9767],[21.5131,41.975],[21.5129,41.9739],[21.5152,41.9724],[21.5178,41.972],[21.5197,41.9726],[21.5212,41.9761],[21.5243,41.9738],[21.5251,41.9727],[21.5257,41.9693],[21.5268,41.9682],[21.5299,41.9687],[21.5317,41.9705],[21.5396,41.9688],[21.5411,41.9648],[21.5423,41.9637],[21.5467,41.9629],[21.5494,41.9616],[21.5494,41.9573],[21.5618,41.952],[21.5624,41.9504],[21.562,41.9473],[21.563,41.9458],[21.573,41.9422],[21.5739,41.9413],[21.5743,41.9393],[21.5737,41.9384],[21.5716,41.9375],[21.5691,41.9383],[21.5676,41.9376],[21.5671,41.9366],[21.5681,41.9351],[21.5709,41.9333],[21.5759,41.9334],[21.5783,41.9342],[21.582,41.9305],[21.5861,41.9312],[21.5871,41.9326],[21.589,41.9329],[21.5901,41.9367],[21.5838,41.9464],[21.5883,41.9505],[21.587,41.9532],[21.5846,41.9544],[21.5864,41.9555],[21.5859,41.9561],[21.587,41.9572],[21.5829,41.9583],[21.5814,41.96],[21.5835,41.9601],[21.5841,41.962],[21.5857,41.9627],[21.5813,41.967],[21.5794,41.9703],[21.5704,41.9726],[21.5736,41.9757],[21.5482,41.9806],[21.541,41.9832],[21.5387,41.9846],[21.5382,41.9865],[21.5347,41.9882],[21.5337,41.9898],[21.5294,41.9909],[21.5348,41.9909],[21.5357,41.9918],[21.5357,41.9936],[21.5377,41.9942],[21.5365,41.9952],[21.5478,41.9985],[21.5476,42.0014],[21.5469,42.0022],[21.5501,42.0035],[21.5473,42.006],[21.5505,42.0077],[21.5449,42.02],[21.5485,42.0209],[21.5477,42.0224],[21.5487,42.0227],[21.5488,42.0254],[21.5473,42.026],[21.5538,42.0274],[21.555,42.0293],[21.5581,42.0278],[21.5594,42.0281],[21.5596,42.0294],[21.5583,42.0309],[21.5578,42.0342],[21.5562,42.0371],[21.5585,42.04],[21.5596,42.043],[21.5578,42.0467],[21.5568,42.0471],[21.5568,42.049],[21.5519,42.0495],[21.5545,42.0511],[21.5581,42.0523],[21.5587,42.0517],[21.5592,42.0523],[21.5567,42.0542],[21.5575,42.0562],[21.5564,42.058],[21.5567,42.0593],[21.5559,42.0619],[21.5584,42.0627],[21.5601,42.0641],[21.5593,42.0641],[21.5596,42.0665],[21.5589,42.0674],[21.5587,42.0697],[21.5576,42.071],[21.5572,42.0736],[21.5537,42.0751],[21.5517,42.0768],[21.5513,42.0754],[21.5496,42.078],[21.5502,42.0811],[21.5463,42.0846],[21.5465,42.0908],[21.5472,42.0924],[21.5461,42.0963],[21.5443,42.0976],[21.5415,42.0981],[21.539,42.1005],[21.5292,42.1064],[21.5247,42.114],[21.5186,42.1194],[21.5169,42.1227],[21.5123,42.1262],[21.5092,42.1204],[21.5082,42.117],[21.5035,42.116],[21.4931,42.1083],[21.4925,42.1044],[21.4869,42.0988],[21.4855,42.0949],[21.4833,42.0942],[21.481,42.0924],[21.4794,42.0892],[21.4798,42.0875],[21.4789,42.0864],[21.4791,42.0847],[21.4764,42.0803],[21.4767,42.0783],[21.4788,42.076],[21.4792,42.0741],[21.4785,42.0737],[21.4788,42.0732],[21.478,42.0727],[21.4777,42.0713],[21.4757,42.0697],[21.4764,42.0687],[21.4757,42.0676],[21.4759,42.0662],[21.474,42.064],[21.4736,42.0621],[21.4724,42.0615],[21.4726,42.0596],[21.4704,42.0587],[21.4704,42.056],[21.4685,42.055],[21.4683,42.0542],[21.4693,42.0535],[21.4677,42.0516],[21.4661,42.052],[21.4673,42.046],[21.4649,42.0426],[21.461,42.0391],[21.4609,42.0377],[21.4557,42.0313],[21.4552,42.0298],[21.453,42.0274],[21.4506,42.0262],[21.4547,42.0237],[21.4571,42.0204],[21.4596,42.0187],[21.447,42.0165]]]]}},{"type":"Feature","id":"opstina-skopje-4","properties":{"name":"Aerodrom","province":"Skopje","department":"Grad Skopje","type":"Opština","country":"Macedonia del Norte","iso":"MK"},"geometry":{"type":"MultiPolygon","coordinates":[[[[21.4419,41.9874],[21.4415,41.9849],[21.444,41.9827],[21.4656,41.9734],[21.5068,41.9543],[21.5078,41.9553],[21.5093,41.9538],[21.5103,41.9539],[21.5114,41.9553],[21.5157,41.9531],[21.5196,41.9521],[21.5221,41.9521],[21.5225,41.9501],[21.5275,41.948],[21.5292,41.9484],[21.5332,41.9461],[21.5353,41.9475],[21.5409,41.9476],[21.5427,41.9469],[21.5439,41.9489],[21.5447,41.9491],[21.5497,41.9448],[21.5534,41.9442],[21.5524,41.9413],[21.5538,41.9411],[21.5551,41.9415],[21.5569,41.9436],[21.562,41.9473],[21.5624,41.9504],[21.5618,41.952],[21.5494,41.9573],[21.5494,41.9616],[21.5467,41.9629],[21.5423,41.9637],[21.5411,41.9648],[21.5396,41.9688],[21.5317,41.9705],[21.5299,41.9687],[21.5268,41.9682],[21.5257,41.9693],[21.5251,41.9727],[21.5243,41.9738],[21.5212,41.9761],[21.5197,41.9726],[21.5178,41.972],[21.5152,41.9724],[21.5129,41.9739],[21.5131,41.975],[21.5158,41.9767],[21.5154,41.9781],[21.5136,41.9789],[21.5107,41.9788],[21.5106,41.9769],[21.5095,41.9763],[21.5057,41.9774],[21.5038,41.9762],[21.502,41.9765],[21.5002,41.9778],[21.4991,41.9811],[21.4978,41.9826],[21.4921,41.9846],[21.4892,41.9876],[21.4842,41.9898],[21.4813,41.9906],[21.4736,41.9912],[21.4652,41.9947],[21.4623,41.9942],[21.4584,41.9909],[21.4554,41.9908],[21.4519,41.9927],[21.4499,41.9947],[21.4443,41.9903],[21.4419,41.9874]]]]}},{"type":"Feature","id":"opstina-skopje-5","properties":{"name":"Kisela Voda","province":"Skopje","department":"Grad Skopje","type":"Opština","country":"Macedonia del Norte","iso":"MK"},"geometry":{"type":"MultiPolygon","coordinates":[[[[21.4265,41.978],[21.4276,41.9778],[21.4323,41.974],[21.4327,41.9727],[21.4375,41.971],[21.4405,41.9691],[21.4392,41.9668],[21.4378,41.9662],[21.4364,41.9669],[21.4354,41.9664],[21.4348,41.9638],[21.435,41.962],[21.4369,41.9598],[21.4344,41.9568],[21.4375,41.9578],[21.4434,41.9549],[21.4476,41.9559],[21.4488,41.9549],[21.4495,41.9554],[21.4505,41.955],[21.4474,41.9533],[21.4466,41.9519],[21.4454,41.9514],[21.4489,41.9473],[21.4515,41.9457],[21.4513,41.9442],[21.4531,41.9417],[21.4522,41.9395],[21.4552,41.939],[21.4558,41.9396],[21.4563,41.9387],[21.4579,41.9391],[21.4608,41.9363],[21.4627,41.936],[21.4634,41.9368],[21.4675,41.9362],[21.4687,41.9352],[21.4775,41.9366],[21.4858,41.9283],[21.4873,41.9261],[21.492,41.9258],[21.4959,41.9281],[21.4971,41.9273],[21.4977,41.9248],[21.4961,41.9212],[21.4952,41.9159],[21.492,41.9129],[21.4923,41.9121],[21.4939,41.9113],[21.4969,41.9138],[21.4985,41.9143],[21.4991,41.9139],[21.5014,41.9164],[21.5032,41.917],[21.5035,41.9158],[21.5075,41.9134],[21.5086,41.9153],[21.5117,41.9155],[21.5123,41.9146],[21.5184,41.9153],[21.5218,41.9174],[21.5252,41.9219],[21.5303,41.9261],[21.5296,41.9279],[21.5308,41.9308],[21.5322,41.9305],[21.534,41.9333],[21.5396,41.9354],[21.5402,41.9364],[21.5451,41.9334],[21.5462,41.9337],[21.5499,41.9392],[21.5511,41.9391],[21.5515,41.9399],[21.5511,41.9412],[21.5524,41.9413],[21.5534,41.9442],[21.5497,41.9448],[21.5447,41.9491],[21.5439,41.9489],[21.5427,41.9469],[21.5409,41.9476],[21.5353,41.9475],[21.5332,41.9461],[21.5292,41.9484],[21.5275,41.948],[21.5225,41.9501],[21.5221,41.9521],[21.5196,41.9521],[21.5157,41.9531],[21.5114,41.9553],[21.5103,41.9539],[21.5093,41.9538],[21.5078,41.9553],[21.5068,41.9543],[21.4656,41.9734],[21.444,41.9827],[21.4415,41.9849],[21.4419,41.9874],[21.4393,41.9862],[21.4329,41.9886],[21.4296,41.9861],[21.4276,41.986],[21.4259,41.983],[21.4262,41.982],[21.4284,41.9809],[21.4269,41.9803],[21.4272,41.98],[21.4267,41.9796],[21.4276,41.9785],[21.4265,41.978]]]]}},{"type":"Feature","id":"opstina-skopje-6","properties":{"name":"Gjorče Petrov","province":"Skopje","department":"Grad Skopje","type":"Opština","country":"Macedonia del Norte","iso":"MK"},"geometry":{"type":"MultiPolygon","coordinates":[[[[21.2458,42.0927],[21.2489,42.0908],[21.2491,42.0901],[21.2475,42.085],[21.2481,42.0827],[21.2476,42.081],[21.2482,42.0782],[21.2516,42.0747],[21.2497,42.0717],[21.2563,42.07],[21.2634,42.0696],[21.2652,42.0678],[21.2687,42.0667],[21.2731,42.0642],[21.2786,42.0602],[21.2789,42.0582],[21.2818,42.0546],[21.2823,42.0529],[21.2819,42.0519],[21.284,42.0514],[21.2862,42.0499],[21.2921,42.0448],[21.2916,42.0441],[21.2921,42.0437],[21.2945,42.0433],[21.2957,42.0443],[21.2979,42.0448],[21.3016,42.043],[21.3046,42.0392],[21.309,42.04],[21.3104,42.0394],[21.3133,42.0405],[21.3155,42.0384],[21.3162,42.0364],[21.3175,42.036],[21.318,42.0345],[21.32,42.0345],[21.3231,42.0332],[21.3239,42.0287],[21.3226,42.0303],[21.3212,42.0297],[21.3203,42.0282],[21.316,42.0314],[21.3134,42.0308],[21.3144,42.0277],[21.3133,42.0264],[21.3148,42.0236],[21.3159,42.0226],[21.3171,42.0227],[21.3179,42.0221],[21.3176,42.0216],[21.3203,42.019],[21.3213,42.0191],[21.3212,42.0177],[21.3228,42.0157],[21.3244,42.0149],[21.3234,42.0113],[21.3252,42.0103],[21.3213,42.0073],[21.3249,42.0066],[21.3276,42.0051],[21.3314,42.0061],[21.3357,42.0062],[21.3411,42.0029],[21.3452,42.0034],[21.3521,41.9991],[21.3545,41.9983],[21.3571,41.9987],[21.3609,42.0005],[21.3638,42.0006],[21.3678,41.9998],[21.3689,41.9974],[21.3703,41.997],[21.3771,42.0011],[21.3711,42.0053],[21.3674,42.0071],[21.3688,42.0092],[21.3726,42.0101],[21.3715,42.0142],[21.3744,42.0142],[21.3697,42.0165],[21.3688,42.0201],[21.3653,42.0224],[21.3636,42.0247],[21.3638,42.0262],[21.3675,42.0303],[21.3676,42.0344],[21.3687,42.0369],[21.3678,42.0397],[21.3673,42.0425],[21.3678,42.045],[21.3665,42.051],[21.3665,42.0519],[21.368,42.0538],[21.3656,42.055],[21.3654,42.0569],[21.3639,42.0572],[21.363,42.0582],[21.3631,42.0594],[21.3625,42.0603],[21.363,42.062],[21.3622,42.0628],[21.3624,42.0658],[21.3641,42.0666],[21.3645,42.0689],[21.362,42.07],[21.3606,42.0725],[21.3582,42.0729],[21.3569,42.075],[21.3566,42.0772],[21.3543,42.0775],[21.3532,42.077],[21.353,42.079],[21.3505,42.0798],[21.347,42.0795],[21.3461,42.0775],[21.3425,42.0773],[21.3394,42.0806],[21.337,42.0819],[21.337,42.0844],[21.3358,42.0852],[21.3365,42.088],[21.336,42.091],[21.3309,42.0989],[21.3297,42.1024],[21.3276,42.1051],[21.3237,42.1056],[21.3213,42.108],[21.3087,42.1061],[21.3035,42.1045],[21.3034,42.106],[21.3015,42.1071],[21.2992,42.11],[21.2994,42.1109],[21.2984,42.1109],[21.2974,42.1125],[21.2947,42.112],[21.2953,42.1106],[21.2942,42.1098],[21.2942,42.1092],[21.2926,42.1086],[21.2932,42.108],[21.2921,42.1071],[21.2929,42.1064],[21.291,42.1054],[21.2913,42.1051],[21.2892,42.1046],[21.2834,42.1013],[21.2813,42.1021],[21.2807,42.1008],[21.2789,42.101],[21.2786,42.1002],[21.2726,42.0959],[21.2659,42.0943],[21.2575,42.0939],[21.2569,42.0928],[21.2559,42.0931],[21.2509,42.0923],[21.2458,42.0927]]]]}},{"type":"Feature","id":"opstina-skopje-7","properties":{"name":"Butel","province":"Skopje","department":"Grad Skopje","type":"Opština","country":"Macedonia del Norte","iso":"MK"},"geometry":{"type":"MultiPolygon","coordinates":[[[[21.3889,42.0445],[21.3896,42.0437],[21.3889,42.0409],[21.3901,42.0408],[21.3924,42.0356],[21.3966,42.0327],[21.3997,42.0285],[21.4022,42.0267],[21.408,42.0272],[21.4093,42.0266],[21.4095,42.0251],[21.4117,42.0251],[21.4189,42.027],[21.4219,42.0272],[21.4265,42.0256],[21.4298,42.0253],[21.4304,42.0226],[21.449,42.0213],[21.4473,42.0164],[21.4596,42.0187],[21.4571,42.0204],[21.4547,42.0237],[21.4506,42.0262],[21.453,42.0274],[21.4552,42.0298],[21.4557,42.0313],[21.4609,42.0377],[21.461,42.0391],[21.4649,42.0426],[21.4673,42.046],[21.4661,42.052],[21.4677,42.0516],[21.4693,42.0535],[21.4683,42.0542],[21.4685,42.055],[21.4704,42.056],[21.4704,42.0587],[21.4726,42.0596],[21.4724,42.0615],[21.4736,42.0621],[21.474,42.064],[21.4759,42.0662],[21.4757,42.0676],[21.4764,42.0687],[21.4757,42.0697],[21.4777,42.0713],[21.478,42.0727],[21.4788,42.0732],[21.4785,42.0737],[21.4792,42.0741],[21.4788,42.076],[21.4767,42.0783],[21.4764,42.0803],[21.4791,42.0847],[21.4789,42.0864],[21.4798,42.0875],[21.4794,42.0892],[21.481,42.0924],[21.4833,42.0942],[21.4855,42.0949],[21.4869,42.0988],[21.4925,42.1044],[21.4931,42.1083],[21.5035,42.116],[21.5082,42.117],[21.5092,42.1204],[21.5123,42.1262],[21.5101,42.132],[21.5098,42.1361],[21.507,42.1388],[21.5061,42.1426],[21.5018,42.1478],[21.4951,42.1514],[21.4892,42.1567],[21.4827,42.1553],[21.4789,42.1565],[21.4774,42.1578],[21.4775,42.1566],[21.4751,42.1566],[21.4698,42.1542],[21.4683,42.1525],[21.4666,42.1484],[21.4614,42.1493],[21.4605,42.1478],[21.4596,42.1434],[21.4579,42.1418],[21.4559,42.1412],[21.4552,42.1397],[21.4536,42.1385],[21.4512,42.1374],[21.4446,42.13],[21.4442,42.1284],[21.4453,42.1271],[21.4454,42.1242],[21.4446,42.1243],[21.4455,42.1196],[21.4454,42.1181],[21.4444,42.1167],[21.445,42.1143],[21.4425,42.1105],[21.4408,42.1094],[21.4401,42.1066],[21.4387,42.1047],[21.438,42.1014],[21.4389,42.0998],[21.438,42.0992],[21.438,42.0979],[21.4363,42.0972],[21.437,42.0937],[21.4417,42.0872],[21.4424,42.085],[21.442,42.0834],[21.4435,42.0797],[21.4424,42.0769],[21.4425,42.0747],[21.4461,42.0726],[21.4435,42.0669],[21.444,42.063],[21.4452,42.0617],[21.4458,42.0588],[21.4447,42.0583],[21.4455,42.057],[21.4454,42.0542],[21.4509,42.0553],[21.4509,42.054],[21.4499,42.0519],[21.446,42.0506],[21.4445,42.0484],[21.4417,42.0473],[21.4418,42.0451],[21.4405,42.0448],[21.44,42.0457],[21.4371,42.0449],[21.4374,42.0427],[21.4285,42.0482],[21.4275,42.0455],[21.4295,42.0445],[21.431,42.0413],[21.431,42.0389],[21.4322,42.0371],[21.4344,42.0304],[21.4341,42.0281],[21.4332,42.0275],[21.4262,42.0273],[21.4197,42.0279],[21.4191,42.0296],[21.4177,42.031],[21.4186,42.0323],[21.4177,42.0325],[21.4171,42.0339],[21.4183,42.0343],[21.4183,42.036],[21.4159,42.0359],[21.4143,42.039],[21.413,42.0392],[21.413,42.0398],[21.4151,42.0405],[21.4132,42.0442],[21.4098,42.0444],[21.4078,42.046],[21.4037,42.0456],[21.4032,42.0463],[21.4014,42.0467],[21.4001,42.0476],[21.4007,42.0485],[21.3991,42.0484],[21.3999,42.0506],[21.3972,42.0484],[21.3939,42.0489],[21.393,42.0484],[21.3909,42.0485],[21.3889,42.0445]]]]}},{"type":"Feature","id":"opstina-skopje-8","properties":{"name":"Šuto Orizari","province":"Skopje","department":"Grad Skopje","type":"Opština","country":"Macedonia del Norte","iso":"MK"},"geometry":{"type":"MultiPolygon","coordinates":[[[[21.3939,42.0489],[21.3972,42.0484],[21.3999,42.0506],[21.3991,42.0484],[21.4007,42.0485],[21.4001,42.0476],[21.4014,42.0467],[21.4032,42.0463],[21.4037,42.0456],[21.4078,42.046],[21.4098,42.0444],[21.4132,42.0442],[21.4151,42.0405],[21.413,42.0398],[21.413,42.0392],[21.4143,42.039],[21.4159,42.0359],[21.4183,42.036],[21.4183,42.0343],[21.4171,42.0339],[21.4177,42.0325],[21.4186,42.0323],[21.4177,42.031],[21.4191,42.0296],[21.4197,42.0279],[21.4332,42.0275],[21.4342,42.0284],[21.4344,42.0304],[21.4322,42.0371],[21.431,42.0389],[21.4312,42.0407],[21.4295,42.0445],[21.4276,42.0454],[21.428,42.0467],[21.4268,42.047],[21.4269,42.0478],[21.426,42.0477],[21.4232,42.0503],[21.4237,42.0537],[21.4266,42.0543],[21.4261,42.0578],[21.4224,42.0584],[21.4215,42.0591],[21.4202,42.0591],[21.4196,42.0579],[21.4184,42.058],[21.4175,42.0591],[21.4179,42.0606],[21.4153,42.0614],[21.4146,42.0632],[21.4134,42.0635],[21.4113,42.0655],[21.4106,42.0653],[21.4099,42.0668],[21.4082,42.0683],[21.4074,42.0708],[21.4052,42.0701],[21.4047,42.0683],[21.4024,42.0669],[21.403,42.0657],[21.4017,42.0641],[21.4013,42.0625],[21.4,42.0621],[21.4004,42.0606],[21.3999,42.0602],[21.3985,42.0612],[21.3931,42.0614],[21.3932,42.0605],[21.3922,42.0599],[21.3925,42.0589],[21.3957,42.0571],[21.3947,42.056],[21.3921,42.0566],[21.3918,42.0527],[21.3923,42.0509],[21.3939,42.0489]]]]}},{"type":"Feature","id":"opstina-skopje-9","properties":{"name":"Čair","province":"Skopje","department":"Grad Skopje","type":"Opština","country":"Macedonia del Norte","iso":"MK"},"geometry":{"type":"MultiPolygon","coordinates":[[[[21.4267,42.0118],[21.4318,42.0095],[21.4346,42.0071],[21.4353,42.0056],[21.4347,42.0018],[21.4365,42.0007],[21.4357,41.9991],[21.4403,41.9987],[21.4404,41.9997],[21.4416,42.0001],[21.4427,42.0016],[21.4444,42.0013],[21.4449,42.0017],[21.4476,41.9996],[21.4511,41.9991],[21.4503,42.0016],[21.4489,42.0026],[21.4505,42.0037],[21.4471,42.0077],[21.4474,42.0106],[21.4467,42.0131],[21.4456,42.0135],[21.449,42.0213],[21.4295,42.0225],[21.429,42.0205],[21.4279,42.02],[21.4282,42.0185],[21.4295,42.0174],[21.4286,42.0167],[21.4305,42.0142],[21.4297,42.0135],[21.4298,42.0118],[21.4281,42.0115],[21.4279,42.0122],[21.4267,42.0118]]]]}},{"type":"Feature","id":"opstina-skopje-10","properties":{"name":"Saraj","province":"Skopje","department":"Grad Skopje","type":"Opština","country":"Macedonia del Norte","iso":"MK"},"geometry":{"type":"MultiPolygon","coordinates":[[[[21.1499,42.0128],[21.157,42.0177],[21.1638,42.0206],[21.1728,42.0282],[21.1777,42.0343],[21.1778,42.0349],[21.176,42.0367],[21.1716,42.0393],[21.171,42.0418],[21.1697,42.0439],[21.1703,42.0459],[21.1684,42.0468],[21.1674,42.0486],[21.1665,42.0488],[21.1679,42.0496],[21.1707,42.0497],[21.172,42.052],[21.1736,42.0533],[21.1798,42.0565],[21.1844,42.0598],[21.1897,42.0615],[21.1912,42.0629],[21.1919,42.0626],[21.192,42.0641],[21.1934,42.0656],[21.197,42.0673],[21.1952,42.0678],[21.1928,42.0699],[21.1936,42.0706],[21.1946,42.0738],[21.194,42.0761],[21.1916,42.0763],[21.1896,42.0776],[21.1903,42.0799],[21.1901,42.0819],[21.1884,42.0823],[21.1875,42.0836],[21.1861,42.0876],[21.1861,42.0909],[21.1826,42.0921],[21.1822,42.0924],[21.1829,42.0933],[21.179,42.0916],[21.1753,42.088],[21.175,42.0843],[21.1713,42.0838],[21.1701,42.0824],[21.166,42.0812],[21.1651,42.08],[21.1628,42.0791],[21.1598,42.0789],[21.1591,42.0772],[21.1577,42.0768],[21.1576,42.0816],[21.1595,42.0852],[21.1624,42.0867],[21.1622,42.0914],[21.1558,42.0946],[21.155,42.0987],[21.1585,42.1005],[21.1628,42.0994],[21.1659,42.1012],[21.1695,42.1002],[21.1728,42.1024],[21.1781,42.1032],[21.1821,42.1033],[21.1822,42.1019],[21.1883,42.1026],[21.1927,42.1023],[21.1958,42.1046],[21.1986,42.1056],[21.207,42.1066],[21.2118,42.1096],[21.2127,42.1108],[21.2144,42.1086],[21.2142,42.1077],[21.2164,42.1054],[21.2165,42.1041],[21.2191,42.1022],[21.2204,42.102],[21.2202,42.1009],[21.2216,42.0997],[21.2221,42.0976],[21.2214,42.0961],[21.2225,42.0936],[21.2243,42.0956],[21.227,42.0959],[21.2277,42.0972],[21.2297,42.0961],[21.2305,42.0974],[21.2335,42.0982],[21.2334,42.0953],[21.2391,42.0939],[21.2448,42.0936],[21.2459,42.0923],[21.2489,42.0908],[21.2491,42.0889],[21.2475,42.085],[21.2481,42.0827],[21.2476,42.081],[21.2482,42.0782],[21.2516,42.0747],[21.2497,42.0717],[21.2563,42.07],[21.2634,42.0696],[21.2652,42.0678],[21.2687,42.0667],[21.2731,42.0642],[21.2786,42.0602],[21.2789,42.0582],[21.2818,42.0546],[21.2823,42.0529],[21.2819,42.0519],[21.284,42.0514],[21.2862,42.0499],[21.2921,42.0448],[21.2916,42.0441],[21.2921,42.0437],[21.2945,42.0433],[21.2957,42.0443],[21.2979,42.0448],[21.3016,42.043],[21.3046,42.0392],[21.309,42.04],[21.3104,42.0394],[21.3133,42.0405],[21.3155,42.0384],[21.3162,42.0364],[21.3175,42.036],[21.318,42.0345],[21.32,42.0345],[21.323,42.0334],[21.3239,42.0287],[21.3226,42.0303],[21.3212,42.0297],[21.3203,42.0282],[21.316,42.0314],[21.3134,42.0308],[21.3144,42.0277],[21.3133,42.0264],[21.3148,42.0236],[21.3159,42.0226],[21.3171,42.0227],[21.3179,42.0221],[21.3176,42.0216],[21.3203,42.019],[21.3213,42.0191],[21.3212,42.0177],[21.3228,42.0157],[21.3244,42.0149],[21.3234,42.0113],[21.3252,42.0103],[21.3213,42.0073],[21.3249,42.0066],[21.3276,42.0051],[21.3314,42.0061],[21.3357,42.0062],[21.3411,42.0029],[21.3452,42.0034],[21.3542,41.9983],[21.3562,41.9984],[21.3624,42.0007],[21.3681,41.9995],[21.3686,41.9981],[21.3671,41.998],[21.3656,41.9969],[21.3642,41.9908],[21.362,41.9888],[21.3606,41.9861],[21.3592,41.9852],[21.3579,41.9832],[21.3578,41.982],[21.3587,41.9812],[21.3584,41.9786],[21.3595,41.974],[21.3595,41.971],[21.3604,41.9684],[21.3626,41.9662],[21.3639,41.9637],[21.3566,41.9637],[21.3517,41.9616],[21.3477,41.9607],[21.3329,41.9612],[21.328,41.96],[21.3229,41.9599],[21.3208,41.9566],[21.3196,41.9524],[21.3124,41.9509],[21.3099,41.9484],[21.3025,41.9473],[21.3054,41.9422],[21.3057,41.9387],[21.3044,41.9371],[21.3013,41.9354],[21.2966,41.9347],[21.2952,41.9322],[21.2921,41.9305],[21.2877,41.9296],[21.2852,41.9282],[21.283,41.9285],[21.2816,41.9275],[21.2812,41.9267],[21.282,41.92],[21.2697,41.9185],[21.2659,41.9174],[21.2649,41.9157],[21.2623,41.9143],[21.2515,41.9137],[21.2465,41.9124],[21.243,41.9123],[21.2245,41.9023],[21.2203,41.8987],[21.2188,41.8958],[21.2168,41.8942],[21.2101,41.8962],[21.2011,41.9003],[21.1969,41.9014],[21.1937,41.9037],[21.1913,41.9043],[21.1889,41.9076],[21.1867,41.9078],[21.184,41.9103],[21.1814,41.9104],[21.1767,41.9143],[21.1801,41.9171],[21.1869,41.9205],[21.1867,41.9219],[21.1825,41.93],[21.1827,41.9312],[21.1844,41.9324],[21.1863,41.935],[21.1824,41.9374],[21.183,41.9383],[21.1842,41.9386],[21.1846,41.94],[21.1869,41.9401],[21.1835,41.944],[21.1879,41.9459],[21.1852,41.9463],[21.1832,41.9475],[21.1827,41.9485],[21.1836,41.9497],[21.1834,41.951],[21.1869,41.9555],[21.1884,41.9594],[21.1873,41.9608],[21.1878,41.9625],[21.1873,41.9633],[21.1884,41.9634],[21.1892,41.9646],[21.1877,41.9661],[21.187,41.9679],[21.1879,41.9696],[21.1872,41.9718],[21.1875,41.977],[21.1894,41.9784],[21.1931,41.979],[21.1947,41.98],[21.1843,41.9797],[21.1816,41.9822],[21.1783,41.9833],[21.1766,41.9848],[21.1751,41.9843],[21.1732,41.9847],[21.1734,41.9853],[21.1719,41.9876],[21.168,41.9902],[21.1658,41.9934],[21.1635,41.9955],[21.1566,41.9995],[21.156,42.0035],[21.1499,42.0128]]]]}}]}