{"type":"FeatureCollection","features":[{"type":"Feature","id":"rayon-sofia-1","properties":{"name":"Bankya","province":"Sofia","department":"Oblast Sofia-Grad","type":"Rayon","country":"Bulgaria","iso":"BG"},"geometry":{"type":"MultiPolygon","coordinates":[[[[23.0565,42.7127],[23.0606,42.716],[23.065,42.7222],[23.0716,42.7253],[23.0728,42.7284],[23.0766,42.7334],[23.0832,42.7338],[23.0847,42.7347],[23.0872,42.7377],[23.0896,42.7374],[23.0893,42.7366],[23.0885,42.7365],[23.0899,42.7343],[23.0923,42.7345],[23.0926,42.735],[23.0984,42.7372],[23.1005,42.7371],[23.1104,42.7392],[23.1114,42.7387],[23.1126,42.7395],[23.1144,42.7391],[23.1168,42.74],[23.1223,42.7384],[23.13,42.7386],[23.1322,42.7369],[23.1361,42.7362],[23.1428,42.7372],[23.1454,42.7369],[23.1465,42.7345],[23.1497,42.7316],[23.1585,42.7281],[23.1577,42.726],[23.1633,42.7251],[23.1641,42.7284],[23.168,42.7289],[23.1745,42.7309],[23.1785,42.7305],[23.1795,42.7296],[23.1879,42.7301],[23.1892,42.7262],[23.1968,42.7283],[23.1983,42.7227],[23.2004,42.7227],[23.1996,42.7206],[23.2018,42.7187],[23.2013,42.7172],[23.1968,42.7181],[23.1965,42.7162],[23.1988,42.7158],[23.1987,42.7141],[23.2049,42.7156],[23.2054,42.715],[23.2033,42.7142],[23.2066,42.7103],[23.2052,42.7098],[23.2059,42.7088],[23.2031,42.7051],[23.1968,42.7033],[23.1957,42.699],[23.1951,42.6987],[23.1961,42.6973],[23.1952,42.6956],[23.1933,42.6939],[23.1921,42.6942],[23.1898,42.691],[23.1877,42.6948],[23.1831,42.6929],[23.1811,42.693],[23.1762,42.6957],[23.1714,42.6941],[23.1703,42.6946],[23.1681,42.6912],[23.1582,42.6943],[23.1571,42.6977],[23.1545,42.6955],[23.1542,42.694],[23.1505,42.6906],[23.1502,42.6898],[23.1511,42.688],[23.1501,42.6862],[23.1471,42.6847],[23.1447,42.6815],[23.1415,42.68],[23.1395,42.6773],[23.1401,42.6769],[23.1406,42.6746],[23.1402,42.6713],[23.1431,42.6675],[23.1423,42.6669],[23.1373,42.6664],[23.1264,42.6684],[23.124,42.67],[23.1183,42.6672],[23.1184,42.6688],[23.1165,42.6699],[23.1151,42.6726],[23.1122,42.6745],[23.1095,42.6744],[23.1112,42.6764],[23.11,42.6786],[23.1098,42.6842],[23.1053,42.6871],[23.103,42.6895],[23.1033,42.6914],[23.1058,42.6949],[23.1018,42.6931],[23.0993,42.6937],[23.0976,42.6957],[23.0948,42.6927],[23.0911,42.6943],[23.0907,42.6928],[23.0859,42.6919],[23.0828,42.6922],[23.0813,42.6941],[23.0795,42.6951],[23.0744,42.6941],[23.0668,42.6942],[23.0671,42.6958],[23.0659,42.6976],[23.0663,42.6986],[23.0647,42.697],[23.0644,42.6981],[23.0632,42.6977],[23.0626,42.6983],[23.0625,42.6976],[23.0621,42.6978],[23.0625,42.6989],[23.0614,42.6978],[23.0592,42.6972],[23.0566,42.6996],[23.0538,42.6992],[23.0513,42.701],[23.0511,42.7022],[23.0562,42.7091],[23.0562,42.7105],[23.0554,42.7109],[23.0565,42.7127]]]]}},{"type":"Feature","id":"rayon-sofia-2","properties":{"name":"Ilinden","province":"Sofia","department":"Oblast Sofia-Grad","type":"Rayon","country":"Bulgaria","iso":"BG"},"geometry":{"type":"MultiPolygon","coordinates":[[[[23.2727,42.71],[23.276,42.7083],[23.2849,42.7059],[23.2853,42.7043],[23.2977,42.702],[23.2992,42.7072],[23.3041,42.706],[23.3046,42.7079],[23.3043,42.7083],[23.303,42.7078],[23.2977,42.7148],[23.3024,42.7164],[23.3019,42.7169],[23.3033,42.719],[23.2993,42.7204],[23.2983,42.7215],[23.2949,42.723],[23.2853,42.718],[23.2804,42.7174],[23.2761,42.7137],[23.2742,42.7108],[23.2727,42.71]]]]}},{"type":"Feature","id":"rayon-sofia-3","properties":{"name":"Iskar","province":"Sofia","department":"Oblast Sofia-Grad","type":"Rayon","country":"Bulgaria","iso":"BG"},"geometry":{"type":"MultiPolygon","coordinates":[[[[23.3815,42.674],[23.3941,42.6718],[23.3983,42.6773],[23.4011,42.6862],[23.4161,42.6824],[23.4177,42.6851],[23.4232,42.689],[23.438,42.6872],[23.4385,42.6891],[23.4369,42.6895],[23.4369,42.6909],[23.4421,42.6901],[23.4409,42.6866],[23.443,42.6865],[23.4442,42.6886],[23.4474,42.689],[23.4523,42.6881],[23.4527,42.6883],[23.4528,42.6897],[23.4572,42.665],[23.4531,42.6649],[23.4471,42.668],[23.4399,42.6587],[23.4551,42.6555],[23.448,42.6332],[23.4157,42.6373],[23.4008,42.6437],[23.4014,42.6442],[23.4006,42.6445],[23.4,42.6466],[23.3891,42.6591],[23.3906,42.6601],[23.3892,42.6612],[23.3898,42.663],[23.3826,42.6708],[23.3815,42.6728],[23.3815,42.674]]]]}},{"type":"Feature","id":"rayon-sofia-4","properties":{"name":"Izgrev","province":"Sofia","department":"Oblast Sofia-Grad","type":"Rayon","country":"Bulgaria","iso":"BG"},"geometry":{"type":"MultiPolygon","coordinates":[[[[23.3362,42.6725],[23.3451,42.6803],[23.3476,42.6834],[23.3679,42.669],[23.3624,42.6654],[23.3478,42.6596],[23.3389,42.6575],[23.3365,42.6576],[23.3379,42.6702],[23.3362,42.6725]]]]}},{"type":"Feature","id":"rayon-sofia-5","properties":{"name":"Krasna Polyana","province":"Sofia","department":"Oblast Sofia-Grad","type":"Rayon","country":"Bulgaria","iso":"BG"},"geometry":{"type":"MultiPolygon","coordinates":[[[[23.2303,42.6916],[23.2305,42.6895],[23.2314,42.6881],[23.2357,42.6857],[23.2362,42.6876],[23.2385,42.6909],[23.2407,42.6922],[23.2431,42.6926],[23.2504,42.6919],[23.2535,42.6922],[23.2542,42.6904],[23.2585,42.6902],[23.2589,42.6915],[23.2603,42.6922],[23.2614,42.6923],[23.2621,42.6913],[23.2635,42.6909],[23.2649,42.6915],[23.2649,42.6903],[23.2688,42.6901],[23.2737,42.6865],[23.2741,42.6854],[23.2777,42.6903],[23.2802,42.6922],[23.284,42.6891],[23.2852,42.6889],[23.2945,42.6938],[23.2962,42.6965],[23.2977,42.702],[23.2853,42.7043],[23.2849,42.7059],[23.276,42.7083],[23.2727,42.71],[23.2703,42.7083],[23.2697,42.7084],[23.2695,42.7093],[23.268,42.7095],[23.2669,42.7077],[23.265,42.7075],[23.2639,42.7067],[23.2596,42.7065],[23.2546,42.7076],[23.2519,42.7068],[23.2514,42.7058],[23.2506,42.706],[23.2501,42.707],[23.2477,42.7061],[23.2468,42.7069],[23.2449,42.7066],[23.2394,42.709],[23.2321,42.7077],[23.2304,42.7089],[23.2303,42.6916]]]]}},{"type":"Feature","id":"rayon-sofia-6","properties":{"name":"Krasno Selo","province":"Sofia","department":"Oblast Sofia-Grad","type":"Rayon","country":"Bulgaria","iso":"BG"},"geometry":{"type":"MultiPolygon","coordinates":[[[[23.2692,42.6742],[23.2719,42.6797],[23.2774,42.6836],[23.2741,42.6854],[23.2777,42.6903],[23.2802,42.6922],[23.284,42.6891],[23.2852,42.6889],[23.2871,42.6901],[23.2893,42.6891],[23.2885,42.6889],[23.2937,42.6893],[23.3053,42.6927],[23.314,42.6969],[23.3153,42.6967],[23.314,42.6895],[23.31,42.6868],[23.3013,42.6845],[23.3026,42.6795],[23.2986,42.678],[23.2949,42.6723],[23.288,42.6652],[23.2747,42.6703],[23.2692,42.6742]]]]}},{"type":"Feature","id":"rayon-sofia-7","properties":{"name":"Kremikovtsi","province":"Sofia","department":"Oblast Sofia-Grad","type":"Rayon","country":"Bulgaria","iso":"BG"},"geometry":{"type":"MultiPolygon","coordinates":[[[[23.3548,42.7271],[23.3551,42.7283],[23.3542,42.7353],[23.353,42.739],[23.3565,42.7471],[23.3772,42.7546],[23.3785,42.7558],[23.3797,42.7607],[23.381,42.7607],[23.3816,42.7576],[23.3808,42.7569],[23.3829,42.7554],[23.3829,42.7549],[23.3851,42.7539],[23.385,42.7528],[23.3843,42.7533],[23.3837,42.7523],[23.3861,42.7498],[23.3892,42.7481],[23.3926,42.744],[23.3966,42.7434],[23.3964,42.7426],[23.3983,42.7406],[23.399,42.7407],[23.3987,42.7385],[23.397,42.7375],[23.4024,42.7351],[23.4059,42.7348],[23.4075,42.7332],[23.4069,42.7318],[23.4076,42.7307],[23.4101,42.7307],[23.4131,42.7295],[23.4162,42.7296],[23.4175,42.7273],[23.4159,42.7253],[23.4198,42.7229],[23.4204,42.7218],[23.4364,42.7193],[23.4361,42.7182],[23.4377,42.7175],[23.4371,42.7168],[23.4378,42.7158],[23.4417,42.7183],[23.4402,42.7188],[23.4396,42.7196],[23.4399,42.7205],[23.4393,42.7208],[23.4406,42.7215],[23.4409,42.7277],[23.4423,42.7277],[23.4425,42.7306],[23.4459,42.7305],[23.4455,42.7324],[23.4468,42.7341],[23.4481,42.7336],[23.4508,42.7371],[23.4538,42.7435],[23.4585,42.7439],[23.4599,42.7448],[23.4592,42.7453],[23.4659,42.7495],[23.4632,42.752],[23.4621,42.7545],[23.4573,42.7584],[23.4561,42.7581],[23.4548,42.7604],[23.4567,42.7612],[23.4557,42.7618],[23.4571,42.7633],[23.4558,42.7636],[23.4572,42.7646],[23.4573,42.7655],[23.4605,42.7692],[23.458,42.7701],[23.4584,42.7707],[23.4595,42.7703],[23.4619,42.774],[23.4612,42.7744],[23.462,42.7755],[23.4609,42.7763],[23.4616,42.7772],[23.4601,42.7781],[23.461,42.7791],[23.4597,42.7801],[23.4697,42.7919],[23.4703,42.7935],[23.4705,42.8042],[23.4728,42.8059],[23.4735,42.8092],[23.4726,42.8113],[23.4727,42.8126],[23.4719,42.8137],[23.4722,42.8151],[23.4803,42.8234],[23.4798,42.8245],[23.4805,42.8269],[23.4799,42.8289],[23.4804,42.8329],[23.483,42.8357],[23.4849,42.8367],[23.4858,42.8388],[23.4902,42.8426],[23.4919,42.8453],[23.4922,42.8473],[23.4971,42.8518],[23.4975,42.8528],[23.4967,42.8537],[23.4975,42.855],[23.4966,42.8563],[23.4975,42.8583],[23.4963,42.8593],[23.506,42.864],[23.5091,42.8643],[23.5137,42.8627],[23.5169,42.8586],[23.5199,42.8568],[23.5245,42.856],[23.525,42.8532],[23.5245,42.8527],[23.5251,42.8524],[23.5244,42.8517],[23.5273,42.8491],[23.5306,42.848],[23.5339,42.8479],[23.535,42.8464],[23.531,42.8432],[23.5343,42.8431],[23.5347,42.8417],[23.534,42.8415],[23.5331,42.8396],[23.5346,42.8395],[23.5365,42.8383],[23.5382,42.8334],[23.5394,42.832],[23.5425,42.8299],[23.549,42.8307],[23.5565,42.8276],[23.5621,42.8284],[23.5638,42.8297],[23.5661,42.8297],[23.5676,42.8352],[23.5693,42.8354],[23.5692,42.8368],[23.5714,42.8405],[23.5741,42.842],[23.5773,42.8469],[23.5806,42.8483],[23.584,42.8488],[23.586,42.8501],[23.5878,42.8496],[23.5901,42.8499],[23.5915,42.8521],[23.594,42.8517],[23.5963,42.8535],[23.5962,42.8556],[23.6014,42.8571],[23.6033,42.8598],[23.6045,42.8604],[23.6091,42.8606],[23.6121,42.8599],[23.6175,42.8568],[23.6222,42.8563],[23.6233,42.8548],[23.6247,42.8543],[23.6283,42.8559],[23.6325,42.8566],[23.6332,42.8547],[23.6358,42.8525],[23.6351,42.8441],[23.6363,42.8387],[23.6391,42.8404],[23.643,42.8401],[23.6434,42.8414],[23.644,42.8414],[23.6469,42.844],[23.6508,42.8453],[23.6573,42.844],[23.6575,42.8423],[23.6631,42.8416],[23.6651,42.8407],[23.6659,42.8395],[23.6683,42.8398],[23.6696,42.8412],[23.6716,42.8414],[23.6726,42.843],[23.6772,42.8444],[23.676,42.8405],[23.6764,42.8373],[23.6769,42.836],[23.6787,42.8343],[23.6692,42.8327],[23.6657,42.8313],[23.6643,42.8293],[23.664,42.8251],[23.66,42.8227],[23.6542,42.8178],[23.6537,42.8082],[23.6489,42.8035],[23.6468,42.8001],[23.6472,42.7959],[23.6493,42.7946],[23.6481,42.7936],[23.6473,42.7919],[23.6476,42.7898],[23.6461,42.7883],[23.6486,42.781],[23.6468,42.7778],[23.6466,42.7758],[23.644,42.7738],[23.6413,42.7729],[23.6414,42.7712],[23.6402,42.768],[23.6333,42.7717],[23.6304,42.7709],[23.628,42.769],[23.6242,42.7673],[23.6238,42.7663],[23.6243,42.7654],[23.6233,42.7637],[23.6194,42.7602],[23.6228,42.7579],[23.624,42.7554],[23.6226,42.7551],[23.6215,42.7539],[23.6192,42.7542],[23.6187,42.752],[23.6169,42.7505],[23.6165,42.7487],[23.6153,42.7479],[23.6151,42.743],[23.6133,42.7359],[23.6084,42.7339],[23.6102,42.73],[23.6088,42.7288],[23.6086,42.7267],[23.6003,42.7161],[23.5974,42.7162],[23.5962,42.7146],[23.5972,42.7132],[23.5949,42.7122],[23.5938,42.7102],[23.5944,42.7099],[23.5862,42.7088],[23.5798,42.7104],[23.5809,42.7086],[23.5796,42.7081],[23.574,42.7088],[23.5715,42.7084],[23.5715,42.708],[23.5648,42.7087],[23.5632,42.708],[23.5599,42.7088],[23.5597,42.7064],[23.5548,42.7066],[23.5523,42.7057],[23.55,42.7039],[23.5482,42.704],[23.5466,42.6971],[23.5436,42.6937],[23.546,42.6807],[23.5428,42.6805],[23.5379,42.6819],[23.5343,42.6818],[23.5317,42.6837],[23.5319,42.685],[23.5206,42.6845],[23.5201,42.6843],[23.5216,42.6827],[23.5211,42.6824],[23.5209,42.6795],[23.4973,42.6751],[23.4975,42.681],[23.494,42.6803],[23.4942,42.6865],[23.4859,42.6888],[23.4855,42.69],[23.4835,42.6896],[23.481,42.6903],[23.4821,42.6939],[23.4772,42.6951],[23.4756,42.697],[23.4714,42.6981],[23.4619,42.7036],[23.462,42.7051],[23.4632,42.7069],[23.4497,42.7077],[23.4527,42.6883],[23.4457,42.6891],[23.4442,42.6886],[23.443,42.6865],[23.4409,42.6866],[23.4421,42.6901],[23.4369,42.6909],[23.4369,42.6895],[23.4385,42.6891],[23.438,42.6872],[23.4228,42.689],[23.4256,42.6915],[23.4263,42.6975],[23.4187,42.698],[23.4188,42.6993],[23.4152,42.6996],[23.4136,42.7016],[23.3992,42.7047],[23.399,42.7054],[23.4032,42.7061],[23.3986,42.7089],[23.3921,42.7097],[23.392,42.7147],[23.386,42.7153],[23.3862,42.7159],[23.3744,42.7163],[23.3741,42.7173],[23.3727,42.7172],[23.3703,42.7197],[23.3548,42.7271]]]]}},{"type":"Feature","id":"rayon-sofia-8","properties":{"name":"Lyulin","province":"Sofia","department":"Oblast Sofia-Grad","type":"Rayon","country":"Bulgaria","iso":"BG"},"geometry":{"type":"MultiPolygon","coordinates":[[[[23.1961,42.6973],[23.2032,42.701],[23.2029,42.7014],[23.2075,42.7033],[23.2118,42.7063],[23.2174,42.7073],[23.2242,42.7076],[23.23,42.709],[23.2321,42.7077],[23.2389,42.709],[23.2449,42.7066],[23.2468,42.7069],[23.2472,42.7062],[23.2502,42.707],[23.2512,42.7058],[23.2519,42.7068],[23.2546,42.7076],[23.2596,42.7065],[23.2639,42.7067],[23.265,42.7075],[23.2669,42.7077],[23.268,42.7095],[23.2695,42.7093],[23.2697,42.7084],[23.2706,42.7084],[23.2742,42.7108],[23.2761,42.7137],[23.2799,42.717],[23.262,42.7268],[23.2689,42.7341],[23.2561,42.7457],[23.2478,42.7348],[23.2411,42.7385],[23.2401,42.7374],[23.239,42.738],[23.2386,42.7376],[23.2391,42.7373],[23.2379,42.7364],[23.2268,42.7425],[23.2261,42.7418],[23.2121,42.7452],[23.2053,42.736],[23.1989,42.7295],[23.1968,42.7283],[23.1983,42.7227],[23.2004,42.7227],[23.1996,42.7206],[23.2018,42.7187],[23.2013,42.7172],[23.1968,42.7181],[23.1965,42.7162],[23.1988,42.7158],[23.1987,42.7141],[23.2049,42.7156],[23.2054,42.715],[23.2033,42.7142],[23.2066,42.7103],[23.2052,42.7098],[23.2059,42.7088],[23.2031,42.7051],[23.1968,42.7033],[23.1957,42.699],[23.1951,42.6987],[23.1961,42.6973]]]]}},{"type":"Feature","id":"rayon-sofia-9","properties":{"name":"Lozenets","province":"Sofia","department":"Oblast Sofia-Grad","type":"Rayon","country":"Bulgaria","iso":"BG"},"geometry":{"type":"MultiPolygon","coordinates":[[[[23.3095,42.6725],[23.312,42.6719],[23.3139,42.6708],[23.3128,42.6576],[23.3165,42.6593],[23.3158,42.6556],[23.316,42.6517],[23.3142,42.6452],[23.3125,42.6417],[23.3337,42.6331],[23.3347,42.6417],[23.3337,42.6451],[23.3354,42.6478],[23.3379,42.6702],[23.3362,42.6727],[23.3418,42.6775],[23.3307,42.6866],[23.3208,42.6833],[23.3218,42.6785],[23.312,42.6742],[23.3095,42.6725]]]]}},{"type":"Feature","id":"rayon-sofia-10","properties":{"name":"Mladost","province":"Sofia","department":"Oblast Sofia-Grad","type":"Rayon","country":"Bulgaria","iso":"BG"},"geometry":{"type":"MultiPolygon","coordinates":[[[[23.358,42.6244],[23.3588,42.6262],[23.3585,42.627],[23.3621,42.6307],[23.3617,42.6339],[23.3646,42.6379],[23.3645,42.6394],[23.3633,42.6413],[23.3642,42.6452],[23.3653,42.6469],[23.3647,42.6474],[23.3658,42.6487],[23.3651,42.6498],[23.3664,42.6541],[23.3685,42.6574],[23.3676,42.6582],[23.3673,42.6596],[23.3699,42.6616],[23.3687,42.6643],[23.3696,42.6652],[23.3684,42.6662],[23.3695,42.6678],[23.3679,42.669],[23.3761,42.675],[23.3815,42.674],[23.3815,42.6728],[23.3826,42.6708],[23.3898,42.663],[23.3892,42.6612],[23.3906,42.6601],[23.3891,42.6591],[23.4,42.6466],[23.4006,42.6445],[23.4014,42.6442],[23.4008,42.6437],[23.4146,42.6376],[23.4186,42.6369],[23.4176,42.6339],[23.4194,42.6321],[23.4186,42.6295],[23.4193,42.626],[23.4171,42.623],[23.4139,42.6221],[23.4095,42.6223],[23.4085,42.6212],[23.4065,42.6217],[23.4055,42.6201],[23.4038,42.6205],[23.405,42.6225],[23.358,42.6244]]]]}},{"type":"Feature","id":"rayon-sofia-11","properties":{"name":"Nadezhda","province":"Sofia","department":"Oblast Sofia-Grad","type":"Rayon","country":"Bulgaria","iso":"BG"},"geometry":{"type":"MultiPolygon","coordinates":[[[[23.2797,42.7657],[23.2791,42.7676],[23.2821,42.7734],[23.283,42.7737],[23.283,42.7746],[23.2859,42.7745],[23.2885,42.7764],[23.2885,42.7774],[23.2905,42.7798],[23.2888,42.7813],[23.2898,42.7827],[23.2941,42.7811],[23.2948,42.7804],[23.2982,42.7811],[23.3027,42.7798],[23.3023,42.7805],[23.3027,42.7807],[23.3073,42.7806],[23.3083,42.7815],[23.313,42.7796],[23.3149,42.7806],[23.3171,42.7802],[23.3177,42.7822],[23.3176,42.7848],[23.3188,42.7867],[23.3232,42.7868],[23.3236,42.7853],[23.3214,42.7839],[23.3276,42.7827],[23.3288,42.784],[23.3312,42.7829],[23.3325,42.7839],[23.3471,42.778],[23.3257,42.748],[23.318,42.7285],[23.311,42.7192],[23.311,42.7173],[23.3104,42.7166],[23.3063,42.7172],[23.3024,42.7164],[23.3019,42.7169],[23.3033,42.719],[23.2864,42.7264],[23.2881,42.7286],[23.2864,42.7316],[23.2976,42.7382],[23.2949,42.7405],[23.2935,42.7408],[23.2937,42.7426],[23.2919,42.7431],[23.2947,42.7446],[23.295,42.7462],[23.2976,42.7472],[23.3006,42.7507],[23.304,42.7532],[23.2965,42.754],[23.2965,42.7556],[23.2952,42.7556],[23.2946,42.7569],[23.2935,42.7572],[23.2909,42.757],[23.2903,42.7564],[23.285,42.7563],[23.2848,42.7576],[23.2822,42.7582],[23.2804,42.7651],[23.2798,42.765],[23.2797,42.7657]]]]}},{"type":"Feature","id":"rayon-sofia-12","properties":{"name":"Novi Iskar","province":"Sofia","department":"Oblast Sofia-Grad","type":"Rayon","country":"Bulgaria","iso":"BG"},"geometry":{"type":"MultiPolygon","coordinates":[[[[23.2423,42.8177],[23.2477,42.8219],[23.247,42.8225],[23.2479,42.8232],[23.2475,42.8235],[23.2485,42.8243],[23.249,42.8239],[23.2521,42.8262],[23.2528,42.8257],[23.2543,42.8292],[23.2523,42.8306],[23.253,42.8313],[23.2512,42.8327],[23.254,42.8347],[23.2522,42.8385],[23.2496,42.8402],[23.2505,42.8416],[23.2506,42.8434],[23.2545,42.8471],[23.2554,42.8498],[23.2551,42.8505],[23.2537,42.8511],[23.2496,42.8508],[23.2496,42.853],[23.2501,42.8537],[23.2521,42.8537],[23.2499,42.8555],[23.2498,42.8566],[23.2506,42.8576],[23.2479,42.8601],[23.2477,42.8628],[23.2466,42.8641],[23.2468,42.866],[23.2495,42.8684],[23.251,42.8718],[23.2572,42.8746],[23.2601,42.875],[23.2622,42.8788],[23.2644,42.8853],[23.2639,42.8929],[23.2682,42.8931],[23.2704,42.8944],[23.276,42.8952],[23.2783,42.8966],[23.2828,42.8963],[23.2848,42.8948],[23.2884,42.8943],[23.292,42.8922],[23.2939,42.8898],[23.2967,42.8885],[23.2994,42.8882],[23.3012,42.8863],[23.3041,42.8858],[23.3068,42.882],[23.3133,42.8853],[23.3202,42.8835],[23.3206,42.8807],[23.318,42.8799],[23.321,42.877],[23.3243,42.8717],[23.3274,42.8724],[23.3297,42.872],[23.3297,42.8715],[23.3312,42.8712],[23.3325,42.87],[23.3356,42.8693],[23.3368,42.8674],[23.3362,42.8671],[23.3376,42.8663],[23.3386,42.8648],[23.3427,42.864],[23.342,42.856],[23.346,42.856],[23.347,42.8555],[23.3469,42.8546],[23.3503,42.8547],[23.355,42.8539],[23.3642,42.8511],[23.3632,42.8524],[23.3641,42.852],[23.3669,42.8525],[23.3709,42.8491],[23.374,42.8478],[23.374,42.8462],[23.3728,42.845],[23.3657,42.8418],[23.3691,42.8396],[23.3726,42.8392],[23.3763,42.8401],[23.3781,42.8425],[23.3836,42.8453],[23.3861,42.8476],[23.3905,42.8484],[23.3931,42.8478],[23.3958,42.8484],[23.402,42.8475],[23.4065,42.8485],[23.4063,42.8517],[23.4081,42.8521],[23.4105,42.8515],[23.4119,42.8534],[23.4142,42.8546],[23.4145,42.8564],[23.4197,42.8573],[23.4212,42.8584],[23.4267,42.8589],[23.4276,42.8604],[23.4297,42.8612],[23.4351,42.8616],[23.4363,42.8636],[23.4405,42.8667],[23.4407,42.8691],[23.443,42.8693],[23.4485,42.872],[23.4496,42.872],[23.4501,42.8713],[23.4493,42.8696],[23.4517,42.8678],[23.4523,42.8657],[23.4537,42.8647],[23.4534,42.8635],[23.4627,42.8622],[23.4648,42.8628],[23.4682,42.8724],[23.4694,42.8732],[23.4693,42.8742],[23.4749,42.8744],[23.4782,42.8727],[23.4795,42.873],[23.4804,42.8721],[23.4803,42.8713],[23.4818,42.8712],[23.4815,42.8697],[23.483,42.8686],[23.4821,42.8679],[23.4828,42.8653],[23.4846,42.8661],[23.485,42.8652],[23.4868,42.8639],[23.4879,42.8649],[23.4885,42.8641],[23.4881,42.8635],[23.4896,42.8623],[23.4894,42.8605],[23.4946,42.8607],[23.4945,42.8601],[23.4975,42.8583],[23.4966,42.8563],[23.4975,42.855],[23.4967,42.8537],[23.4975,42.8528],[23.4971,42.8518],[23.4922,42.8473],[23.4919,42.8453],[23.4902,42.8426],[23.4858,42.8388],[23.4849,42.8367],[23.483,42.8357],[23.4804,42.8329],[23.4799,42.8289],[23.4805,42.8269],[23.4798,42.8245],[23.4803,42.8234],[23.4773,42.8209],[23.4741,42.8168],[23.4727,42.8159],[23.4719,42.8142],[23.4735,42.8092],[23.4728,42.8059],[23.4705,42.8042],[23.4703,42.7944],[23.4697,42.7919],[23.4597,42.7801],[23.461,42.7791],[23.4601,42.7781],[23.4616,42.7772],[23.4609,42.7763],[23.462,42.7755],[23.4612,42.7744],[23.4619,42.774],[23.4595,42.7703],[23.4584,42.7707],[23.458,42.7701],[23.4605,42.7692],[23.4573,42.7655],[23.4572,42.7646],[23.4558,42.7636],[23.4571,42.7633],[23.4557,42.7618],[23.4567,42.7612],[23.4549,42.7603],[23.4561,42.7581],[23.4573,42.7584],[23.4621,42.7545],[23.4632,42.752],[23.4659,42.7495],[23.4592,42.7453],[23.4599,42.7448],[23.4585,42.7439],[23.4538,42.7435],[23.4508,42.7371],[23.4481,42.7336],[23.4468,42.7341],[23.4455,42.7324],[23.4459,42.7305],[23.4425,42.7306],[23.4423,42.7277],[23.4409,42.7277],[23.4406,42.7215],[23.4393,42.7208],[23.4399,42.7205],[23.4396,42.7196],[23.4402,42.7188],[23.4417,42.7183],[23.4378,42.7158],[23.4371,42.7168],[23.4377,42.7175],[23.4361,42.7182],[23.4364,42.7193],[23.4204,42.7218],[23.4198,42.7229],[23.4159,42.7253],[23.4175,42.7273],[23.4162,42.7296],[23.4131,42.7295],[23.4101,42.7307],[23.4076,42.7307],[23.4069,42.7318],[23.4075,42.7332],[23.4059,42.7348],[23.4024,42.7351],[23.397,42.7375],[23.3987,42.7385],[23.399,42.7407],[23.3983,42.7406],[23.3964,42.7426],[23.3966,42.7434],[23.3926,42.744],[23.3892,42.7481],[23.3861,42.7498],[23.3837,42.7523],[23.3843,42.7533],[23.385,42.7528],[23.3851,42.7539],[23.3829,42.7549],[23.3829,42.7554],[23.3808,42.7569],[23.3816,42.7576],[23.381,42.7607],[23.3783,42.7608],[23.376,42.7572],[23.3694,42.7582],[23.369,42.7575],[23.3624,42.7583],[23.3597,42.758],[23.3597,42.7589],[23.3527,42.76],[23.3507,42.7588],[23.3384,42.7607],[23.3419,42.7701],[23.3474,42.7768],[23.3471,42.778],[23.3325,42.7839],[23.3312,42.7829],[23.3288,42.784],[23.3276,42.7827],[23.3214,42.7839],[23.3236,42.7853],[23.3232,42.7868],[23.3184,42.7865],[23.3173,42.7835],[23.3177,42.7822],[23.3171,42.7802],[23.3149,42.7806],[23.313,42.7796],[23.3083,42.7815],[23.3073,42.7806],[23.3027,42.7807],[23.3023,42.7805],[23.3027,42.7798],[23.2982,42.7811],[23.2948,42.7804],[23.2941,42.7811],[23.2897,42.7827],[23.2907,42.7848],[23.292,42.7848],[23.2922,42.7881],[23.2911,42.7881],[23.2911,42.7888],[23.29,42.7889],[23.29,42.7893],[23.2851,42.7896],[23.2854,42.7923],[23.2873,42.7923],[23.2874,42.7935],[23.2855,42.7936],[23.2856,42.7949],[23.2836,42.7951],[23.2836,42.7962],[23.2821,42.7963],[23.2823,42.7973],[23.2813,42.7974],[23.2814,42.7986],[23.2799,42.7982],[23.2805,42.8003],[23.2759,42.8009],[23.2763,42.8023],[23.2743,42.8026],[23.274,42.8012],[23.2725,42.8014],[23.2721,42.8],[23.2738,42.7998],[23.2735,42.7989],[23.2723,42.7987],[23.2705,42.799],[23.2707,42.7998],[23.2687,42.8001],[23.2692,42.8019],[23.2666,42.8022],[23.265,42.8003],[23.2634,42.8023],[23.2514,42.7962],[23.2504,42.8006],[23.2511,42.802],[23.251,42.8061],[23.2476,42.8096],[23.2477,42.8108],[23.2456,42.8109],[23.2456,42.8131],[23.2444,42.8131],[23.2428,42.8142],[23.2449,42.8159],[23.2423,42.8177]]]]}},{"type":"Feature","id":"rayon-sofia-13","properties":{"name":"Oborishte","province":"Sofia","department":"Oblast Sofia-Grad","type":"Rayon","country":"Bulgaria","iso":"BG"},"geometry":{"type":"MultiPolygon","coordinates":[[[[23.3217,42.6977],[23.3259,42.6965],[23.3264,42.6973],[23.3293,42.6965],[23.3312,42.6968],[23.3307,42.6952],[23.3448,42.6925],[23.3437,42.6919],[23.3439,42.6911],[23.3516,42.6865],[23.3552,42.6927],[23.355,42.6962],[23.3535,42.698],[23.3445,42.6999],[23.3331,42.7052],[23.3287,42.7045],[23.3239,42.7049],[23.3217,42.6977]]]]}},{"type":"Feature","id":"rayon-sofia-14","properties":{"name":"Ovcha Kupel","province":"Sofia","department":"Oblast Sofia-Grad","type":"Rayon","country":"Bulgaria","iso":"BG"},"geometry":{"type":"MultiPolygon","coordinates":[[[[23.1423,42.6669],[23.1435,42.6671],[23.1459,42.6648],[23.1467,42.6623],[23.1511,42.6623],[23.1579,42.6599],[23.1611,42.6597],[23.1622,42.6588],[23.1645,42.6594],[23.1676,42.6585],[23.1684,42.6575],[23.1681,42.6558],[23.1726,42.6533],[23.1718,42.6506],[23.173,42.6492],[23.1756,42.649],[23.1777,42.6478],[23.1838,42.6464],[23.1868,42.6464],[23.194,42.6476],[23.1964,42.6486],[23.1984,42.6511],[23.1987,42.6528],[23.2046,42.6532],[23.2094,42.6549],[23.2103,42.6579],[23.2223,42.6624],[23.2301,42.6646],[23.2408,42.6706],[23.2454,42.6716],[23.2468,42.671],[23.2519,42.6716],[23.2598,42.6652],[23.2628,42.6663],[23.2726,42.6718],[23.2692,42.6742],[23.2719,42.6797],[23.2774,42.6836],[23.2738,42.6856],[23.2737,42.6865],[23.2688,42.6901],[23.2649,42.6903],[23.2649,42.6915],[23.2635,42.6909],[23.2621,42.6913],[23.2614,42.6923],[23.2589,42.6915],[23.2585,42.6902],[23.2542,42.6904],[23.2535,42.6922],[23.2504,42.6919],[23.2417,42.6925],[23.2382,42.6905],[23.2357,42.6857],[23.2333,42.6868],[23.2314,42.6881],[23.2303,42.6903],[23.23,42.709],[23.2242,42.7076],[23.2174,42.7073],[23.2118,42.7063],[23.2075,42.7033],[23.1966,42.698],[23.195,42.6954],[23.1933,42.6939],[23.1921,42.6942],[23.1898,42.691],[23.1877,42.6948],[23.1831,42.6929],[23.1811,42.693],[23.1762,42.6957],[23.1714,42.6941],[23.1703,42.6946],[23.1681,42.6912],[23.1582,42.6943],[23.1571,42.6977],[23.1545,42.6955],[23.1542,42.694],[23.1505,42.6906],[23.1502,42.6898],[23.1511,42.688],[23.1501,42.6862],[23.1471,42.6847],[23.1447,42.6815],[23.1415,42.68],[23.1395,42.6773],[23.1401,42.6769],[23.1406,42.6746],[23.1402,42.6713],[23.1431,42.6675],[23.1423,42.6669]]]]}},{"type":"Feature","id":"rayon-sofia-15","properties":{"name":"Pancharevo","province":"Sofia","department":"Oblast Sofia-Grad","type":"Rayon","country":"Bulgaria","iso":"BG"},"geometry":{"type":"MultiPolygon","coordinates":[[[[23.2854,42.5617],[23.2893,42.5638],[23.2907,42.5667],[23.2909,42.5682],[23.2896,42.5723],[23.2879,42.5752],[23.2893,42.5845],[23.2931,42.5868],[23.2975,42.587],[23.2972,42.5881],[23.2992,42.589],[23.3083,42.5884],[23.3112,42.5888],[23.3123,42.5914],[23.3117,42.5946],[23.3177,42.5907],[23.3236,42.5938],[23.3315,42.5945],[23.3386,42.598],[23.3478,42.5996],[23.348,42.6006],[23.3516,42.6039],[23.3564,42.605],[23.36,42.6091],[23.3698,42.614],[23.3741,42.6149],[23.3757,42.6168],[23.3779,42.618],[23.3789,42.6201],[23.3866,42.6217],[23.3883,42.6231],[23.405,42.6225],[23.4038,42.6205],[23.4055,42.6201],[23.4065,42.6217],[23.4085,42.6212],[23.4095,42.6223],[23.4139,42.6221],[23.4169,42.623],[23.4193,42.626],[23.4186,42.6295],[23.4194,42.6321],[23.4176,42.6339],[23.4186,42.6369],[23.448,42.6332],[23.4551,42.6555],[23.4399,42.6587],[23.4471,42.668],[23.4531,42.6649],[23.4572,42.665],[23.4497,42.7077],[23.4632,42.7069],[23.462,42.7051],[23.4619,42.7036],[23.4714,42.6981],[23.4756,42.697],[23.4772,42.6951],[23.4821,42.6939],[23.481,42.6903],[23.4835,42.6896],[23.4855,42.69],[23.4859,42.6888],[23.4942,42.6865],[23.494,42.6803],[23.4975,42.681],[23.4973,42.6751],[23.4939,42.6744],[23.4935,42.6601],[23.4959,42.6597],[23.4963,42.6575],[23.4979,42.6577],[23.498,42.6551],[23.4961,42.6548],[23.4953,42.6519],[23.4969,42.6506],[23.4964,42.6496],[23.5037,42.6487],[23.5007,42.6395],[23.5074,42.6379],[23.5102,42.6435],[23.5319,42.6388],[23.5315,42.6374],[23.5344,42.637],[23.5327,42.6287],[23.5313,42.6283],[23.5307,42.625],[23.5352,42.6244],[23.537,42.6234],[23.5386,42.6253],[23.5422,42.6248],[23.5434,42.624],[23.5434,42.6225],[23.5526,42.6203],[23.5574,42.618],[23.5573,42.6174],[23.5595,42.6162],[23.5588,42.6155],[23.5593,42.6144],[23.5593,42.609],[23.5585,42.5977],[23.5574,42.5953],[23.558,42.5938],[23.5569,42.5898],[23.5545,42.5867],[23.5555,42.5858],[23.557,42.5819],[23.5559,42.5771],[23.5567,42.5752],[23.5659,42.5691],[23.5656,42.5665],[23.5603,42.5632],[23.5593,42.5619],[23.5599,42.5598],[23.5631,42.5576],[23.5648,42.5575],[23.5656,42.5552],[23.564,42.5561],[23.5601,42.5552],[23.5568,42.5534],[23.555,42.5515],[23.5513,42.5504],[23.551,42.5497],[23.5549,42.5477],[23.5543,42.5459],[23.5546,42.543],[23.5532,42.5391],[23.5509,42.5366],[23.5498,42.5334],[23.5538,42.5312],[23.5597,42.5312],[23.563,42.5294],[23.5657,42.5294],[23.5677,42.5282],[23.5691,42.5256],[23.574,42.5232],[23.5761,42.5187],[23.5773,42.5175],[23.5771,42.5158],[23.5794,42.5147],[23.5809,42.511],[23.587,42.5051],[23.5943,42.5027],[23.5955,42.5028],[23.5985,42.5045],[23.5995,42.5038],[23.6005,42.5056],[23.6017,42.506],[23.6053,42.506],[23.6071,42.5055],[23.6103,42.5024],[23.6148,42.5001],[23.6184,42.5013],[23.6186,42.502],[23.6247,42.5026],[23.6239,42.5012],[23.6301,42.5004],[23.6272,42.4934],[23.6247,42.4919],[23.6221,42.489],[23.6235,42.4865],[23.6303,42.4853],[23.6398,42.4813],[23.6419,42.4799],[23.6427,42.4791],[23.642,42.477],[23.6439,42.4732],[23.6434,42.4716],[23.6489,42.4693],[23.6497,42.4654],[23.6495,42.4625],[23.6486,42.461],[23.6492,42.4595],[23.6528,42.4569],[23.6589,42.457],[23.6606,42.4557],[23.6599,42.4537],[23.6601,42.4514],[23.6588,42.4477],[23.6589,42.4454],[23.6607,42.4411],[23.6608,42.4391],[23.6628,42.4367],[23.6653,42.4363],[23.664,42.4343],[23.6632,42.4256],[23.6619,42.4236],[23.6623,42.4217],[23.6545,42.4218],[23.6536,42.4205],[23.6527,42.4205],[23.6463,42.4218],[23.6445,42.4207],[23.6383,42.4193],[23.6337,42.416],[23.632,42.4154],[23.6289,42.415],[23.6261,42.4167],[23.6214,42.4147],[23.6161,42.4133],[23.6122,42.4135],[23.6116,42.4148],[23.6082,42.4152],[23.6044,42.4132],[23.5994,42.4148],[23.599,42.4171],[23.5971,42.4192],[23.5904,42.4212],[23.5805,42.4167],[23.5746,42.4165],[23.5711,42.4173],[23.5702,42.4188],[23.5702,42.4213],[23.5679,42.4218],[23.5631,42.4216],[23.558,42.4193],[23.5578,42.4168],[23.5547,42.4143],[23.5502,42.4124],[23.5476,42.4131],[23.5458,42.4125],[23.5454,42.4136],[23.5429,42.4151],[23.5388,42.4195],[23.5385,42.4214],[23.5367,42.4245],[23.5348,42.4258],[23.5343,42.4272],[23.5332,42.4279],[23.5353,42.437],[23.5305,42.4426],[23.5311,42.4442],[23.5296,42.4467],[23.533,42.4507],[23.5351,42.4516],[23.5363,42.4535],[23.5368,42.4554],[23.5363,42.4568],[23.5379,42.4607],[23.5364,42.4608],[23.5359,42.4623],[23.5374,42.4619],[23.5384,42.463],[23.537,42.4658],[23.5397,42.4685],[23.5398,42.4695],[23.5386,42.4699],[23.5375,42.4721],[23.5385,42.472],[23.5383,42.4727],[23.5349,42.474],[23.5386,42.4743],[23.5393,42.4752],[23.541,42.4748],[23.5416,42.4754],[23.539,42.4778],[23.5363,42.4787],[23.537,42.4794],[23.5382,42.4795],[23.5389,42.4814],[23.5368,42.4815],[23.5356,42.4832],[23.5331,42.4845],[23.5286,42.4856],[23.5272,42.4879],[23.5251,42.4893],[23.5232,42.4897],[23.5221,42.4911],[23.5198,42.4913],[23.5192,42.4919],[23.5195,42.4924],[23.5183,42.4925],[23.5179,42.4936],[23.5203,42.4946],[23.516,42.4941],[23.5096,42.4986],[23.509,42.5012],[23.5102,42.505],[23.5094,42.5073],[23.511,42.5072],[23.5111,42.5077],[23.5091,42.5106],[23.51,42.5122],[23.499,42.513],[23.4928,42.5122],[23.4863,42.5141],[23.4797,42.5176],[23.4732,42.5165],[23.4663,42.5177],[23.4653,42.5172],[23.464,42.5185],[23.4542,42.524],[23.4533,42.5252],[23.4466,42.5247],[23.4445,42.5234],[23.4434,42.5214],[23.4355,42.5179],[23.4316,42.5142],[23.4285,42.5133],[23.4251,42.5112],[23.4273,42.5099],[23.4295,42.5097],[23.4298,42.5052],[23.4331,42.5049],[23.4394,42.5014],[23.4424,42.5013],[23.4424,42.4992],[23.4401,42.4978],[23.4407,42.4965],[23.4402,42.4944],[23.4408,42.4939],[23.4407,42.4926],[23.443,42.4919],[23.4445,42.4883],[23.4442,42.4866],[23.4456,42.485],[23.4456,42.4836],[23.4475,42.4834],[23.4479,42.4804],[23.4451,42.4786],[23.4417,42.4786],[23.4407,42.4772],[23.4372,42.4762],[23.4316,42.4758],[23.4257,42.4736],[23.4233,42.4724],[23.4214,42.47],[23.4191,42.4697],[23.417,42.4656],[23.4151,42.4642],[23.4134,42.464],[23.4129,42.4648],[23.4111,42.4654],[23.4098,42.4689],[23.4083,42.47],[23.4082,42.4718],[23.4033,42.4739],[23.4029,42.4753],[23.3995,42.4773],[23.3964,42.4802],[23.392,42.481],[23.3912,42.4821],[23.3891,42.4824],[23.3865,42.4843],[23.3854,42.4842],[23.3808,42.4892],[23.3807,42.4901],[23.3775,42.4928],[23.3759,42.4932],[23.3761,42.4942],[23.3722,42.4949],[23.3629,42.4951],[23.3607,42.4977],[23.3504,42.4997],[23.3488,42.5006],[23.347,42.503],[23.3412,42.5047],[23.3393,42.5061],[23.3312,42.5082],[23.328,42.5104],[23.3257,42.511],[23.3227,42.5141],[23.3205,42.5183],[23.3173,42.5205],[23.3158,42.5227],[23.3128,42.5252],[23.3116,42.5283],[23.3072,42.5274],[23.3013,42.5247],[23.3008,42.5267],[23.2967,42.5313],[23.2902,42.5327],[23.2945,42.5343],[23.2969,42.5361],[23.2981,42.5399],[23.2996,42.542],[23.3,42.5444],[23.2946,42.5495],[23.2929,42.5521],[23.2901,42.5538],[23.2879,42.5542],[23.2864,42.5579],[23.2852,42.5583],[23.2866,42.5591],[23.2854,42.5617]]]]}},{"type":"Feature","id":"rayon-sofia-16","properties":{"name":"Poduyane","province":"Sofia","department":"Oblast Sofia-Grad","type":"Rayon","country":"Bulgaria","iso":"BG"},"geometry":{"type":"MultiPolygon","coordinates":[[[[23.3331,42.7052],[23.3387,42.7097],[23.3459,42.7111],[23.3527,42.7159],[23.3521,42.7228],[23.3548,42.7271],[23.3703,42.7197],[23.3727,42.7172],[23.3741,42.7173],[23.3744,42.7163],[23.3862,42.7159],[23.386,42.7153],[23.392,42.7147],[23.3921,42.7097],[23.3986,42.7089],[23.4032,42.7061],[23.3915,42.703],[23.3898,42.7013],[23.3848,42.6981],[23.3792,42.697],[23.3796,42.6964],[23.379,42.6963],[23.3738,42.696],[23.3789,42.6886],[23.3777,42.6867],[23.3641,42.6954],[23.3595,42.6967],[23.3547,42.6969],[23.3524,42.6984],[23.3445,42.6999],[23.3331,42.7052]]]]}},{"type":"Feature","id":"rayon-sofia-17","properties":{"name":"Serdika","province":"Sofia","department":"Oblast Sofia-Grad","type":"Rayon","country":"Bulgaria","iso":"BG"},"geometry":{"type":"MultiPolygon","coordinates":[[[[23.2977,42.7148],[23.3054,42.7171],[23.3104,42.7166],[23.311,42.7173],[23.311,42.7192],[23.318,42.7285],[23.3257,42.748],[23.3471,42.778],[23.3474,42.7768],[23.3419,42.7701],[23.3384,42.7607],[23.3507,42.7588],[23.3527,42.76],[23.3597,42.7589],[23.3597,42.758],[23.3624,42.7583],[23.369,42.7575],[23.3694,42.7582],[23.376,42.7572],[23.3777,42.7604],[23.3797,42.7607],[23.3785,42.7558],[23.3772,42.7546],[23.3565,42.7471],[23.353,42.739],[23.3541,42.736],[23.3551,42.7279],[23.3521,42.7228],[23.3529,42.7162],[23.3466,42.7114],[23.3387,42.7097],[23.3337,42.7056],[23.3318,42.7049],[23.3284,42.7045],[23.3049,42.7059],[23.3041,42.706],[23.3043,42.7083],[23.303,42.7078],[23.2977,42.7148]]]]}},{"type":"Feature","id":"rayon-sofia-18","properties":{"name":"Slatina","province":"Sofia","department":"Oblast Sofia-Grad","type":"Rayon","country":"Bulgaria","iso":"BG"},"geometry":{"type":"MultiPolygon","coordinates":[[[[23.3476,42.6834],[23.3679,42.669],[23.3761,42.675],[23.3941,42.6718],[23.3983,42.6773],[23.4011,42.6862],[23.4161,42.6824],[23.4177,42.6851],[23.4254,42.6911],[23.4263,42.6975],[23.4187,42.698],[23.4188,42.6993],[23.4152,42.6996],[23.4136,42.7016],[23.3992,42.7047],[23.3915,42.703],[23.3898,42.7013],[23.3848,42.6981],[23.3792,42.697],[23.3796,42.6964],[23.379,42.6963],[23.3738,42.696],[23.3789,42.6886],[23.3777,42.6867],[23.3641,42.6954],[23.3595,42.6967],[23.3547,42.6969],[23.355,42.6921],[23.3518,42.6868],[23.3476,42.6834]]]]}},{"type":"Feature","id":"rayon-sofia-19","properties":{"name":"Sredets","province":"Sofia","department":"Oblast Sofia-Grad","type":"Rayon","country":"Bulgaria","iso":"BG"},"geometry":{"type":"MultiPolygon","coordinates":[[[[23.319,42.689],[23.3211,42.6958],[23.3209,42.6968],[23.3217,42.6977],[23.3259,42.6965],[23.3264,42.6973],[23.3293,42.6965],[23.3312,42.6968],[23.3307,42.6952],[23.3448,42.6925],[23.3437,42.6919],[23.3439,42.6911],[23.3516,42.6865],[23.3476,42.6834],[23.3454,42.6806],[23.3418,42.6775],[23.3307,42.6866],[23.3208,42.6833],[23.3218,42.6887],[23.319,42.689]]]]}},{"type":"Feature","id":"rayon-sofia-20","properties":{"name":"Studentski","province":"Sofia","department":"Oblast Sofia-Grad","type":"Rayon","country":"Bulgaria","iso":"BG"},"geometry":{"type":"MultiPolygon","coordinates":[[[[23.3337,42.6331],[23.3519,42.6257],[23.358,42.6244],[23.3588,42.6262],[23.3585,42.627],[23.3621,42.6307],[23.3617,42.6339],[23.3646,42.6379],[23.3645,42.6394],[23.3633,42.6413],[23.3642,42.6452],[23.3653,42.6469],[23.3647,42.6474],[23.3658,42.6487],[23.3651,42.6498],[23.3659,42.6525],[23.3685,42.6574],[23.3676,42.6582],[23.3673,42.6596],[23.3699,42.6616],[23.3687,42.6643],[23.3696,42.6652],[23.3684,42.6662],[23.3695,42.6678],[23.3679,42.669],[23.3624,42.6654],[23.3478,42.6596],[23.3389,42.6575],[23.3365,42.6576],[23.3354,42.6478],[23.3337,42.6451],[23.3347,42.6417],[23.3337,42.6331]]]]}},{"type":"Feature","id":"rayon-sofia-21","properties":{"name":"Triaditsa","province":"Sofia","department":"Oblast Sofia-Grad","type":"Rayon","country":"Bulgaria","iso":"BG"},"geometry":{"type":"MultiPolygon","coordinates":[[[[23.2831,42.6538],[23.2847,42.6562],[23.2875,42.6647],[23.2949,42.6723],[23.2986,42.678],[23.3026,42.6795],[23.3013,42.6845],[23.31,42.6868],[23.314,42.6895],[23.3153,42.6967],[23.3211,42.6958],[23.319,42.689],[23.3218,42.6887],[23.3208,42.6834],[23.3218,42.6785],[23.312,42.6742],[23.3095,42.6725],[23.312,42.6719],[23.3139,42.6708],[23.3128,42.6576],[23.3165,42.6593],[23.3158,42.6556],[23.316,42.6517],[23.3142,42.6452],[23.3125,42.6417],[23.2831,42.6538]]]]}},{"type":"Feature","id":"rayon-sofia-22","properties":{"name":"Vazrazhdane","province":"Sofia","department":"Oblast Sofia-Grad","type":"Rayon","country":"Bulgaria","iso":"BG"},"geometry":{"type":"MultiPolygon","coordinates":[[[[23.2871,42.6901],[23.2903,42.6913],[23.2949,42.6942],[23.2962,42.6967],[23.2992,42.7072],[23.3049,42.7059],[23.3239,42.7049],[23.3217,42.6976],[23.3209,42.6968],[23.3211,42.6958],[23.314,42.6969],[23.3053,42.6927],[23.2958,42.6897],[23.2885,42.6889],[23.2893,42.6891],[23.2871,42.6901]]]]}},{"type":"Feature","id":"rayon-sofia-23","properties":{"name":"Vitosha","province":"Sofia","department":"Oblast Sofia-Grad","type":"Rayon","country":"Bulgaria","iso":"BG"},"geometry":{"type":"MultiPolygon","coordinates":[[[[23.1394,42.5916],[23.1404,42.5898],[23.1432,42.5873],[23.1443,42.5869],[23.144,42.5877],[23.1448,42.5881],[23.1452,42.5871],[23.1464,42.5867],[23.1478,42.5869],[23.147,42.5878],[23.1484,42.5878],[23.1494,42.5871],[23.1495,42.5889],[23.1504,42.5898],[23.1541,42.5907],[23.1537,42.5921],[23.1651,42.5922],[23.1674,42.5914],[23.1676,42.5923],[23.1697,42.5925],[23.1726,42.5912],[23.1794,42.5926],[23.1821,42.5918],[23.1865,42.5923],[23.1876,42.5919],[23.1881,42.5905],[23.1927,42.5899],[23.1983,42.5902],[23.1999,42.5892],[23.2062,42.5879],[23.2092,42.5849],[23.2143,42.5856],[23.2183,42.5834],[23.2242,42.583],[23.2254,42.5806],[23.2275,42.5797],[23.2305,42.575],[23.2332,42.5751],[23.2366,42.5735],[23.2375,42.5727],[23.2372,42.5721],[23.2381,42.5707],[23.2439,42.5719],[23.249,42.5715],[23.25,42.5709],[23.251,42.5686],[23.2579,42.5639],[23.2687,42.5628],[23.2763,42.5638],[23.2818,42.5636],[23.2842,42.563],[23.2855,42.5617],[23.2893,42.5638],[23.2907,42.5667],[23.2909,42.5682],[23.2896,42.5723],[23.2879,42.5752],[23.2893,42.5845],[23.2929,42.5868],[23.2975,42.587],[23.2972,42.5881],[23.2992,42.589],[23.3083,42.5884],[23.3112,42.5888],[23.3123,42.5914],[23.3117,42.5946],[23.3177,42.5907],[23.3236,42.5938],[23.3315,42.5945],[23.3386,42.598],[23.3478,42.5996],[23.348,42.6006],[23.3516,42.6039],[23.3564,42.605],[23.36,42.6091],[23.3698,42.614],[23.3741,42.6149],[23.3757,42.6168],[23.3779,42.618],[23.3789,42.6201],[23.3866,42.6217],[23.3883,42.6231],[23.3606,42.624],[23.3525,42.6255],[23.2831,42.6538],[23.2847,42.6562],[23.2867,42.6632],[23.288,42.6652],[23.2795,42.6682],[23.2726,42.6718],[23.2629,42.6663],[23.2598,42.6652],[23.2519,42.6716],[23.2468,42.671],[23.2454,42.6716],[23.2408,42.6706],[23.2301,42.6646],[23.2223,42.6624],[23.2103,42.6579],[23.2094,42.6549],[23.2046,42.6532],[23.1987,42.6528],[23.1984,42.6511],[23.1964,42.6486],[23.194,42.6476],[23.1839,42.6464],[23.1777,42.6478],[23.1756,42.649],[23.173,42.6492],[23.1687,42.6451],[23.1642,42.6431],[23.1627,42.6416],[23.164,42.639],[23.1648,42.6387],[23.1653,42.6353],[23.1682,42.6333],[23.1692,42.6296],[23.171,42.6275],[23.1737,42.626],[23.1753,42.6235],[23.1704,42.6179],[23.1728,42.6168],[23.1728,42.6161],[23.1717,42.6149],[23.1718,42.6136],[23.1656,42.6104],[23.1619,42.6094],[23.153,42.6055],[23.1516,42.6035],[23.1476,42.6002],[23.1487,42.599],[23.1447,42.5982],[23.1397,42.5942],[23.1411,42.5925],[23.1394,42.5916]]]]}},{"type":"Feature","id":"rayon-sofia-24","properties":{"name":"Vrabnitsa","province":"Sofia","department":"Oblast Sofia-Grad","type":"Rayon","country":"Bulgaria","iso":"BG"},"geometry":{"type":"MultiPolygon","coordinates":[[[[23.2005,42.771],[23.2039,42.7762],[23.2033,42.7765],[23.2123,42.7875],[23.213,42.7876],[23.2153,42.784],[23.2173,42.7843],[23.2221,42.7863],[23.2215,42.7868],[23.2254,42.789],[23.2265,42.7879],[23.2418,42.7965],[23.2478,42.7951],[23.2492,42.7982],[23.2497,42.7983],[23.2504,42.7974],[23.2508,42.7981],[23.2514,42.7962],[23.2634,42.8023],[23.265,42.8003],[23.2666,42.8022],[23.2692,42.8019],[23.2687,42.8001],[23.2707,42.7998],[23.2705,42.799],[23.2723,42.7987],[23.2735,42.7989],[23.2738,42.7998],[23.2721,42.8],[23.2725,42.8014],[23.274,42.8012],[23.2743,42.8026],[23.2763,42.8023],[23.2759,42.8009],[23.2805,42.8003],[23.2799,42.7982],[23.2814,42.7986],[23.2813,42.7974],[23.2823,42.7973],[23.2821,42.7963],[23.2836,42.7962],[23.2836,42.7951],[23.2856,42.7949],[23.2855,42.7936],[23.2874,42.7935],[23.2873,42.7923],[23.2854,42.7923],[23.2851,42.7896],[23.29,42.7893],[23.29,42.7889],[23.2911,42.7888],[23.2911,42.7881],[23.2922,42.7881],[23.292,42.7848],[23.2907,42.7848],[23.2888,42.7813],[23.2905,42.7798],[23.2885,42.7774],[23.2885,42.7764],[23.2859,42.7745],[23.283,42.7746],[23.283,42.7737],[23.2821,42.7734],[23.2791,42.7676],[23.2798,42.765],[23.2804,42.7651],[23.2822,42.7582],[23.2848,42.7576],[23.285,42.7563],[23.2903,42.7564],[23.2909,42.757],[23.2935,42.7572],[23.2946,42.7569],[23.2952,42.7556],[23.2965,42.7556],[23.2965,42.754],[23.304,42.7532],[23.3006,42.7507],[23.2976,42.7472],[23.295,42.7462],[23.2947,42.7446],[23.2919,42.7431],[23.2937,42.7426],[23.2935,42.7408],[23.2964,42.7395],[23.2975,42.738],[23.2862,42.7315],[23.2881,42.7286],[23.2864,42.7264],[23.2949,42.723],[23.2853,42.718],[23.2809,42.7176],[23.2799,42.717],[23.262,42.7268],[23.2689,42.7341],[23.2561,42.7457],[23.2478,42.7348],[23.2411,42.7385],[23.2401,42.7374],[23.239,42.738],[23.2386,42.7376],[23.2391,42.7373],[23.2379,42.7364],[23.2268,42.7425],[23.2261,42.7418],[23.2121,42.7452],[23.2139,42.7537],[23.2156,42.7528],[23.2184,42.7566],[23.2162,42.7569],[23.2095,42.7611],[23.2127,42.7637],[23.2063,42.767],[23.2078,42.7698],[23.2075,42.7719],[23.2042,42.7709],[23.2026,42.7712],[23.2024,42.7719],[23.2019,42.7711],[23.2005,42.771]]]]}}]}