{"type":"FeatureCollection","features":[{"type":"Feature","id":"linnaosa-tallinn-1","properties":{"name":"Haabersti","province":"Tallinn","department":"Harju maakond","type":"Linnaosa","country":"Estonia","iso":"EE"},"geometry":{"type":"MultiPolygon","coordinates":[[[[24.5503,59.4388],[24.5624,59.4327],[24.565,59.4349],[24.5718,59.4372],[24.5777,59.437],[24.5955,59.4325],[24.6036,59.4313],[24.6098,59.4274],[24.6108,59.4261],[24.6106,59.4254],[24.6077,59.4252],[24.6049,59.4196],[24.6045,59.4169],[24.6076,59.4126],[24.6109,59.4105],[24.6169,59.4086],[24.6192,59.4072],[24.6106,59.4032],[24.6048,59.3996],[24.5941,59.3956],[24.6202,59.3885],[24.6221,59.3906],[24.6251,59.3899],[24.6267,59.3919],[24.6287,59.393],[24.6424,59.3963],[24.6447,59.3987],[24.6439,59.4029],[24.6461,59.4057],[24.67,59.4164],[24.6799,59.4244],[24.684,59.423],[24.6852,59.4244],[24.6871,59.4237],[24.6894,59.4256],[24.6945,59.4258],[24.6961,59.4276],[24.6984,59.4271],[24.6998,59.4295],[24.6883,59.4299],[24.6827,59.4357],[24.6796,59.4367],[24.6765,59.4351],[24.6778,59.435],[24.6782,59.4342],[24.6769,59.4348],[24.6752,59.4344],[24.6725,59.4324],[24.6705,59.4323],[24.6698,59.4314],[24.6652,59.4306],[24.6645,59.4301],[24.6653,59.4292],[24.664,59.4286],[24.6599,59.4296],[24.6577,59.4292],[24.6544,59.4296],[24.6474,59.4346],[24.6395,59.4374],[24.6362,59.438],[24.6369,59.4383],[24.6339,59.4385],[24.6221,59.4441],[24.617,59.4457],[24.6158,59.4467],[24.606,59.4492],[24.6074,59.4512],[24.6044,59.4508],[24.6017,59.452],[24.6037,59.4532],[24.6084,59.4516],[24.6037,59.4534],[24.6004,59.4513],[24.5951,59.4523],[24.5874,59.4564],[24.5865,59.4585],[24.5768,59.4601],[24.5742,59.4619],[24.5704,59.4615],[24.5694,59.4599],[24.5731,59.4544],[24.5758,59.4522],[24.5757,59.4503],[24.5733,59.4472],[24.5655,59.4432],[24.565,59.4424],[24.5637,59.4422],[24.5643,59.4412],[24.5624,59.4416],[24.5563,59.4396],[24.5503,59.4388]]],[[[24.5737,59.4647],[24.5716,59.4643],[24.5742,59.464],[24.5766,59.4626],[24.574,59.4643],[24.5753,59.4641],[24.5757,59.4646],[24.5737,59.4647]]],[[[24.5772,59.4648],[24.5779,59.464],[24.5778,59.4648],[24.5772,59.4648]]],[[[24.5838,59.4623],[24.583,59.4621],[24.5843,59.4613],[24.5846,59.4619],[24.5838,59.4623]]]]}},{"type":"Feature","id":"linnaosa-tallinn-2","properties":{"name":"Kesklinn","province":"Tallinn","department":"Harju maakond","type":"Linnaosa","country":"Estonia","iso":"EE"},"geometry":{"type":"MultiPolygon","coordinates":[[[[24.7237,59.4343],[24.7234,59.4315],[24.7286,59.425],[24.7343,59.4132],[24.7337,59.4107],[24.7265,59.4024],[24.7302,59.4029],[24.7255,59.3938],[24.7274,59.3926],[24.7288,59.3943],[24.7312,59.3938],[24.7334,59.3904],[24.7488,59.3764],[24.7605,59.3749],[24.762,59.3758],[24.7692,59.3764],[24.7717,59.3741],[24.7811,59.3767],[24.7815,59.3798],[24.7877,59.3827],[24.787,59.3845],[24.7892,59.3867],[24.7913,59.3905],[24.792,59.3907],[24.7916,59.3911],[24.7958,59.3931],[24.7925,59.3951],[24.7926,59.3981],[24.7896,59.4019],[24.7947,59.4067],[24.7957,59.4076],[24.8062,59.4078],[24.8071,59.4071],[24.8067,59.4066],[24.8095,59.4044],[24.8099,59.4048],[24.8136,59.4023],[24.8161,59.4071],[24.8147,59.4079],[24.8191,59.4095],[24.8138,59.4121],[24.8015,59.4123],[24.7925,59.4201],[24.787,59.4235],[24.787,59.4245],[24.7851,59.4247],[24.7793,59.4272],[24.7809,59.4274],[24.7903,59.4334],[24.7938,59.4345],[24.7938,59.4351],[24.7983,59.4354],[24.7986,59.4366],[24.8091,59.4415],[24.8145,59.4449],[24.8118,59.4456],[24.8129,59.447],[24.813,59.4518],[24.8156,59.4537],[24.8164,59.4568],[24.8104,59.457],[24.8059,59.451],[24.8018,59.448],[24.7958,59.445],[24.7899,59.4435],[24.782,59.4441],[24.7762,59.4463],[24.7738,59.4454],[24.7713,59.4436],[24.7698,59.444],[24.7715,59.4458],[24.7711,59.4459],[24.7674,59.4441],[24.7601,59.4428],[24.7608,59.442],[24.7585,59.4413],[24.758,59.4427],[24.7634,59.4438],[24.7637,59.4444],[24.7673,59.4453],[24.7629,59.4447],[24.7622,59.4454],[24.772,59.4493],[24.7756,59.4491],[24.7747,59.4498],[24.7714,59.4498],[24.7611,59.4473],[24.7596,59.4494],[24.756,59.4492],[24.7562,59.4484],[24.7555,59.4481],[24.7542,59.4478],[24.7538,59.4485],[24.7539,59.4473],[24.755,59.4474],[24.7552,59.446],[24.7542,59.446],[24.7543,59.4446],[24.7533,59.4446],[24.7532,59.4435],[24.7468,59.4441],[24.7455,59.4438],[24.7445,59.4424],[24.7347,59.4386],[24.7325,59.4362],[24.7326,59.435],[24.7237,59.4343]]],[[[24.744,59.5764],[24.7471,59.573],[24.753,59.5729],[24.7578,59.571],[24.7574,59.5718],[24.7579,59.5725],[24.7631,59.5729],[24.7635,59.5738],[24.766,59.5751],[24.7705,59.5764],[24.7796,59.5826],[24.7856,59.5843],[24.7867,59.5861],[24.7835,59.5881],[24.783,59.5889],[24.7836,59.5893],[24.7812,59.5896],[24.7834,59.5908],[24.7796,59.5915],[24.7785,59.5912],[24.7799,59.5902],[24.7803,59.5867],[24.7797,59.5858],[24.7753,59.5841],[24.7732,59.5842],[24.7715,59.585],[24.7716,59.5859],[24.7676,59.5869],[24.7673,59.5882],[24.7647,59.5888],[24.7636,59.5902],[24.7629,59.5893],[24.7609,59.5887],[24.7571,59.5885],[24.7554,59.5891],[24.7555,59.5885],[24.7543,59.5876],[24.7509,59.5863],[24.7399,59.5853],[24.7408,59.5844],[24.7392,59.5837],[24.7398,59.5827],[24.7377,59.5804],[24.7419,59.5783],[24.744,59.5764]]]]}},{"type":"Feature","id":"linnaosa-tallinn-3","properties":{"name":"Kristiine","province":"Tallinn","department":"Harju maakond","type":"Linnaosa","country":"Estonia","iso":"EE"},"geometry":{"type":"MultiPolygon","coordinates":[[[[24.6737,59.419],[24.6799,59.4244],[24.684,59.423],[24.6852,59.4244],[24.6871,59.4237],[24.6894,59.4256],[24.6945,59.4258],[24.6961,59.4276],[24.6984,59.4271],[24.6998,59.4295],[24.7043,59.4294],[24.7151,59.4327],[24.7237,59.4343],[24.7234,59.4315],[24.7286,59.425],[24.7304,59.4218],[24.734,59.4141],[24.7342,59.4116],[24.7265,59.4024],[24.7302,59.4029],[24.7255,59.3938],[24.7201,59.3951],[24.7171,59.3933],[24.7142,59.3948],[24.7019,59.3934],[24.7024,59.3952],[24.7033,59.3951],[24.7058,59.3972],[24.7063,59.402],[24.7072,59.403],[24.7068,59.4032],[24.7105,59.4065],[24.7098,59.4066],[24.7089,59.4086],[24.7076,59.4089],[24.7073,59.4098],[24.7062,59.4104],[24.6905,59.4139],[24.6908,59.4143],[24.6806,59.4169],[24.6786,59.4169],[24.6737,59.419]]]]}},{"type":"Feature","id":"linnaosa-tallinn-4","properties":{"name":"Lasnamäe","province":"Tallinn","department":"Harju maakond","type":"Linnaosa","country":"Estonia","iso":"EE"},"geometry":{"type":"MultiPolygon","coordinates":[[[[24.7793,59.4272],[24.7851,59.4247],[24.787,59.4245],[24.787,59.4235],[24.7925,59.4201],[24.8015,59.4123],[24.8138,59.4121],[24.8191,59.4095],[24.8248,59.412],[24.8398,59.4101],[24.8702,59.4107],[24.8709,59.4144],[24.8704,59.416],[24.8708,59.4183],[24.8697,59.4184],[24.8688,59.4214],[24.8699,59.4227],[24.8885,59.427],[24.9044,59.4288],[24.9219,59.4322],[24.9263,59.4355],[24.9248,59.4359],[24.9221,59.4391],[24.9174,59.4395],[24.9172,59.4429],[24.9154,59.4444],[24.9148,59.4458],[24.9111,59.4469],[24.9118,59.4486],[24.9101,59.451],[24.9115,59.4532],[24.909,59.4547],[24.9093,59.4566],[24.9088,59.4571],[24.9052,59.4567],[24.9044,59.4573],[24.9056,59.4589],[24.9055,59.4606],[24.9021,59.4592],[24.8986,59.4558],[24.8933,59.4545],[24.8698,59.4551],[24.8617,59.4548],[24.8514,59.4517],[24.8476,59.4514],[24.8329,59.4531],[24.8156,59.4537],[24.813,59.4518],[24.8129,59.447],[24.8118,59.4456],[24.8145,59.4449],[24.8122,59.4431],[24.7986,59.4366],[24.7983,59.4354],[24.7938,59.4351],[24.7938,59.4345],[24.7903,59.4334],[24.7809,59.4274],[24.7793,59.4272]]]]}},{"type":"Feature","id":"linnaosa-tallinn-5","properties":{"name":"Mustamäe","province":"Tallinn","department":"Harju maakond","type":"Linnaosa","country":"Estonia","iso":"EE"},"geometry":{"type":"MultiPolygon","coordinates":[[[[24.6392,59.3952],[24.6424,59.3963],[24.6439,59.3976],[24.6448,59.3994],[24.6438,59.4022],[24.644,59.4035],[24.6465,59.4061],[24.67,59.4164],[24.6737,59.419],[24.6786,59.4169],[24.6806,59.4169],[24.6908,59.4143],[24.6905,59.4139],[24.7062,59.4104],[24.7073,59.4098],[24.7076,59.4089],[24.7089,59.4086],[24.7098,59.4066],[24.7105,59.4065],[24.7068,59.4032],[24.7072,59.403],[24.7063,59.402],[24.7055,59.3968],[24.7033,59.3951],[24.7026,59.3954],[24.7019,59.3934],[24.6999,59.393],[24.6961,59.3926],[24.6962,59.3931],[24.6896,59.3931],[24.6812,59.391],[24.6742,59.3926],[24.6639,59.3912],[24.6627,59.3933],[24.6589,59.3934],[24.6592,59.3941],[24.6586,59.3943],[24.6573,59.3944],[24.6529,59.3929],[24.6522,59.3935],[24.6486,59.393],[24.6413,59.3937],[24.6392,59.3952]]]]}},{"type":"Feature","id":"linnaosa-tallinn-6","properties":{"name":"Nõmme","province":"Tallinn","department":"Harju maakond","type":"Linnaosa","country":"Estonia","iso":"EE"},"geometry":{"type":"MultiPolygon","coordinates":[[[[24.6128,59.3526],[24.6122,59.3528],[24.6117,59.3543],[24.6145,59.3544],[24.6139,59.3557],[24.6109,59.356],[24.6156,59.3677],[24.6235,59.3861],[24.627,59.3863],[24.6202,59.3885],[24.6221,59.3906],[24.6251,59.3899],[24.6267,59.3919],[24.6287,59.393],[24.6392,59.3952],[24.6413,59.3937],[24.6486,59.393],[24.6522,59.3935],[24.6529,59.3929],[24.6573,59.3944],[24.6586,59.3943],[24.6592,59.3941],[24.6589,59.3934],[24.6627,59.3933],[24.6639,59.3912],[24.6742,59.3926],[24.6812,59.391],[24.6896,59.3931],[24.6962,59.3931],[24.6961,59.3926],[24.7142,59.3948],[24.7171,59.3933],[24.7201,59.3951],[24.7255,59.3938],[24.7274,59.3926],[24.7288,59.3943],[24.7312,59.3938],[24.7334,59.3904],[24.7482,59.3767],[24.7605,59.3749],[24.763,59.3678],[24.7736,59.3601],[24.7147,59.3579],[24.7191,59.364],[24.7144,59.3641],[24.7141,59.3633],[24.7075,59.3649],[24.7023,59.3621],[24.6971,59.358],[24.696,59.3563],[24.6716,59.3649],[24.6595,59.3627],[24.6553,59.3584],[24.6489,59.3549],[24.6471,59.3547],[24.6451,59.3553],[24.6417,59.3538],[24.6382,59.3535],[24.6344,59.354],[24.6343,59.3533],[24.6325,59.3528],[24.6317,59.3532],[24.6289,59.3518],[24.6177,59.3537],[24.6158,59.3535],[24.6147,59.3524],[24.6128,59.3526]]]]}},{"type":"Feature","id":"linnaosa-tallinn-7","properties":{"name":"Põhja-Tallinn","province":"Tallinn","department":"Harju maakond","type":"Linnaosa","country":"Estonia","iso":"EE"},"geometry":{"type":"MultiPolygon","coordinates":[[[[24.6459,59.4694],[24.647,59.4665],[24.6466,59.4624],[24.6473,59.4616],[24.648,59.4615],[24.6473,59.4625],[24.6475,59.466],[24.6516,59.4648],[24.6495,59.4628],[24.6521,59.462],[24.6497,59.4598],[24.6564,59.4566],[24.6503,59.4599],[24.6525,59.4617],[24.6619,59.4587],[24.6631,59.4579],[24.6599,59.4567],[24.6632,59.4577],[24.6648,59.456],[24.6612,59.4543],[24.6603,59.4546],[24.6621,59.453],[24.663,59.4528],[24.6617,59.4542],[24.6656,59.4558],[24.6693,59.4535],[24.6683,59.4526],[24.6696,59.45],[24.67,59.4501],[24.6694,59.4516],[24.6699,59.4521],[24.6718,59.4517],[24.6712,59.4514],[24.6726,59.4507],[24.6738,59.451],[24.6729,59.4505],[24.6737,59.4501],[24.6798,59.4504],[24.6831,59.4494],[24.6843,59.4444],[24.6812,59.4381],[24.6796,59.4367],[24.6827,59.4357],[24.6883,59.4299],[24.7043,59.4294],[24.7179,59.4333],[24.7259,59.4347],[24.7326,59.435],[24.7325,59.4362],[24.7347,59.4386],[24.7438,59.4421],[24.7452,59.4436],[24.7468,59.4441],[24.7532,59.4435],[24.7533,59.4446],[24.7543,59.4446],[24.7542,59.446],[24.7552,59.446],[24.755,59.4474],[24.7539,59.4473],[24.7537,59.4487],[24.7524,59.4484],[24.7526,59.4474],[24.7487,59.4464],[24.7489,59.4458],[24.7475,59.4461],[24.7507,59.4472],[24.7497,59.4475],[24.7501,59.4479],[24.7496,59.4475],[24.745,59.4486],[24.7432,59.4506],[24.7403,59.4518],[24.7402,59.4524],[24.7398,59.4521],[24.7401,59.4545],[24.7387,59.4552],[24.7369,59.4551],[24.7396,59.4546],[24.7395,59.453],[24.735,59.453],[24.7324,59.4539],[24.7298,59.4522],[24.7282,59.4527],[24.7302,59.4548],[24.7276,59.4523],[24.7266,59.4526],[24.7256,59.4519],[24.7208,59.4535],[24.7195,59.4544],[24.7192,59.4568],[24.7221,59.4589],[24.7239,59.4584],[24.7188,59.4601],[24.7213,59.4589],[24.7192,59.4573],[24.7174,59.4579],[24.7187,59.4589],[24.7167,59.458],[24.7159,59.459],[24.7063,59.4576],[24.7051,59.4562],[24.7015,59.4552],[24.7004,59.4555],[24.7,59.4559],[24.7026,59.4566],[24.7033,59.4574],[24.7029,59.4577],[24.705,59.4582],[24.7029,59.459],[24.7032,59.4594],[24.7071,59.4588],[24.7163,59.4641],[24.7197,59.47],[24.7235,59.473],[24.7287,59.473],[24.7239,59.4739],[24.7202,59.476],[24.7133,59.4774],[24.7122,59.4807],[24.7101,59.4824],[24.7101,59.4834],[24.7082,59.4858],[24.7065,59.4862],[24.7075,59.4844],[24.707,59.4813],[24.7035,59.4794],[24.7025,59.4794],[24.6995,59.4816],[24.6959,59.4808],[24.6936,59.4811],[24.6919,59.4821],[24.6913,59.4843],[24.6892,59.4857],[24.6877,59.4854],[24.6857,59.4839],[24.6848,59.4822],[24.6854,59.4805],[24.6891,59.4763],[24.6968,59.4749],[24.6974,59.4743],[24.6971,59.4735],[24.6954,59.4734],[24.6971,59.473],[24.6971,59.4714],[24.6962,59.47],[24.6924,59.4691],[24.6921,59.4669],[24.6898,59.4653],[24.6848,59.4643],[24.6689,59.4631],[24.6621,59.4653],[24.6615,59.4669],[24.6521,59.4676],[24.6465,59.4709],[24.6474,59.4699],[24.6459,59.4694]]],[[[24.6582,59.4558],[24.6596,59.4551],[24.6582,59.4558],[24.6582,59.4558]]],[[[24.7248,59.4581],[24.7271,59.4573],[24.7248,59.4581],[24.7248,59.4581]]],[[[24.7306,59.4562],[24.7279,59.4571],[24.7309,59.456],[24.7354,59.4557],[24.7306,59.4562]]],[[[24.7491,59.4519],[24.7532,59.4506],[24.7491,59.4519],[24.7491,59.4519]]]]}},{"type":"Feature","id":"linnaosa-tallinn-8","properties":{"name":"Pirita","province":"Tallinn","department":"Harju maakond","type":"Linnaosa","country":"Estonia","iso":"EE"},"geometry":{"type":"MultiPolygon","coordinates":[[[[24.8104,59.457],[24.8117,59.4585],[24.8161,59.4611],[24.8159,59.4616],[24.8207,59.4646],[24.8208,59.4667],[24.8169,59.4683],[24.8175,59.4701],[24.817,59.4684],[24.8212,59.4667],[24.8228,59.4669],[24.8231,59.4677],[24.8225,59.468],[24.821,59.4673],[24.8224,59.468],[24.8216,59.4684],[24.8202,59.4676],[24.8216,59.4684],[24.8205,59.4688],[24.8195,59.4683],[24.8215,59.4695],[24.8206,59.4689],[24.8217,59.4685],[24.8226,59.469],[24.8218,59.4685],[24.8232,59.4682],[24.8251,59.4695],[24.8216,59.4709],[24.8182,59.4706],[24.8216,59.471],[24.8261,59.4692],[24.8277,59.4698],[24.833,59.4748],[24.8362,59.4801],[24.8378,59.4851],[24.8377,59.4866],[24.8366,59.4886],[24.8299,59.4915],[24.8269,59.4907],[24.8286,59.4917],[24.8255,59.4949],[24.8268,59.495],[24.8292,59.4981],[24.8343,59.497],[24.8566,59.4941],[24.877,59.4931],[24.8886,59.4908],[24.8892,59.488],[24.8878,59.4852],[24.8922,59.4829],[24.8943,59.4832],[24.9052,59.4763],[24.9083,59.4766],[24.9144,59.4736],[24.9153,59.4707],[24.9153,59.4699],[24.9087,59.4692],[24.9078,59.4679],[24.9047,59.4673],[24.9039,59.4634],[24.9055,59.4606],[24.9021,59.4592],[24.8986,59.4558],[24.8945,59.4546],[24.8698,59.4551],[24.8617,59.4548],[24.8514,59.4517],[24.8474,59.4514],[24.8329,59.4531],[24.8156,59.4537],[24.8164,59.4568],[24.8104,59.457]]]]}}]}