{"type":"FeatureCollection","features":[{"type":"Feature","id":"hn0803","properties":{"name":"Cedros","province":"Francisco Morazán","department":"Francisco Morazán","type":"Municipio","country":"Honduras","iso":"HN"},"geometry":{"type":"Polygon","coordinates":[[[-87.104,14.6669],[-87.1082,14.6647],[-87.1099,14.6672],[-87.1119,14.6673],[-87.115,14.6632],[-87.1165,14.6627],[-87.1192,14.666],[-87.124,14.6685],[-87.1281,14.666],[-87.1327,14.6677],[-87.1332,14.6697],[-87.1351,14.6701],[-87.1366,14.6729],[-87.1396,14.6741],[-87.1363,14.6803],[-87.1366,14.6812],[-87.1404,14.6816],[-87.1431,14.6829],[-87.1453,14.6809],[-87.1465,14.6811],[-87.1485,14.6863],[-87.1511,14.6892],[-87.1508,14.6913],[-87.1534,14.6927],[-87.1558,14.6929],[-87.1563,14.6937],[-87.1552,14.6948],[-87.1555,14.6964],[-87.1582,14.6962],[-87.1596,14.699],[-87.1623,14.6993],[-87.1615,14.7039],[-87.164,14.7044],[-87.1665,14.7007],[-87.1722,14.6963],[-87.1729,14.6931],[-87.1759,14.6917],[-87.1782,14.6894],[-87.1794,14.6865],[-87.1833,14.6873],[-87.1866,14.6918],[-87.188,14.6914],[-87.1914,14.6888],[-87.1935,14.6885],[-87.1945,14.6869],[-87.1941,14.6843],[-87.1948,14.6828],[-87.2054,14.676],[-87.2063,14.6745],[-87.2079,14.6746],[-87.2084,14.6732],[-87.2103,14.6737],[-87.2126,14.6701],[-87.2112,14.6657],[-87.2131,14.6647],[-87.2117,14.663],[-87.2137,14.6618],[-87.2133,14.6601],[-87.2141,14.6594],[-87.2128,14.6584],[-87.2129,14.6562],[-87.2103,14.6568],[-87.209,14.6548],[-87.2077,14.6481],[-87.2114,14.6467],[-87.2131,14.6374],[-87.2159,14.6368],[-87.2198,14.6346],[-87.2176,14.6323],[-87.2219,14.631],[-87.2267,14.6233],[-87.2263,14.6205],[-87.2243,14.6206],[-87.2242,14.619],[-87.2227,14.6194],[-87.2228,14.6177],[-87.2207,14.6178],[-87.2202,14.6166],[-87.2207,14.6155],[-87.2237,14.6145],[-87.225,14.609],[-87.2276,14.6064],[-87.2273,14.6035],[-87.2279,14.6023],[-87.2261,14.6019],[-87.2259,14.6006],[-87.2281,14.5905],[-87.2294,14.5887],[-87.2294,14.5856],[-87.236,14.5797],[-87.238,14.579],[-87.237,14.5589],[-87.2758,14.5629],[-87.281,14.5652],[-87.2846,14.564],[-87.2863,14.562],[-87.2947,14.5609],[-87.2969,14.5624],[-87.2988,14.5654],[-87.3055,14.565],[-87.3108,14.5656],[-87.3177,14.5626],[-87.3258,14.5627],[-87.3253,14.5588],[-87.3202,14.5523],[-87.3204,14.5483],[-87.3216,14.5422],[-87.3245,14.5406],[-87.329,14.5397],[-87.3289,14.5376],[-87.3281,14.5369],[-87.3241,14.537],[-87.314,14.5336],[-87.3138,14.53],[-87.3114,14.5279],[-87.3132,14.5246],[-87.3129,14.5224],[-87.3076,14.5165],[-87.3052,14.5175],[-87.3034,14.515],[-87.3008,14.5145],[-87.2984,14.511],[-87.3004,14.5088],[-87.2956,14.5051],[-87.2951,14.5008],[-87.2974,14.4981],[-87.3019,14.4975],[-87.3024,14.4957],[-87.3033,14.4952],[-87.3035,14.4932],[-87.3051,14.4923],[-87.3056,14.4897],[-87.3108,14.4885],[-87.3133,14.4866],[-87.3134,14.4858],[-87.3119,14.4849],[-87.3121,14.484],[-87.3204,14.4728],[-87.3279,14.4723],[-87.3286,14.4691],[-87.3306,14.4689],[-87.3328,14.4675],[-87.3366,14.4677],[-87.3389,14.4657],[-87.342,14.4679],[-87.3434,14.4652],[-87.3479,14.4666],[-87.3482,14.4646],[-87.3515,14.4641],[-87.3539,14.4605],[-87.3522,14.4585],[-87.354,14.4581],[-87.3536,14.455],[-87.3578,14.4542],[-87.3591,14.4531],[-87.3602,14.4495],[-87.3639,14.449],[-87.3646,14.4474],[-87.3669,14.4472],[-87.3695,14.4447],[-87.375,14.4463],[-87.3764,14.4486],[-87.3783,14.4474],[-87.3822,14.4477],[-87.3847,14.4507],[-87.386,14.45],[-87.388,14.4508],[-87.3913,14.4503],[-87.3913,14.4521],[-87.3927,14.453],[-87.3962,14.4525],[-87.3993,14.4504],[-87.4028,14.4495],[-87.4043,14.4411],[-87.4028,14.4332],[-87.4042,14.4292],[-87.4087,14.426],[-87.4175,14.4245],[-87.4194,14.4218],[-87.4184,14.4205],[-87.4154,14.419],[-87.4084,14.4178],[-87.4045,14.4153],[-87.3969,14.4163],[-87.3944,14.4069],[-87.3906,14.4015],[-87.3853,14.3976],[-87.3847,14.394],[-87.3944,14.3659],[-87.3902,14.3632],[-87.3815,14.3611],[-87.3733,14.3627],[-87.3682,14.365],[-87.3623,14.3622],[-87.3541,14.3557],[-87.3274,14.3469],[-87.3179,14.3577],[-87.3085,14.3531],[-87.2877,14.3527],[-87.2776,14.3568],[-87.2611,14.3559],[-87.2379,14.371],[-87.2371,14.3875],[-87.2298,14.3929],[-87.2291,14.3992],[-87.2295,14.4038],[-87.228,14.4067],[-87.2295,14.4109],[-87.2276,14.4122],[-87.2252,14.4165],[-87.2231,14.4171],[-87.2204,14.4192],[-87.2209,14.4213],[-87.2194,14.4231],[-87.2203,14.4257],[-87.2183,14.4274],[-87.2177,14.4292],[-87.2158,14.4301],[-87.2136,14.4299],[-87.212,14.4312],[-87.2106,14.4364],[-87.2074,14.4385],[-87.2044,14.4434],[-87.2024,14.4435],[-87.2017,14.445],[-87.1704,14.472],[-87.1616,14.4756],[-87.1539,14.475],[-87.15,14.4767],[-87.1491,14.4741],[-87.146,14.4761],[-87.1444,14.4747],[-87.1397,14.4739],[-87.137,14.4753],[-87.1315,14.4742],[-87.1236,14.4751],[-87.1221,14.4731],[-87.1187,14.4727],[-87.1167,14.4713],[-87.1147,14.4715],[-87.1142,14.4699],[-87.1088,14.4696],[-87.1059,14.4702],[-87.1047,14.4694],[-87.0977,14.4703],[-87.0952,14.4695],[-87.0902,14.471],[-87.0888,14.4733],[-87.0846,14.4764],[-87.082,14.475],[-87.0806,14.4761],[-87.0746,14.4756],[-87.0741,14.4731],[-87.0711,14.4725],[-87.0661,14.4742],[-87.0641,14.4728],[-87.063,14.4739],[-87.056,14.474],[-87.0534,14.4726],[-87.0527,14.4736],[-87.0479,14.4755],[-87.0444,14.4756],[-87.0413,14.4786],[-87.0222,14.482],[-87.0231,14.5501],[-87.0296,14.5603],[-87.0351,14.5652],[-87.036,14.5679],[-87.0378,14.5701],[-87.0378,14.5721],[-87.0355,14.5731],[-87.0366,14.5749],[-87.0359,14.5762],[-87.0362,14.5781],[-87.0344,14.5802],[-87.0349,14.5834],[-87.0316,14.5859],[-87.0327,14.5878],[-87.0309,14.5908],[-87.0306,14.5934],[-87.0284,14.593],[-87.0279,14.5935],[-87.0282,14.5957],[-87.0295,14.5976],[-87.0283,14.5998],[-87.0287,14.6054],[-87.0299,14.6058],[-87.0289,14.6068],[-87.0311,14.6095],[-87.0332,14.6097],[-87.0333,14.6109],[-87.0319,14.6125],[-87.0333,14.6136],[-87.0331,14.6183],[-87.0342,14.6203],[-87.0331,14.622],[-87.0402,14.6251],[-87.0406,14.626],[-87.0398,14.6275],[-87.0409,14.628],[-87.0413,14.6311],[-87.0435,14.6341],[-87.0423,14.6373],[-87.0445,14.6378],[-87.0446,14.6393],[-87.0459,14.6391],[-87.0492,14.6411],[-87.0501,14.6435],[-87.0532,14.6437],[-87.0528,14.6466],[-87.0545,14.648],[-87.056,14.6506],[-87.0624,14.652],[-87.0677,14.6486],[-87.0709,14.6484],[-87.0746,14.6505],[-87.0748,14.6534],[-87.0882,14.6581],[-87.0885,14.6614],[-87.0904,14.6635],[-87.0922,14.6627],[-87.0941,14.6599],[-87.0972,14.6594],[-87.0996,14.6601],[-87.1028,14.6631],[-87.104,14.6669]]]}},{"type":"Feature","id":"hn0806","properties":{"name":"Guaimaca","province":"Francisco Morazán","department":"Francisco Morazán","type":"Municipio","country":"Honduras","iso":"HN"},"geometry":{"type":"Polygon","coordinates":[[[-86.8286,14.6417],[-86.8468,14.6426],[-86.8532,14.639],[-86.8687,14.6382],[-86.8731,14.6439],[-86.8843,14.6468],[-86.8968,14.6461],[-86.9153,14.6396],[-86.9231,14.6454],[-86.9369,14.646],[-86.9471,14.6561],[-86.9831,14.6607],[-86.9818,14.6514],[-86.9834,14.6499],[-86.9836,14.6466],[-86.9888,14.6413],[-86.9908,14.6357],[-86.9933,14.6347],[-86.9948,14.6307],[-86.9942,14.6293],[-86.9974,14.6282],[-87.0077,14.6071],[-87.0116,14.6055],[-87.0137,14.6035],[-87.0156,14.6037],[-87.0199,14.608],[-87.0267,14.6116],[-87.0294,14.6117],[-87.0309,14.6127],[-87.0325,14.6122],[-87.0331,14.6095],[-87.0311,14.6095],[-87.0289,14.6067],[-87.0299,14.6058],[-87.0287,14.6054],[-87.0283,14.5998],[-87.0295,14.5976],[-87.0282,14.5957],[-87.028,14.5935],[-87.0306,14.5934],[-87.0309,14.5908],[-87.0327,14.5878],[-87.0316,14.586],[-87.0349,14.5834],[-87.0344,14.5801],[-87.0362,14.5781],[-87.0359,14.5762],[-87.0366,14.5749],[-87.0355,14.5731],[-87.0378,14.5721],[-87.0377,14.57],[-87.036,14.5679],[-87.0352,14.5653],[-87.0296,14.5603],[-87.0231,14.5501],[-87.0222,14.482],[-87.0185,14.4823],[-86.9809,14.4748],[-86.9642,14.4654],[-86.9629,14.463],[-86.9613,14.4622],[-86.9587,14.4626],[-86.9551,14.4648],[-86.953,14.4645],[-86.9503,14.4658],[-86.9493,14.4657],[-86.9483,14.4636],[-86.9407,14.4658],[-86.9378,14.4645],[-86.9358,14.4649],[-86.9342,14.4637],[-86.9329,14.4609],[-86.9258,14.4547],[-86.9152,14.4477],[-86.9134,14.4439],[-86.9089,14.4468],[-86.9068,14.4408],[-86.8986,14.4395],[-86.8958,14.4356],[-86.8903,14.4377],[-86.8887,14.4366],[-86.8824,14.4364],[-86.881,14.4392],[-86.8793,14.44],[-86.881,14.4145],[-86.8829,14.4145],[-86.8854,14.413],[-86.8854,14.4114],[-86.8837,14.4094],[-86.8849,14.4065],[-86.889,14.404],[-86.8896,14.4011],[-86.8918,14.4003],[-86.8938,14.4011],[-86.8975,14.401],[-86.8981,14.3996],[-86.9006,14.3984],[-86.9029,14.3946],[-86.9052,14.3931],[-86.909,14.3852],[-86.9092,14.3814],[-86.9102,14.3805],[-86.9096,14.3784],[-86.9079,14.3777],[-86.9072,14.3754],[-86.9049,14.3748],[-86.9054,14.3735],[-86.9076,14.3723],[-86.908,14.3705],[-86.907,14.3683],[-86.9042,14.368],[-86.9038,14.3649],[-86.9008,14.3641],[-86.9003,14.3656],[-86.8978,14.3672],[-86.8967,14.373],[-86.895,14.3742],[-86.892,14.3732],[-86.8906,14.3755],[-86.8878,14.3749],[-86.8863,14.3764],[-86.8852,14.3752],[-86.8837,14.3751],[-86.8838,14.3734],[-86.8828,14.3716],[-86.8805,14.3709],[-86.8803,14.369],[-86.8783,14.3674],[-86.8764,14.3673],[-86.8753,14.366],[-86.8755,14.3617],[-86.8748,14.3602],[-86.8707,14.3593],[-86.8671,14.3563],[-86.8652,14.3524],[-86.8614,14.3517],[-86.8576,14.348],[-86.8553,14.3424],[-86.853,14.3411],[-86.8499,14.3357],[-86.8505,14.3311],[-86.8495,14.326],[-86.8437,14.3259],[-86.8432,14.3239],[-86.842,14.3235],[-86.8405,14.3211],[-86.8341,14.3203],[-86.832,14.3189],[-86.8297,14.3187],[-86.8311,14.3323],[-86.7975,14.3603],[-86.7133,14.4226],[-86.7109,14.4286],[-86.7106,14.4329],[-86.7339,14.479],[-86.7296,14.4888],[-86.7293,14.5056],[-86.7428,14.5097],[-86.7514,14.5323],[-86.7396,14.5715],[-86.7394,14.574],[-86.7405,14.5767],[-86.7512,14.5811],[-86.7561,14.5847],[-86.7599,14.5862],[-86.7587,14.59],[-86.7615,14.5978],[-86.7686,14.6067],[-86.7728,14.6073],[-86.7794,14.6107],[-86.7806,14.614],[-86.7845,14.6157],[-86.7886,14.6201],[-86.7931,14.6204],[-86.7964,14.6217],[-86.7971,14.6249],[-86.7964,14.6304],[-86.8049,14.6395],[-86.8185,14.6394],[-86.8286,14.6417]]]}},{"type":"Feature","id":"hn0811","properties":{"name":"Marale","province":"Francisco Morazán","department":"Francisco Morazán","type":"Municipio","country":"Honduras","iso":"HN"},"geometry":{"type":"Polygon","coordinates":[[[-86.9912,15.0154],[-87.0,15.0176],[-87.0029,15.0176],[-87.0263,15.0237],[-87.0301,15.0254],[-87.0351,15.0239],[-87.0438,15.0234],[-87.047,15.0216],[-87.0538,15.0241],[-87.0629,15.0226],[-87.074,15.0159],[-87.0765,15.0155],[-87.0816,15.0167],[-87.0848,15.0208],[-87.0875,15.0206],[-87.0918,15.0217],[-87.102,15.0301],[-87.1054,15.0314],[-87.1084,15.0318],[-87.112,15.0307],[-87.1178,15.0318],[-87.1266,15.0292],[-87.1341,15.0333],[-87.1352,15.0325],[-87.1365,15.0286],[-87.139,15.0274],[-87.1472,15.0261],[-87.1505,15.0268],[-87.1534,15.0285],[-87.1577,15.0278],[-87.1628,15.0239],[-87.1673,15.0261],[-87.173,15.0239],[-87.1742,15.0206],[-87.1759,15.0187],[-87.1811,15.0173],[-87.1866,15.0107],[-87.187,15.0059],[-87.1842,15.0013],[-87.1847,14.9958],[-87.1864,14.9916],[-87.187,14.9852],[-87.1871,14.982],[-87.1862,14.9795],[-87.1869,14.9769],[-87.1856,14.9744],[-87.1851,14.9706],[-87.1901,14.9663],[-87.191,14.9642],[-87.1987,14.9611],[-87.2041,14.9571],[-87.2094,14.9496],[-87.2134,14.9485],[-87.2128,14.944],[-87.2146,14.9398],[-87.2146,14.9369],[-87.2134,14.9343],[-87.2088,14.9292],[-87.2081,14.9258],[-87.2106,14.9213],[-87.2177,14.9157],[-87.2177,14.9131],[-87.2155,14.9112],[-87.198,14.9065],[-87.1984,14.8969],[-87.1934,14.8915],[-87.1931,14.8894],[-87.1951,14.8852],[-87.1985,14.883],[-87.1977,14.8799],[-87.1995,14.8761],[-87.2017,14.8768],[-87.2066,14.8756],[-87.2102,14.8784],[-87.2112,14.8812],[-87.2163,14.8816],[-87.2172,14.8812],[-87.2172,14.8774],[-87.2215,14.8749],[-87.2231,14.8715],[-87.2229,14.8703],[-87.2209,14.8697],[-87.2165,14.8701],[-87.2158,14.8672],[-87.2115,14.8618],[-87.2108,14.8597],[-87.2092,14.8587],[-87.207,14.8595],[-87.2037,14.8587],[-87.1969,14.8605],[-87.1953,14.8578],[-87.1936,14.8584],[-87.1936,14.8607],[-87.192,14.8611],[-87.1898,14.8595],[-87.1884,14.8559],[-87.1854,14.855],[-87.1813,14.8554],[-87.1802,14.8525],[-87.1775,14.8536],[-87.177,14.851],[-87.1754,14.8495],[-87.1708,14.8482],[-87.1664,14.8484],[-87.1654,14.8458],[-87.1643,14.8454],[-87.1598,14.8466],[-87.0734,14.8534],[-87.0354,14.8539],[-87.034,14.8545],[-87.0307,14.8601],[-87.0208,14.87],[-87.0166,14.8719],[-87.0072,14.8788],[-87.0068,14.8851],[-87.0042,14.8881],[-87.0041,14.8898],[-87.0063,14.8923],[-87.0081,14.9055],[-87.0009,14.9201],[-87.0028,14.9372],[-86.9987,14.9586],[-86.9972,14.9625],[-86.9995,14.9685],[-86.9948,14.9736],[-86.9935,14.9785],[-86.9986,14.9845],[-87.0018,14.9858],[-87.0024,14.9876],[-86.9885,15.0015],[-86.9908,15.0076],[-86.9912,15.0154]]]}},{"type":"Feature","id":"hn0814","properties":{"name":"Orica","province":"Francisco Morazán","department":"Francisco Morazán","type":"Municipio","country":"Honduras","iso":"HN"},"geometry":{"type":"Polygon","coordinates":[[[-86.9711,14.983],[-86.9725,14.9883],[-86.9754,14.9886],[-86.9769,14.99],[-86.9776,14.9935],[-86.9811,14.9966],[-86.9825,14.9995],[-86.9885,15.0015],[-87.0024,14.9876],[-87.0018,14.9858],[-86.9986,14.9845],[-86.9935,14.9785],[-86.9948,14.9736],[-86.9995,14.9685],[-86.9972,14.9625],[-86.9987,14.9586],[-87.0028,14.9372],[-87.0009,14.9201],[-87.0081,14.9055],[-87.0063,14.8923],[-87.0041,14.8898],[-87.0042,14.8881],[-87.0068,14.8851],[-87.0072,14.8788],[-87.0166,14.8719],[-87.0208,14.87],[-87.0307,14.8601],[-87.0326,14.856],[-87.0362,14.8534],[-87.0382,14.8497],[-87.0373,14.8482],[-87.0341,14.8463],[-87.032,14.8361],[-87.0307,14.8351],[-87.0284,14.8351],[-87.0292,14.8327],[-87.026,14.8323],[-87.029,14.83],[-87.0255,14.8252],[-87.0248,14.8218],[-87.0215,14.8203],[-87.0201,14.8184],[-87.017,14.818],[-87.0129,14.8142],[-87.0072,14.8104],[-87.0004,14.7855],[-86.9927,14.7759],[-86.9905,14.7754],[-86.9861,14.7703],[-86.983,14.7696],[-86.9852,14.7363],[-86.9842,14.7323],[-86.982,14.7305],[-86.9808,14.7225],[-86.979,14.7177],[-86.9778,14.7155],[-86.9751,14.7135],[-86.9756,14.7085],[-86.9739,14.7021],[-86.9766,14.6987],[-86.9782,14.6934],[-86.9779,14.6921],[-86.9803,14.689],[-86.9796,14.6867],[-86.9766,14.6834],[-86.9782,14.6758],[-86.9791,14.6744],[-86.9833,14.672],[-86.9837,14.6707],[-86.989,14.6694],[-86.9872,14.6644],[-86.9831,14.6607],[-86.9471,14.6561],[-86.9369,14.646],[-86.9231,14.6454],[-86.9153,14.6396],[-86.8968,14.6461],[-86.8843,14.6468],[-86.8731,14.6439],[-86.8687,14.6382],[-86.8532,14.639],[-86.8468,14.6426],[-86.8286,14.6417],[-86.8303,14.6468],[-86.8337,14.652],[-86.8418,14.6593],[-86.8511,14.664],[-86.8507,14.6671],[-86.8694,14.7116],[-86.8787,14.7464],[-86.8966,14.7646],[-86.9011,14.771],[-86.8942,14.7941],[-86.8931,14.7967],[-86.8918,14.7961],[-86.8914,14.7983],[-86.8957,14.8028],[-86.8986,14.8022],[-86.9018,14.805],[-86.9036,14.8055],[-86.9045,14.8077],[-86.9056,14.8056],[-86.9085,14.8079],[-86.9086,14.8099],[-86.9118,14.8159],[-86.9099,14.821],[-86.911,14.8224],[-86.9101,14.8231],[-86.9071,14.8225],[-86.9044,14.8248],[-86.9103,14.8459],[-86.9144,14.8563],[-86.9162,14.8581],[-86.9195,14.8641],[-86.9285,14.8676],[-86.93,14.8698],[-86.9315,14.8827],[-86.9296,14.8874],[-86.9361,14.897],[-86.9301,14.9049],[-86.9228,14.907],[-86.9249,14.912],[-86.9247,14.9178],[-86.918,14.9235],[-86.9164,14.9279],[-86.9142,14.9312],[-86.9142,14.9342],[-86.9054,14.9368],[-86.9033,14.9396],[-86.9068,14.9425],[-86.9166,14.9463],[-86.9224,14.9507],[-86.9282,14.9508],[-86.9318,14.9521],[-86.9325,14.9544],[-86.9326,14.9612],[-86.9341,14.9632],[-86.9387,14.9645],[-86.9485,14.9648],[-86.9559,14.971],[-86.9603,14.9691],[-86.9619,14.9695],[-86.9699,14.9752],[-86.9711,14.983]]]}},{"type":"Feature","id":"hn0805","properties":{"name":"El Porvenir","province":"Francisco Morazán","department":"Francisco Morazán","type":"Municipio","country":"Honduras","iso":"HN"},"geometry":{"type":"Polygon","coordinates":[[[-87.1593,14.8463],[-87.1647,14.8454],[-87.1664,14.8484],[-87.1707,14.8482],[-87.1752,14.8494],[-87.1769,14.851],[-87.1776,14.8537],[-87.1801,14.8525],[-87.1813,14.8554],[-87.1854,14.855],[-87.1883,14.8559],[-87.1898,14.8595],[-87.1921,14.8611],[-87.1936,14.8607],[-87.1936,14.8584],[-87.1953,14.8578],[-87.1968,14.8605],[-87.204,14.8587],[-87.2074,14.8594],[-87.2092,14.8587],[-87.2093,14.8567],[-87.2106,14.8543],[-87.211,14.8477],[-87.2146,14.845],[-87.2201,14.8431],[-87.2251,14.8437],[-87.2279,14.843],[-87.2321,14.8432],[-87.2362,14.8453],[-87.2411,14.8449],[-87.2451,14.8462],[-87.248,14.842],[-87.2509,14.8413],[-87.2525,14.8397],[-87.256,14.8348],[-87.2565,14.8308],[-87.2609,14.8297],[-87.2626,14.8283],[-87.2641,14.8217],[-87.2643,14.8171],[-87.2655,14.8153],[-87.2662,14.8119],[-87.2629,14.8091],[-87.2604,14.8092],[-87.2607,14.8036],[-87.2593,14.798],[-87.256,14.7961],[-87.2549,14.794],[-87.255,14.7923],[-87.2509,14.7876],[-87.2505,14.7843],[-87.252,14.7795],[-87.2511,14.7739],[-87.2538,14.7681],[-87.2534,14.7668],[-87.2493,14.7648],[-87.2509,14.7603],[-87.2488,14.7548],[-87.2506,14.7493],[-87.2495,14.7437],[-87.2525,14.739],[-87.2555,14.7373],[-87.2557,14.7344],[-87.2543,14.7307],[-87.2559,14.7251],[-87.2588,14.7245],[-87.2607,14.7252],[-87.2684,14.7246],[-87.2649,14.7208],[-87.268,14.7152],[-87.266,14.7135],[-87.2654,14.7112],[-87.2684,14.707],[-87.2706,14.7059],[-87.269,14.7023],[-87.2652,14.7007],[-87.2655,14.6985],[-87.2691,14.6985],[-87.2736,14.6972],[-87.2754,14.6957],[-87.2763,14.6915],[-87.283,14.69],[-87.2839,14.6876],[-87.2856,14.6865],[-87.2902,14.6872],[-87.2923,14.6867],[-87.2944,14.6849],[-87.295,14.6823],[-87.2964,14.6803],[-87.3062,14.6757],[-87.3087,14.6755],[-87.311,14.6772],[-87.3147,14.6776],[-87.3159,14.6757],[-87.3155,14.6722],[-87.3163,14.668],[-87.3181,14.6664],[-87.317,14.6659],[-87.3128,14.6668],[-87.3134,14.6628],[-87.3207,14.6626],[-87.3219,14.6641],[-87.3211,14.6665],[-87.3241,14.6689],[-87.3277,14.6669],[-87.3285,14.6653],[-87.3302,14.6649],[-87.3292,14.6615],[-87.3275,14.6591],[-87.3273,14.6567],[-87.3255,14.6548],[-87.3243,14.6505],[-87.3244,14.6452],[-87.3251,14.6438],[-87.3276,14.6428],[-87.3282,14.6408],[-87.3311,14.6398],[-87.3262,14.6352],[-87.3261,14.6324],[-87.3274,14.6319],[-87.331,14.6332],[-87.332,14.6307],[-87.3316,14.629],[-87.3351,14.6256],[-87.3334,14.6224],[-87.3349,14.6192],[-87.3328,14.6171],[-87.3326,14.6154],[-87.3343,14.6125],[-87.3371,14.6116],[-87.3375,14.6098],[-87.3366,14.6062],[-87.3314,14.6033],[-87.3343,14.5977],[-87.3342,14.5948],[-87.3391,14.5915],[-87.3369,14.5877],[-87.3362,14.583],[-87.3375,14.5781],[-87.331,14.5723],[-87.3323,14.5679],[-87.332,14.5666],[-87.3293,14.5656],[-87.3257,14.5626],[-87.3177,14.5627],[-87.3108,14.5656],[-87.3055,14.565],[-87.2988,14.5654],[-87.2969,14.5624],[-87.2947,14.5609],[-87.2863,14.562],[-87.2846,14.564],[-87.281,14.5652],[-87.2758,14.5629],[-87.237,14.5589],[-87.238,14.579],[-87.236,14.5797],[-87.2294,14.5856],[-87.2294,14.5887],[-87.2281,14.5905],[-87.2259,14.6006],[-87.2261,14.6019],[-87.2279,14.6023],[-87.2273,14.6035],[-87.2276,14.6064],[-87.225,14.609],[-87.2237,14.6145],[-87.2207,14.6155],[-87.2202,14.6166],[-87.2207,14.6178],[-87.2228,14.6177],[-87.2227,14.6194],[-87.2242,14.619],[-87.2243,14.6206],[-87.2263,14.6205],[-87.2267,14.6233],[-87.2219,14.631],[-87.2176,14.6323],[-87.2198,14.6346],[-87.2159,14.6368],[-87.2131,14.6374],[-87.2114,14.6467],[-87.2077,14.6481],[-87.209,14.6548],[-87.2103,14.6568],[-87.2129,14.6562],[-87.2128,14.6584],[-87.2141,14.6594],[-87.2133,14.6601],[-87.2137,14.6618],[-87.2117,14.663],[-87.2131,14.6647],[-87.2112,14.6657],[-87.2126,14.6701],[-87.2103,14.6737],[-87.2084,14.6732],[-87.2079,14.6746],[-87.2063,14.6745],[-87.2054,14.676],[-87.1948,14.6828],[-87.1941,14.6843],[-87.1945,14.6869],[-87.1935,14.6885],[-87.1914,14.6888],[-87.188,14.6914],[-87.1866,14.6918],[-87.1833,14.6873],[-87.1794,14.6865],[-87.1782,14.6894],[-87.1759,14.6917],[-87.1729,14.6931],[-87.1722,14.6963],[-87.1665,14.7007],[-87.164,14.7044],[-87.1615,14.7039],[-87.1623,14.6993],[-87.1596,14.699],[-87.1582,14.6962],[-87.1555,14.6964],[-87.1552,14.6948],[-87.1563,14.6937],[-87.1558,14.6929],[-87.1534,14.6927],[-87.1508,14.6913],[-87.1511,14.6892],[-87.1485,14.6863],[-87.1465,14.6811],[-87.1453,14.6809],[-87.1431,14.6829],[-87.1404,14.6816],[-87.1366,14.6812],[-87.1363,14.6803],[-87.1396,14.6741],[-87.1366,14.6729],[-87.1351,14.6701],[-87.1332,14.6697],[-87.1327,14.6677],[-87.1281,14.666],[-87.124,14.6685],[-87.1192,14.666],[-87.1165,14.6627],[-87.115,14.6632],[-87.1119,14.6673],[-87.1099,14.6672],[-87.1082,14.6647],[-87.104,14.6669],[-87.1046,14.6677],[-87.098,14.6927],[-87.0974,14.7057],[-87.1183,14.7419],[-87.143,14.7597],[-87.1453,14.7635],[-87.1459,14.7659],[-87.1462,14.7743],[-87.1494,14.7794],[-87.1494,14.7847],[-87.1469,14.7863],[-87.1472,14.7895],[-87.1458,14.7909],[-87.1444,14.7972],[-87.1424,14.801],[-87.1401,14.8021],[-87.1409,14.8052],[-87.1391,14.8071],[-87.1387,14.8096],[-87.1346,14.8112],[-87.1345,14.8144],[-87.1321,14.821],[-87.1345,14.8248],[-87.1383,14.8265],[-87.1413,14.8336],[-87.1405,14.8368],[-87.1437,14.8414],[-87.1476,14.8424],[-87.1522,14.8407],[-87.155,14.8405],[-87.1591,14.844],[-87.1593,14.8463]]]}},{"type":"Feature","id":"hn0819","properties":{"name":"San Ignacio","province":"Francisco Morazán","department":"Francisco Morazán","type":"Municipio","country":"Honduras","iso":"HN"},"geometry":{"type":"Polygon","coordinates":[[[-86.9831,14.6607],[-86.9869,14.6637],[-86.989,14.6694],[-86.9837,14.6707],[-86.9833,14.672],[-86.9783,14.6756],[-86.9766,14.6834],[-86.9797,14.6869],[-86.9803,14.689],[-86.9779,14.6921],[-86.9782,14.6934],[-86.9766,14.6987],[-86.9739,14.7021],[-86.9756,14.7085],[-86.9751,14.7135],[-86.9778,14.7155],[-86.979,14.7177],[-86.9808,14.7225],[-86.982,14.7305],[-86.9842,14.7323],[-86.9852,14.7363],[-86.983,14.7696],[-86.9861,14.7703],[-86.9905,14.7754],[-86.9927,14.7759],[-87.0004,14.7855],[-87.0072,14.8104],[-87.0129,14.8142],[-87.017,14.818],[-87.0201,14.8184],[-87.0215,14.8203],[-87.0248,14.8219],[-87.0255,14.8252],[-87.029,14.83],[-87.026,14.8323],[-87.0291,14.8327],[-87.0284,14.8351],[-87.0307,14.8351],[-87.032,14.836],[-87.0341,14.8463],[-87.0381,14.8492],[-87.0377,14.8511],[-87.0355,14.8539],[-87.0734,14.8534],[-87.1593,14.8463],[-87.1591,14.844],[-87.155,14.8405],[-87.1522,14.8407],[-87.1476,14.8424],[-87.1437,14.8414],[-87.1405,14.8368],[-87.1413,14.8336],[-87.1383,14.8265],[-87.1345,14.8248],[-87.1321,14.821],[-87.1345,14.8144],[-87.1346,14.8112],[-87.1387,14.8096],[-87.1391,14.8071],[-87.1409,14.8052],[-87.1401,14.8021],[-87.1424,14.801],[-87.1444,14.7972],[-87.1458,14.7909],[-87.1472,14.7895],[-87.1469,14.7863],[-87.1494,14.7847],[-87.1494,14.7794],[-87.1462,14.7743],[-87.1459,14.7659],[-87.1453,14.7635],[-87.143,14.7597],[-87.1183,14.7419],[-87.0974,14.7057],[-87.098,14.6927],[-87.1046,14.6677],[-87.1015,14.6617],[-87.0994,14.6599],[-87.0964,14.6594],[-87.0941,14.6599],[-87.0922,14.6627],[-87.0904,14.6635],[-87.0885,14.6614],[-87.0882,14.6581],[-87.0748,14.6534],[-87.0746,14.6505],[-87.0705,14.6483],[-87.0677,14.6486],[-87.0624,14.652],[-87.0559,14.6506],[-87.0545,14.648],[-87.0528,14.6466],[-87.0532,14.6437],[-87.0501,14.6435],[-87.0492,14.6411],[-87.0459,14.6391],[-87.0446,14.6393],[-87.0445,14.6378],[-87.0423,14.6373],[-87.0435,14.6341],[-87.0413,14.6311],[-87.0409,14.628],[-87.0398,14.6275],[-87.0404,14.6253],[-87.0331,14.6219],[-87.0342,14.6204],[-87.0331,14.6183],[-87.0332,14.6135],[-87.0295,14.6118],[-87.0267,14.6116],[-87.0199,14.608],[-87.0158,14.6037],[-87.0138,14.6035],[-87.0116,14.6055],[-87.0077,14.6071],[-86.9974,14.6282],[-86.9942,14.6293],[-86.9948,14.6307],[-86.9933,14.6347],[-86.9908,14.6357],[-86.9888,14.6413],[-86.9837,14.6465],[-86.9834,14.6499],[-86.9818,14.6514],[-86.9831,14.6607]]]}},{"type":"Feature","id":"hn0828","properties":{"name":"Vallecillo","province":"Francisco Morazán","department":"Francisco Morazán","type":"Municipio","country":"Honduras","iso":"HN"},"geometry":{"type":"Polygon","coordinates":[[[-87.3366,14.6062],[-87.3383,14.6055],[-87.3481,14.6065],[-87.3497,14.6081],[-87.3544,14.6064],[-87.3567,14.6072],[-87.3576,14.6067],[-87.3588,14.6083],[-87.3609,14.6081],[-87.3613,14.6109],[-87.3645,14.6096],[-87.3656,14.6102],[-87.3664,14.6182],[-87.3701,14.6167],[-87.3742,14.6166],[-87.3761,14.6149],[-87.3802,14.618],[-87.3821,14.6173],[-87.3843,14.6184],[-87.3905,14.6195],[-87.3922,14.6214],[-87.3968,14.6238],[-87.3987,14.6242],[-87.3996,14.6233],[-87.4043,14.6223],[-87.4054,14.6214],[-87.404,14.6171],[-87.4047,14.6149],[-87.4038,14.6136],[-87.4043,14.6131],[-87.4025,14.611],[-87.4034,14.609],[-87.4023,14.6072],[-87.4038,14.6063],[-87.4038,14.6048],[-87.4057,14.6044],[-87.4045,14.6022],[-87.4053,14.6011],[-87.4041,14.6007],[-87.4058,14.6],[-87.4063,14.599],[-87.4053,14.5986],[-87.4052,14.5973],[-87.4077,14.5967],[-87.4071,14.5957],[-87.4077,14.5942],[-87.4101,14.5926],[-87.4078,14.5894],[-87.4113,14.586],[-87.4098,14.5853],[-87.4074,14.5796],[-87.4084,14.5788],[-87.4075,14.5747],[-87.4088,14.5737],[-87.4104,14.575],[-87.4107,14.5734],[-87.4121,14.5746],[-87.4127,14.5724],[-87.4146,14.5705],[-87.4161,14.5707],[-87.4171,14.5692],[-87.4168,14.5684],[-87.4193,14.5667],[-87.4202,14.5626],[-87.4687,14.524],[-87.4548,14.4766],[-87.4486,14.4741],[-87.4396,14.4732],[-87.4337,14.4668],[-87.4316,14.462],[-87.4222,14.4589],[-87.42,14.4557],[-87.42,14.4517],[-87.4163,14.4503],[-87.4127,14.447],[-87.4036,14.4488],[-87.3993,14.4504],[-87.3963,14.4525],[-87.3929,14.453],[-87.3913,14.4521],[-87.3913,14.4503],[-87.388,14.4508],[-87.386,14.45],[-87.3847,14.4507],[-87.3822,14.4477],[-87.3783,14.4474],[-87.3764,14.4486],[-87.375,14.4463],[-87.3696,14.4447],[-87.3669,14.4472],[-87.3646,14.4474],[-87.3639,14.449],[-87.3602,14.4495],[-87.3591,14.4531],[-87.3578,14.4542],[-87.3536,14.455],[-87.354,14.4581],[-87.3522,14.4585],[-87.3539,14.4605],[-87.3515,14.4641],[-87.3482,14.4646],[-87.3479,14.4666],[-87.3434,14.4652],[-87.342,14.4679],[-87.3389,14.4657],[-87.3366,14.4677],[-87.3328,14.4675],[-87.3306,14.4689],[-87.3286,14.4691],[-87.3279,14.4723],[-87.3204,14.4728],[-87.3121,14.484],[-87.3119,14.4849],[-87.3134,14.4858],[-87.3133,14.4866],[-87.3108,14.4885],[-87.3056,14.4897],[-87.3051,14.4923],[-87.3035,14.4932],[-87.3033,14.4952],[-87.3024,14.4957],[-87.3019,14.4975],[-87.2974,14.4981],[-87.2952,14.5007],[-87.2956,14.505],[-87.3004,14.5088],[-87.2984,14.511],[-87.3008,14.5145],[-87.3034,14.515],[-87.3052,14.5175],[-87.3076,14.5165],[-87.3129,14.5224],[-87.3132,14.5246],[-87.3114,14.5279],[-87.3138,14.53],[-87.314,14.5336],[-87.3241,14.537],[-87.3283,14.537],[-87.329,14.5378],[-87.3289,14.5397],[-87.3243,14.5406],[-87.3216,14.5423],[-87.3201,14.5519],[-87.3253,14.5588],[-87.3261,14.5631],[-87.3293,14.5657],[-87.332,14.5666],[-87.331,14.5724],[-87.3375,14.5782],[-87.3362,14.583],[-87.3369,14.5877],[-87.3391,14.5915],[-87.3342,14.5948],[-87.3343,14.5977],[-87.3314,14.6034],[-87.3366,14.6062]]]}},{"type":"Feature","id":"hn0824","properties":{"name":"Talanga","province":"Francisco Morazán","department":"Francisco Morazán","type":"Municipio","country":"Honduras","iso":"HN"},"geometry":{"type":"Polygon","coordinates":[[[-86.9096,14.3784],[-86.9102,14.3805],[-86.9091,14.3815],[-86.909,14.3852],[-86.9049,14.3936],[-86.903,14.3945],[-86.9007,14.3983],[-86.8981,14.3995],[-86.8975,14.401],[-86.8904,14.4007],[-86.889,14.4019],[-86.8889,14.404],[-86.8847,14.4067],[-86.8837,14.4096],[-86.8853,14.4113],[-86.8854,14.4129],[-86.8829,14.4145],[-86.881,14.4145],[-86.8793,14.44],[-86.881,14.4392],[-86.8824,14.4364],[-86.8887,14.4366],[-86.8903,14.4377],[-86.8958,14.4356],[-86.8986,14.4395],[-86.9068,14.4408],[-86.9089,14.4468],[-86.9134,14.4439],[-86.9152,14.4477],[-86.9258,14.4547],[-86.9329,14.4609],[-86.9342,14.4637],[-86.9358,14.4649],[-86.9378,14.4645],[-86.9407,14.4658],[-86.9483,14.4636],[-86.9492,14.4656],[-86.9501,14.4658],[-86.9519,14.4656],[-86.953,14.4645],[-86.9551,14.4648],[-86.9587,14.4626],[-86.9615,14.4622],[-86.963,14.4631],[-86.9642,14.4653],[-86.9809,14.4748],[-87.0185,14.4823],[-87.0413,14.4786],[-87.0444,14.4756],[-87.0479,14.4755],[-87.0527,14.4736],[-87.0534,14.4726],[-87.056,14.474],[-87.063,14.4739],[-87.0641,14.4728],[-87.0661,14.4742],[-87.0711,14.4725],[-87.0741,14.4731],[-87.0746,14.4756],[-87.0806,14.4761],[-87.082,14.475],[-87.0846,14.4764],[-87.0888,14.4733],[-87.0902,14.471],[-87.0952,14.4695],[-87.0977,14.4703],[-87.1047,14.4694],[-87.1059,14.4702],[-87.1088,14.4696],[-87.1142,14.4699],[-87.1147,14.4715],[-87.1167,14.4713],[-87.1187,14.4727],[-87.1221,14.4731],[-87.1236,14.4751],[-87.1315,14.4742],[-87.137,14.4753],[-87.1397,14.4739],[-87.1444,14.4747],[-87.146,14.4761],[-87.1491,14.4741],[-87.15,14.4767],[-87.1539,14.475],[-87.1616,14.4756],[-87.1704,14.472],[-87.2017,14.445],[-87.2024,14.4435],[-87.2043,14.4434],[-87.2074,14.4385],[-87.2106,14.4364],[-87.2119,14.4313],[-87.2137,14.4299],[-87.2174,14.4295],[-87.2183,14.4274],[-87.2202,14.4259],[-87.2194,14.4231],[-87.2209,14.4213],[-87.2204,14.4192],[-87.2231,14.4171],[-87.2252,14.4165],[-87.2276,14.4122],[-87.2296,14.4107],[-87.228,14.4067],[-87.2295,14.4038],[-87.2291,14.3992],[-87.2299,14.3927],[-87.2371,14.3875],[-87.2377,14.3719],[-87.1552,14.365],[-87.1379,14.3717],[-87.1178,14.3632],[-87.1227,14.3501],[-87.123,14.3401],[-87.1259,14.3312],[-87.1293,14.3244],[-87.1296,14.3146],[-87.134,14.3108],[-87.1344,14.3085],[-87.1361,14.3077],[-87.1367,14.3064],[-87.1392,14.3054],[-87.1389,14.3009],[-87.131,14.2998],[-87.1227,14.3014],[-87.1199,14.2995],[-87.1074,14.2985],[-87.1021,14.2967],[-87.0974,14.2988],[-87.0964,14.2969],[-87.0951,14.2972],[-87.0946,14.3014],[-87.0911,14.3059],[-87.0808,14.3065],[-87.0631,14.3346],[-87.0544,14.3468],[-87.0515,14.3465],[-86.9945,14.3691],[-86.9856,14.39],[-86.9803,14.3956],[-86.9745,14.3968],[-86.9739,14.401],[-86.9353,14.3815],[-86.9339,14.3814],[-86.9306,14.3794],[-86.9279,14.3794],[-86.9272,14.3781],[-86.9256,14.3772],[-86.9237,14.3772],[-86.9219,14.3752],[-86.9165,14.3743],[-86.9136,14.3749],[-86.9096,14.3784]]]}},{"type":"Feature","id":"hn0820","properties":{"name":"San Juan de Flores","province":"Francisco Morazán","department":"Francisco Morazán","type":"Municipio","country":"Honduras","iso":"HN"},"geometry":{"type":"Polygon","coordinates":[[[-86.9096,14.3784],[-86.9136,14.3749],[-86.9165,14.3743],[-86.9219,14.3752],[-86.9237,14.3772],[-86.9256,14.3772],[-86.9272,14.3781],[-86.9279,14.3794],[-86.9306,14.3794],[-86.9339,14.3814],[-86.9353,14.3815],[-86.9739,14.401],[-86.9745,14.3968],[-86.9803,14.3956],[-86.9856,14.39],[-86.9945,14.3691],[-87.0515,14.3465],[-87.0544,14.3468],[-87.0631,14.3346],[-87.0808,14.3065],[-87.0915,14.3057],[-87.0946,14.3013],[-87.0951,14.2972],[-87.0964,14.2969],[-87.0973,14.2988],[-87.1015,14.2968],[-87.1043,14.2972],[-87.104,14.2955],[-87.1067,14.2912],[-87.1133,14.2858],[-87.1161,14.281],[-87.1147,14.2688],[-87.1129,14.2667],[-87.1089,14.2683],[-87.108,14.2666],[-87.027,14.2194],[-87.0158,14.2401],[-86.9721,14.2327],[-86.9669,14.23],[-86.9597,14.2318],[-86.958,14.2289],[-86.9502,14.2262],[-86.8966,14.2318],[-86.8886,14.2342],[-86.8862,14.2367],[-86.8858,14.2391],[-86.8782,14.2456],[-86.876,14.2489],[-86.8718,14.2503],[-86.8699,14.2539],[-86.8669,14.2561],[-86.8654,14.2588],[-86.8619,14.2606],[-86.8591,14.2644],[-86.8594,14.266],[-86.8421,14.2922],[-86.8296,14.2916],[-86.8272,14.2949],[-86.8297,14.3187],[-86.832,14.3189],[-86.8341,14.3203],[-86.8405,14.3211],[-86.842,14.3235],[-86.8432,14.3239],[-86.8437,14.3259],[-86.8495,14.326],[-86.8505,14.3311],[-86.8499,14.3357],[-86.853,14.3411],[-86.8553,14.3424],[-86.8576,14.348],[-86.8614,14.3517],[-86.8652,14.3524],[-86.8671,14.3563],[-86.8707,14.3593],[-86.8748,14.3602],[-86.8755,14.3617],[-86.8753,14.366],[-86.8764,14.3673],[-86.8783,14.3674],[-86.8803,14.369],[-86.8805,14.3709],[-86.8828,14.3716],[-86.8838,14.3734],[-86.8836,14.3751],[-86.8852,14.3752],[-86.8863,14.3764],[-86.8878,14.3749],[-86.8906,14.3755],[-86.892,14.3732],[-86.895,14.3742],[-86.8967,14.373],[-86.8978,14.3672],[-86.9003,14.3656],[-86.901,14.3641],[-86.9039,14.365],[-86.9044,14.3681],[-86.9071,14.3684],[-86.908,14.3707],[-86.9076,14.3722],[-86.9054,14.3735],[-86.9049,14.3749],[-86.9071,14.3753],[-86.908,14.3778],[-86.9096,14.3784]]]}},{"type":"Feature","id":"hn0801","properties":{"name":"Distrito Central","province":"Francisco Morazán","department":"Francisco Morazán","type":"Municipio","country":"Honduras","iso":"HN"},"geometry":{"type":"Polygon","coordinates":[[[-87.1043,14.2972],[-87.1075,14.2985],[-87.1199,14.2995],[-87.1228,14.3014],[-87.1308,14.2998],[-87.1388,14.3007],[-87.1392,14.3054],[-87.1367,14.3064],[-87.1361,14.3077],[-87.1344,14.3085],[-87.134,14.3108],[-87.1296,14.3146],[-87.1293,14.3244],[-87.1259,14.3312],[-87.123,14.3401],[-87.1227,14.3501],[-87.1178,14.3632],[-87.1379,14.3717],[-87.1552,14.365],[-87.2377,14.3719],[-87.2379,14.371],[-87.2611,14.3559],[-87.2776,14.3568],[-87.2877,14.3527],[-87.3085,14.3531],[-87.3179,14.3577],[-87.3274,14.3469],[-87.3541,14.3557],[-87.3623,14.3622],[-87.3682,14.365],[-87.3735,14.3627],[-87.3816,14.3611],[-87.3902,14.3632],[-87.3946,14.3661],[-87.4008,14.3488],[-87.4024,14.3456],[-87.4047,14.3437],[-87.4096,14.3439],[-87.4104,14.3427],[-87.413,14.3416],[-87.415,14.3411],[-87.4169,14.3417],[-87.4208,14.3396],[-87.4308,14.3394],[-87.437,14.3348],[-87.4469,14.3364],[-87.4509,14.3385],[-87.4613,14.3361],[-87.4643,14.335],[-87.4663,14.3327],[-87.4684,14.3274],[-87.4662,14.2972],[-87.4611,14.2641],[-87.4595,14.262],[-87.4504,14.2557],[-87.4427,14.2489],[-87.4343,14.2478],[-87.4331,14.2456],[-87.4312,14.2449],[-87.4295,14.2427],[-87.4248,14.2245],[-87.4328,14.2145],[-87.4725,14.211],[-87.4615,14.2025],[-87.4492,14.1838],[-87.4452,14.175],[-87.4465,14.1722],[-87.4465,14.17],[-87.419,14.1164],[-87.4118,14.1148],[-87.4088,14.1109],[-87.4064,14.1105],[-87.402,14.1084],[-87.3994,14.1091],[-87.3971,14.1087],[-87.3939,14.1105],[-87.3904,14.1103],[-87.3872,14.1059],[-87.3859,14.1063],[-87.3845,14.1046],[-87.3813,14.1038],[-87.3803,14.104],[-87.3783,14.1064],[-87.3781,14.1091],[-87.3772,14.1103],[-87.3754,14.1092],[-87.3702,14.1084],[-87.3667,14.107],[-87.3691,14.1039],[-87.3696,14.1009],[-87.3687,14.0982],[-87.3708,14.0971],[-87.3538,14.0778],[-87.3536,14.0767],[-87.3569,14.0741],[-87.3594,14.0732],[-87.364,14.0736],[-87.3677,14.0701],[-87.3702,14.0705],[-87.3728,14.0678],[-87.3787,14.0479],[-87.3724,14.0124],[-87.3429,14.0271],[-87.3444,14.0218],[-87.3437,14.0202],[-87.3277,14.0114],[-87.3246,14.0109],[-87.3204,14.0071],[-87.3142,14.0054],[-87.3115,14.0034],[-87.3117,14.0023],[-87.3082,13.9999],[-87.3087,13.9988],[-87.3132,13.9969],[-87.3178,13.9964],[-87.3186,13.9935],[-87.3214,13.9919],[-87.3244,13.9872],[-87.3231,13.9844],[-87.2347,13.977],[-87.221,13.9742],[-87.2155,13.974],[-87.2023,13.9676],[-87.196,13.9656],[-87.1878,13.9648],[-87.1824,13.9653],[-87.1427,13.9415],[-87.132,13.9376],[-87.1311,13.9337],[-87.1287,13.9324],[-87.1276,13.9295],[-87.1276,13.9264],[-87.1318,13.9179],[-87.1387,13.9134],[-87.1237,13.8951],[-87.0863,13.9515],[-87.1267,13.9722],[-87.1253,13.9767],[-87.1214,13.9828],[-87.1166,13.9875],[-87.1146,13.9937],[-87.1142,13.9994],[-87.1131,14.001],[-87.1173,14.0066],[-87.1205,14.0151],[-87.1205,14.0177],[-87.1182,14.0189],[-87.1166,14.0215],[-87.1146,14.0227],[-87.1113,14.0319],[-87.1085,14.0338],[-87.1037,14.0395],[-87.0899,14.0476],[-87.0872,14.05],[-87.0736,14.0499],[-87.0662,14.0542],[-87.0535,14.0567],[-87.0418,14.0741],[-87.0577,14.0911],[-87.0576,14.0921],[-87.052,14.0968],[-87.0503,14.0956],[-87.0496,14.0962],[-87.0511,14.1006],[-87.0515,14.104],[-87.0508,14.1049],[-87.0543,14.1074],[-87.0558,14.1074],[-87.0575,14.1093],[-87.0607,14.1057],[-87.0655,14.1045],[-87.0705,14.1044],[-87.0731,14.1035],[-87.0762,14.101],[-87.079,14.1003],[-87.0962,14.0833],[-87.0986,14.0836],[-87.1042,14.0813],[-87.1077,14.0814],[-87.1182,14.0957],[-87.1292,14.1002],[-87.1298,14.1012],[-87.1308,14.1102],[-87.1353,14.1291],[-87.1299,14.1477],[-87.1229,14.1554],[-87.0991,14.1583],[-87.0764,14.1752],[-87.0338,14.1956],[-87.0333,14.2],[-87.0306,14.2045],[-87.0278,14.2138],[-87.0233,14.2157],[-87.0213,14.2178],[-87.0159,14.2192],[-87.0107,14.2254],[-87.0071,14.2274],[-87.0054,14.2296],[-87.0071,14.2386],[-87.0158,14.2401],[-87.027,14.2194],[-87.108,14.2666],[-87.1089,14.2683],[-87.1134,14.2669],[-87.1152,14.2703],[-87.115,14.2752],[-87.1161,14.2811],[-87.1127,14.2865],[-87.1067,14.2912],[-87.104,14.2955],[-87.1043,14.2972]]]}},{"type":"Feature","id":"hn0827","properties":{"name":"Villa de San Francisco","province":"Francisco Morazán","department":"Francisco Morazán","type":"Municipio","country":"Honduras","iso":"HN"},"geometry":{"type":"Polygon","coordinates":[[[-86.8966,14.2318],[-86.9502,14.2262],[-86.958,14.2289],[-86.9597,14.2318],[-86.9668,14.23],[-86.9721,14.2327],[-87.0071,14.2386],[-86.9936,14.1693],[-86.9884,14.1673],[-86.9868,14.1656],[-86.9833,14.1657],[-86.979,14.1643],[-86.975,14.1661],[-86.961,14.1644],[-86.9549,14.1659],[-86.9491,14.1625],[-86.9457,14.1593],[-86.9394,14.1575],[-86.9267,14.156],[-86.9163,14.1519],[-86.9133,14.1516],[-86.9077,14.1448],[-86.8973,14.1585],[-86.8975,14.1602],[-86.9005,14.162],[-86.9025,14.1621],[-86.908,14.1679],[-86.9113,14.1701],[-86.9166,14.1696],[-86.9204,14.1712],[-86.9249,14.168],[-86.9271,14.1694],[-86.9294,14.1735],[-86.9262,14.1755],[-86.9247,14.1786],[-86.923,14.1798],[-86.9237,14.1843],[-86.9195,14.1862],[-86.9183,14.1856],[-86.9184,14.1874],[-86.9105,14.1921],[-86.9064,14.1915],[-86.9028,14.1945],[-86.8988,14.2],[-86.8991,14.2032],[-86.9013,14.2057],[-86.9029,14.2099],[-86.897,14.2123],[-86.8966,14.2318]]]}},{"type":"Feature","id":"hn0826","properties":{"name":"Valle de Angeles","province":"Francisco Morazán","department":"Francisco Morazán","type":"Municipio","country":"Honduras","iso":"HN"},"geometry":{"type":"Polygon","coordinates":[[[-86.9077,14.1448],[-86.9133,14.1516],[-86.9163,14.1519],[-86.9267,14.156],[-86.9394,14.1575],[-86.9457,14.1593],[-86.9491,14.1625],[-86.9549,14.1659],[-86.961,14.1644],[-86.975,14.1661],[-86.979,14.1643],[-86.9833,14.1657],[-86.9868,14.1656],[-86.9884,14.1673],[-86.9936,14.1693],[-87.0054,14.2296],[-87.0071,14.2274],[-87.0107,14.2254],[-87.0159,14.2192],[-87.0213,14.2178],[-87.0233,14.2157],[-87.0278,14.2138],[-87.0306,14.2045],[-87.0333,14.2],[-87.0338,14.1956],[-87.0683,14.1791],[-87.066,14.1675],[-87.0658,14.1595],[-87.0647,14.1557],[-87.0644,14.1359],[-87.062,14.1355],[-87.0581,14.1327],[-87.0607,14.1258],[-87.0582,14.1224],[-87.0578,14.1186],[-87.0548,14.1112],[-87.0547,14.1075],[-87.0508,14.1049],[-87.0495,14.1062],[-87.0467,14.1064],[-87.0447,14.1045],[-87.0413,14.1052],[-87.0325,14.0978],[-87.0251,14.0983],[-87.0228,14.0994],[-87.0219,14.0981],[-87.017,14.0997],[-87.0161,14.0987],[-87.0133,14.0988],[-87.0099,14.1045],[-87.0063,14.1079],[-87.006,14.1094],[-86.9877,14.125],[-86.9737,14.1429],[-86.9724,14.1416],[-86.9697,14.142],[-86.9673,14.1414],[-86.966,14.14],[-86.9637,14.1397],[-86.9614,14.1403],[-86.9593,14.1394],[-86.9546,14.141],[-86.9494,14.1406],[-86.9467,14.1393],[-86.9441,14.1365],[-86.9413,14.1359],[-86.9413,14.1348],[-86.9397,14.1336],[-86.9369,14.1344],[-86.9351,14.1328],[-86.934,14.1336],[-86.933,14.1325],[-86.9328,14.134],[-86.9317,14.134],[-86.9281,14.131],[-86.9278,14.1319],[-86.9263,14.1314],[-86.9235,14.1326],[-86.9217,14.1313],[-86.9191,14.1312],[-86.9172,14.1331],[-86.9142,14.1301],[-86.9131,14.1377],[-86.9077,14.1448]]]}},{"type":"Feature","id":"hn0809","properties":{"name":"Lepaterique","province":"Francisco Morazán","department":"Francisco Morazán","type":"Municipio","country":"Honduras","iso":"HN"},"geometry":{"type":"Polygon","coordinates":[[[-87.3724,14.0124],[-87.3787,14.0479],[-87.3728,14.0678],[-87.3702,14.0705],[-87.3677,14.0701],[-87.364,14.0736],[-87.3594,14.0732],[-87.3569,14.0741],[-87.3536,14.0767],[-87.3538,14.0778],[-87.3708,14.0971],[-87.3687,14.0982],[-87.3696,14.1009],[-87.3691,14.1039],[-87.3667,14.107],[-87.3702,14.1084],[-87.3754,14.1092],[-87.3772,14.1103],[-87.3781,14.1091],[-87.3783,14.1064],[-87.3803,14.104],[-87.3813,14.1038],[-87.3845,14.1046],[-87.3859,14.1063],[-87.3872,14.1059],[-87.3904,14.1103],[-87.3939,14.1105],[-87.3971,14.1087],[-87.3994,14.1091],[-87.402,14.1084],[-87.4064,14.1105],[-87.4088,14.1109],[-87.4118,14.1148],[-87.419,14.1164],[-87.4465,14.17],[-87.4465,14.1722],[-87.4452,14.175],[-87.4492,14.1838],[-87.4615,14.2025],[-87.4725,14.211],[-87.4783,14.2024],[-87.4868,14.1984],[-87.4887,14.1933],[-87.4971,14.1829],[-87.4983,14.1792],[-87.4984,14.1756],[-87.4948,14.1718],[-87.4907,14.1704],[-87.5,14.1614],[-87.5419,14.1339],[-87.5801,14.1441],[-87.5827,14.1408],[-87.5853,14.1407],[-87.5886,14.1385],[-87.5953,14.1293],[-87.6142,14.1109],[-87.6174,14.1067],[-87.6151,14.0873],[-87.6042,14.0336],[-87.6053,14.0013],[-87.6038,13.9965],[-87.5922,13.9809],[-87.5985,13.972],[-87.5928,13.9678],[-87.5913,13.9654],[-87.5915,13.9631],[-87.5947,13.9558],[-87.5536,13.9197],[-87.4868,13.9285],[-87.4433,13.9308],[-87.4419,13.9332],[-87.4444,13.936],[-87.4443,13.9388],[-87.4465,13.9405],[-87.4477,13.944],[-87.4507,13.948],[-87.4432,13.949],[-87.4419,13.948],[-87.4414,13.9496],[-87.4398,13.9495],[-87.4394,13.9506],[-87.4369,13.9518],[-87.4369,13.9547],[-87.4336,13.9557],[-87.4273,13.9535],[-87.423,13.9534],[-87.4173,13.9549],[-87.4134,13.9572],[-87.4126,13.9582],[-87.4122,13.964],[-87.4083,13.9652],[-87.4065,13.9676],[-87.4052,13.9711],[-87.401,13.9763],[-87.4011,13.9776],[-87.4027,13.9799],[-87.4008,13.9832],[-87.4028,13.9898],[-87.3804,14.0085],[-87.3724,14.0124]]]}},{"type":"Feature","id":"hn0823","properties":{"name":"Santa Lucia","province":"Francisco Morazán","department":"Francisco Morazán","type":"Municipio","country":"Honduras","iso":"HN"},"geometry":{"type":"Polygon","coordinates":[[[-87.0547,14.1074],[-87.0548,14.1112],[-87.0578,14.1186],[-87.0582,14.1224],[-87.0607,14.1258],[-87.0581,14.1327],[-87.062,14.1355],[-87.0644,14.1359],[-87.0647,14.1557],[-87.0658,14.1595],[-87.066,14.1675],[-87.0683,14.1791],[-87.0764,14.1752],[-87.0991,14.1583],[-87.1229,14.1554],[-87.1299,14.1477],[-87.1353,14.1291],[-87.1308,14.1102],[-87.1298,14.1012],[-87.1292,14.1002],[-87.1182,14.0957],[-87.1077,14.0814],[-87.1042,14.0813],[-87.0986,14.0836],[-87.0962,14.0833],[-87.079,14.1003],[-87.0762,14.101],[-87.073,14.1036],[-87.0607,14.1057],[-87.0578,14.1093],[-87.0558,14.1074],[-87.0547,14.1074]]]}},{"type":"Feature","id":"hn0817","properties":{"name":"San Antonio de Oriente","province":"Francisco Morazán","department":"Francisco Morazán","type":"Municipio","country":"Honduras","iso":"HN"},"geometry":{"type":"Polygon","coordinates":[[[-86.9109,14.0514],[-86.9133,14.0529],[-86.9449,14.0636],[-86.9479,14.0749],[-86.9473,14.0847],[-86.9714,14.1006],[-86.9877,14.125],[-87.006,14.1094],[-87.0063,14.1079],[-87.0099,14.1045],[-87.0134,14.0988],[-87.0161,14.0987],[-87.017,14.0997],[-87.0219,14.0981],[-87.0228,14.0994],[-87.0251,14.0983],[-87.0325,14.0978],[-87.0412,14.1051],[-87.0446,14.1045],[-87.0465,14.1064],[-87.0498,14.1061],[-87.0515,14.1039],[-87.0497,14.0959],[-87.0503,14.0956],[-87.052,14.0968],[-87.0578,14.0913],[-87.0418,14.0741],[-87.0535,14.0567],[-87.0662,14.0542],[-87.0736,14.0499],[-87.0872,14.05],[-87.0899,14.0476],[-87.1037,14.0395],[-87.1054,14.0371],[-87.1011,14.0329],[-87.0985,14.0316],[-87.0938,14.0308],[-87.0912,14.0276],[-87.0889,14.0266],[-87.0795,14.0267],[-87.0745,14.0259],[-87.0663,14.0199],[-87.0628,14.0202],[-87.0511,14.0101],[-87.0461,14.0068],[-87.0397,14.0054],[-87.0376,13.9993],[-87.0355,13.9976],[-87.0262,13.9928],[-87.0237,13.9928],[-87.0213,13.994],[-87.0182,13.9931],[-87.0142,13.986],[-87.0118,13.9836],[-87.0089,13.9812],[-87.0058,13.9804],[-87.0033,13.9785],[-87.0045,13.9723],[-87.0027,13.9663],[-86.9999,13.9631],[-86.9916,13.9569],[-86.9885,13.9562],[-86.9906,13.9592],[-86.9909,13.9626],[-86.9876,13.9631],[-86.9877,13.9667],[-86.9839,13.969],[-86.9848,13.9666],[-86.9842,13.9648],[-86.9831,13.9647],[-86.9836,13.963],[-86.9806,13.9631],[-86.9793,13.9606],[-86.9758,13.9588],[-86.9734,13.9587],[-86.9703,13.9599],[-86.9601,13.9574],[-86.9586,13.9563],[-86.9579,13.9538],[-86.956,13.9519],[-86.9538,13.9506],[-86.9515,13.9504],[-86.9474,13.9527],[-86.9145,13.9886],[-86.9191,14.001],[-86.9112,14.002],[-86.9123,14.0152],[-86.9102,14.0504],[-86.9109,14.0514]]]}},{"type":"Feature","id":"hn0825","properties":{"name":"Tatumbla","province":"Francisco Morazán","department":"Francisco Morazán","type":"Municipio","country":"Honduras","iso":"HN"},"geometry":{"type":"Polygon","coordinates":[[[-87.1054,14.0371],[-87.1113,14.0319],[-87.1146,14.0227],[-87.1166,14.0215],[-87.1182,14.0189],[-87.1205,14.0176],[-87.1205,14.0151],[-87.1173,14.0066],[-87.1131,14.001],[-87.1142,13.9994],[-87.1146,13.9937],[-87.1166,13.9875],[-87.1214,13.9828],[-87.1253,13.9767],[-87.1267,13.9722],[-87.0864,13.9515],[-87.0683,13.952],[-87.0608,13.949],[-87.0574,13.9493],[-87.0552,13.9452],[-87.0515,13.9425],[-87.0517,13.9376],[-87.0488,13.9391],[-87.047,13.9413],[-87.0402,13.9445],[-87.0384,13.9473],[-87.0166,13.9556],[-87.0177,13.9588],[-87.0171,13.964],[-87.0157,13.9672],[-87.0165,13.9734],[-87.0138,13.9786],[-87.0139,13.9831],[-87.0132,13.9852],[-87.018,13.9929],[-87.0212,13.994],[-87.0237,13.9928],[-87.0262,13.9928],[-87.0355,13.9976],[-87.0376,13.9993],[-87.0397,14.0054],[-87.0461,14.0068],[-87.0511,14.0101],[-87.0628,14.0202],[-87.0663,14.0199],[-87.0745,14.0259],[-87.0795,14.0267],[-87.0889,14.0266],[-87.0912,14.0276],[-87.0938,14.0308],[-87.0985,14.0316],[-87.1011,14.0329],[-87.1054,14.0371]]]}},{"type":"Feature","id":"hn0813","properties":{"name":"Ojojona","province":"Francisco Morazán","department":"Francisco Morazán","type":"Municipio","country":"Honduras","iso":"HN"},"geometry":{"type":"Polygon","coordinates":[[[-87.2602,13.9788],[-87.3231,13.9844],[-87.3244,13.9872],[-87.3214,13.9919],[-87.3186,13.9935],[-87.3178,13.9964],[-87.3132,13.9969],[-87.3087,13.9988],[-87.3082,13.9999],[-87.3117,14.0023],[-87.3115,14.0034],[-87.3142,14.0054],[-87.3204,14.0071],[-87.3246,14.0109],[-87.3277,14.0114],[-87.3437,14.0202],[-87.3444,14.0218],[-87.3429,14.0271],[-87.3804,14.0085],[-87.4028,13.9898],[-87.4008,13.9832],[-87.4027,13.9799],[-87.401,13.9775],[-87.4011,13.9762],[-87.4052,13.9711],[-87.4065,13.9676],[-87.4083,13.9652],[-87.4122,13.964],[-87.4126,13.9582],[-87.4136,13.957],[-87.4173,13.9549],[-87.423,13.9534],[-87.4273,13.9535],[-87.4337,13.9557],[-87.4369,13.9547],[-87.4369,13.9518],[-87.4394,13.9506],[-87.4398,13.9495],[-87.4414,13.9496],[-87.4419,13.948],[-87.4432,13.949],[-87.4508,13.9476],[-87.4491,13.9462],[-87.4465,13.9404],[-87.4443,13.9388],[-87.4444,13.936],[-87.4419,13.9332],[-87.4433,13.9308],[-87.3965,13.9282],[-87.3666,13.8354],[-87.3632,13.8355],[-87.3433,13.8502],[-87.3455,13.8439],[-87.348,13.8425],[-87.3483,13.8413],[-87.3486,13.8395],[-87.3475,13.8356],[-87.3445,13.831],[-87.3426,13.8255],[-87.3401,13.824],[-87.3374,13.8236],[-87.3338,13.8206],[-87.3333,13.8234],[-87.3289,13.8248],[-87.3269,13.828],[-87.3241,13.829],[-87.3218,13.8308],[-87.3191,13.8297],[-87.3146,13.8341],[-87.3123,13.834],[-87.3123,13.8353],[-87.3104,13.8372],[-87.31,13.8388],[-87.3068,13.8426],[-87.303,13.8445],[-87.3007,13.8491],[-87.2991,13.8497],[-87.2969,13.8491],[-87.2923,13.8513],[-87.284,13.8497],[-87.2831,13.8518],[-87.2811,13.8533],[-87.2803,13.859],[-87.277,13.8638],[-87.278,13.8725],[-87.2729,13.8782],[-87.2718,13.8807],[-87.2722,13.8829],[-87.2707,13.8855],[-87.2663,13.8878],[-87.2656,13.8917],[-87.2677,13.8926],[-87.274,13.8927],[-87.2749,13.8984],[-87.2832,13.9009],[-87.2867,13.9013],[-87.2881,13.9073],[-87.2904,13.9099],[-87.2759,13.9465],[-87.2511,13.9648],[-87.2523,13.9684],[-87.256,13.9709],[-87.2602,13.9788]]]}},{"type":"Feature","id":"hn0810","properties":{"name":"Maraita","province":"Francisco Morazán","department":"Francisco Morazán","type":"Municipio","country":"Honduras","iso":"HN"},"geometry":{"type":"Polygon","coordinates":[[[-86.9885,13.9562],[-86.9927,13.9576],[-87.0023,13.9657],[-87.0045,13.9721],[-87.0033,13.9785],[-87.0058,13.9804],[-87.009,13.9813],[-87.0132,13.9852],[-87.0139,13.9831],[-87.0138,13.9786],[-87.0165,13.9734],[-87.0157,13.9672],[-87.0171,13.964],[-87.0177,13.9588],[-87.0166,13.9556],[-87.0384,13.9473],[-87.0402,13.9445],[-87.047,13.9413],[-87.0488,13.9391],[-87.0515,13.9377],[-87.0515,13.9426],[-87.0552,13.9452],[-87.0575,13.9494],[-87.0608,13.949],[-87.0683,13.952],[-87.0864,13.9515],[-87.1261,13.8915],[-87.1268,13.8879],[-87.129,13.8863],[-87.1299,13.8839],[-87.1329,13.8825],[-87.1404,13.8717],[-87.1482,13.8716],[-87.1525,13.8528],[-87.155,13.8469],[-87.1405,13.8455],[-87.1327,13.8396],[-87.1321,13.8384],[-87.1289,13.8379],[-87.1275,13.8368],[-87.1267,13.835],[-87.1274,13.8344],[-87.1273,13.8325],[-87.1132,13.8082],[-87.0866,13.7896],[-87.0826,13.7787],[-87.0788,13.7753],[-87.0698,13.7759],[-87.0655,13.7749],[-87.0634,13.7734],[-87.0609,13.7741],[-87.0591,13.7728],[-87.0532,13.7718],[-87.0504,13.7722],[-87.0493,13.7713],[-87.0463,13.771],[-87.0391,13.7729],[-87.0354,13.7718],[-87.0315,13.7723],[-87.0312,13.7627],[-87.0226,13.767],[-87.0161,13.7758],[-87.0124,13.7943],[-87.0013,13.8162],[-86.9956,13.8219],[-86.9939,13.8277],[-86.9931,13.8343],[-86.9892,13.8468],[-86.9923,13.8497],[-86.9932,13.8536],[-86.9926,13.8575],[-86.9955,13.8586],[-86.9936,13.8627],[-86.9939,13.8652],[-86.9911,13.8706],[-86.9904,13.8779],[-86.9878,13.885],[-86.9862,13.8865],[-86.9884,13.8886],[-86.9871,13.8925],[-86.9887,13.8971],[-86.9902,13.8989],[-86.9901,13.9019],[-86.9946,13.9054],[-86.9974,13.9096],[-86.9965,13.9105],[-86.9966,13.9126],[-86.9953,13.9138],[-86.9958,13.9147],[-86.9942,13.9156],[-86.9954,13.9166],[-86.9942,13.9172],[-86.9939,13.9186],[-86.9928,13.919],[-86.9917,13.9209],[-86.9896,13.9212],[-86.9899,13.924],[-86.9886,13.9249],[-86.9887,13.9261],[-86.9851,13.9273],[-86.9871,13.9286],[-86.987,13.9293],[-86.9822,13.9301],[-86.9803,13.9334],[-86.985,13.9385],[-86.9841,13.9407],[-86.9866,13.9444],[-86.9861,13.9463],[-86.9876,13.9478],[-86.9878,13.9558],[-86.9885,13.9562]]]}},{"type":"Feature","id":"hn0822","properties":{"name":"Santa Ana","province":"Francisco Morazán","department":"Francisco Morazán","type":"Municipio","country":"Honduras","iso":"HN"},"geometry":{"type":"MultiPolygon","coordinates":[[[[-87.1948,13.9655],[-87.2023,13.9676],[-87.2155,13.974],[-87.221,13.9742],[-87.2347,13.977],[-87.2602,13.9788],[-87.256,13.9709],[-87.2523,13.9684],[-87.2511,13.9648],[-87.2759,13.9465],[-87.2904,13.9099],[-87.2881,13.9073],[-87.2868,13.9014],[-87.2749,13.8984],[-87.274,13.8927],[-87.2677,13.8926],[-87.2659,13.8917],[-87.2296,13.8981],[-87.2203,13.8893],[-87.2085,13.9063],[-87.2137,13.9134],[-87.2126,13.9193],[-87.2127,13.9226],[-87.1948,13.9655]]],[[[-87.1237,13.8951],[-87.1387,13.9134],[-87.1318,13.9179],[-87.1276,13.9264],[-87.1276,13.9295],[-87.1287,13.9324],[-87.1311,13.9337],[-87.132,13.9376],[-87.1427,13.9415],[-87.182,13.9647],[-87.1821,13.961],[-87.181,13.9572],[-87.174,13.9509],[-87.1674,13.9176],[-87.1653,13.9124],[-87.1561,13.9022],[-87.1558,13.8874],[-87.1482,13.8716],[-87.1404,13.8717],[-87.1329,13.8825],[-87.1299,13.8839],[-87.129,13.8863],[-87.1268,13.8879],[-87.1261,13.8915],[-87.1237,13.8951]]]]}},{"type":"Feature","id":"hn0818","properties":{"name":"San Buenaventura","province":"Francisco Morazán","department":"Francisco Morazán","type":"Municipio","country":"Honduras","iso":"HN"},"geometry":{"type":"Polygon","coordinates":[[[-87.182,13.9647],[-87.1825,13.9653],[-87.1878,13.9648],[-87.1948,13.9655],[-87.2127,13.9226],[-87.2126,13.9193],[-87.2137,13.9134],[-87.2085,13.9063],[-87.2203,13.8893],[-87.2118,13.8815],[-87.2018,13.8617],[-87.1934,13.8607],[-87.192,13.8582],[-87.194,13.8542],[-87.1911,13.8507],[-87.1918,13.847],[-87.1898,13.8427],[-87.1767,13.8482],[-87.1649,13.8484],[-87.155,13.8469],[-87.1525,13.8528],[-87.1482,13.8719],[-87.1558,13.8874],[-87.1561,13.9022],[-87.1653,13.9124],[-87.1674,13.9176],[-87.174,13.9509],[-87.181,13.9572],[-87.1821,13.961],[-87.182,13.9647]]]}},{"type":"Feature","id":"hn0804","properties":{"name":"Curaren","province":"Francisco Morazán","department":"Francisco Morazán","type":"Municipio","country":"Honduras","iso":"HN"},"geometry":{"type":"Polygon","coordinates":[[[-87.4869,13.9285],[-87.5536,13.9197],[-87.5947,13.9558],[-87.597,13.9531],[-87.599,13.9494],[-87.5989,13.9464],[-87.5999,13.9448],[-87.5988,13.94],[-87.5994,13.9344],[-87.5979,13.9283],[-87.598,13.9263],[-87.6001,13.9212],[-87.6007,13.9157],[-87.6039,13.9106],[-87.6021,13.9065],[-87.603,13.9024],[-87.6022,13.8965],[-87.6067,13.8958],[-87.6149,13.8907],[-87.6164,13.8878],[-87.6155,13.8856],[-87.6154,13.8806],[-87.6163,13.8767],[-87.6148,13.8726],[-87.6156,13.87],[-87.6203,13.8632],[-87.6214,13.8592],[-87.6243,13.8541],[-87.6296,13.8491],[-87.6355,13.8462],[-87.6393,13.8433],[-87.6427,13.8369],[-87.6428,13.8346],[-87.6447,13.8302],[-87.6454,13.8176],[-87.6436,13.8157],[-87.6437,13.8147],[-87.6456,13.8113],[-87.6432,13.7992],[-87.6436,13.7958],[-87.6428,13.7916],[-87.6434,13.7887],[-87.6422,13.787],[-87.6429,13.7853],[-87.6425,13.779],[-87.6443,13.7795],[-87.6449,13.779],[-87.6443,13.777],[-87.6462,13.7736],[-87.6461,13.7716],[-87.6472,13.7696],[-87.6462,13.7686],[-87.6497,13.7571],[-87.6501,13.7504],[-87.6493,13.7435],[-87.6412,13.7412],[-87.6296,13.7406],[-87.6275,13.7394],[-87.6239,13.7352],[-87.6164,13.7334],[-87.6108,13.7283],[-87.602,13.7233],[-87.5942,13.7177],[-87.5898,13.7151],[-87.5835,13.7131],[-87.5631,13.7144],[-87.5492,13.7169],[-87.549,13.7192],[-87.547,13.7208],[-87.5424,13.7294],[-87.5399,13.7296],[-87.5389,13.7309],[-87.537,13.731],[-87.5348,13.7323],[-87.5334,13.7365],[-87.5321,13.7379],[-87.5286,13.7388],[-87.5271,13.7407],[-87.5244,13.7409],[-87.5241,13.7428],[-87.5212,13.7424],[-87.5284,13.751],[-87.524,13.764],[-87.5253,13.794],[-87.5238,13.8035],[-87.5211,13.8055],[-87.5218,13.8094],[-87.521,13.8123],[-87.5174,13.8153],[-87.516,13.818],[-87.5135,13.8206],[-87.5001,13.8212],[-87.494,13.8206],[-87.4956,13.8489],[-87.4808,13.8639],[-87.4821,13.8666],[-87.4814,13.8689],[-87.4815,13.8754],[-87.4845,13.8794],[-87.4874,13.8799],[-87.49,13.8816],[-87.4902,13.8839],[-87.4915,13.8856],[-87.4927,13.8906],[-87.4921,13.8925],[-87.4928,13.8942],[-87.4918,13.8976],[-87.4876,13.9005],[-87.4878,13.9032],[-87.49,13.9055],[-87.4909,13.9076],[-87.4888,13.9093],[-87.4883,13.9122],[-87.4857,13.9141],[-87.4856,13.9173],[-87.4863,13.9193],[-87.4846,13.9233],[-87.4848,13.9257],[-87.4869,13.9285]]]}},{"type":"Feature","id":"hn0815","properties":{"name":"Reitoca","province":"Francisco Morazán","department":"Francisco Morazán","type":"Municipio","country":"Honduras","iso":"HN"},"geometry":{"type":"Polygon","coordinates":[[[-87.3666,13.8354],[-87.3965,13.9282],[-87.4424,13.9309],[-87.4869,13.9285],[-87.4848,13.9257],[-87.4846,13.9233],[-87.4863,13.9193],[-87.4856,13.9173],[-87.4857,13.9141],[-87.4883,13.9122],[-87.4888,13.9093],[-87.4909,13.9076],[-87.49,13.9055],[-87.4878,13.9032],[-87.4876,13.9005],[-87.4918,13.8976],[-87.4928,13.8942],[-87.4921,13.8925],[-87.4927,13.8906],[-87.4915,13.8856],[-87.4902,13.8839],[-87.49,13.8816],[-87.4874,13.8799],[-87.4845,13.8794],[-87.4815,13.8754],[-87.4814,13.8689],[-87.4821,13.8666],[-87.4808,13.8639],[-87.4956,13.8489],[-87.494,13.8206],[-87.4849,13.812],[-87.4681,13.8081],[-87.4445,13.789],[-87.4375,13.7857],[-87.4131,13.7806],[-87.4139,13.755],[-87.4127,13.7541],[-87.4004,13.7489],[-87.399,13.7493],[-87.3944,13.7534],[-87.3913,13.7538],[-87.386,13.7532],[-87.3832,13.7542],[-87.3813,13.7554],[-87.3761,13.7616],[-87.3775,13.7643],[-87.3852,13.7671],[-87.3872,13.7694],[-87.3821,13.7721],[-87.3835,13.7759],[-87.3774,13.7801],[-87.3774,13.7859],[-87.3793,13.7885],[-87.3819,13.7952],[-87.372,13.7998],[-87.3666,13.8354]]]}},{"type":"Feature","id":"hn0816","properties":{"name":"Sabanagrande","province":"Francisco Morazán","department":"Francisco Morazán","type":"Municipio","country":"Honduras","iso":"HN"},"geometry":{"type":"Polygon","coordinates":[[[-87.2203,13.8893],[-87.2296,13.8981],[-87.2656,13.8917],[-87.2663,13.8878],[-87.2707,13.8855],[-87.2722,13.8829],[-87.2718,13.8807],[-87.2729,13.8782],[-87.278,13.8726],[-87.2771,13.8636],[-87.2803,13.8591],[-87.281,13.8536],[-87.2831,13.8518],[-87.2838,13.8499],[-87.2923,13.8513],[-87.2969,13.8491],[-87.2991,13.8497],[-87.3006,13.8491],[-87.303,13.8445],[-87.3068,13.8426],[-87.31,13.8388],[-87.3104,13.8372],[-87.3123,13.8353],[-87.3123,13.834],[-87.3146,13.8341],[-87.3191,13.8297],[-87.3218,13.8308],[-87.3241,13.829],[-87.3269,13.828],[-87.3289,13.8248],[-87.3333,13.8234],[-87.3338,13.8206],[-87.3374,13.8236],[-87.3401,13.824],[-87.3426,13.8255],[-87.3445,13.831],[-87.3475,13.8356],[-87.3486,13.8395],[-87.3483,13.8413],[-87.348,13.8425],[-87.3455,13.8439],[-87.3433,13.8502],[-87.3632,13.8355],[-87.3666,13.8354],[-87.372,13.7998],[-87.3819,13.7952],[-87.3793,13.7889],[-87.369,13.7915],[-87.3642,13.7915],[-87.3593,13.7905],[-87.3539,13.7917],[-87.35,13.7852],[-87.3453,13.7816],[-87.3416,13.7809],[-87.338,13.782],[-87.3373,13.7838],[-87.3346,13.7838],[-87.3316,13.783],[-87.3229,13.7772],[-87.3197,13.7775],[-87.3166,13.7755],[-87.2842,13.7684],[-87.2805,13.766],[-87.2807,13.7639],[-87.2779,13.7601],[-87.2806,13.7518],[-87.2806,13.7492],[-87.2784,13.7475],[-87.278,13.7427],[-87.2745,13.7413],[-87.2687,13.7418],[-87.2672,13.7404],[-87.2696,13.7373],[-87.2728,13.7347],[-87.269,13.7318],[-87.2681,13.7294],[-87.2657,13.7277],[-87.2621,13.7222],[-87.2612,13.7193],[-87.2642,13.7169],[-87.2624,13.7143],[-87.263,13.712],[-87.2619,13.7091],[-87.2647,13.7001],[-87.2611,13.6982],[-87.2587,13.6958],[-87.2612,13.6854],[-87.2531,13.6877],[-87.2445,13.6836],[-87.2413,13.6858],[-87.2325,13.6878],[-87.227,13.6916],[-87.2265,13.6928],[-87.2315,13.7],[-87.2313,13.704],[-87.2325,13.7064],[-87.2298,13.7081],[-87.227,13.712],[-87.2237,13.7146],[-87.2206,13.7153],[-87.2192,13.7136],[-87.2163,13.7138],[-87.2143,13.7168],[-87.2131,13.7207],[-87.2116,13.7219],[-87.2082,13.7208],[-87.2052,13.7175],[-87.2044,13.7175],[-87.1984,13.7256],[-87.1941,13.7285],[-87.1899,13.7728],[-87.2024,13.7916],[-87.2002,13.7983],[-87.1957,13.8255],[-87.1966,13.8267],[-87.1966,13.8294],[-87.1988,13.8336],[-87.1968,13.8362],[-87.1979,13.8398],[-87.1898,13.8427],[-87.1918,13.847],[-87.1911,13.8507],[-87.194,13.8542],[-87.192,13.8582],[-87.1934,13.8607],[-87.2018,13.8617],[-87.2118,13.8815],[-87.2203,13.8893]]]}},{"type":"Feature","id":"hn0812","properties":{"name":"Nueva Armenia","province":"Francisco Morazán","department":"Francisco Morazán","type":"Municipio","country":"Honduras","iso":"HN"},"geometry":{"type":"Polygon","coordinates":[[[-87.155,13.8469],[-87.1649,13.8484],[-87.1767,13.8482],[-87.1979,13.8398],[-87.1968,13.8362],[-87.1988,13.8336],[-87.1966,13.8294],[-87.1966,13.8267],[-87.1957,13.8255],[-87.2002,13.7983],[-87.2024,13.7913],[-87.1899,13.7728],[-87.1941,13.7285],[-87.1984,13.7256],[-87.2044,13.7175],[-87.2052,13.7175],[-87.2082,13.7208],[-87.2112,13.722],[-87.2131,13.7208],[-87.2143,13.7168],[-87.2164,13.7137],[-87.2192,13.7136],[-87.2207,13.7153],[-87.2237,13.7146],[-87.226,13.7129],[-87.2295,13.7083],[-87.2326,13.7062],[-87.2313,13.7041],[-87.2315,13.7],[-87.2298,13.6984],[-87.2286,13.6953],[-87.2267,13.6938],[-87.2267,13.6919],[-87.234,13.687],[-87.2367,13.6871],[-87.2413,13.6858],[-87.2445,13.6836],[-87.2116,13.6685],[-87.1838,13.686],[-87.1506,13.666],[-87.1457,13.6649],[-87.1422,13.6631],[-87.1392,13.6628],[-87.137,13.6603],[-87.1331,13.6595],[-87.1285,13.6543],[-87.1261,13.6532],[-87.1247,13.654],[-87.1247,13.6549],[-87.126,13.657],[-87.1271,13.6652],[-87.1295,13.6672],[-87.1316,13.6719],[-87.1157,13.6985],[-87.1002,13.7097],[-87.1017,13.7103],[-87.101,13.7127],[-87.1017,13.7141],[-87.1049,13.7149],[-87.1083,13.7189],[-87.11,13.7232],[-87.1141,13.7256],[-87.1134,13.7298],[-87.1162,13.7312],[-87.1178,13.7337],[-87.1164,13.7372],[-87.1193,13.7415],[-87.1162,13.7443],[-87.1174,13.7475],[-87.1197,13.7481],[-87.1197,13.7488],[-87.1169,13.7514],[-87.118,13.7534],[-87.1169,13.7549],[-87.1166,13.7576],[-87.1142,13.7587],[-87.1137,13.7617],[-87.1119,13.7639],[-87.1144,13.7665],[-87.1143,13.7673],[-87.1124,13.7679],[-87.1116,13.7697],[-87.1142,13.7704],[-87.1168,13.7727],[-87.1178,13.7779],[-87.1206,13.776],[-87.1223,13.7784],[-87.1219,13.7811],[-87.1159,13.7883],[-87.1075,13.8018],[-87.1132,13.8082],[-87.1273,13.8325],[-87.1274,13.8344],[-87.1267,13.835],[-87.1275,13.8368],[-87.1289,13.8379],[-87.1321,13.8384],[-87.1327,13.8396],[-87.1405,13.8455],[-87.155,13.8469]]]}},{"type":"Feature","id":"hn0802","properties":{"name":"Alubaren","province":"Francisco Morazán","department":"Francisco Morazán","type":"Municipio","country":"Honduras","iso":"HN"},"geometry":{"type":"Polygon","coordinates":[[[-87.494,13.8206],[-87.5001,13.8212],[-87.5138,13.8204],[-87.5174,13.8153],[-87.521,13.8125],[-87.5218,13.8094],[-87.5211,13.8055],[-87.5238,13.8035],[-87.5252,13.795],[-87.5001,13.7799],[-87.4982,13.7798],[-87.4934,13.7765],[-87.491,13.776],[-87.456,13.7535],[-87.4523,13.7571],[-87.4464,13.757],[-87.4439,13.7591],[-87.4423,13.7593],[-87.4284,13.7578],[-87.4198,13.7587],[-87.4163,13.7572],[-87.4139,13.755],[-87.4131,13.7806],[-87.4375,13.7857],[-87.4445,13.789],[-87.4681,13.8081],[-87.4849,13.812],[-87.494,13.8206]]]}},{"type":"Feature","id":"hn0821","properties":{"name":"San Miguelito","province":"Francisco Morazán","department":"Francisco Morazán","type":"Municipio","country":"Honduras","iso":"HN"},"geometry":{"type":"Polygon","coordinates":[[[-87.456,13.7535],[-87.491,13.776],[-87.4934,13.7765],[-87.4982,13.7798],[-87.5001,13.7799],[-87.5252,13.795],[-87.524,13.764],[-87.5284,13.751],[-87.5212,13.7424],[-87.5185,13.7431],[-87.5164,13.7412],[-87.5149,13.7391],[-87.5144,13.7366],[-87.5155,13.7316],[-87.5084,13.7261],[-87.504,13.7251],[-87.5,13.7261],[-87.4933,13.7237],[-87.4912,13.7251],[-87.4898,13.7251],[-87.4823,13.7204],[-87.4797,13.7208],[-87.4731,13.7178],[-87.4711,13.7159],[-87.4693,13.7164],[-87.4597,13.7085],[-87.4592,13.7126],[-87.4536,13.718],[-87.4532,13.72],[-87.4544,13.7237],[-87.4506,13.7288],[-87.4554,13.7353],[-87.456,13.7535]]]}},{"type":"Feature","id":"hn0808","properties":{"name":"La Venta","province":"Francisco Morazán","department":"Francisco Morazán","type":"Municipio","country":"Honduras","iso":"HN"},"geometry":{"type":"Polygon","coordinates":[[[-87.2612,13.6854],[-87.2587,13.6958],[-87.2611,13.6982],[-87.2647,13.7001],[-87.2619,13.7091],[-87.263,13.712],[-87.2624,13.7143],[-87.2642,13.7169],[-87.2612,13.7193],[-87.2621,13.7222],[-87.2657,13.7277],[-87.2681,13.7294],[-87.269,13.7318],[-87.2728,13.7347],[-87.2696,13.7373],[-87.2672,13.7404],[-87.2687,13.7418],[-87.2745,13.7413],[-87.278,13.7427],[-87.2784,13.7475],[-87.2806,13.7492],[-87.2806,13.7518],[-87.2779,13.7601],[-87.2807,13.7639],[-87.2805,13.766],[-87.2842,13.7684],[-87.3166,13.7755],[-87.3197,13.7775],[-87.3229,13.7772],[-87.3316,13.783],[-87.3346,13.7838],[-87.3373,13.7838],[-87.338,13.782],[-87.3416,13.7809],[-87.3453,13.7816],[-87.35,13.7852],[-87.3539,13.7917],[-87.3593,13.7905],[-87.3642,13.7915],[-87.369,13.7915],[-87.3793,13.7889],[-87.3773,13.7859],[-87.3775,13.7798],[-87.3834,13.7761],[-87.382,13.7723],[-87.3858,13.7706],[-87.3872,13.7691],[-87.3848,13.7669],[-87.3775,13.7643],[-87.3761,13.7618],[-87.3811,13.7559],[-87.3814,13.7512],[-87.3882,13.7447],[-87.389,13.739],[-87.3922,13.7365],[-87.3942,13.7332],[-87.3936,13.7184],[-87.3923,13.7176],[-87.3856,13.7185],[-87.3851,13.7174],[-87.3862,13.7147],[-87.3858,13.7131],[-87.3816,13.7073],[-87.3786,13.7045],[-87.3729,13.7028],[-87.3707,13.7],[-87.3669,13.6992],[-87.3637,13.6999],[-87.3619,13.6989],[-87.361,13.6968],[-87.3633,13.6911],[-87.362,13.6879],[-87.36,13.6858],[-87.3581,13.6867],[-87.3557,13.6857],[-87.3475,13.6862],[-87.3421,13.6876],[-87.3321,13.6871],[-87.3302,13.688],[-87.3254,13.6863],[-87.316,13.6911],[-87.311,13.6902],[-87.3052,13.6868],[-87.3004,13.6851],[-87.2986,13.6837],[-87.2989,13.681],[-87.2922,13.6818],[-87.2896,13.6788],[-87.284,13.6804],[-87.2812,13.6796],[-87.2612,13.6854]]]}},{"type":"Feature","id":"hn0807","properties":{"name":"La Libertad","province":"Francisco Morazán","department":"Francisco Morazán","type":"Municipio","country":"Honduras","iso":"HN"},"geometry":{"type":"Polygon","coordinates":[[[-87.4597,13.7085],[-87.4693,13.7164],[-87.4711,13.7159],[-87.4731,13.7178],[-87.4797,13.7208],[-87.4823,13.7204],[-87.4898,13.7251],[-87.4912,13.7251],[-87.4933,13.7237],[-87.5,13.7261],[-87.504,13.7251],[-87.5084,13.7261],[-87.5154,13.7315],[-87.5144,13.7361],[-87.5148,13.7388],[-87.5186,13.7431],[-87.5212,13.7424],[-87.524,13.7428],[-87.5243,13.7409],[-87.5271,13.7407],[-87.5286,13.7388],[-87.5325,13.7377],[-87.5348,13.7323],[-87.537,13.731],[-87.5389,13.7309],[-87.5399,13.7296],[-87.5424,13.7293],[-87.547,13.7208],[-87.5491,13.7189],[-87.5492,13.7169],[-87.5438,13.7173],[-87.5421,13.7104],[-87.5322,13.7036],[-87.5204,13.6968],[-87.5184,13.6915],[-87.5031,13.6854],[-87.4999,13.6864],[-87.4946,13.6835],[-87.4922,13.6841],[-87.4918,13.6819],[-87.4881,13.6796],[-87.4867,13.6814],[-87.4846,13.6794],[-87.4824,13.6794],[-87.4814,13.678],[-87.4766,13.6784],[-87.4673,13.6757],[-87.4593,13.6696],[-87.46,13.6758],[-87.4646,13.6834],[-87.4611,13.6889],[-87.4597,13.6935],[-87.4602,13.7005],[-87.4586,13.7054],[-87.4597,13.7085]]]}}]}