{"type":"FeatureCollection","features":[{"type":"Feature","id":"dzielnica-warszawa-22","properties":{"name":"Ochota","province":"Warszawa","department":"Województwo Mazowieckie","type":"Dzielnica","country":"Polonia","iso":"PL"},"geometry":{"type":"MultiPolygon","coordinates":[[[[21.0015,52.2281],[20.9757,52.222],[20.969,52.2195],[20.9683,52.22],[20.9592,52.2181],[20.9546,52.2146],[20.9443,52.2144],[20.9383,52.2122],[20.9325,52.2114],[20.9372,52.2091],[20.9461,52.2014],[20.982,52.1929],[20.9879,52.2103],[20.9984,52.2091],[21.007,52.2107],[21.005,52.2172],[21.0047,52.2231],[21.0015,52.2281]]]]}},{"type":"Feature","id":"dzielnica-warszawa-25","properties":{"name":"Rembertów","province":"Warszawa","department":"Województwo Mazowieckie","type":"Dzielnica","country":"Polonia","iso":"PL"},"geometry":{"type":"MultiPolygon","coordinates":[[[[21.1324,52.2391],[21.1382,52.2432],[21.1394,52.2432],[21.1418,52.2391],[21.1617,52.243],[21.1636,52.2416],[21.1734,52.2435],[21.1769,52.2452],[21.184,52.2463],[21.1846,52.2469],[21.183,52.2495],[21.1869,52.2504],[21.187,52.2518],[21.1888,52.2523],[21.1902,52.2497],[21.1912,52.25],[21.1905,52.2562],[21.1793,52.2567],[21.1824,52.2579],[21.1842,52.2598],[21.1849,52.2661],[21.1839,52.2678],[21.1758,52.2724],[21.1706,52.2769],[21.1712,52.2774],[21.1724,52.2886],[21.1693,52.2909],[21.1661,52.2903],[21.1635,52.2921],[21.1629,52.2915],[21.1639,52.2894],[21.1613,52.2854],[21.1559,52.2836],[21.1491,52.2793],[21.1078,52.2744],[21.1095,52.2708],[21.1086,52.2705],[21.1089,52.2685],[21.1076,52.2683],[21.1105,52.2597],[21.1146,52.2595],[21.1143,52.2568],[21.1189,52.2535],[21.1218,52.2524],[21.1228,52.251],[21.1323,52.2434],[21.1325,52.2429],[21.1302,52.2408],[21.1324,52.2391]]]]}},{"type":"Feature","id":"dzielnica-warszawa-2","properties":{"name":"Bemowo","province":"Warszawa","department":"Województwo Mazowieckie","type":"Dzielnica","country":"Polonia","iso":"PL"},"geometry":{"type":"MultiPolygon","coordinates":[[[[20.8731,52.2167],[20.8728,52.2152],[20.8719,52.2153],[20.871,52.2104],[20.8702,52.2104],[20.8709,52.2089],[20.8768,52.2094],[20.8805,52.209],[20.8877,52.2108],[20.9141,52.2141],[20.9157,52.2173],[20.9213,52.2183],[20.9243,52.2206],[20.9245,52.2223],[20.9216,52.2278],[20.9214,52.2297],[20.9249,52.2412],[20.9262,52.2434],[20.9449,52.2536],[20.9476,52.2565],[20.9472,52.2571],[20.9518,52.2614],[20.9536,52.2619],[20.9431,52.2647],[20.9415,52.2663],[20.939,52.2671],[20.9197,52.271],[20.8937,52.2772],[20.8904,52.2792],[20.8891,52.2806],[20.888,52.2802],[20.886,52.2806],[20.8843,52.2791],[20.8812,52.2797],[20.8787,52.2652],[20.8637,52.25],[20.8727,52.2493],[20.8839,52.2473],[20.8846,52.2482],[20.885,52.2473],[20.8908,52.2471],[20.8914,52.245],[20.8938,52.2439],[20.893,52.2399],[20.8895,52.232],[20.8797,52.232],[20.8728,52.2288],[20.8725,52.2257],[20.8753,52.2248],[20.8746,52.2167],[20.8731,52.2167]]]]}},{"type":"Feature","id":"dzielnica-warszawa-19","properties":{"name":"Białołęka","province":"Warszawa","department":"Województwo Mazowieckie","type":"Dzielnica","country":"Polonia","iso":"PL"},"geometry":{"type":"MultiPolygon","coordinates":[[[[20.9962,52.2873],[20.9978,52.288],[20.997,52.2887],[20.9971,52.2894],[20.9988,52.2903],[20.9983,52.2921],[20.9989,52.293],[21.0006,52.2933],[21.0029,52.2913],[21.0097,52.293],[21.0127,52.2943],[21.013,52.2975],[21.0146,52.2979],[21.016,52.2966],[21.0171,52.2969],[21.018,52.2959],[21.0234,52.2978],[21.0229,52.2985],[21.0238,52.2988],[21.0244,52.2982],[21.041,52.302],[21.0606,52.307],[21.0614,52.3083],[21.0621,52.3084],[21.0623,52.3074],[21.0836,52.3078],[21.0778,52.322],[21.0895,52.3238],[21.086,52.332],[21.0878,52.3323],[21.0875,52.3329],[21.0867,52.3327],[21.0855,52.3347],[21.085,52.3373],[21.0826,52.3372],[21.0811,52.3431],[21.0857,52.3434],[21.0815,52.354],[21.0787,52.3536],[21.0762,52.3591],[21.0771,52.3593],[21.0738,52.3673],[21.0615,52.3657],[21.0606,52.3626],[21.0541,52.3631],[21.0493,52.3618],[21.0487,52.3637],[21.0443,52.364],[21.0408,52.363],[21.0307,52.3617],[21.0275,52.3651],[21.0254,52.3634],[21.0234,52.3574],[21.0215,52.3567],[21.0136,52.356],[21.0133,52.3568],[21.0088,52.3571],[21.0083,52.3601],[21.0057,52.3641],[20.9947,52.3618],[20.9919,52.3628],[20.9781,52.359],[20.9713,52.359],[20.9661,52.3682],[20.9542,52.3679],[20.9523,52.3665],[20.9436,52.3664],[20.9393,52.3618],[20.9351,52.3632],[20.9392,52.3584],[20.9385,52.3581],[20.934,52.3598],[20.9309,52.3579],[20.9275,52.3595],[20.9241,52.3596],[20.923,52.357],[20.9124,52.353],[20.9233,52.3436],[20.925,52.3404],[20.9258,52.3361],[20.925,52.328],[20.9257,52.3248],[20.9278,52.3214],[20.931,52.3182],[20.9373,52.3147],[20.9475,52.3107],[20.9513,52.3078],[20.9561,52.3026],[20.9626,52.2984],[20.9705,52.2958],[20.9854,52.2926],[20.9912,52.2905],[20.9962,52.2873]]]]}},{"type":"Feature","id":"dzielnica-warszawa-31","properties":{"name":"Wesoła","province":"Warszawa","department":"Województwo Mazowieckie","type":"Dzielnica","country":"Polonia","iso":"PL"},"geometry":{"type":"MultiPolygon","coordinates":[[[[21.2617,52.2101],[21.2505,52.2226],[21.2495,52.2226],[21.2504,52.2319],[21.2544,52.2353],[21.2548,52.2387],[21.2488,52.2366],[21.2454,52.2361],[21.2395,52.2363],[21.2379,52.245],[21.2537,52.2458],[21.2546,52.2532],[21.2524,52.2533],[21.2505,52.2627],[21.1905,52.2562],[21.1912,52.25],[21.1902,52.2497],[21.1888,52.2523],[21.187,52.2518],[21.1869,52.2504],[21.183,52.2495],[21.1846,52.2469],[21.184,52.2463],[21.1765,52.2451],[21.184,52.2398],[21.197,52.2346],[21.2009,52.2347],[21.2071,52.2332],[21.2119,52.23],[21.2073,52.2276],[21.2073,52.2206],[21.2065,52.2205],[21.2122,52.2143],[21.2132,52.2144],[21.2153,52.2122],[21.2146,52.2093],[21.2184,52.2053],[21.2166,52.2047],[21.2155,52.2021],[21.2164,52.2011],[21.2157,52.2007],[21.2163,52.1974],[21.2388,52.197],[21.2402,52.1959],[21.243,52.1984],[21.243,52.1993],[21.2457,52.2009],[21.2509,52.2025],[21.2486,52.2042],[21.2482,52.206],[21.2491,52.207],[21.2541,52.2094],[21.2617,52.2101]]]]}},{"type":"Feature","id":"dzielnica-warszawa-20","properties":{"name":"Bielany","province":"Warszawa","department":"Województwo Mazowieckie","type":"Dzielnica","country":"Polonia","iso":"PL"},"geometry":{"type":"MultiPolygon","coordinates":[[[[20.8771,52.2941],[20.8758,52.2805],[20.884,52.2791],[20.886,52.2806],[20.888,52.2802],[20.8891,52.2806],[20.8904,52.2792],[20.8937,52.2772],[20.9197,52.271],[20.939,52.2671],[20.9415,52.2663],[20.9431,52.2647],[20.9536,52.2619],[20.9557,52.2635],[20.9587,52.2683],[20.9631,52.2715],[20.965,52.2741],[20.967,52.2741],[20.9701,52.2754],[20.9852,52.2834],[20.9855,52.2857],[20.9866,52.2864],[20.9905,52.2848],[20.9962,52.2873],[20.9912,52.2905],[20.9854,52.2926],[20.9705,52.2958],[20.9626,52.2984],[20.9561,52.3026],[20.9513,52.3078],[20.9475,52.3107],[20.9373,52.3147],[20.931,52.3182],[20.9266,52.3231],[20.9252,52.3266],[20.9251,52.3294],[20.9226,52.3268],[20.9221,52.3237],[20.9131,52.3218],[20.9105,52.3241],[20.9078,52.3222],[20.9071,52.3221],[20.9066,52.3234],[20.8952,52.3214],[20.8915,52.3176],[20.8898,52.3136],[20.8869,52.3132],[20.8798,52.3138],[20.8763,52.3149],[20.8762,52.314],[20.8793,52.3117],[20.8809,52.3092],[20.8762,52.2987],[20.8771,52.2941]]]]}},{"type":"Feature","id":"dzielnica-warszawa-21","properties":{"name":"Mokotów","province":"Warszawa","department":"Województwo Mazowieckie","type":"Dzielnica","country":"Polonia","iso":"PL"},"geometry":{"type":"MultiPolygon","coordinates":[[[[21.0309,52.2069],[21.0286,52.2072],[21.0259,52.2093],[21.0245,52.2114],[21.022,52.2131],[21.0207,52.2133],[20.9984,52.2091],[20.9879,52.2103],[20.982,52.1929],[20.9846,52.1918],[20.9865,52.1892],[20.9868,52.1711],[20.9877,52.1706],[20.9883,52.1715],[21.008,52.1671],[21.0086,52.1679],[21.0114,52.1669],[21.012,52.1655],[21.0157,52.1655],[21.0158,52.1648],[21.0182,52.1642],[21.0197,52.1661],[21.0195,52.1668],[21.0243,52.1665],[21.0257,52.1677],[21.0306,52.1668],[21.0374,52.1688],[21.0422,52.1724],[21.0433,52.1749],[21.0452,52.1745],[21.0538,52.1694],[21.06,52.1702],[21.0679,52.1697],[21.0685,52.1702],[21.0641,52.1741],[21.066,52.1748],[21.0653,52.1756],[21.0688,52.1764],[21.0815,52.1845],[21.0894,52.1812],[21.0898,52.1806],[21.095,52.1809],[21.0945,52.1823],[21.0955,52.1854],[21.0979,52.1861],[21.0996,52.1873],[21.0999,52.191],[21.1054,52.1941],[21.1041,52.2041],[21.1008,52.2097],[21.0955,52.2139],[21.0928,52.2154],[21.0827,52.2182],[21.0635,52.2189],[21.0612,52.2166],[21.054,52.2154],[21.0543,52.2147],[21.0494,52.214],[21.0491,52.2147],[21.0464,52.2143],[21.0474,52.2114],[21.0447,52.2097],[21.0363,52.2096],[21.0349,52.2069],[21.0309,52.2069]]]]}},{"type":"Feature","id":"dzielnica-warszawa-23","properties":{"name":"Praga Południe","province":"Warszawa","department":"Województwo Mazowieckie","type":"Dzielnica","country":"Polonia","iso":"PL"},"geometry":{"type":"MultiPolygon","coordinates":[[[[21.0929,52.2153],[21.1195,52.2324],[21.1247,52.2325],[21.1274,52.2333],[21.1324,52.2391],[21.1302,52.2408],[21.1325,52.2429],[21.1323,52.2434],[21.1228,52.251],[21.1218,52.2524],[21.1189,52.2535],[21.1143,52.2568],[21.1146,52.2595],[21.0883,52.2605],[21.0766,52.2594],[21.066,52.2577],[21.0622,52.2556],[21.0452,52.2493],[21.0436,52.2476],[21.0436,52.243],[21.0409,52.2406],[21.0369,52.2386],[21.0423,52.2335],[21.0494,52.2254],[21.0558,52.2212],[21.0635,52.2189],[21.0827,52.2182],[21.0929,52.2153]]]]}},{"type":"Feature","id":"dzielnica-warszawa-24","properties":{"name":"Praga Północ","province":"Warszawa","department":"Województwo Mazowieckie","type":"Dzielnica","country":"Polonia","iso":"PL"},"geometry":{"type":"MultiPolygon","coordinates":[[[[21.0131,52.2948],[21.0116,52.2936],[21.0029,52.2913],[21.0006,52.2933],[20.9989,52.293],[20.9983,52.2921],[20.9988,52.2903],[20.9971,52.2894],[20.997,52.2887],[20.9978,52.288],[20.9962,52.2873],[21.0003,52.2836],[21.0031,52.2794],[21.0054,52.2683],[21.0094,52.2612],[21.021,52.2489],[21.0369,52.2386],[21.0409,52.2406],[21.0436,52.243],[21.0436,52.2476],[21.0457,52.2497],[21.0622,52.2556],[21.0652,52.2575],[21.0742,52.259],[21.0383,52.268],[21.0319,52.2708],[21.0266,52.2721],[21.0247,52.2738],[21.0211,52.2798],[21.0207,52.2861],[21.015,52.2911],[21.0131,52.2948]]]]}},{"type":"Feature","id":"dzielnica-warszawa-26","properties":{"name":"Śródmieście","province":"Warszawa","department":"Województwo Mazowieckie","type":"Dzielnica","country":"Polonia","iso":"PL"},"geometry":{"type":"MultiPolygon","coordinates":[[[[21.0369,52.2386],[21.021,52.2489],[21.0094,52.2612],[21.0035,52.2594],[21.0001,52.2591],[20.9866,52.2598],[20.981,52.2594],[20.9826,52.2546],[20.9954,52.2397],[20.9982,52.2332],[21.0047,52.2231],[21.005,52.2172],[21.007,52.2107],[21.0207,52.2133],[21.022,52.2131],[21.0245,52.2114],[21.0259,52.2093],[21.0286,52.2072],[21.0349,52.2069],[21.0363,52.2096],[21.0447,52.2097],[21.0474,52.2114],[21.0464,52.2143],[21.0491,52.2147],[21.0494,52.214],[21.0543,52.2147],[21.054,52.2154],[21.0613,52.2166],[21.0635,52.2189],[21.0558,52.2212],[21.0508,52.2242],[21.0369,52.2386]]]]}},{"type":"Feature","id":"dzielnica-warszawa-27","properties":{"name":"Targówek","province":"Warszawa","department":"Województwo Mazowieckie","type":"Dzielnica","country":"Polonia","iso":"PL"},"geometry":{"type":"MultiPolygon","coordinates":[[[[21.0369,52.2686],[21.074,52.259],[21.0883,52.2605],[21.1105,52.2597],[21.1076,52.2683],[21.1089,52.2685],[21.1086,52.2705],[21.1095,52.2708],[21.1078,52.2744],[21.1049,52.2741],[21.1001,52.2847],[21.0987,52.2865],[21.0956,52.2863],[21.095,52.2882],[21.0875,52.2955],[21.0835,52.3029],[21.0855,52.3032],[21.0836,52.3078],[21.0623,52.3074],[21.0621,52.3084],[21.0614,52.3083],[21.0606,52.307],[21.041,52.302],[21.0244,52.2982],[21.0238,52.2988],[21.0229,52.2985],[21.0234,52.2978],[21.018,52.2959],[21.0171,52.2969],[21.016,52.2966],[21.0146,52.2979],[21.013,52.2975],[21.0131,52.2959],[21.0126,52.2957],[21.0146,52.2917],[21.0207,52.2861],[21.0208,52.2806],[21.0247,52.2738],[21.0271,52.2718],[21.0319,52.2708],[21.0369,52.2686]]]]}},{"type":"Feature","id":"dzielnica-warszawa-28","properties":{"name":"Ursus","province":"Warszawa","department":"Województwo Mazowieckie","type":"Dzielnica","country":"Polonia","iso":"PL"},"geometry":{"type":"MultiPolygon","coordinates":[[[[20.8519,52.1997],[20.8538,52.1953],[20.8567,52.1913],[20.8568,52.1891],[20.856,52.1877],[20.8671,52.1908],[20.8672,52.1825],[20.8977,52.1825],[20.8993,52.1841],[20.909,52.1845],[20.9092,52.1859],[20.9148,52.1858],[20.9192,52.1938],[20.9154,52.1927],[20.9121,52.1943],[20.9105,52.196],[20.9007,52.1995],[20.9,52.2],[20.9001,52.2017],[20.8812,52.2089],[20.8784,52.2093],[20.8658,52.2083],[20.8568,52.2067],[20.8526,52.2037],[20.8517,52.201],[20.8519,52.1997]]]]}},{"type":"Feature","id":"dzielnica-warszawa-34","properties":{"name":"Wola","province":"Warszawa","department":"Województwo Mazowieckie","type":"Dzielnica","country":"Polonia","iso":"PL"},"geometry":{"type":"MultiPolygon","coordinates":[[[[21.0015,52.2281],[20.9982,52.2332],[20.9954,52.2397],[20.9826,52.2546],[20.981,52.2594],[20.9656,52.2543],[20.96,52.2558],[20.9516,52.2555],[20.948,52.2568],[20.9427,52.2522],[20.9382,52.2502],[20.9262,52.2434],[20.9249,52.2412],[20.9214,52.2297],[20.9216,52.2278],[20.9245,52.2223],[20.9243,52.2206],[20.9213,52.2183],[20.9157,52.2173],[20.9147,52.2146],[20.9183,52.2146],[20.9216,52.2135],[20.9238,52.2137],[20.9244,52.2134],[20.9229,52.2126],[20.9229,52.2109],[20.9256,52.2095],[20.9268,52.2095],[20.9343,52.2119],[20.9383,52.2122],[20.9443,52.2144],[20.9546,52.2146],[20.9592,52.2181],[20.9683,52.22],[20.969,52.2195],[20.9757,52.222],[21.0015,52.2281]]]]}},{"type":"Feature","id":"dzielnica-warszawa-29","properties":{"name":"Ursynów","province":"Warszawa","department":"Województwo Mazowieckie","type":"Dzielnica","country":"Polonia","iso":"PL"},"geometry":{"type":"MultiPolygon","coordinates":[[[[20.9796,52.1295],[20.9796,52.1276],[20.9825,52.1239],[20.989,52.1237],[20.9849,52.1204],[20.9873,52.1157],[20.9837,52.1117],[20.9867,52.1106],[20.9845,52.1056],[20.9874,52.1051],[20.9869,52.1039],[20.9916,52.1031],[21.0184,52.1037],[21.0186,52.106],[21.0355,52.1062],[21.0352,52.1067],[21.0381,52.1084],[21.0437,52.113],[21.0508,52.109],[21.058,52.1072],[21.08,52.0979],[21.0826,52.0987],[21.0866,52.1028],[21.0893,52.1039],[21.1035,52.1058],[21.1018,52.1078],[21.0982,52.1088],[21.0973,52.1104],[21.0964,52.1106],[21.0967,52.111],[21.0948,52.1139],[21.0882,52.1144],[21.0881,52.1148],[21.094,52.1147],[21.0919,52.1166],[21.0916,52.1176],[21.0895,52.1174],[21.0886,52.1182],[21.0915,52.1185],[21.0925,52.1204],[21.0912,52.1206],[21.0858,52.1269],[21.0837,52.1286],[21.0793,52.1359],[21.0771,52.1352],[21.0754,52.1354],[21.0738,52.1373],[21.0723,52.1372],[21.0715,52.14],[21.0677,52.1444],[21.0696,52.1452],[21.0613,52.1524],[21.0617,52.1532],[21.0607,52.1555],[21.0551,52.1612],[21.0467,52.1681],[21.0538,52.1694],[21.0452,52.1745],[21.0433,52.1749],[21.0422,52.1724],[21.0374,52.1688],[21.0306,52.1668],[21.0257,52.1677],[21.0243,52.1665],[21.0195,52.1668],[21.0197,52.1661],[21.0182,52.1642],[21.0158,52.1648],[21.0157,52.1655],[21.012,52.1655],[21.0114,52.1669],[21.0086,52.1679],[21.008,52.1671],[20.9883,52.1715],[20.9877,52.1706],[20.9868,52.1711],[20.9869,52.1626],[20.9892,52.1419],[20.9839,52.142],[20.983,52.1404],[20.9847,52.1392],[20.9792,52.1339],[20.9796,52.1295]]]]}},{"type":"Feature","id":"dzielnica-warszawa-30","properties":{"name":"Wawer","province":"Warszawa","department":"Województwo Mazowieckie","type":"Dzielnica","country":"Polonia","iso":"PL"},"geometry":{"type":"MultiPolygon","coordinates":[[[[21.1054,52.1941],[21.1102,52.1868],[21.1147,52.1825],[21.1212,52.1786],[21.1315,52.1745],[21.1379,52.1703],[21.1417,52.1654],[21.144,52.1584],[21.1471,52.155],[21.1502,52.1531],[21.1597,52.1494],[21.1631,52.1458],[21.165,52.1447],[21.1714,52.1454],[21.1759,52.1467],[21.1759,52.1485],[21.1884,52.1505],[21.1886,52.1493],[21.2151,52.1518],[21.2347,52.1589],[21.2488,52.153],[21.2471,52.1516],[21.2557,52.1472],[21.2626,52.1531],[21.254,52.1574],[21.2556,52.1587],[21.2566,52.1607],[21.2604,52.162],[21.2615,52.1657],[21.2631,52.1674],[21.2677,52.1674],[21.2676,52.1684],[21.2708,52.1685],[21.2703,52.1696],[21.2675,52.1701],[21.2673,52.1733],[21.2696,52.1734],[21.27,52.172],[21.2712,52.1722],[21.2702,52.1738],[21.2598,52.1826],[21.2634,52.184],[21.2654,52.186],[21.2402,52.1959],[21.2388,52.197],[21.2163,52.1974],[21.2157,52.2007],[21.2164,52.2011],[21.2155,52.2021],[21.2166,52.2047],[21.2184,52.2053],[21.2146,52.2093],[21.2153,52.2122],[21.2132,52.2144],[21.2122,52.2143],[21.2065,52.2205],[21.2073,52.2206],[21.2073,52.2276],[21.2119,52.23],[21.2071,52.2332],[21.2009,52.2347],[21.197,52.2346],[21.184,52.2398],[21.1765,52.2451],[21.1734,52.2435],[21.1636,52.2416],[21.1617,52.243],[21.1418,52.2391],[21.1394,52.2432],[21.1382,52.2432],[21.1324,52.2391],[21.1274,52.2333],[21.1247,52.2325],[21.1195,52.2324],[21.0929,52.2153],[21.0992,52.2112],[21.1025,52.2074],[21.1047,52.2015],[21.1047,52.1977],[21.1054,52.1941]]]]}},{"type":"Feature","id":"dzielnica-warszawa-32","properties":{"name":"Wilanów","province":"Warszawa","department":"Województwo Mazowieckie","type":"Dzielnica","country":"Polonia","iso":"PL"},"geometry":{"type":"MultiPolygon","coordinates":[[[[21.1332,52.123],[21.1347,52.1235],[21.1358,52.1277],[21.1387,52.1313],[21.1405,52.132],[21.1401,52.1329],[21.1452,52.1356],[21.1478,52.1385],[21.1502,52.1398],[21.1537,52.1401],[21.1532,52.1427],[21.1547,52.1436],[21.165,52.1447],[21.1631,52.1458],[21.1597,52.1494],[21.1502,52.1531],[21.1471,52.155],[21.144,52.1584],[21.1417,52.1654],[21.1379,52.1703],[21.1315,52.1745],[21.1212,52.1786],[21.1147,52.1825],[21.1102,52.1868],[21.1054,52.1941],[21.0999,52.191],[21.0996,52.1873],[21.0979,52.1861],[21.0955,52.1854],[21.0945,52.1823],[21.095,52.1809],[21.0898,52.1806],[21.0894,52.1812],[21.0815,52.1845],[21.0688,52.1764],[21.0653,52.1756],[21.066,52.1748],[21.0641,52.1741],[21.0685,52.1702],[21.0679,52.1697],[21.06,52.1702],[21.0467,52.1681],[21.0551,52.1612],[21.0607,52.1555],[21.0617,52.1532],[21.0613,52.1524],[21.0696,52.1452],[21.0677,52.1444],[21.0715,52.14],[21.0723,52.1372],[21.0738,52.1373],[21.0754,52.1354],[21.0771,52.1352],[21.0793,52.1359],[21.0837,52.1286],[21.0858,52.1269],[21.0912,52.1206],[21.0925,52.1204],[21.0915,52.1185],[21.0886,52.1182],[21.0895,52.1174],[21.0916,52.1176],[21.0919,52.1166],[21.094,52.1147],[21.0881,52.1148],[21.0882,52.1144],[21.0948,52.1139],[21.0967,52.111],[21.0964,52.1106],[21.0973,52.1104],[21.0984,52.1086],[21.1009,52.1081],[21.1001,52.1084],[21.1101,52.1132],[21.1089,52.1145],[21.116,52.1186],[21.1192,52.1188],[21.1229,52.1204],[21.1264,52.1241],[21.1271,52.1261],[21.1295,52.1272],[21.1332,52.123]]]]}},{"type":"Feature","id":"dzielnica-warszawa-33","properties":{"name":"Włochy","province":"Warszawa","department":"Województwo Mazowieckie","type":"Dzielnica","country":"Polonia","iso":"PL"},"geometry":{"type":"MultiPolygon","coordinates":[[[[20.983,52.1404],[20.9839,52.142],[20.9892,52.1419],[20.9869,52.1626],[20.9865,52.1892],[20.9858,52.1907],[20.9841,52.1922],[20.9461,52.2014],[20.9372,52.2091],[20.9325,52.2114],[20.9268,52.2095],[20.9233,52.2105],[20.9226,52.2121],[20.9244,52.2134],[20.9238,52.2137],[20.9216,52.2135],[20.9183,52.2146],[20.9147,52.2146],[20.9141,52.2141],[20.8877,52.2108],[20.8805,52.209],[20.9001,52.2017],[20.9,52.2],[20.9007,52.1995],[20.9105,52.196],[20.9121,52.1943],[20.9154,52.1927],[20.9192,52.1938],[20.9112,52.1796],[20.917,52.1785],[20.9168,52.1778],[20.9187,52.1774],[20.9192,52.1711],[20.9209,52.171],[20.9234,52.1693],[20.9232,52.1689],[20.9247,52.1684],[20.9254,52.1672],[20.9239,52.1662],[20.9305,52.164],[20.93,52.1633],[20.9377,52.1601],[20.947,52.1572],[20.9538,52.1561],[20.9538,52.153],[20.9584,52.1499],[20.9697,52.1454],[20.9776,52.1435],[20.983,52.1404]]]]}},{"type":"Feature","id":"dzielnica-warszawa-35","properties":{"name":"Żoliborz","province":"Warszawa","department":"Województwo Mazowieckie","type":"Dzielnica","country":"Polonia","iso":"PL"},"geometry":{"type":"MultiPolygon","coordinates":[[[[20.981,52.2594],[20.9866,52.2598],[21.0001,52.2591],[21.0035,52.2594],[21.0094,52.2612],[21.0054,52.2683],[21.0031,52.2794],[21.0003,52.2836],[20.9962,52.2873],[20.9905,52.2848],[20.9866,52.2864],[20.9855,52.2857],[20.9852,52.2834],[20.9701,52.2754],[20.967,52.2741],[20.965,52.2741],[20.9631,52.2715],[20.9578,52.2674],[20.9557,52.2635],[20.9532,52.2615],[20.9518,52.2614],[20.9472,52.2571],[20.9476,52.2565],[20.9516,52.2555],[20.96,52.2558],[20.9656,52.2543],[20.981,52.2594]]]]}}]}