{"type":"FeatureCollection","features":[{"type":"Feature","id":"bezirk-vienna-1","properties":{"name":"Josefstadt","province":"Wien","department":"Wien","type":"Bezirk","country":"Austria","iso":"AT"},"geometry":{"type":"MultiPolygon","coordinates":[[[[16.3491,48.2152],[16.3565,48.2143],[16.3552,48.2086],[16.3559,48.2069],[16.3493,48.2064],[16.3384,48.2086],[16.339,48.2117],[16.3409,48.2152],[16.3491,48.2152]]]]}},{"type":"Feature","id":"bezirk-vienna-2","properties":{"name":"Alsergrund","province":"Wien","department":"Wien","type":"Bezirk","country":"Austria","iso":"AT"},"geometry":{"type":"MultiPolygon","coordinates":[[[[16.3617,48.2319],[16.3635,48.2287],[16.3673,48.2254],[16.3683,48.2202],[16.3702,48.2185],[16.3604,48.2138],[16.3558,48.2147],[16.3409,48.2152],[16.3436,48.2217],[16.3488,48.2235],[16.3506,48.2303],[16.3554,48.2325],[16.3567,48.2361],[16.3616,48.2363],[16.3611,48.2338],[16.3617,48.2319]]]]}},{"type":"Feature","id":"bezirk-vienna-3","properties":{"name":"Favoriten","province":"Wien","department":"Wien","type":"Bezirk","country":"Austria","iso":"AT"},"geometry":{"type":"MultiPolygon","coordinates":[[[[16.3838,48.1852],[16.3855,48.1829],[16.3901,48.1792],[16.4072,48.1671],[16.43,48.1473],[16.4362,48.138],[16.4331,48.1379],[16.4328,48.1317],[16.4339,48.131],[16.4343,48.1247],[16.437,48.1199],[16.4229,48.1231],[16.4205,48.1206],[16.4117,48.1204],[16.4128,48.1182],[16.4083,48.1179],[16.4071,48.1202],[16.4048,48.1209],[16.4051,48.122],[16.3845,48.1262],[16.3716,48.1273],[16.3659,48.1284],[16.3666,48.1315],[16.3707,48.1385],[16.3701,48.1386],[16.3725,48.1429],[16.3743,48.1423],[16.3771,48.1475],[16.3604,48.1515],[16.3484,48.1518],[16.3412,48.1532],[16.3384,48.1548],[16.3344,48.1612],[16.332,48.1634],[16.3374,48.171],[16.3451,48.1699],[16.3456,48.1717],[16.3475,48.1719],[16.3461,48.1742],[16.3444,48.1742],[16.3443,48.175],[16.3434,48.1754],[16.3421,48.1753],[16.3416,48.1764],[16.3478,48.1788],[16.3601,48.1809],[16.3812,48.1882],[16.3838,48.1852]]]]}},{"type":"Feature","id":"bezirk-vienna-4","properties":{"name":"Simmering","province":"Wien","department":"Wien","type":"Bezirk","country":"Austria","iso":"AT"},"geometry":{"type":"MultiPolygon","coordinates":[[[[16.4252,48.1857],[16.4285,48.1852],[16.4311,48.1863],[16.462,48.1773],[16.4952,48.1651],[16.4971,48.1663],[16.5138,48.1589],[16.4984,48.1562],[16.4934,48.1588],[16.4881,48.1552],[16.4801,48.1566],[16.4802,48.1561],[16.478,48.1568],[16.4776,48.1574],[16.4782,48.1561],[16.4771,48.1541],[16.4663,48.1467],[16.4667,48.1463],[16.4619,48.1429],[16.4561,48.1399],[16.451,48.1387],[16.4362,48.138],[16.43,48.1473],[16.4072,48.1671],[16.3953,48.1755],[16.3971,48.1754],[16.3977,48.1785],[16.4034,48.1822],[16.403,48.1825],[16.4042,48.1835],[16.4028,48.1848],[16.4046,48.1857],[16.4057,48.1848],[16.4063,48.1851],[16.4128,48.1832],[16.415,48.1854],[16.4169,48.1848],[16.4178,48.1859],[16.4197,48.1856],[16.4205,48.1873],[16.4252,48.1857]]]]}},{"type":"Feature","id":"bezirk-vienna-5","properties":{"name":"Meidling","province":"Wien","department":"Wien","type":"Bezirk","country":"Austria","iso":"AT"},"geometry":{"type":"MultiPolygon","coordinates":[[[[16.3417,48.1885],[16.3497,48.1792],[16.3416,48.1764],[16.3421,48.1753],[16.3434,48.1754],[16.3443,48.175],[16.3444,48.1742],[16.3461,48.1742],[16.3475,48.1719],[16.3456,48.1717],[16.3451,48.1699],[16.3374,48.171],[16.332,48.1634],[16.3356,48.1593],[16.3306,48.1554],[16.3228,48.1573],[16.3193,48.1566],[16.3188,48.1579],[16.3164,48.1575],[16.3165,48.1581],[16.3041,48.1604],[16.2975,48.1563],[16.2928,48.1576],[16.296,48.1618],[16.2918,48.1623],[16.2964,48.1705],[16.2986,48.1703],[16.3011,48.1727],[16.3021,48.1718],[16.308,48.1705],[16.3138,48.175],[16.319,48.1823],[16.3201,48.1858],[16.3271,48.1838],[16.3319,48.1838],[16.3346,48.1848],[16.3384,48.1881],[16.3417,48.1885]]]]}},{"type":"Feature","id":"bezirk-vienna-6","properties":{"name":"Hietzing","province":"Wien","department":"Wien","type":"Bezirk","country":"Austria","iso":"AT"},"geometry":{"type":"MultiPolygon","coordinates":[[[[16.2142,48.2065],[16.2259,48.2019],[16.2323,48.2031],[16.2325,48.2019],[16.2357,48.2041],[16.2415,48.2019],[16.2499,48.2011],[16.2653,48.1939],[16.2683,48.1931],[16.2836,48.1916],[16.3043,48.1877],[16.3131,48.1874],[16.3201,48.1858],[16.319,48.1823],[16.3138,48.175],[16.308,48.1705],[16.3021,48.1718],[16.3011,48.1727],[16.2986,48.1703],[16.2964,48.1705],[16.2915,48.1622],[16.2912,48.1581],[16.287,48.1564],[16.2851,48.1593],[16.2812,48.1588],[16.2793,48.1596],[16.281,48.1615],[16.2792,48.1627],[16.273,48.1559],[16.263,48.1599],[16.2578,48.1602],[16.2564,48.16],[16.2525,48.1577],[16.2467,48.1564],[16.2301,48.1495],[16.2247,48.153],[16.2035,48.1555],[16.1982,48.1541],[16.1967,48.1566],[16.1974,48.1609],[16.1962,48.164],[16.1937,48.1664],[16.1846,48.1689],[16.1818,48.1711],[16.1876,48.1739],[16.1878,48.1771],[16.1932,48.1806],[16.1959,48.1838],[16.1998,48.1862],[16.2031,48.191],[16.204,48.1964],[16.2053,48.1977],[16.2078,48.2031],[16.2093,48.2048],[16.2101,48.2047],[16.2135,48.2071],[16.2142,48.2065]]]]}},{"type":"Feature","id":"bezirk-vienna-7","properties":{"name":"Penzing","province":"Wien","department":"Wien","type":"Bezirk","country":"Austria","iso":"AT"},"geometry":{"type":"MultiPolygon","coordinates":[[[[16.2091,48.2641],[16.2145,48.2608],[16.2145,48.2598],[16.2213,48.2582],[16.2236,48.2563],[16.2265,48.255],[16.2262,48.2546],[16.2299,48.253],[16.2338,48.2503],[16.241,48.2484],[16.2387,48.244],[16.2373,48.2428],[16.238,48.2405],[16.2415,48.2383],[16.2511,48.2404],[16.2593,48.2398],[16.2669,48.2373],[16.2681,48.2372],[16.2691,48.2378],[16.2614,48.232],[16.2565,48.2299],[16.2555,48.2285],[16.2547,48.2253],[16.2497,48.219],[16.2536,48.2214],[16.2571,48.2198],[16.2627,48.2187],[16.2647,48.2175],[16.2704,48.2174],[16.2734,48.2155],[16.2781,48.2147],[16.2813,48.2149],[16.2853,48.214],[16.2859,48.2124],[16.2859,48.2076],[16.2845,48.2069],[16.2892,48.2064],[16.294,48.2073],[16.299,48.2054],[16.309,48.2037],[16.3089,48.2031],[16.3114,48.2027],[16.3186,48.1991],[16.3144,48.199],[16.3139,48.1965],[16.3128,48.1944],[16.3169,48.1934],[16.3164,48.1924],[16.3205,48.1908],[16.3203,48.19],[16.3154,48.1902],[16.3142,48.1872],[16.305,48.1876],[16.2899,48.1906],[16.2688,48.193],[16.2653,48.1939],[16.2499,48.2011],[16.2415,48.2019],[16.2357,48.2041],[16.2325,48.2019],[16.2323,48.2031],[16.2259,48.2019],[16.2154,48.2058],[16.2135,48.2071],[16.2101,48.2047],[16.2093,48.2048],[16.2074,48.2023],[16.2055,48.2025],[16.2023,48.204],[16.2019,48.2048],[16.2033,48.205],[16.2026,48.206],[16.2054,48.2064],[16.2096,48.2096],[16.2084,48.211],[16.2015,48.2125],[16.1978,48.2143],[16.195,48.2196],[16.1983,48.2224],[16.1961,48.2234],[16.1852,48.2232],[16.1864,48.2246],[16.1921,48.2263],[16.1967,48.2299],[16.1991,48.2286],[16.1983,48.2304],[16.1996,48.2309],[16.1936,48.2334],[16.1937,48.2344],[16.193,48.2347],[16.1936,48.236],[16.1925,48.2368],[16.1941,48.2376],[16.1945,48.2405],[16.1939,48.2407],[16.1945,48.2419],[16.1938,48.2422],[16.1936,48.2436],[16.1963,48.2476],[16.1963,48.2499],[16.2005,48.2539],[16.2057,48.2563],[16.2047,48.2588],[16.2057,48.2601],[16.2052,48.2621],[16.2068,48.2636],[16.2091,48.2641]]]]}},{"type":"Feature","id":"bezirk-vienna-8","properties":{"name":"Margareten","province":"Wien","department":"Wien","type":"Bezirk","country":"Austria","iso":"AT"},"geometry":{"type":"MultiPolygon","coordinates":[[[[16.3594,48.1966],[16.364,48.1922],[16.3622,48.1901],[16.3688,48.1838],[16.3573,48.1801],[16.3497,48.1792],[16.3417,48.1885],[16.352,48.19],[16.3542,48.1921],[16.3548,48.1955],[16.3566,48.1964],[16.3594,48.1966]]]]}},{"type":"Feature","id":"bezirk-vienna-9","properties":{"name":"Mariahilf","province":"Wien","department":"Wien","type":"Bezirk","country":"Austria","iso":"AT"},"geometry":{"type":"MultiPolygon","coordinates":[[[[16.3631,48.2018],[16.3659,48.1997],[16.3617,48.1974],[16.3552,48.1958],[16.3544,48.1948],[16.3541,48.192],[16.3519,48.19],[16.3391,48.1883],[16.3374,48.1906],[16.3392,48.1943],[16.3392,48.1959],[16.3485,48.1977],[16.3595,48.2012],[16.3615,48.2027],[16.3631,48.2018]]]]}},{"type":"Feature","id":"bezirk-vienna-10","properties":{"name":"Innere Stadt","province":"Wien","department":"Wien","type":"Bezirk","country":"Austria","iso":"AT"},"geometry":{"type":"MultiPolygon","coordinates":[[[[16.3726,48.2166],[16.3752,48.2135],[16.3768,48.2125],[16.3849,48.2114],[16.3844,48.2091],[16.3811,48.2045],[16.3767,48.2003],[16.3737,48.1996],[16.3686,48.2007],[16.366,48.1995],[16.3556,48.2072],[16.3552,48.2086],[16.3565,48.2143],[16.3604,48.2138],[16.3702,48.2185],[16.3726,48.2166]]]]}},{"type":"Feature","id":"bezirk-vienna-11","properties":{"name":"Leopoldstadt","province":"Wien","department":"Wien","type":"Bezirk","country":"Austria","iso":"AT"},"geometry":{"type":"MultiPolygon","coordinates":[[[[16.4035,48.2319],[16.4259,48.2152],[16.4501,48.1984],[16.4781,48.1798],[16.4985,48.1672],[16.4952,48.1651],[16.4673,48.1757],[16.4243,48.1884],[16.4117,48.1955],[16.4066,48.2009],[16.3985,48.2033],[16.3972,48.2048],[16.3959,48.2094],[16.3933,48.2123],[16.3885,48.2131],[16.3853,48.212],[16.3849,48.2114],[16.3786,48.2119],[16.3757,48.2131],[16.3733,48.2161],[16.3684,48.22],[16.3675,48.2251],[16.3704,48.2258],[16.3722,48.2278],[16.3775,48.2296],[16.3813,48.2279],[16.3831,48.2256],[16.3847,48.2261],[16.3882,48.2282],[16.3879,48.2294],[16.3868,48.2304],[16.3981,48.2363],[16.4035,48.2319]]]]}},{"type":"Feature","id":"bezirk-vienna-13","properties":{"name":"Wieden","province":"Wien","department":"Wien","type":"Bezirk","country":"Austria","iso":"AT"},"geometry":{"type":"MultiPolygon","coordinates":[[[[16.3724,48.1999],[16.3752,48.2],[16.3751,48.1978],[16.3811,48.1885],[16.3737,48.186],[16.3736,48.1851],[16.3688,48.1838],[16.3622,48.1901],[16.364,48.1922],[16.3594,48.1967],[16.3681,48.2006],[16.3724,48.1999]]]]}},{"type":"Feature","id":"bezirk-vienna-15","properties":{"name":"Ottakring","province":"Wien","department":"Wien","type":"Bezirk","country":"Austria","iso":"AT"},"geometry":{"type":"MultiPolygon","coordinates":[[[[16.2762,48.227],[16.2803,48.226],[16.2844,48.2238],[16.2868,48.2242],[16.286,48.2215],[16.2879,48.2216],[16.2915,48.2236],[16.2962,48.2246],[16.3013,48.2234],[16.3028,48.2236],[16.3025,48.2246],[16.3058,48.2245],[16.3068,48.2226],[16.3083,48.2227],[16.3084,48.2234],[16.3121,48.2226],[16.3128,48.2234],[16.3209,48.2205],[16.3199,48.2174],[16.3212,48.2173],[16.3208,48.2162],[16.3226,48.2161],[16.3223,48.2153],[16.3253,48.2153],[16.3256,48.2132],[16.3386,48.2151],[16.3384,48.2122],[16.3393,48.2121],[16.3388,48.2093],[16.337,48.2063],[16.337,48.2042],[16.3336,48.204],[16.3127,48.2072],[16.3126,48.2043],[16.3116,48.2045],[16.3107,48.2029],[16.3049,48.2047],[16.299,48.2054],[16.294,48.2073],[16.2892,48.2064],[16.2845,48.2069],[16.2859,48.2076],[16.2859,48.2124],[16.2853,48.214],[16.2813,48.2149],[16.2781,48.2147],[16.2734,48.2155],[16.2704,48.2174],[16.2647,48.2175],[16.2627,48.2187],[16.2571,48.2198],[16.2536,48.2214],[16.2583,48.2249],[16.261,48.2247],[16.2665,48.2265],[16.2762,48.227]]]]}},{"type":"Feature","id":"bezirk-vienna-16","properties":{"name":"Hernals","province":"Wien","department":"Wien","type":"Bezirk","country":"Austria","iso":"AT"},"geometry":{"type":"MultiPolygon","coordinates":[[[[16.2852,48.2567],[16.2876,48.251],[16.2884,48.251],[16.2824,48.2476],[16.2824,48.2459],[16.2933,48.2458],[16.294,48.2447],[16.2911,48.2445],[16.2894,48.2433],[16.2894,48.2424],[16.2852,48.2416],[16.2838,48.2406],[16.2887,48.2394],[16.2942,48.2396],[16.2941,48.2367],[16.2969,48.2378],[16.2991,48.2377],[16.3012,48.2364],[16.3021,48.2365],[16.3024,48.235],[16.309,48.2327],[16.3124,48.2322],[16.3156,48.2325],[16.3156,48.2316],[16.3166,48.2315],[16.3162,48.23],[16.3219,48.2293],[16.3216,48.2284],[16.3231,48.2282],[16.3224,48.2267],[16.3255,48.2265],[16.3276,48.2278],[16.3287,48.2272],[16.3286,48.2265],[16.3367,48.2228],[16.3357,48.2211],[16.3366,48.2208],[16.3363,48.2204],[16.3396,48.2197],[16.3388,48.2177],[16.342,48.2172],[16.3393,48.2121],[16.3384,48.2122],[16.3386,48.2151],[16.3256,48.2132],[16.3253,48.2153],[16.3223,48.2153],[16.3226,48.2161],[16.3208,48.2162],[16.3212,48.2173],[16.3199,48.2174],[16.3209,48.2205],[16.3128,48.2234],[16.3121,48.2226],[16.3084,48.2234],[16.3083,48.2227],[16.3068,48.2226],[16.3058,48.2245],[16.3025,48.2246],[16.3028,48.2236],[16.3013,48.2234],[16.2962,48.2246],[16.2915,48.2236],[16.2879,48.2216],[16.286,48.2215],[16.2868,48.2242],[16.2844,48.2238],[16.2803,48.226],[16.2762,48.227],[16.2665,48.2265],[16.261,48.2247],[16.2583,48.2249],[16.2523,48.2202],[16.2494,48.2193],[16.2533,48.2232],[16.2565,48.2299],[16.2614,48.232],[16.2691,48.2378],[16.2681,48.2372],[16.2661,48.2374],[16.2593,48.2398],[16.2566,48.2399],[16.2568,48.243],[16.2582,48.244],[16.2587,48.2461],[16.261,48.2455],[16.263,48.2471],[16.2638,48.2469],[16.2653,48.2483],[16.2647,48.2493],[16.2704,48.2519],[16.2706,48.2528],[16.2695,48.2539],[16.2641,48.2549],[16.2687,48.2549],[16.2755,48.257],[16.2794,48.2567],[16.2856,48.2583],[16.2852,48.2567]]]]}},{"type":"Feature","id":"bezirk-vienna-19","properties":{"name":"Brigittenau","province":"Wien","department":"Wien","type":"Bezirk","country":"Austria","iso":"AT"},"geometry":{"type":"MultiPolygon","coordinates":[[[[16.3736,48.2613],[16.384,48.2496],[16.3981,48.2363],[16.3868,48.2304],[16.3879,48.2294],[16.388,48.2278],[16.3833,48.2256],[16.3813,48.2279],[16.3775,48.2296],[16.3722,48.2278],[16.3704,48.2258],[16.3675,48.2251],[16.3633,48.229],[16.3612,48.2331],[16.3615,48.2359],[16.363,48.2392],[16.3705,48.2482],[16.3718,48.2506],[16.3714,48.2529],[16.369,48.2571],[16.3682,48.2613],[16.3724,48.2627],[16.3736,48.2613]]]]}},{"type":"Feature","id":"bezirk-vienna-20","properties":{"name":"Floridsdorf","province":"Wien","department":"Wien","type":"Bezirk","country":"Austria","iso":"AT"},"geometry":{"type":"MultiPolygon","coordinates":[[[[16.4378,48.3168],[16.4383,48.3152],[16.4381,48.3094],[16.4403,48.3035],[16.4404,48.2919],[16.4747,48.2753],[16.4732,48.2751],[16.4529,48.263],[16.4502,48.2592],[16.4471,48.262],[16.4369,48.2616],[16.4384,48.2595],[16.4355,48.2591],[16.4304,48.2513],[16.4282,48.2519],[16.4278,48.2465],[16.4132,48.2453],[16.409,48.2421],[16.4028,48.2412],[16.4024,48.2404],[16.4034,48.2391],[16.3981,48.2363],[16.3787,48.2552],[16.356,48.2833],[16.3632,48.2823],[16.3669,48.281],[16.3706,48.2817],[16.3685,48.2825],[16.3672,48.2842],[16.3668,48.2859],[16.3673,48.287],[16.3783,48.2888],[16.379,48.2902],[16.3789,48.292],[16.3756,48.2959],[16.3798,48.302],[16.3848,48.3013],[16.3862,48.3017],[16.3839,48.3027],[16.3849,48.3039],[16.3831,48.3053],[16.3838,48.3072],[16.3835,48.3086],[16.3825,48.3104],[16.3827,48.3115],[16.3814,48.3116],[16.3806,48.3129],[16.3804,48.3151],[16.3817,48.3171],[16.3852,48.3195],[16.3894,48.319],[16.3901,48.3203],[16.3888,48.3204],[16.3888,48.321],[16.3913,48.3209],[16.391,48.3224],[16.3952,48.3226],[16.3953,48.3203],[16.3941,48.3193],[16.4029,48.3168],[16.4042,48.3193],[16.4186,48.3227],[16.4248,48.3218],[16.4378,48.3168]]]]}},{"type":"Feature","id":"bezirk-vienna-14","properties":{"name":"Rudolfsheim-Fünfhaus","province":"Wien","department":"Wien","type":"Bezirk","country":"Austria","iso":"AT"},"geometry":{"type":"MultiPolygon","coordinates":[[[[16.3305,48.2045],[16.337,48.2042],[16.3394,48.195],[16.3373,48.1909],[16.3391,48.1883],[16.3342,48.1846],[16.3306,48.1837],[16.3269,48.1839],[16.3142,48.1872],[16.3154,48.1902],[16.3203,48.19],[16.3205,48.1908],[16.3169,48.192],[16.3164,48.1924],[16.3169,48.1934],[16.3128,48.1944],[16.3139,48.1965],[16.3144,48.199],[16.3186,48.1991],[16.3107,48.2029],[16.3116,48.2045],[16.3126,48.2043],[16.3127,48.2072],[16.3305,48.2045]]]]}},{"type":"Feature","id":"bezirk-vienna-17","properties":{"name":"Währing","province":"Wien","department":"Wien","type":"Bezirk","country":"Austria","iso":"AT"},"geometry":{"type":"MultiPolygon","coordinates":[[[[16.295,48.2496],[16.3052,48.248],[16.3077,48.2469],[16.3074,48.2455],[16.3093,48.2453],[16.3091,48.2447],[16.3117,48.2432],[16.3214,48.2408],[16.3201,48.2401],[16.33,48.2371],[16.3378,48.2371],[16.3378,48.2339],[16.3443,48.2338],[16.3474,48.2331],[16.3508,48.2337],[16.3504,48.2319],[16.3538,48.232],[16.3505,48.2301],[16.3487,48.2233],[16.3436,48.2217],[16.342,48.2172],[16.3388,48.2177],[16.3396,48.2197],[16.3363,48.2204],[16.3366,48.2208],[16.3357,48.2211],[16.3367,48.2228],[16.3286,48.2265],[16.3287,48.2272],[16.3276,48.2278],[16.3255,48.2265],[16.3224,48.2267],[16.3231,48.2282],[16.3216,48.2284],[16.3219,48.2293],[16.3162,48.23],[16.3166,48.2315],[16.3156,48.2316],[16.3156,48.2325],[16.3124,48.2322],[16.309,48.2327],[16.3024,48.235],[16.3021,48.2365],[16.3012,48.2364],[16.2991,48.2377],[16.2969,48.2378],[16.2941,48.2367],[16.2942,48.2396],[16.2887,48.2394],[16.2838,48.2406],[16.2852,48.2416],[16.2894,48.2424],[16.2894,48.2433],[16.2911,48.2445],[16.294,48.2447],[16.2933,48.2458],[16.2824,48.2459],[16.2824,48.2476],[16.2884,48.251],[16.295,48.2496]]]]}},{"type":"Feature","id":"bezirk-vienna-18","properties":{"name":"Döbling","province":"Wien","department":"Wien","type":"Bezirk","country":"Austria","iso":"AT"},"geometry":{"type":"MultiPolygon","coordinates":[[[[16.3568,48.2823],[16.3724,48.2627],[16.3682,48.2613],[16.369,48.2571],[16.3718,48.2519],[16.3713,48.2494],[16.3647,48.2416],[16.3616,48.2363],[16.3567,48.2361],[16.3558,48.2332],[16.3545,48.2319],[16.3504,48.2319],[16.3508,48.2337],[16.3474,48.2331],[16.3443,48.2338],[16.3378,48.2339],[16.3378,48.2371],[16.3302,48.2371],[16.3203,48.24],[16.3199,48.2402],[16.3214,48.2408],[16.3117,48.2432],[16.3091,48.2447],[16.3093,48.2453],[16.3074,48.2455],[16.3077,48.2469],[16.3046,48.2482],[16.2876,48.251],[16.2872,48.2529],[16.2861,48.2537],[16.286,48.2556],[16.2851,48.2571],[16.2863,48.2597],[16.2895,48.2617],[16.2921,48.2622],[16.2941,48.264],[16.2913,48.2667],[16.2862,48.2667],[16.286,48.2676],[16.2877,48.2685],[16.289,48.2705],[16.2945,48.2722],[16.2989,48.2724],[16.3003,48.2733],[16.3059,48.2717],[16.3116,48.2739],[16.3146,48.274],[16.3179,48.2771],[16.3207,48.2782],[16.329,48.2772],[16.3302,48.2778],[16.3322,48.2809],[16.3367,48.2818],[16.3452,48.2856],[16.3412,48.289],[16.3481,48.2905],[16.3535,48.2837],[16.356,48.2833],[16.3568,48.2823]]]]}},{"type":"Feature","id":"bezirk-vienna-21","properties":{"name":"Donaustadt","province":"Wien","department":"Wien","type":"Bezirk","country":"Austria","iso":"AT"},"geometry":{"type":"MultiPolygon","coordinates":[[[[16.5078,48.2734],[16.5141,48.271],[16.5129,48.2678],[16.5192,48.267],[16.5208,48.2646],[16.5232,48.2639],[16.5326,48.2621],[16.533,48.2629],[16.5386,48.2642],[16.547,48.263],[16.5427,48.2545],[16.5394,48.2428],[16.5482,48.2427],[16.5478,48.2403],[16.5527,48.239],[16.5499,48.2327],[16.5469,48.2234],[16.546,48.2162],[16.5436,48.2116],[16.5381,48.2047],[16.5363,48.2004],[16.5388,48.1971],[16.5418,48.1914],[16.5386,48.1867],[16.538,48.1834],[16.5418,48.1821],[16.5412,48.1808],[16.5377,48.1825],[16.5363,48.1775],[16.5408,48.1738],[16.5364,48.1746],[16.5367,48.1735],[16.539,48.1728],[16.5413,48.1735],[16.5448,48.1729],[16.5438,48.175],[16.5416,48.1754],[16.541,48.1766],[16.5446,48.1769],[16.5458,48.1779],[16.5495,48.1771],[16.551,48.1731],[16.5506,48.1717],[16.5466,48.1716],[16.5468,48.1709],[16.5483,48.1671],[16.5502,48.166],[16.5499,48.1645],[16.5531,48.1621],[16.5563,48.1617],[16.554,48.1637],[16.5557,48.1645],[16.5579,48.1641],[16.5616,48.1604],[16.5637,48.162],[16.5681,48.1636],[16.5711,48.1637],[16.5752,48.1618],[16.5764,48.1589],[16.5733,48.1552],[16.576,48.1533],[16.5775,48.1513],[16.576,48.1352],[16.5429,48.1434],[16.5252,48.1547],[16.5166,48.1584],[16.5138,48.1589],[16.4971,48.1663],[16.4985,48.1672],[16.4781,48.1798],[16.4421,48.2038],[16.4163,48.2221],[16.3981,48.2363],[16.4034,48.2391],[16.4024,48.2404],[16.4028,48.2412],[16.409,48.2421],[16.4132,48.2453],[16.4278,48.2465],[16.4282,48.2519],[16.4304,48.2513],[16.4355,48.2591],[16.4384,48.2595],[16.4369,48.2616],[16.4471,48.262],[16.4502,48.2592],[16.4529,48.263],[16.4732,48.2751],[16.4747,48.2753],[16.4812,48.2734],[16.4813,48.2752],[16.4835,48.2797],[16.4827,48.2817],[16.4828,48.2843],[16.4822,48.2845],[16.4815,48.287],[16.4812,48.2935],[16.4965,48.2925],[16.4962,48.2919],[16.5132,48.2872],[16.5129,48.2864],[16.5149,48.2855],[16.5128,48.2813],[16.5116,48.2807],[16.5083,48.2765],[16.5067,48.2736],[16.5078,48.2734]]]]}},{"type":"Feature","id":"bezirk-vienna-22","properties":{"name":"Liesing","province":"Wien","department":"Wien","type":"Bezirk","country":"Austria","iso":"AT"},"geometry":{"type":"MultiPolygon","coordinates":[[[[16.2806,48.1591],[16.2851,48.1593],[16.287,48.1564],[16.2912,48.1581],[16.2916,48.1623],[16.296,48.1618],[16.2928,48.1576],[16.2975,48.1563],[16.3041,48.1604],[16.3165,48.1581],[16.3164,48.1575],[16.3188,48.1579],[16.3193,48.1566],[16.3228,48.1573],[16.3306,48.1554],[16.3356,48.1593],[16.3387,48.1545],[16.3412,48.1532],[16.3484,48.1518],[16.3606,48.1514],[16.3771,48.1475],[16.3743,48.1423],[16.3725,48.1429],[16.3656,48.1287],[16.3579,48.1294],[16.3507,48.1326],[16.3246,48.1378],[16.3249,48.136],[16.3185,48.1246],[16.3139,48.1256],[16.3126,48.1196],[16.3118,48.1194],[16.3073,48.1205],[16.2986,48.1253],[16.299,48.1269],[16.2984,48.1272],[16.2979,48.1295],[16.2875,48.1309],[16.2839,48.1302],[16.2808,48.132],[16.2711,48.1339],[16.2672,48.1336],[16.2617,48.1308],[16.2574,48.1296],[16.2535,48.1298],[16.2472,48.1314],[16.2361,48.13],[16.2253,48.1253],[16.2189,48.1238],[16.2147,48.1259],[16.2177,48.1272],[16.2181,48.1281],[16.2386,48.132],[16.2387,48.134],[16.2362,48.1348],[16.2377,48.1356],[16.2384,48.1372],[16.2208,48.1356],[16.221,48.1362],[16.2217,48.1361],[16.2197,48.1397],[16.2187,48.1405],[16.2164,48.141],[16.2123,48.1467],[16.2099,48.1476],[16.2105,48.1493],[16.2127,48.1507],[16.2183,48.1516],[16.2195,48.1533],[16.2233,48.152],[16.2232,48.1532],[16.2247,48.153],[16.2301,48.1495],[16.2467,48.1564],[16.2525,48.1577],[16.2564,48.16],[16.2578,48.1602],[16.263,48.1599],[16.273,48.1559],[16.2792,48.1627],[16.281,48.1615],[16.2793,48.1596],[16.2806,48.1591]]]]}},{"type":"Feature","id":"bezirk-vienna-23","properties":{"name":"Neubau","province":"Wien","department":"Wien","type":"Bezirk","country":"Austria","iso":"AT"},"geometry":{"type":"MultiPolygon","coordinates":[[[[16.3387,48.2085],[16.3493,48.2064],[16.3559,48.2069],[16.3615,48.2027],[16.3595,48.2012],[16.3485,48.1977],[16.3393,48.1959],[16.3373,48.2017],[16.3369,48.2056],[16.3387,48.2085]]]]}},{"type":"Feature","id":"bezirk-vienna-12","properties":{"name":"Landstraße","province":"Wien","department":"Wien","type":"Bezirk","country":"Austria","iso":"AT"},"geometry":{"type":"MultiPolygon","coordinates":[[[[16.3966,48.2074],[16.3973,48.2047],[16.3988,48.2031],[16.4064,48.2011],[16.4103,48.1966],[16.4133,48.1945],[16.4227,48.1891],[16.4311,48.1863],[16.4283,48.1852],[16.4205,48.1873],[16.4197,48.1856],[16.4178,48.1859],[16.4169,48.1848],[16.415,48.1854],[16.4128,48.1832],[16.4063,48.1851],[16.4057,48.1848],[16.4046,48.1857],[16.4028,48.1848],[16.4042,48.1835],[16.403,48.1825],[16.4034,48.1822],[16.3977,48.1785],[16.3971,48.1754],[16.3955,48.1755],[16.3855,48.1829],[16.3817,48.187],[16.3751,48.198],[16.3752,48.2],[16.3767,48.2003],[16.3809,48.2042],[16.3844,48.2091],[16.3851,48.2119],[16.3867,48.2127],[16.3898,48.2132],[16.3934,48.2122],[16.3948,48.2111],[16.3966,48.2074]]]]}}]}