{"type":"FeatureCollection","features":[{"type":"Feature","id":"seniunija-vilnius-1","properties":{"name":"Antakalnis","province":"Vilnius","department":"Vilniaus miesto savivaldybė","type":"Seniūnija","country":"Lituania","iso":"LT"},"geometry":{"type":"MultiPolygon","coordinates":[[[[25.2963,54.7299],[25.3016,54.7304],[25.3076,54.7288],[25.3119,54.7262],[25.3134,54.7243],[25.3111,54.7205],[25.3122,54.7155],[25.3093,54.7087],[25.3067,54.7053],[25.3059,54.6992],[25.3018,54.6945],[25.305,54.6927],[25.3043,54.6892],[25.3056,54.6875],[25.3143,54.6886],[25.3172,54.6871],[25.3187,54.6887],[25.3232,54.6916],[25.3241,54.6945],[25.3262,54.6958],[25.3321,54.6941],[25.3404,54.6937],[25.3421,54.6941],[25.3467,54.6976],[25.3485,54.6997],[25.3556,54.7035],[25.3594,54.704],[25.3623,54.7034],[25.3685,54.7055],[25.3787,54.7063],[25.3834,54.7077],[25.3966,54.7068],[25.4025,54.7079],[25.4059,54.7091],[25.409,54.7113],[25.4136,54.7122],[25.4125,54.7132],[25.4121,54.7184],[25.4083,54.7179],[25.4082,54.7234],[25.4107,54.7237],[25.4104,54.724],[25.412,54.7245],[25.4125,54.7266],[25.412,54.7282],[25.4183,54.7281],[25.4183,54.7288],[25.4256,54.7299],[25.4249,54.7354],[25.4278,54.7361],[25.427,54.739],[25.4382,54.7404],[25.4378,54.742],[25.4405,54.7441],[25.444,54.7434],[25.4442,54.7425],[25.4481,54.7407],[25.4515,54.7409],[25.4543,54.7709],[25.4552,54.7954],[25.4558,54.7979],[25.455,54.8017],[25.4157,54.7992],[25.416,54.8037],[25.4081,54.8039],[25.4096,54.8054],[25.3772,54.8058],[25.3774,54.8158],[25.3607,54.8163],[25.359,54.82],[25.3602,54.8215],[25.3656,54.8237],[25.3679,54.8254],[25.3662,54.826],[25.3583,54.8219],[25.3567,54.8199],[25.3568,54.8184],[25.36,54.814],[25.3592,54.8112],[25.3608,54.809],[25.3606,54.8075],[25.3585,54.804],[25.3605,54.802],[25.3653,54.7994],[25.3693,54.7947],[25.3699,54.7904],[25.3728,54.7851],[25.3733,54.7813],[25.3789,54.7762],[25.3777,54.7738],[25.3781,54.7714],[25.3776,54.7702],[25.3728,54.7672],[25.3697,54.766],[25.3608,54.7663],[25.3559,54.7652],[25.3544,54.7634],[25.3547,54.7595],[25.3524,54.7568],[25.3535,54.7542],[25.3522,54.7531],[25.3429,54.756],[25.3406,54.7547],[25.3375,54.7508],[25.3341,54.7491],[25.3295,54.7486],[25.3224,54.7495],[25.3156,54.7471],[25.3113,54.7463],[25.3052,54.7468],[25.3006,54.7458],[25.2945,54.7462],[25.2924,54.7456],[25.2912,54.7442],[25.2925,54.7413],[25.2911,54.7377],[25.2916,54.7326],[25.2936,54.7305],[25.2963,54.7299]]]]}},{"type":"Feature","id":"seniunija-vilnius-2","properties":{"name":"Fabijoniškės","province":"Vilnius","department":"Vilniaus miesto savivaldybė","type":"Seniūnija","country":"Lituania","iso":"LT"},"geometry":{"type":"MultiPolygon","coordinates":[[[[25.2144,54.7502],[25.2232,54.7423],[25.2351,54.7334],[25.2405,54.7273],[25.2441,54.7211],[25.246,54.7214],[25.2497,54.7202],[25.2561,54.7208],[25.2706,54.7208],[25.2678,54.7291],[25.2638,54.7289],[25.2609,54.7305],[25.2589,54.7353],[25.2611,54.7357],[25.2601,54.7381],[25.2397,54.7425],[25.2362,54.7422],[25.2316,54.7426],[25.2289,54.7441],[25.2326,54.7462],[25.2335,54.746],[25.2347,54.749],[25.2397,54.749],[25.2398,54.7501],[25.2426,54.7504],[25.2429,54.7563],[25.2298,54.7577],[25.2294,54.7541],[25.2183,54.7562],[25.2177,54.7541],[25.2144,54.7502]]]]}},{"type":"Feature","id":"seniunija-vilnius-3","properties":{"name":"Grigiškės","province":"Vilnius","department":"Vilniaus miesto savivaldybė","type":"Seniūnija","country":"Lituania","iso":"LT"},"geometry":{"type":"MultiPolygon","coordinates":[[[[25.071,54.6903],[25.0676,54.6907],[25.0687,54.6842],[25.0698,54.6827],[25.0692,54.6825],[25.0719,54.68],[25.0706,54.6788],[25.0725,54.678],[25.0728,54.6758],[25.0717,54.675],[25.0719,54.6742],[25.0746,54.6694],[25.0773,54.6675],[25.0792,54.6673],[25.0815,54.6634],[25.0861,54.6618],[25.0949,54.6618],[25.1111,54.6638],[25.1117,54.6648],[25.1132,54.665],[25.1129,54.6666],[25.1112,54.6677],[25.1266,54.663],[25.1258,54.666],[25.1235,54.6673],[25.1285,54.6675],[25.1395,54.6697],[25.1404,54.6705],[25.1406,54.6731],[25.1421,54.6742],[25.1388,54.674],[25.1387,54.6755],[25.1357,54.6768],[25.1399,54.6779],[25.144,54.6779],[25.1436,54.6806],[25.144,54.6811],[25.1363,54.6811],[25.1298,54.6784],[25.1277,54.6765],[25.1203,54.6736],[25.1167,54.673],[25.1104,54.6737],[25.0965,54.6776],[25.0937,54.6789],[25.0831,54.6814],[25.0822,54.6825],[25.0822,54.6854],[25.0807,54.6871],[25.0729,54.6885],[25.0714,54.6894],[25.071,54.6903]]]]}},{"type":"Feature","id":"seniunija-vilnius-4","properties":{"name":"Justiniškės","province":"Vilnius","department":"Vilniaus miesto savivaldybė","type":"Seniūnija","country":"Lituania","iso":"LT"},"geometry":{"type":"MultiPolygon","coordinates":[[[[25.199,54.7131],[25.2009,54.7106],[25.2089,54.7034],[25.2094,54.7059],[25.2158,54.706],[25.2163,54.7098],[25.2215,54.7169],[25.2306,54.7161],[25.2332,54.7214],[25.2202,54.7247],[25.209,54.7252],[25.2081,54.7246],[25.2082,54.7234],[25.2018,54.7262],[25.201,54.7258],[25.202,54.7245],[25.2012,54.7219],[25.2022,54.7202],[25.2012,54.7198],[25.2024,54.7177],[25.2014,54.7168],[25.2,54.717],[25.199,54.7131]]]]}},{"type":"Feature","id":"seniunija-vilnius-5","properties":{"name":"Karoliniškės","province":"Vilnius","department":"Vilniaus miesto savivaldybė","type":"Seniūnija","country":"Lituania","iso":"LT"},"geometry":{"type":"MultiPolygon","coordinates":[[[[25.1944,54.6822],[25.1965,54.6858],[25.2048,54.6951],[25.2076,54.6993],[25.2226,54.6994],[25.2351,54.7004],[25.2409,54.6992],[25.2391,54.6982],[25.2365,54.6983],[25.2356,54.6968],[25.2357,54.6949],[25.2343,54.6948],[25.2334,54.6936],[25.2365,54.6918],[25.2328,54.6893],[25.2279,54.6883],[25.2258,54.687],[25.2252,54.6857],[25.2266,54.6842],[25.2236,54.6826],[25.2213,54.6837],[25.2204,54.6832],[25.2169,54.6856],[25.2154,54.6856],[25.2071,54.684],[25.2068,54.6824],[25.2074,54.6817],[25.2066,54.6806],[25.2003,54.6793],[25.1962,54.6806],[25.1944,54.6822]]]]}},{"type":"Feature","id":"seniunija-vilnius-6","properties":{"name":"Lazdynai","province":"Vilnius","department":"Vilniaus miesto savivaldybė","type":"Seniūnija","country":"Lituania","iso":"LT"},"geometry":{"type":"MultiPolygon","coordinates":[[[[25.178,54.6735],[25.1818,54.6721],[25.183,54.6698],[25.1803,54.6671],[25.1758,54.6644],[25.1768,54.6584],[25.1794,54.6574],[25.1888,54.6568],[25.1928,54.6546],[25.1993,54.6525],[25.2035,54.6494],[25.2081,54.6485],[25.2151,54.6528],[25.2219,54.6545],[25.2237,54.6577],[25.2259,54.6591],[25.2263,54.6603],[25.225,54.6647],[25.2308,54.6716],[25.2317,54.6743],[25.2319,54.6796],[25.2298,54.6822],[25.2266,54.6842],[25.2232,54.6826],[25.2213,54.6837],[25.2204,54.6832],[25.2169,54.6856],[25.2071,54.684],[25.2068,54.6824],[25.2074,54.6817],[25.2066,54.6806],[25.2003,54.6793],[25.1962,54.6806],[25.1944,54.6822],[25.1919,54.683],[25.1895,54.6808],[25.178,54.6735]]]]}},{"type":"Feature","id":"seniunija-vilnius-7","properties":{"name":"Naujamiestis","province":"Vilnius","department":"Vilniaus miesto savivaldybė","type":"Seniūnija","country":"Lituania","iso":"LT"},"geometry":{"type":"MultiPolygon","coordinates":[[[[25.247,54.6789],[25.2496,54.683],[25.2556,54.6841],[25.2551,54.6846],[25.2578,54.6858],[25.2592,54.6919],[25.2613,54.6949],[25.2633,54.6957],[25.2672,54.6956],[25.2738,54.6922],[25.28,54.6915],[25.2797,54.6874],[25.2789,54.6873],[25.2772,54.6845],[25.2773,54.6828],[25.2733,54.6827],[25.2726,54.6809],[25.2743,54.6764],[25.2767,54.6772],[25.278,54.6729],[25.2756,54.6727],[25.2759,54.6711],[25.2793,54.6702],[25.2826,54.672],[25.2908,54.6718],[25.2855,54.6685],[25.2817,54.6672],[25.2558,54.6637],[25.2537,54.6671],[25.2589,54.6703],[25.2477,54.6776],[25.247,54.6789]]]]}},{"type":"Feature","id":"seniunija-vilnius-8","properties":{"name":"Naujininkai","province":"Vilnius","department":"Vilniaus miesto savivaldybė","type":"Seniūnija","country":"Lituania","iso":"LT"},"geometry":{"type":"MultiPolygon","coordinates":[[[[25.2048,54.6348],[25.2089,54.6352],[25.2287,54.6406],[25.2368,54.6438],[25.2392,54.6458],[25.2404,54.648],[25.2407,54.6498],[25.2398,54.6536],[25.2402,54.6562],[25.2424,54.6588],[25.2453,54.6604],[25.2502,54.6625],[25.255,54.6636],[25.2817,54.6672],[25.2855,54.6685],[25.2886,54.6704],[25.2905,54.6687],[25.2892,54.6669],[25.29,54.6654],[25.2915,54.6646],[25.3009,54.6625],[25.3034,54.6604],[25.3027,54.6527],[25.303,54.6374],[25.3057,54.6245],[25.3129,54.6067],[25.3141,54.599],[25.2875,54.5926],[25.2876,54.5947],[25.2796,54.5949],[25.2709,54.5925],[25.2723,54.5985],[25.2756,54.6046],[25.2746,54.6086],[25.2677,54.6048],[25.2635,54.6051],[25.2629,54.6031],[25.2606,54.6021],[25.255,54.6022],[25.2553,54.6052],[25.2455,54.6064],[25.2423,54.6098],[25.2201,54.6125],[25.2187,54.6134],[25.2191,54.6142],[25.2163,54.6154],[25.2146,54.6184],[25.2106,54.6229],[25.2068,54.6248],[25.1993,54.6249],[25.1942,54.6262],[25.1906,54.629],[25.1944,54.629],[25.1996,54.6301],[25.2015,54.6317],[25.2022,54.6338],[25.2048,54.6348]]]]}},{"type":"Feature","id":"seniunija-vilnius-9","properties":{"name":"Naujoji Vilnia","province":"Vilnius","department":"Vilniaus miesto savivaldybė","type":"Seniūnija","country":"Lituania","iso":"LT"},"geometry":{"type":"MultiPolygon","coordinates":[[[[25.3272,54.6523],[25.3351,54.6494],[25.3385,54.649],[25.3357,54.6457],[25.3514,54.6418],[25.3519,54.6421],[25.3634,54.6396],[25.3634,54.6419],[25.3641,54.6432],[25.371,54.6472],[25.3795,54.6565],[25.3826,54.664],[25.3868,54.6663],[25.401,54.668],[25.4034,54.6689],[25.4042,54.6694],[25.4048,54.6756],[25.409,54.6756],[25.4103,54.6764],[25.4094,54.6807],[25.4126,54.6815],[25.415,54.6781],[25.4186,54.6774],[25.4207,54.676],[25.4252,54.6755],[25.4284,54.6742],[25.4305,54.6752],[25.4312,54.6766],[25.437,54.6737],[25.4386,54.6751],[25.4463,54.6757],[25.4511,54.6783],[25.4456,54.6817],[25.4494,54.6853],[25.4583,54.6874],[25.4625,54.6859],[25.4656,54.688],[25.4698,54.6886],[25.4719,54.6882],[25.4753,54.6853],[25.4801,54.6859],[25.4814,54.6877],[25.4799,54.6931],[25.4815,54.6935],[25.4798,54.697],[25.4726,54.6954],[25.4654,54.6955],[25.465,54.697],[25.4604,54.6969],[25.4661,54.7044],[25.4647,54.7085],[25.4621,54.7075],[25.4618,54.7079],[25.459,54.7078],[25.4577,54.7068],[25.4579,54.7062],[25.4519,54.7056],[25.441,54.7079],[25.437,54.7119],[25.4332,54.7143],[25.4293,54.714],[25.4275,54.7158],[25.4259,54.7125],[25.4277,54.7121],[25.4287,54.7107],[25.4271,54.7091],[25.4136,54.7122],[25.409,54.7113],[25.4059,54.7091],[25.4025,54.7079],[25.3966,54.7068],[25.3834,54.7077],[25.3787,54.7063],[25.3685,54.7055],[25.3623,54.7034],[25.3594,54.704],[25.3556,54.7035],[25.3485,54.6997],[25.3463,54.6973],[25.3421,54.6941],[25.3404,54.6937],[25.3439,54.6922],[25.3459,54.6901],[25.3415,54.6875],[25.3412,54.6858],[25.3423,54.6832],[25.3409,54.681],[25.341,54.6804],[25.335,54.6787],[25.3366,54.6782],[25.3376,54.6763],[25.3409,54.6765],[25.3411,54.6735],[25.3425,54.6725],[25.335,54.6711],[25.3354,54.6701],[25.3347,54.6689],[25.3355,54.6674],[25.3337,54.665],[25.3327,54.6647],[25.339,54.663],[25.3369,54.6591],[25.3346,54.6568],[25.3272,54.6523]]]]}},{"type":"Feature","id":"seniunija-vilnius-10","properties":{"name":"Paneriai","province":"Vilnius","department":"Vilniaus miesto savivaldybė","type":"Seniūnija","country":"Lituania","iso":"LT"},"geometry":{"type":"MultiPolygon","coordinates":[[[[25.0272,54.6242],[25.0245,54.6232],[25.0661,54.6197],[25.0712,54.6097],[25.0745,54.6067],[25.0756,54.6012],[25.0784,54.5991],[25.084,54.6052],[25.0993,54.609],[25.105,54.6039],[25.1073,54.6051],[25.1155,54.6012],[25.1124,54.597],[25.1145,54.592],[25.0925,54.5898],[25.1034,54.5828],[25.113,54.5784],[25.1154,54.5787],[25.1213,54.5697],[25.1316,54.5736],[25.1291,54.579],[25.1353,54.5774],[25.1381,54.5791],[25.1417,54.5782],[25.1417,54.5791],[25.1455,54.5782],[25.1484,54.5765],[25.1482,54.5735],[25.1571,54.5709],[25.1801,54.5689],[25.1864,54.5695],[25.1858,54.5825],[25.1834,54.5893],[25.1851,54.5914],[25.1824,54.5927],[25.1829,54.5932],[25.1767,54.5959],[25.1777,54.5978],[25.1729,54.5987],[25.1682,54.5977],[25.1652,54.5993],[25.1628,54.5996],[25.1668,54.6014],[25.1688,54.6031],[25.1666,54.604],[25.1682,54.6056],[25.171,54.6051],[25.1733,54.6067],[25.1759,54.606],[25.1766,54.6065],[25.18,54.6053],[25.1822,54.6056],[25.1876,54.6035],[25.1865,54.603],[25.1906,54.6015],[25.1915,54.6024],[25.1935,54.6015],[25.1955,54.6023],[25.199,54.6006],[25.2007,54.6006],[25.2105,54.5902],[25.2116,54.5888],[25.2115,54.5878],[25.2121,54.5875],[25.2141,54.589],[25.2252,54.5878],[25.2308,54.5847],[25.2338,54.5822],[25.2335,54.5774],[25.2386,54.5746],[25.2409,54.5749],[25.2464,54.5779],[25.2362,54.5836],[25.2386,54.5847],[25.2391,54.5858],[25.241,54.5868],[25.2363,54.5891],[25.2383,54.5911],[25.2408,54.593],[25.243,54.5928],[25.2469,54.5901],[25.2497,54.5928],[25.2485,54.5943],[25.2488,54.595],[25.2534,54.593],[25.2529,54.5923],[25.2536,54.5914],[25.2566,54.5906],[25.257,54.5914],[25.259,54.5919],[25.2607,54.592],[25.2615,54.5907],[25.2624,54.5906],[25.2633,54.5907],[25.2643,54.5921],[25.2682,54.5918],[25.2684,54.5926],[25.2709,54.5925],[25.2723,54.5985],[25.2751,54.6032],[25.2756,54.6051],[25.2746,54.6086],[25.2677,54.6048],[25.2635,54.6051],[25.2629,54.6031],[25.2606,54.6021],[25.255,54.6022],[25.2553,54.6052],[25.2455,54.6064],[25.2423,54.6098],[25.2201,54.6125],[25.2187,54.6134],[25.2191,54.6142],[25.2163,54.6154],[25.2146,54.6184],[25.2106,54.6229],[25.2068,54.6248],[25.1993,54.6249],[25.1942,54.6262],[25.1906,54.629],[25.1944,54.629],[25.1996,54.6301],[25.2015,54.6317],[25.2022,54.6338],[25.2048,54.6348],[25.2004,54.6365],[25.1999,54.6372],[25.2022,54.6385],[25.1975,54.6413],[25.2025,54.6431],[25.2008,54.644],[25.1979,54.644],[25.1941,54.6456],[25.1932,54.6451],[25.1908,54.6457],[25.1877,54.6471],[25.1842,54.6494],[25.1847,54.651],[25.18,54.6555],[25.1794,54.6574],[25.1765,54.6587],[25.1758,54.6644],[25.1828,54.6694],[25.1829,54.6707],[25.1818,54.6721],[25.178,54.6735],[25.1726,54.6723],[25.1661,54.6725],[25.1639,54.6745],[25.1614,54.6794],[25.1584,54.6808],[25.1554,54.6805],[25.1535,54.6793],[25.1516,54.6791],[25.1484,54.6795],[25.144,54.6811],[25.1436,54.6806],[25.144,54.6779],[25.1399,54.6779],[25.136,54.6771],[25.1387,54.6755],[25.1388,54.674],[25.1421,54.6742],[25.1406,54.6731],[25.1404,54.6705],[25.1395,54.6697],[25.1339,54.6684],[25.1235,54.6673],[25.1258,54.666],[25.1266,54.663],[25.1112,54.6677],[25.1129,54.6666],[25.1132,54.665],[25.1117,54.6648],[25.1114,54.6639],[25.1096,54.6638],[25.108,54.6626],[25.1055,54.6626],[25.1035,54.6603],[25.1096,54.6591],[25.1107,54.6584],[25.1099,54.6582],[25.1101,54.6559],[25.0906,54.6566],[25.088,54.6558],[25.0866,54.6562],[25.0819,54.6555],[25.0738,54.6555],[25.0733,54.6498],[25.075,54.6497],[25.0744,54.6437],[25.0683,54.6439],[25.0683,54.6426],[25.0769,54.64],[25.0766,54.6393],[25.0718,54.637],[25.065,54.6371],[25.0652,54.6352],[25.0584,54.635],[25.0597,54.6327],[25.0504,54.6318],[25.0497,54.6311],[25.0448,54.6317],[25.0453,54.63],[25.0401,54.6295],[25.0272,54.6242]]]]}},{"type":"Feature","id":"seniunija-vilnius-11","properties":{"name":"Pašilaičiai","province":"Vilnius","department":"Vilniaus miesto savivaldybė","type":"Seniūnija","country":"Lituania","iso":"LT"},"geometry":{"type":"MultiPolygon","coordinates":[[[[25.1737,54.7518],[25.1749,54.7526],[25.1747,54.7534],[25.1807,54.7524],[25.1825,54.7488],[25.1888,54.7508],[25.1869,54.7532],[25.1913,54.7546],[25.1941,54.7574],[25.1975,54.7541],[25.203,54.7595],[25.2232,54.7423],[25.2346,54.7339],[25.2396,54.7285],[25.2441,54.7211],[25.2427,54.7205],[25.2318,54.7216],[25.2202,54.7247],[25.209,54.7252],[25.2081,54.7246],[25.2082,54.7234],[25.2035,54.7252],[25.2016,54.7266],[25.2023,54.7276],[25.2057,54.7282],[25.2061,54.7415],[25.2052,54.7452],[25.2012,54.7443],[25.1994,54.7448],[25.1959,54.7432],[25.1934,54.7413],[25.1954,54.7374],[25.1953,54.736],[25.1904,54.7359],[25.1821,54.7398],[25.1765,54.7437],[25.1779,54.7443],[25.1764,54.7463],[25.1736,54.7475],[25.1737,54.7518]]]]}},{"type":"Feature","id":"seniunija-vilnius-12","properties":{"name":"Pilaitė","province":"Vilnius","department":"Vilniaus miesto savivaldybė","type":"Seniūnija","country":"Lituania","iso":"LT"},"geometry":{"type":"MultiPolygon","coordinates":[[[[25.1046,54.7013],[25.1183,54.6988],[25.1188,54.6996],[25.1242,54.6991],[25.125,54.6984],[25.132,54.6964],[25.1338,54.6966],[25.1348,54.6954],[25.1375,54.6972],[25.1423,54.6982],[25.1459,54.6981],[25.1456,54.6968],[25.1477,54.6961],[25.152,54.6984],[25.1535,54.7004],[25.1562,54.7011],[25.1603,54.7004],[25.164,54.6992],[25.1639,54.6984],[25.166,54.6986],[25.1689,54.6974],[25.1698,54.6983],[25.1736,54.6986],[25.1736,54.6993],[25.1804,54.7013],[25.182,54.6994],[25.1823,54.6943],[25.187,54.6908],[25.1882,54.6855],[25.1919,54.683],[25.1944,54.6822],[25.1965,54.6858],[25.2048,54.6951],[25.2095,54.7033],[25.2083,54.7035],[25.1964,54.7156],[25.1916,54.7164],[25.1903,54.7155],[25.1884,54.7154],[25.1863,54.7184],[25.188,54.7195],[25.1873,54.7216],[25.1808,54.7221],[25.1701,54.727],[25.1679,54.7251],[25.1607,54.7284],[25.1543,54.7297],[25.1525,54.7257],[25.1477,54.7247],[25.1525,54.715],[25.1502,54.7138],[25.1484,54.7108],[25.1449,54.7098],[25.1404,54.7108],[25.1373,54.7089],[25.1391,54.7076],[25.1351,54.7072],[25.1345,54.706],[25.1275,54.7078],[25.1262,54.7063],[25.1132,54.709],[25.1059,54.7038],[25.1037,54.7045],[25.101,54.7022],[25.1046,54.7013]]]]}},{"type":"Feature","id":"seniunija-vilnius-13","properties":{"name":"Rasos","province":"Vilnius","department":"Vilniaus miesto savivaldybė","type":"Seniūnija","country":"Lituania","iso":"LT"},"geometry":{"type":"MultiPolygon","coordinates":[[[[25.2886,54.6704],[25.2911,54.6721],[25.2943,54.6726],[25.2988,54.6727],[25.3048,54.6717],[25.3065,54.6751],[25.3149,54.6819],[25.3077,54.6856],[25.3056,54.6875],[25.3143,54.6886],[25.3172,54.6871],[25.3187,54.6887],[25.3232,54.6916],[25.3241,54.6945],[25.3262,54.6958],[25.3318,54.6941],[25.3406,54.6937],[25.3439,54.6922],[25.3459,54.6903],[25.3412,54.6869],[25.3423,54.6832],[25.3409,54.681],[25.341,54.6804],[25.335,54.6787],[25.3366,54.6782],[25.3376,54.6763],[25.3409,54.6765],[25.3411,54.6735],[25.3425,54.6725],[25.335,54.6711],[25.3354,54.6701],[25.3347,54.6689],[25.3355,54.6674],[25.3337,54.665],[25.3327,54.6647],[25.339,54.663],[25.3369,54.6591],[25.3346,54.6568],[25.3272,54.6523],[25.3351,54.6494],[25.3385,54.649],[25.3357,54.6457],[25.3236,54.6487],[25.322,54.6465],[25.3199,54.6471],[25.3196,54.6393],[25.3206,54.6313],[25.3216,54.63],[25.326,54.6312],[25.3279,54.6268],[25.3208,54.6256],[25.3217,54.6172],[25.3271,54.6121],[25.3309,54.6097],[25.3253,54.6077],[25.3213,54.6069],[25.3224,54.6038],[25.3137,54.6027],[25.3129,54.6067],[25.3057,54.6245],[25.3029,54.638],[25.3027,54.6527],[25.3033,54.6605],[25.3009,54.6625],[25.2901,54.6654],[25.2892,54.6668],[25.2905,54.6687],[25.2886,54.6704]]]]}},{"type":"Feature","id":"seniunija-vilnius-14","properties":{"name":"Senamiestis","province":"Vilnius","department":"Vilniaus miesto savivaldybė","type":"Seniūnija","country":"Lituania","iso":"LT"},"geometry":{"type":"MultiPolygon","coordinates":[[[[25.2726,54.6809],[25.2743,54.6764],[25.2767,54.6772],[25.278,54.6729],[25.2756,54.6727],[25.2759,54.6711],[25.2793,54.6702],[25.2826,54.672],[25.2873,54.6716],[25.2956,54.6727],[25.3048,54.6717],[25.3065,54.6751],[25.3149,54.6819],[25.3065,54.6866],[25.3044,54.689],[25.305,54.6927],[25.3018,54.6945],[25.2919,54.6891],[25.2879,54.6891],[25.2836,54.691],[25.28,54.6915],[25.2797,54.6874],[25.2789,54.6873],[25.2772,54.6845],[25.2773,54.6828],[25.2733,54.6827],[25.2726,54.6809]]]]}},{"type":"Feature","id":"seniunija-vilnius-15","properties":{"name":"Šeškinė","province":"Vilnius","department":"Vilniaus miesto savivaldybė","type":"Seniūnija","country":"Lituania","iso":"LT"},"geometry":{"type":"MultiPolygon","coordinates":[[[[25.2298,54.7148],[25.2366,54.7127],[25.2345,54.7095],[25.2387,54.7087],[25.2378,54.7074],[25.2375,54.704],[25.2343,54.7022],[25.2343,54.7004],[25.2409,54.6992],[25.243,54.7007],[25.2415,54.701],[25.2412,54.7017],[25.2438,54.7016],[25.2458,54.7022],[25.2471,54.7037],[25.2489,54.7038],[25.2492,54.7054],[25.2507,54.7054],[25.2509,54.7045],[25.2535,54.7025],[25.2577,54.7037],[25.2628,54.7015],[25.2661,54.7035],[25.2705,54.7125],[25.2712,54.7183],[25.2706,54.7208],[25.2561,54.7208],[25.2497,54.7202],[25.246,54.7214],[25.2427,54.7205],[25.2332,54.7214],[25.2298,54.7148]]]]}},{"type":"Feature","id":"seniunija-vilnius-16","properties":{"name":"Šnipiškės","province":"Vilnius","department":"Vilniaus miesto savivaldybė","type":"Seniūnija","country":"Lituania","iso":"LT"},"geometry":{"type":"MultiPolygon","coordinates":[[[[25.2628,54.7015],[25.2639,54.6957],[25.2686,54.6952],[25.2741,54.6921],[25.283,54.6912],[25.2883,54.689],[25.2892,54.692],[25.2864,54.7004],[25.2867,54.7019],[25.2881,54.7035],[25.2838,54.7038],[25.286,54.7097],[25.2869,54.715],[25.2799,54.7133],[25.2705,54.7125],[25.2667,54.7056],[25.2663,54.7037],[25.2628,54.7015]]]]}},{"type":"Feature","id":"seniunija-vilnius-17","properties":{"name":"Verkiai","province":"Vilnius","department":"Vilniaus miesto savivaldybė","type":"Seniūnija","country":"Lituania","iso":"LT"},"geometry":{"type":"MultiPolygon","coordinates":[[[[25.2296,54.7437],[25.2316,54.7426],[25.2362,54.7422],[25.2397,54.7425],[25.2601,54.7381],[25.2611,54.7357],[25.2589,54.7353],[25.2609,54.7304],[25.2638,54.7289],[25.2678,54.7291],[25.2685,54.7275],[25.2711,54.7188],[25.2705,54.7125],[25.281,54.7134],[25.2869,54.715],[25.2866,54.7199],[25.2844,54.722],[25.2947,54.723],[25.2935,54.7242],[25.2932,54.7262],[25.294,54.7278],[25.2963,54.7299],[25.2936,54.7305],[25.2916,54.7326],[25.2911,54.7377],[25.2925,54.7413],[25.2912,54.744],[25.2921,54.7454],[25.2941,54.7462],[25.3002,54.7458],[25.3052,54.7468],[25.3113,54.7463],[25.3156,54.7471],[25.3224,54.7495],[25.3295,54.7486],[25.3346,54.7492],[25.338,54.7512],[25.3406,54.7547],[25.3429,54.756],[25.3505,54.7533],[25.3524,54.7532],[25.3535,54.7543],[25.3525,54.7571],[25.3548,54.7598],[25.3544,54.7634],[25.3555,54.7649],[25.3592,54.7662],[25.3682,54.7658],[25.3724,54.767],[25.3776,54.7702],[25.3781,54.7714],[25.3777,54.7738],[25.379,54.776],[25.3733,54.7813],[25.3728,54.7851],[25.3699,54.7904],[25.3693,54.7947],[25.3653,54.7994],[25.3591,54.8031],[25.3584,54.8043],[25.3597,54.8063],[25.3565,54.8063],[25.3509,54.8145],[25.3494,54.8141],[25.3513,54.8111],[25.3502,54.8084],[25.337,54.8108],[25.3322,54.8095],[25.3292,54.8104],[25.3279,54.8113],[25.3275,54.8135],[25.3288,54.8143],[25.3267,54.8158],[25.3249,54.8158],[25.3243,54.8173],[25.3216,54.8171],[25.3215,54.8181],[25.3354,54.8213],[25.3344,54.8236],[25.3315,54.8235],[25.3301,54.8246],[25.3254,54.8258],[25.3262,54.8262],[25.3254,54.8269],[25.3241,54.8267],[25.3248,54.8258],[25.3213,54.8264],[25.32,54.8258],[25.3205,54.8273],[25.3176,54.829],[25.3145,54.8323],[25.3065,54.8294],[25.3053,54.8268],[25.3028,54.8268],[25.3015,54.8257],[25.3002,54.8257],[25.2976,54.8274],[25.2937,54.8272],[25.2894,54.8227],[25.2862,54.8233],[25.2845,54.8232],[25.284,54.8225],[25.2861,54.8219],[25.2854,54.8212],[25.2876,54.8207],[25.2867,54.8198],[25.2852,54.8136],[25.2873,54.8121],[25.2901,54.8132],[25.2915,54.8124],[25.2917,54.8116],[25.2941,54.8117],[25.294,54.8096],[25.2903,54.8096],[25.2891,54.8084],[25.2899,54.8076],[25.2894,54.8069],[25.2897,54.8059],[25.2909,54.8052],[25.2895,54.8016],[25.2874,54.8022],[25.2878,54.8],[25.2896,54.8003],[25.2904,54.7995],[25.2886,54.7983],[25.2909,54.7981],[25.2882,54.7955],[25.2822,54.7965],[25.2808,54.7945],[25.2757,54.7942],[25.2754,54.7836],[25.2742,54.7783],[25.2845,54.7785],[25.2848,54.7743],[25.2766,54.775],[25.276,54.774],[25.2723,54.7743],[25.2725,54.7755],[25.2711,54.7755],[25.2707,54.7764],[25.2686,54.7764],[25.2681,54.7771],[25.2651,54.777],[25.265,54.7755],[25.2671,54.7744],[25.2682,54.7727],[25.248,54.7667],[25.2494,54.7657],[25.2434,54.7625],[25.2437,54.7607],[25.2419,54.758],[25.2404,54.7573],[25.2371,54.758],[25.2366,54.757],[25.2429,54.7563],[25.2426,54.7504],[25.2398,54.7501],[25.2397,54.749],[25.2347,54.749],[25.2335,54.746],[25.2326,54.7462],[25.2289,54.7441],[25.2296,54.7437]]]]}},{"type":"Feature","id":"seniunija-vilnius-18","properties":{"name":"Vilkpėdė","province":"Vilnius","department":"Vilniaus miesto savivaldybė","type":"Seniūnija","country":"Lituania","iso":"LT"},"geometry":{"type":"MultiPolygon","coordinates":[[[[25.1794,54.6574],[25.18,54.6555],[25.1847,54.651],[25.1842,54.6494],[25.1877,54.6471],[25.1908,54.6457],[25.1932,54.6451],[25.1941,54.6456],[25.1979,54.644],[25.2008,54.644],[25.2025,54.6431],[25.1975,54.6413],[25.2022,54.6385],[25.1999,54.6372],[25.2004,54.6365],[25.2048,54.6348],[25.2089,54.6352],[25.2295,54.6409],[25.2362,54.6435],[25.2396,54.6463],[25.2407,54.6491],[25.2398,54.655],[25.2424,54.6588],[25.2502,54.6625],[25.2558,54.6637],[25.2537,54.6671],[25.2589,54.6703],[25.2477,54.6776],[25.247,54.6788],[25.2496,54.683],[25.2556,54.6841],[25.2551,54.6846],[25.2511,54.6847],[25.2472,54.6861],[25.2444,54.6884],[25.2419,54.692],[25.2405,54.6927],[25.2373,54.6921],[25.2328,54.6893],[25.2279,54.6883],[25.2256,54.6869],[25.2254,54.6853],[25.2298,54.6822],[25.2319,54.6796],[25.2317,54.6743],[25.2308,54.6716],[25.225,54.6647],[25.2261,54.6594],[25.2237,54.6577],[25.2219,54.6545],[25.2151,54.6528],[25.2086,54.6486],[25.2061,54.6485],[25.2035,54.6494],[25.1993,54.6525],[25.1928,54.6546],[25.1888,54.6568],[25.1794,54.6574]]]]}},{"type":"Feature","id":"seniunija-vilnius-19","properties":{"name":"Viršuliškės","province":"Vilnius","department":"Vilniaus miesto savivaldybė","type":"Seniūnija","country":"Lituania","iso":"LT"},"geometry":{"type":"MultiPolygon","coordinates":[[[[25.2076,54.6993],[25.2226,54.6994],[25.2343,54.7004],[25.2343,54.7022],[25.2375,54.704],[25.2378,54.7074],[25.2387,54.7087],[25.2345,54.7095],[25.2366,54.7127],[25.2298,54.7148],[25.2306,54.7161],[25.2215,54.7169],[25.2163,54.7098],[25.2158,54.706],[25.2094,54.7059],[25.2089,54.7034],[25.2095,54.7033],[25.2076,54.6993]]]]}},{"type":"Feature","id":"seniunija-vilnius-20","properties":{"name":"Žirmūnai","province":"Vilnius","department":"Vilniaus miesto savivaldybė","type":"Seniūnija","country":"Lituania","iso":"LT"},"geometry":{"type":"MultiPolygon","coordinates":[[[[25.2838,54.7038],[25.286,54.7097],[25.2869,54.7147],[25.2866,54.7199],[25.2844,54.722],[25.2947,54.723],[25.2934,54.7249],[25.294,54.7278],[25.2963,54.7299],[25.3,54.7304],[25.3025,54.7303],[25.3083,54.7285],[25.313,54.7253],[25.3133,54.7235],[25.3111,54.7202],[25.3122,54.7155],[25.3093,54.7087],[25.3067,54.7053],[25.3059,54.6992],[25.3008,54.6938],[25.293,54.6894],[25.2883,54.689],[25.2892,54.692],[25.2864,54.7004],[25.2867,54.7019],[25.2881,54.7035],[25.2838,54.7038]]]]}},{"type":"Feature","id":"seniunija-vilnius-21","properties":{"name":"Žvėrynas","province":"Vilnius","department":"Vilniaus miesto savivaldybė","type":"Seniūnija","country":"Lituania","iso":"LT"},"geometry":{"type":"MultiPolygon","coordinates":[[[[25.2365,54.6918],[25.2334,54.6936],[25.2343,54.6948],[25.2357,54.6949],[25.2356,54.6968],[25.2365,54.6983],[25.2391,54.6982],[25.2414,54.6993],[25.243,54.7007],[25.2415,54.701],[25.2412,54.7017],[25.2438,54.7016],[25.2458,54.7022],[25.2471,54.7037],[25.2489,54.7038],[25.2492,54.7054],[25.2507,54.7054],[25.2509,54.7045],[25.2535,54.7025],[25.2577,54.7037],[25.2622,54.702],[25.2631,54.701],[25.2639,54.6957],[25.2619,54.6953],[25.2603,54.6938],[25.259,54.6914],[25.2581,54.6861],[25.2562,54.6849],[25.2526,54.6845],[25.2476,54.6859],[25.2447,54.6881],[25.2411,54.6926],[25.2389,54.6926],[25.2365,54.6918]]]]}}]}