{"type":"FeatureCollection","features":[{"type":"Feature","id":"ward-dc-6","properties":{"name":"Ward 6","province":"District of Columbia","department":"District of Columbia","type":"Ward","country":"Estados Unidos","iso":"US"},"geometry":{"type":"Polygon","coordinates":[[[-77.0179,38.9141],[-77.0207,38.9157],[-77.0209,38.9141],[-77.027,38.9141],[-77.027,38.9097],[-77.024,38.9097],[-77.024,38.9073],[-77.0224,38.9072],[-77.0224,38.9057],[-77.0219,38.9057],[-77.0219,38.9021],[-77.0141,38.8994],[-77.014,38.8921],[-77.0091,38.8921],[-77.0091,38.8876],[-77.032,38.8876],[-77.032,38.8841],[-77.0327,38.8826],[-77.0239,38.8765],[-77.0214,38.8724],[-77.0203,38.87],[-77.0201,38.8678],[-77.0202,38.8573],[-77.0091,38.8634],[-77.0054,38.8693],[-77.0034,38.871],[-77.0007,38.8713],[-76.9951,38.87],[-76.9927,38.8701],[-76.9844,38.8747],[-76.9728,38.8789],[-76.971,38.8814],[-76.9765,38.8814],[-76.9765,38.8828],[-76.9773,38.8828],[-76.9773,38.8898],[-76.9738,38.8906],[-76.9745,38.8929],[-76.9773,38.8933],[-76.9773,38.8962],[-76.9765,38.8989],[-76.9842,38.9002],[-77.0046,38.9089],[-77.0137,38.9058],[-77.0137,38.9072],[-77.0154,38.9072],[-77.0179,38.9141]]]}},{"type":"Feature","id":"ward-dc-8","properties":{"name":"Ward 8","province":"District of Columbia","department":"District of Columbia","type":"Ward","country":"Estados Unidos","iso":"US"},"geometry":{"type":"Polygon","coordinates":[[[-76.9723,38.8729],[-76.9763,38.8749],[-76.978,38.8769],[-76.9844,38.8747],[-76.9927,38.8701],[-76.9951,38.87],[-77.0007,38.8713],[-77.0032,38.8711],[-77.0051,38.8697],[-77.0101,38.8626],[-77.0322,38.8507],[-77.0325,38.8468],[-77.0346,38.8401],[-77.0401,38.8393],[-77.043,38.8398],[-77.0434,38.8406],[-77.0447,38.8402],[-77.0461,38.8412],[-77.0479,38.8413],[-77.0459,38.8401],[-77.0465,38.8399],[-77.0454,38.8385],[-77.0451,38.8361],[-77.0456,38.8358],[-77.0451,38.8358],[-77.0445,38.8332],[-77.0438,38.8334],[-77.0433,38.8315],[-77.0419,38.8315],[-77.0426,38.8333],[-77.0419,38.8337],[-77.0391,38.8321],[-77.0378,38.8302],[-77.0388,38.8246],[-77.0411,38.8234],[-77.0407,38.8221],[-77.0396,38.8215],[-77.04,38.8207],[-77.0388,38.8193],[-77.0381,38.8156],[-77.0361,38.8148],[-77.0392,38.8006],[-77.039,38.7916],[-76.9618,38.8519],[-76.9629,38.8521],[-76.9651,38.8542],[-76.9679,38.8579],[-76.9681,38.8602],[-76.9708,38.8643],[-76.9702,38.8668],[-76.9709,38.8687],[-76.971,38.8733],[-76.9723,38.8729]]]}},{"type":"Feature","id":"ward-dc-4","properties":{"name":"Ward 4","province":"District of Columbia","department":"District of Columbia","type":"Ward","country":"Estados Unidos","iso":"US"},"geometry":{"type":"Polygon","coordinates":[[[-77.041,38.996],[-77.0717,38.9719],[-77.0701,38.9697],[-77.0651,38.9585],[-77.0596,38.9576],[-77.0575,38.9567],[-77.056,38.9588],[-77.0562,38.961],[-77.0514,38.9619],[-77.0472,38.9604],[-77.0434,38.9614],[-77.0406,38.9598],[-77.0421,38.9577],[-77.0421,38.9547],[-77.0471,38.9496],[-77.0469,38.9482],[-77.0456,38.9478],[-77.0445,38.9486],[-77.0441,38.9479],[-77.046,38.9455],[-77.0478,38.9457],[-77.0499,38.9436],[-77.0513,38.9414],[-77.0519,38.9376],[-77.0481,38.9372],[-77.0478,38.9358],[-77.0483,38.9348],[-77.0452,38.936],[-77.0411,38.9362],[-77.0364,38.9382],[-77.0364,38.9374],[-77.0339,38.9374],[-77.0252,38.9351],[-77.0243,38.9363],[-77.0173,38.9379],[-77.0122,38.9438],[-77.009,38.946],[-77.009,38.9548],[-77.0033,38.9561],[-77.0023,38.9568],[-77.0003,38.9553],[-76.9976,38.9572],[-76.9914,38.9573],[-77.041,38.996]]]}},{"type":"Feature","id":"ward-dc-3","properties":{"name":"Ward 3","province":"District of Columbia","department":"District of Columbia","type":"Ward","country":"Estados Unidos","iso":"US"},"geometry":{"type":"Polygon","coordinates":[[[-77.0581,38.9568],[-77.0593,38.9576],[-77.0651,38.9585],[-77.0701,38.9697],[-77.0717,38.9719],[-77.1198,38.9343],[-77.1175,38.9321],[-77.116,38.9282],[-77.1068,38.92],[-77.1042,38.9159],[-77.1031,38.9128],[-77.0978,38.9085],[-77.0876,38.9032],[-77.0828,38.9023],[-77.0783,38.9024],[-77.0783,38.9067],[-77.0779,38.9067],[-77.0776,38.9095],[-77.0795,38.9126],[-77.0788,38.9128],[-77.0791,38.9137],[-77.0806,38.915],[-77.0817,38.9174],[-77.0757,38.9174],[-77.0749,38.9165],[-77.0716,38.9163],[-77.0694,38.9166],[-77.0694,38.9177],[-77.0688,38.917],[-77.0676,38.9175],[-77.0673,38.9187],[-77.0591,38.9183],[-77.0582,38.9177],[-77.0547,38.9199],[-77.0512,38.9198],[-77.0487,38.9225],[-77.0497,38.9281],[-77.0464,38.926],[-77.0448,38.9267],[-77.0446,38.9287],[-77.0469,38.9313],[-77.0509,38.9328],[-77.048,38.9351],[-77.0479,38.9371],[-77.0504,38.9372],[-77.0521,38.9381],[-77.0513,38.9414],[-77.0499,38.9436],[-77.0478,38.9457],[-77.046,38.9455],[-77.0441,38.9479],[-77.0445,38.9486],[-77.0456,38.9478],[-77.0469,38.9482],[-77.0471,38.9496],[-77.0421,38.9547],[-77.0421,38.9577],[-77.0406,38.9598],[-77.0434,38.9614],[-77.0472,38.9604],[-77.0518,38.9619],[-77.0562,38.961],[-77.0561,38.9587],[-77.0573,38.9568],[-77.0581,38.9568]]]}},{"type":"Feature","id":"ward-dc-5","properties":{"name":"Ward 5","province":"District of Columbia","department":"District of Columbia","type":"Ward","country":"Estados Unidos","iso":"US"},"geometry":{"type":"Polygon","coordinates":[[[-76.9914,38.9573],[-76.9976,38.9572],[-77.0003,38.9553],[-77.0023,38.9568],[-77.0033,38.9561],[-77.009,38.9548],[-77.0088,38.9462],[-77.0122,38.9438],[-77.0172,38.938],[-77.019,38.9374],[-77.0192,38.9342],[-77.0182,38.9285],[-77.0148,38.9264],[-77.0121,38.9263],[-77.0122,38.9213],[-77.0149,38.9207],[-77.0143,38.915],[-77.0168,38.9141],[-77.0181,38.9147],[-77.0154,38.9072],[-77.0137,38.9072],[-77.0137,38.9058],[-77.0046,38.9089],[-76.9842,38.9002],[-76.9696,38.8977],[-76.9619,38.8971],[-76.9622,38.8998],[-76.9543,38.9112],[-76.9535,38.9144],[-76.9464,38.9151],[-76.9419,38.9185],[-76.9914,38.9573]]]}},{"type":"Feature","id":"ward-dc-1","properties":{"name":"Ward 1","province":"District of Columbia","department":"District of Columbia","type":"Ward","country":"Estados Unidos","iso":"US"},"geometry":{"type":"Polygon","coordinates":[[[-77.0352,38.9374],[-77.0364,38.9374],[-77.0364,38.9382],[-77.0412,38.9362],[-77.0454,38.9359],[-77.0483,38.9348],[-77.0509,38.933],[-77.0504,38.9323],[-77.047,38.9314],[-77.0445,38.9283],[-77.0448,38.9267],[-77.046,38.926],[-77.0491,38.9281],[-77.0499,38.9277],[-77.0485,38.923],[-77.0502,38.9213],[-77.0488,38.9189],[-77.0476,38.9184],[-77.0462,38.9144],[-77.0412,38.917],[-77.032,38.917],[-77.032,38.9141],[-77.0209,38.9141],[-77.0207,38.9157],[-77.0168,38.9141],[-77.0143,38.915],[-77.0149,38.9207],[-77.0122,38.9213],[-77.0121,38.9263],[-77.0148,38.9264],[-77.0182,38.9285],[-77.0192,38.9342],[-77.019,38.9374],[-77.0243,38.9363],[-77.0253,38.9351],[-77.0352,38.9374]]]}},{"type":"Feature","id":"ward-dc-2","properties":{"name":"Ward 2","province":"District of Columbia","department":"District of Columbia","type":"Ward","country":"Estados Unidos","iso":"US"},"geometry":{"type":"Polygon","coordinates":[[[-77.0495,38.92],[-77.0502,38.9213],[-77.0512,38.9198],[-77.0547,38.9199],[-77.0582,38.9177],[-77.0591,38.9183],[-77.0673,38.9187],[-77.0676,38.9175],[-77.0688,38.917],[-77.0694,38.9177],[-77.0694,38.9166],[-77.0715,38.9163],[-77.0749,38.9165],[-77.0757,38.9174],[-77.0817,38.9174],[-77.0806,38.915],[-77.0791,38.9137],[-77.0788,38.9128],[-77.0795,38.9126],[-77.0776,38.9095],[-77.0779,38.9067],[-77.0783,38.9067],[-77.0783,38.9024],[-77.0734,38.9011],[-77.0706,38.9012],[-77.0678,38.8996],[-77.0672,38.8972],[-77.0638,38.8903],[-77.0644,38.8896],[-77.0641,38.8883],[-77.0589,38.8807],[-77.0547,38.8801],[-77.0518,38.8769],[-77.0517,38.8739],[-77.0503,38.8717],[-77.0492,38.8713],[-77.0465,38.872],[-77.0464,38.874],[-77.0472,38.8749],[-77.0459,38.8756],[-77.0407,38.8714],[-77.0383,38.8674],[-77.0377,38.8648],[-77.0383,38.864],[-77.0428,38.8634],[-77.0404,38.8624],[-77.0397,38.8632],[-77.038,38.8632],[-77.0376,38.8613],[-77.0351,38.8594],[-77.0329,38.8551],[-77.0322,38.8507],[-77.0202,38.8573],[-77.0203,38.87],[-77.0239,38.8765],[-77.0327,38.8826],[-77.032,38.8841],[-77.032,38.8876],[-77.0091,38.8876],[-77.0091,38.8921],[-77.014,38.8921],[-77.0141,38.8994],[-77.0219,38.9021],[-77.0219,38.9057],[-77.0224,38.9057],[-77.0224,38.9072],[-77.024,38.9073],[-77.024,38.9097],[-77.027,38.9097],[-77.027,38.9141],[-77.032,38.9141],[-77.032,38.917],[-77.0412,38.917],[-77.0462,38.9144],[-77.0476,38.9184],[-77.0488,38.9189],[-77.0495,38.92]]]}},{"type":"Feature","id":"ward-dc-7","properties":{"name":"Ward 7","province":"District of Columbia","department":"District of Columbia","type":"Ward","country":"Estados Unidos","iso":"US"},"geometry":{"type":"Polygon","coordinates":[[[-76.9419,38.9185],[-76.9464,38.9151],[-76.9535,38.9144],[-76.9543,38.9112],[-76.9622,38.8998],[-76.9619,38.8971],[-76.9765,38.8987],[-76.9773,38.8933],[-76.9745,38.8929],[-76.9738,38.8906],[-76.9773,38.8898],[-76.9773,38.8828],[-76.9765,38.8828],[-76.9765,38.8814],[-76.971,38.8814],[-76.9734,38.8784],[-76.978,38.8769],[-76.9763,38.8749],[-76.9722,38.8727],[-76.971,38.8733],[-76.9709,38.8687],[-76.9702,38.8668],[-76.9707,38.8641],[-76.9681,38.8602],[-76.9677,38.8575],[-76.9626,38.852],[-76.9618,38.8519],[-76.9091,38.8929],[-76.9419,38.9185]]]}}]}