{"type":"FeatureCollection","features":[{"type":"Feature","id":"cetvrt-zagreb-1","properties":{"name":"Brezovica","province":"Zagreb","department":"Grad Zagreb","type":"Gradska četvrt","country":"Croacia","iso":"HR"},"geometry":{"type":"Polygon","coordinates":[[[15.9151,45.7494],[15.9173,45.7489],[15.9319,45.7315],[15.9378,45.7266],[15.9436,45.723],[15.95,45.7198],[15.958,45.7169],[15.9844,45.7104],[15.9824,45.7098],[15.982,45.7063],[15.981,45.7041],[15.9793,45.7041],[15.9788,45.703],[15.9786,45.7044],[15.9775,45.7043],[15.9758,45.7008],[15.9737,45.7002],[15.9724,45.7006],[15.9709,45.6986],[15.9686,45.6979],[15.9684,45.6971],[15.9652,45.6953],[15.9658,45.6948],[15.965,45.6941],[15.9653,45.6927],[15.9664,45.6927],[15.966,45.6919],[15.9667,45.6917],[15.966,45.6907],[15.9651,45.6912],[15.9653,45.6904],[15.9638,45.6901],[15.9653,45.6895],[15.9641,45.6894],[15.9651,45.6883],[15.9645,45.6876],[15.9649,45.6857],[15.9657,45.6852],[15.9656,45.6839],[15.9665,45.6825],[15.9673,45.6824],[15.9679,45.6812],[15.9676,45.6805],[15.9663,45.6802],[15.9669,45.6776],[15.966,45.6769],[15.9663,45.6765],[15.9657,45.676],[15.9664,45.6757],[15.9655,45.6753],[15.9648,45.6733],[15.9662,45.6708],[15.9628,45.6686],[15.9629,45.6675],[15.9619,45.6663],[15.9589,45.6649],[15.9588,45.6633],[15.9572,45.6602],[15.9577,45.6582],[15.9567,45.6561],[15.9522,45.6549],[15.9507,45.6529],[15.9485,45.6517],[15.9505,45.6375],[15.9467,45.6321],[15.947,45.6296],[15.942,45.6315],[15.9408,45.6302],[15.9388,45.6299],[15.9383,45.6287],[15.9387,45.6278],[15.9365,45.6246],[15.9323,45.6219],[15.9286,45.6216],[15.9251,45.6198],[15.9204,45.6144],[15.9193,45.614],[15.9172,45.6159],[15.9156,45.6159],[15.9152,45.6152],[15.9141,45.6164],[15.9122,45.617],[15.9095,45.6164],[15.9078,45.6181],[15.906,45.6184],[15.9063,45.6192],[15.9058,45.6202],[15.9018,45.62],[15.9017,45.6206],[15.8987,45.622],[15.8984,45.6223],[15.9019,45.6271],[15.9044,45.6289],[15.9056,45.6311],[15.9083,45.6324],[15.9052,45.6342],[15.8998,45.636],[15.8982,45.6354],[15.8948,45.6357],[15.8937,45.6366],[15.894,45.6381],[15.8934,45.64],[15.8899,45.6428],[15.8854,45.6444],[15.8843,45.6459],[15.8812,45.6467],[15.8802,45.6494],[15.8788,45.6504],[15.875,45.6558],[15.8731,45.6568],[15.8701,45.6563],[15.8634,45.6568],[15.8617,45.6577],[15.8612,45.6618],[15.8592,45.6608],[15.8551,45.6605],[15.8527,45.6592],[15.8526,45.6599],[15.8518,45.6598],[15.8502,45.6613],[15.848,45.662],[15.8472,45.6634],[15.845,45.6633],[15.8427,45.6644],[15.8401,45.6643],[15.8395,45.665],[15.8392,45.6644],[15.8368,45.6659],[15.8356,45.6659],[15.8351,45.6674],[15.8293,45.6708],[15.8244,45.6702],[15.8234,45.6707],[15.8225,45.6701],[15.8168,45.6705],[15.8158,45.6732],[15.8152,45.6729],[15.8155,45.6752],[15.8143,45.6758],[15.8137,45.677],[15.8141,45.6777],[15.813,45.6778],[15.8122,45.6788],[15.8092,45.6794],[15.8086,45.679],[15.8067,45.6794],[15.8061,45.6789],[15.8056,45.6803],[15.8032,45.6804],[15.804,45.6808],[15.8023,45.6818],[15.8023,45.6826],[15.7953,45.6823],[15.7919,45.6833],[15.7771,45.69],[15.7776,45.6921],[15.7764,45.6966],[15.7768,45.7018],[15.7759,45.7028],[15.7753,45.7057],[15.7732,45.7081],[15.778,45.7129],[15.7806,45.72],[15.783,45.7237],[15.785,45.7287],[15.7893,45.7338],[15.794,45.7317],[15.7961,45.7336],[15.7988,45.7347],[15.7985,45.735],[15.8064,45.7371],[15.8061,45.7379],[15.8078,45.7382],[15.8099,45.7371],[15.8088,45.7364],[15.8097,45.7363],[15.8091,45.736],[15.8097,45.7359],[15.8097,45.7351],[15.8087,45.7346],[15.8093,45.7342],[15.8086,45.7329],[15.8095,45.7329],[15.809,45.7325],[15.8104,45.7308],[15.81,45.7304],[15.8118,45.7301],[15.8126,45.7287],[15.8155,45.727],[15.8166,45.7255],[15.819,45.7253],[15.8233,45.7231],[15.8283,45.7249],[15.8295,45.7247],[15.8313,45.7267],[15.8303,45.7276],[15.8319,45.7274],[15.8321,45.7284],[15.8336,45.7278],[15.834,45.7287],[15.8355,45.7285],[15.8358,45.7275],[15.8374,45.7271],[15.8371,45.7263],[15.8386,45.7257],[15.8384,45.7247],[15.8408,45.724],[15.8403,45.7234],[15.8414,45.7232],[15.8411,45.7219],[15.8427,45.7222],[15.8426,45.7227],[15.8445,45.7228],[15.8447,45.7218],[15.8458,45.7218],[15.8456,45.7211],[15.8471,45.7212],[15.8467,45.7201],[15.8495,45.7191],[15.8502,45.7194],[15.8536,45.7173],[15.8551,45.7177],[15.8597,45.7225],[15.8638,45.7245],[15.867,45.728],[15.8698,45.7292],[15.8715,45.7312],[15.8703,45.7319],[15.8693,45.7313],[15.8686,45.732],[15.8665,45.7319],[15.8659,45.7325],[15.8663,45.7336],[15.8803,45.7398],[15.8851,45.738],[15.8871,45.7406],[15.8963,45.7368],[15.8962,45.7375],[15.8978,45.7373],[15.8976,45.7379],[15.8982,45.7386],[15.8963,45.7412],[15.8948,45.7411],[15.8948,45.743],[15.8971,45.744],[15.8994,45.7434],[15.9014,45.7455],[15.9031,45.7487],[15.9055,45.7492],[15.906,45.7505],[15.9091,45.7517],[15.9151,45.7494]]]}},{"type":"Feature","id":"cetvrt-zagreb-2","properties":{"name":"Črnomerec","province":"Zagreb","department":"Grad Zagreb","type":"Gradska četvrt","country":"Croacia","iso":"HR"},"geometry":{"type":"Polygon","coordinates":[[[15.932,45.8777],[15.9338,45.8772],[15.9352,45.8781],[15.9379,45.8765],[15.9387,45.8735],[15.9429,45.8699],[15.942,45.8684],[15.9419,45.8667],[15.9433,45.8644],[15.9431,45.8616],[15.9448,45.8601],[15.9435,45.858],[15.9439,45.8551],[15.9434,45.8539],[15.9448,45.8524],[15.9421,45.8433],[15.9426,45.8418],[15.9438,45.8408],[15.9432,45.8398],[15.9437,45.8381],[15.9443,45.838],[15.9444,45.8393],[15.9455,45.8396],[15.9456,45.8405],[15.9461,45.841],[15.9465,45.8405],[15.9473,45.8419],[15.9494,45.8426],[15.9506,45.8421],[15.9522,45.8436],[15.9529,45.8433],[15.9531,45.8444],[15.9543,45.8444],[15.9553,45.8401],[15.9564,45.8387],[15.955,45.8356],[15.9563,45.8328],[15.9562,45.8303],[15.9589,45.8272],[15.9594,45.8258],[15.9587,45.8237],[15.9566,45.8221],[15.9563,45.821],[15.9567,45.8205],[15.9557,45.8175],[15.9547,45.8166],[15.9548,45.8153],[15.9541,45.815],[15.9561,45.8132],[15.9577,45.8132],[15.9569,45.809],[15.93,45.8107],[15.9284,45.8096],[15.9228,45.8106],[15.9174,45.8107],[15.9158,45.8145],[15.9151,45.8147],[15.9149,45.8169],[15.9131,45.8181],[15.9145,45.8198],[15.9122,45.8203],[15.9134,45.8227],[15.9141,45.8267],[15.9104,45.83],[15.9122,45.8339],[15.9109,45.8362],[15.9118,45.8376],[15.9115,45.8396],[15.9125,45.8415],[15.9113,45.8426],[15.9102,45.8428],[15.9089,45.842],[15.9084,45.8408],[15.9049,45.8451],[15.8998,45.8432],[15.8999,45.8459],[15.9018,45.8488],[15.9033,45.85],[15.9047,45.8502],[15.9048,45.851],[15.9103,45.8545],[15.9119,45.8583],[15.9112,45.8593],[15.9116,45.8608],[15.9096,45.8619],[15.9095,45.8634],[15.905,45.8676],[15.9066,45.8729],[15.9067,45.876],[15.9101,45.8778],[15.9145,45.8842],[15.9188,45.8855],[15.9185,45.8881],[15.9223,45.8896],[15.9254,45.8877],[15.9274,45.8855],[15.929,45.883],[15.9291,45.8803],[15.932,45.8777]]]}},{"type":"Feature","id":"cetvrt-zagreb-3","properties":{"name":"Donja Dubrava","province":"Zagreb","department":"Grad Zagreb","type":"Gradska četvrt","country":"Croacia","iso":"HR"},"geometry":{"type":"Polygon","coordinates":[[[16.0578,45.8296],[16.0766,45.8278],[16.087,45.8261],[16.0876,45.8246],[16.0908,45.8213],[16.0929,45.8206],[16.0958,45.818],[16.0984,45.8172],[16.0976,45.8164],[16.0974,45.8147],[16.0987,45.8143],[16.0988,45.8149],[16.1007,45.8152],[16.1016,45.813],[16.1005,45.8063],[16.0916,45.806],[16.0466,45.7999],[16.0475,45.8034],[16.0495,45.8065],[16.0501,45.8094],[16.0487,45.8124],[16.0484,45.8156],[16.0476,45.8168],[16.0462,45.8169],[16.0458,45.818],[16.0388,45.8168],[16.0365,45.8239],[16.0387,45.8241],[16.0531,45.8289],[16.0578,45.8296]]]}},{"type":"Feature","id":"cetvrt-zagreb-4","properties":{"name":"Donji Grad","province":"Zagreb","department":"Grad Zagreb","type":"Gradska četvrt","country":"Croacia","iso":"HR"},"geometry":{"type":"Polygon","coordinates":[[[15.9965,45.8142],[15.9972,45.8143],[16.0034,45.8088],[15.9935,45.8057],[15.9826,45.8041],[15.9842,45.8037],[15.9733,45.8041],[15.9645,45.8024],[15.9661,45.8048],[15.9611,45.808],[15.9569,45.809],[15.9577,45.8132],[15.9635,45.8123],[15.9698,45.8132],[15.9834,45.8121],[15.9831,45.8141],[15.9932,45.814],[15.9962,45.8148],[15.9965,45.8142]]]}},{"type":"Feature","id":"cetvrt-zagreb-5","properties":{"name":"Gornja Dubrava","province":"Zagreb","department":"Grad Zagreb","type":"Gradska četvrt","country":"Croacia","iso":"HR"},"geometry":{"type":"Polygon","coordinates":[[[16.0504,45.9366],[16.0518,45.9374],[16.0529,45.9372],[16.0559,45.9343],[16.0581,45.9341],[16.0591,45.9331],[16.0612,45.9325],[16.0618,45.9317],[16.0616,45.9298],[16.0641,45.9277],[16.0642,45.9265],[16.0679,45.9264],[16.0682,45.9243],[16.0676,45.9225],[16.0686,45.9217],[16.0708,45.9214],[16.0731,45.9198],[16.0801,45.9209],[16.0792,45.92],[16.0763,45.9196],[16.0738,45.9161],[16.0731,45.9069],[16.07,45.9031],[16.0707,45.9015],[16.0729,45.9004],[16.0721,45.9001],[16.0711,45.8972],[16.0695,45.8962],[16.0719,45.8918],[16.0768,45.8904],[16.0822,45.888],[16.0831,45.8858],[16.0833,45.882],[16.0872,45.8778],[16.0915,45.8763],[16.0957,45.8723],[16.0958,45.8699],[16.0841,45.8686],[16.0828,45.8676],[16.0817,45.8652],[16.0835,45.8639],[16.0835,45.8631],[16.0857,45.861],[16.0933,45.8607],[16.0951,45.8594],[16.0964,45.858],[16.0974,45.8555],[16.0967,45.8526],[16.0974,45.8523],[16.0977,45.8498],[16.1,45.8477],[16.0976,45.8457],[16.0931,45.8443],[16.0871,45.8436],[16.0855,45.8424],[16.0823,45.8421],[16.0795,45.8429],[16.0787,45.8389],[16.0773,45.8367],[16.0845,45.834],[16.0828,45.8296],[16.0831,45.8291],[16.0824,45.8287],[16.0814,45.8293],[16.0812,45.827],[16.0686,45.8287],[16.0559,45.8295],[16.0385,45.8241],[16.0355,45.8238],[16.0324,45.8375],[16.0311,45.8392],[16.0289,45.8403],[16.0285,45.8415],[16.0289,45.8443],[16.0284,45.8453],[16.0292,45.8454],[16.0298,45.8487],[16.0257,45.8549],[16.0262,45.8564],[16.0242,45.8602],[16.0262,45.863],[16.0257,45.8654],[16.0271,45.868],[16.0259,45.8699],[16.0241,45.8708],[16.0225,45.8728],[16.0254,45.8734],[16.0267,45.8744],[16.0332,45.8749],[16.0336,45.8767],[16.0328,45.8771],[16.0332,45.8783],[16.0325,45.8795],[16.0344,45.8795],[16.0357,45.8834],[16.0389,45.8837],[16.0404,45.8874],[16.0431,45.8887],[16.0424,45.8917],[16.041,45.8933],[16.0426,45.8947],[16.0425,45.8992],[16.043,45.8997],[16.0416,45.9023],[16.0434,45.9045],[16.0432,45.9067],[16.0468,45.9092],[16.0494,45.9126],[16.0494,45.9144],[16.05,45.9148],[16.0488,45.9199],[16.0492,45.9212],[16.0502,45.9219],[16.0501,45.9252],[16.0513,45.9269],[16.0503,45.9287],[16.0478,45.9299],[16.046,45.9346],[16.0477,45.9364],[16.0473,45.9377],[16.0504,45.9366]]]}},{"type":"Feature","id":"cetvrt-zagreb-6","properties":{"name":"Gornji Grad - Medveščak","province":"Zagreb","department":"Grad Zagreb","type":"Gradska četvrt","country":"Croacia","iso":"HR"},"geometry":{"type":"Polygon","coordinates":[[[15.9835,45.8522],[15.9854,45.852],[15.9849,45.85],[15.9856,45.8492],[15.9838,45.8458],[15.9855,45.8452],[15.9885,45.8416],[15.9883,45.838],[15.9894,45.8371],[15.9895,45.8362],[15.9943,45.8332],[15.9935,45.8324],[15.9894,45.8331],[15.989,45.8323],[15.9911,45.8297],[15.9973,45.8153],[15.9932,45.8141],[15.9831,45.8141],[15.9834,45.8121],[15.9698,45.8132],[15.9635,45.8123],[15.9561,45.8132],[15.9541,45.8151],[15.9548,45.8153],[15.9547,45.8166],[15.9557,45.8175],[15.9567,45.8205],[15.9563,45.821],[15.9566,45.8221],[15.9587,45.8237],[15.9594,45.8258],[15.9589,45.8272],[15.9562,45.8303],[15.9563,45.8328],[15.955,45.8356],[15.9564,45.8387],[15.9553,45.8401],[15.9543,45.8444],[15.9531,45.8444],[15.9529,45.8468],[15.9542,45.8469],[15.9598,45.8451],[15.9606,45.8462],[15.9631,45.8453],[15.964,45.8457],[15.965,45.8455],[15.9654,45.8445],[15.966,45.845],[15.968,45.8446],[15.9682,45.8439],[15.9695,45.8444],[15.97,45.8439],[15.9696,45.8431],[15.9708,45.8424],[15.9729,45.8432],[15.9742,45.8422],[15.9755,45.8426],[15.9756,45.8421],[15.9767,45.844],[15.9769,45.8484],[15.9804,45.8491],[15.9793,45.8505],[15.9801,45.8506],[15.98,45.8529],[15.9835,45.8522]]]}},{"type":"Feature","id":"cetvrt-zagreb-7","properties":{"name":"Maksimir","province":"Zagreb","department":"Grad Zagreb","type":"Gradska četvrt","country":"Croacia","iso":"HR"},"geometry":{"type":"Polygon","coordinates":[[[15.9958,45.8605],[15.9986,45.8579],[16.0039,45.8597],[16.0062,45.8579],[16.0091,45.8584],[16.0121,45.8554],[16.013,45.8554],[16.0138,45.8542],[16.0152,45.8539],[16.0162,45.8526],[16.0185,45.8515],[16.0184,45.8502],[16.0209,45.8462],[16.0235,45.8451],[16.0234,45.8444],[16.0259,45.8423],[16.0267,45.8427],[16.028,45.8416],[16.0285,45.842],[16.0289,45.8403],[16.0314,45.8389],[16.0325,45.8371],[16.0354,45.8239],[16.0366,45.824],[16.0388,45.8168],[16.0196,45.8132],[16.0147,45.815],[16.01,45.8153],[16.0002,45.8116],[15.9972,45.8143],[15.9964,45.8142],[15.9962,45.8148],[15.9973,45.8153],[15.996,45.8187],[15.9925,45.8255],[15.9911,45.8297],[15.989,45.8323],[15.9894,45.8331],[15.9935,45.8324],[15.9943,45.8332],[15.9895,45.8362],[15.9894,45.8371],[15.9883,45.838],[15.9885,45.8416],[15.9855,45.8452],[15.9838,45.8458],[15.9856,45.8492],[15.9849,45.85],[15.9854,45.852],[15.9804,45.8526],[15.9799,45.8538],[15.9804,45.8558],[15.9811,45.8557],[15.984,45.8587],[15.9869,45.8588],[15.9869,45.8579],[15.9879,45.8578],[15.9907,45.8585],[15.9928,45.8578],[15.9936,45.8598],[15.9958,45.8605]]]}},{"type":"Feature","id":"cetvrt-zagreb-8","properties":{"name":"Novi Zagreb - Istok","province":"Zagreb","department":"Grad Zagreb","type":"Gradska četvrt","country":"Croacia","iso":"HR"},"geometry":{"type":"Polygon","coordinates":[[[15.9805,45.7889],[15.9885,45.7882],[15.9966,45.7865],[16.0028,45.7843],[16.0071,45.782],[16.0261,45.7693],[16.0388,45.762],[16.0371,45.7598],[16.0366,45.7579],[16.038,45.755],[16.0277,45.7553],[16.0264,45.7538],[16.0252,45.7545],[16.0254,45.7537],[16.0248,45.7526],[16.0195,45.748],[16.0159,45.7435],[16.0179,45.7431],[16.02,45.7416],[16.0176,45.7398],[16.0177,45.7387],[16.0195,45.7377],[16.0173,45.736],[16.0164,45.7327],[16.0093,45.7352],[16.0007,45.7415],[15.9997,45.7416],[15.9981,45.7389],[15.9796,45.7448],[15.9881,45.751],[15.9843,45.7537],[15.9851,45.7536],[15.9843,45.7545],[15.9847,45.7561],[15.9869,45.7574],[15.9898,45.7573],[15.9896,45.7592],[15.9889,45.7601],[15.9826,45.7609],[15.981,45.7621],[15.9803,45.7715],[15.981,45.7719],[15.9812,45.7772],[15.9805,45.7773],[15.9799,45.7889],[15.9805,45.7889]]]}},{"type":"Feature","id":"cetvrt-zagreb-9","properties":{"name":"Novi Zagreb - Zapad","province":"Zagreb","department":"Grad Zagreb","type":"Gradska četvrt","country":"Croacia","iso":"HR"},"geometry":{"type":"Polygon","coordinates":[[[15.834,45.8101],[15.8433,45.8027],[15.8512,45.7932],[15.8592,45.7891],[15.866,45.7845],[15.8697,45.7834],[15.8735,45.7836],[15.8817,45.7848],[15.8876,45.7868],[15.8928,45.7868],[15.8972,45.7852],[15.9034,45.7794],[15.9061,45.778],[15.9282,45.7724],[15.9338,45.7728],[15.9389,45.7743],[15.9496,45.7815],[15.9575,45.7852],[15.9696,45.7882],[15.9799,45.7889],[15.9805,45.7773],[15.9812,45.7772],[15.981,45.7719],[15.9803,45.7715],[15.981,45.7621],[15.9826,45.7609],[15.9889,45.7601],[15.9896,45.7592],[15.9898,45.7573],[15.9869,45.7574],[15.9847,45.7561],[15.9843,45.7545],[15.9851,45.7536],[15.9843,45.7537],[15.9881,45.751],[15.9796,45.7448],[15.9981,45.7389],[15.9997,45.7416],[16.0007,45.7415],[16.0093,45.7352],[16.0164,45.7327],[16.0161,45.7306],[16.0175,45.7295],[16.0151,45.7275],[16.0188,45.7251],[16.0188,45.724],[16.0175,45.724],[16.017,45.723],[16.0181,45.7208],[16.0149,45.7202],[16.0144,45.7189],[16.0095,45.7197],[16.0047,45.7191],[16.001,45.7198],[15.9986,45.7193],[15.9966,45.7177],[15.9949,45.7183],[15.9929,45.7169],[15.9882,45.7162],[15.9864,45.718],[15.9854,45.7173],[15.9843,45.7175],[15.9833,45.7168],[15.9835,45.7162],[15.9866,45.7155],[15.9878,45.7144],[15.9853,45.7112],[15.9845,45.7112],[15.9844,45.7104],[15.9592,45.7165],[15.9478,45.7208],[15.9378,45.7266],[15.9297,45.7337],[15.9173,45.7489],[15.9091,45.7517],[15.906,45.7505],[15.9055,45.7492],[15.9031,45.7487],[15.9014,45.7455],[15.8994,45.7434],[15.8971,45.744],[15.8948,45.743],[15.8948,45.7411],[15.8963,45.7412],[15.898,45.739],[15.8978,45.7373],[15.8962,45.7375],[15.8963,45.7368],[15.8871,45.7406],[15.8851,45.738],[15.8803,45.7398],[15.8777,45.7388],[15.8834,45.7492],[15.8854,45.7507],[15.8796,45.7556],[15.8731,45.7577],[15.8713,45.7565],[15.8701,45.7573],[15.8684,45.7567],[15.868,45.7578],[15.8667,45.7572],[15.867,45.7594],[15.8678,45.7595],[15.8671,45.7611],[15.8656,45.7616],[15.8663,45.7632],[15.8652,45.7635],[15.8655,45.7651],[15.8605,45.7657],[15.8523,45.7638],[15.8408,45.7657],[15.8384,45.7678],[15.8417,45.7704],[15.8338,45.7733],[15.8268,45.7743],[15.8255,45.7751],[15.8235,45.7779],[15.8217,45.7785],[15.8287,45.782],[15.8295,45.7829],[15.829,45.7841],[15.837,45.7857],[15.839,45.789],[15.8427,45.7895],[15.8419,45.7905],[15.839,45.7911],[15.8356,45.7929],[15.8352,45.8012],[15.8333,45.8033],[15.8343,45.8036],[15.8306,45.8076],[15.833,45.8087],[15.8324,45.8105],[15.834,45.8101]]]}},{"type":"Feature","id":"cetvrt-zagreb-10","properties":{"name":"Peščenica - Žitnjak","province":"Zagreb","department":"Grad Zagreb","type":"Gradska četvrt","country":"Croacia","iso":"HR"},"geometry":{"type":"Polygon","coordinates":[[[16.0464,45.8169],[16.0476,45.8168],[16.0484,45.8156],[16.0491,45.8111],[16.0501,45.8094],[16.0495,45.8065],[16.0475,45.8034],[16.0466,45.7999],[16.0916,45.806],[16.1019,45.8063],[16.1083,45.8055],[16.1258,45.8016],[16.1256,45.801],[16.1275,45.8001],[16.1287,45.7984],[16.1285,45.7945],[16.1276,45.7923],[16.1236,45.7875],[16.12,45.787],[16.1071,45.7886],[16.1049,45.7916],[16.1033,45.7896],[16.1004,45.7879],[16.1021,45.7862],[16.0941,45.782],[16.0832,45.7786],[16.0776,45.7741],[16.0764,45.7724],[16.0714,45.7699],[16.0697,45.7681],[16.0646,45.765],[16.0621,45.762],[16.0597,45.7602],[16.056,45.7587],[16.0524,45.7581],[16.0447,45.7592],[16.0397,45.7612],[16.0261,45.7693],[16.0114,45.7794],[16.0027,45.7844],[16.0044,45.7872],[16.0045,45.7892],[15.9999,45.7957],[16.017,45.7965],[16.0169,45.7971],[16.0002,45.8116],[16.0103,45.8153],[16.0147,45.815],[16.0196,45.8132],[16.0458,45.818],[16.0464,45.8169]]]}},{"type":"Feature","id":"cetvrt-zagreb-11","properties":{"name":"Podsljeme","province":"Zagreb","department":"Grad Zagreb","type":"Gradska četvrt","country":"Croacia","iso":"HR"},"geometry":{"type":"Polygon","coordinates":[[[16.0425,45.9389],[16.0452,45.9393],[16.0471,45.9381],[16.0477,45.9364],[16.046,45.9345],[16.0468,45.9336],[16.0468,45.9317],[16.0481,45.9296],[16.0503,45.9287],[16.0513,45.927],[16.0501,45.9252],[16.0502,45.9219],[16.0492,45.9212],[16.0488,45.9199],[16.05,45.9148],[16.0494,45.9144],[16.0494,45.9126],[16.047,45.9095],[16.0432,45.9067],[16.0434,45.9045],[16.0416,45.9023],[16.043,45.8997],[16.0425,45.8992],[16.0426,45.8947],[16.041,45.8933],[16.0424,45.8917],[16.0431,45.8887],[16.0404,45.8874],[16.0389,45.8837],[16.0357,45.8834],[16.0344,45.8795],[16.0325,45.8795],[16.0332,45.8783],[16.0328,45.8771],[16.0336,45.8767],[16.0332,45.8749],[16.0267,45.8744],[16.0254,45.8734],[16.0225,45.8728],[16.0241,45.8708],[16.0259,45.8699],[16.0271,45.868],[16.0257,45.8654],[16.0262,45.863],[16.0242,45.8602],[16.0262,45.8564],[16.0257,45.8549],[16.0298,45.8486],[16.0292,45.8454],[16.0284,45.8453],[16.0289,45.8443],[16.0285,45.842],[16.028,45.8416],[16.0267,45.8427],[16.0259,45.8423],[16.0234,45.8444],[16.0235,45.8451],[16.0209,45.8462],[16.0184,45.8502],[16.0185,45.8515],[16.0162,45.8526],[16.0152,45.8539],[16.0138,45.8542],[16.013,45.8554],[16.0121,45.8554],[16.0091,45.8584],[16.0062,45.8579],[16.0039,45.8597],[15.9986,45.8579],[15.9958,45.8606],[15.9936,45.8598],[15.9929,45.8578],[15.9907,45.8585],[15.9879,45.8578],[15.9869,45.8579],[15.9869,45.8588],[15.984,45.8587],[15.9811,45.8557],[15.9804,45.8558],[15.9799,45.8538],[15.9801,45.8506],[15.9793,45.8505],[15.9804,45.8491],[15.9769,45.8484],[15.9767,45.844],[15.9758,45.8421],[15.9753,45.8426],[15.9742,45.8422],[15.9729,45.8432],[15.9708,45.8424],[15.9696,45.8431],[15.97,45.8439],[15.9695,45.8444],[15.9682,45.8439],[15.968,45.8446],[15.966,45.845],[15.9654,45.8445],[15.965,45.8455],[15.964,45.8457],[15.9631,45.8453],[15.9606,45.8462],[15.9598,45.8451],[15.9535,45.847],[15.9529,45.8468],[15.9529,45.8433],[15.9522,45.8436],[15.9506,45.8421],[15.9494,45.8426],[15.9473,45.8419],[15.9465,45.8405],[15.9461,45.841],[15.9456,45.8405],[15.9455,45.8396],[15.9444,45.8393],[15.9443,45.838],[15.9437,45.8381],[15.9432,45.8398],[15.9438,45.8408],[15.9426,45.8418],[15.9421,45.8433],[15.9448,45.8524],[15.9434,45.8539],[15.9439,45.8551],[15.9435,45.858],[15.9448,45.8601],[15.9431,45.8616],[15.9433,45.8644],[15.9419,45.8667],[15.942,45.8684],[15.9429,45.8699],[15.9387,45.8735],[15.9379,45.8765],[15.9352,45.8781],[15.9338,45.8772],[15.932,45.8777],[15.9297,45.8794],[15.9288,45.881],[15.929,45.883],[15.9274,45.8855],[15.9254,45.8877],[15.9223,45.8896],[15.9243,45.8898],[15.9266,45.8883],[15.929,45.888],[15.9302,45.8882],[15.9315,45.8895],[15.9348,45.8899],[15.9362,45.8916],[15.9389,45.8934],[15.9399,45.8953],[15.9433,45.8976],[15.9474,45.8992],[15.9489,45.9008],[15.9553,45.901],[15.9579,45.902],[15.9584,45.9028],[15.9635,45.9057],[15.9644,45.907],[15.9683,45.9071],[15.9706,45.9082],[15.9718,45.9096],[15.9724,45.9116],[15.9752,45.915],[15.9856,45.9177],[15.9871,45.9196],[15.9922,45.9221],[15.9991,45.9232],[16.0013,45.9261],[16.0057,45.9286],[16.0081,45.929],[16.0088,45.9301],[16.0134,45.9301],[16.0205,45.9312],[16.0272,45.9343],[16.0292,45.9341],[16.0297,45.9345],[16.0299,45.9375],[16.0369,45.9386],[16.0384,45.9395],[16.0425,45.9389]]]}},{"type":"Feature","id":"cetvrt-zagreb-12","properties":{"name":"Podsused - Vrapče","province":"Zagreb","department":"Grad Zagreb","type":"Gradska četvrt","country":"Croacia","iso":"HR"},"geometry":{"type":"Polygon","coordinates":[[[15.9183,45.8878],[15.9188,45.8855],[15.9145,45.8842],[15.9101,45.8778],[15.9065,45.8756],[15.9066,45.8729],[15.905,45.8676],[15.9095,45.8634],[15.9096,45.8619],[15.9116,45.8608],[15.9112,45.8593],[15.9119,45.8583],[15.9103,45.8545],[15.9048,45.851],[15.9047,45.8502],[15.9033,45.85],[15.9018,45.8488],[15.8999,45.8459],[15.8998,45.844],[15.8998,45.8432],[15.905,45.8451],[15.9084,45.8408],[15.9089,45.842],[15.9102,45.8428],[15.9113,45.8426],[15.9125,45.8415],[15.9115,45.8396],[15.9118,45.8376],[15.9109,45.8362],[15.9122,45.8339],[15.9104,45.83],[15.9141,45.8267],[15.9134,45.8227],[15.9122,45.8203],[15.9145,45.8198],[15.9131,45.8181],[15.9149,45.8169],[15.9151,45.8147],[15.9167,45.8129],[15.917,45.8113],[15.8633,45.8139],[15.8601,45.8125],[15.8573,45.8019],[15.8537,45.8019],[15.8519,45.7991],[15.8476,45.7973],[15.8433,45.8027],[15.834,45.8101],[15.8245,45.8223],[15.8239,45.8248],[15.8228,45.8256],[15.8236,45.8277],[15.8228,45.8316],[15.8218,45.8333],[15.8243,45.8363],[15.8218,45.8378],[15.8222,45.839],[15.8276,45.8401],[15.8294,45.842],[15.8375,45.8407],[15.8404,45.8395],[15.8457,45.8411],[15.8446,45.8424],[15.8447,45.8447],[15.8498,45.8474],[15.8502,45.8485],[15.8513,45.8483],[15.8505,45.8512],[15.8517,45.8529],[15.8531,45.8529],[15.855,45.8541],[15.8572,45.8539],[15.8589,45.8552],[15.8595,45.8546],[15.8592,45.8528],[15.8611,45.8535],[15.8641,45.8524],[15.8669,45.8532],[15.868,45.8545],[15.8706,45.8547],[15.8716,45.8542],[15.8734,45.8548],[15.874,45.8556],[15.8735,45.8576],[15.8766,45.8581],[15.874,45.8594],[15.8737,45.861],[15.8753,45.8622],[15.8759,45.8622],[15.8756,45.8614],[15.8772,45.8617],[15.8789,45.8632],[15.8774,45.8653],[15.8803,45.8643],[15.8827,45.8618],[15.8862,45.8625],[15.8868,45.8633],[15.8856,45.865],[15.8858,45.867],[15.8871,45.8692],[15.8886,45.87],[15.8899,45.8756],[15.8936,45.8779],[15.8972,45.8814],[15.9008,45.8815],[15.9022,45.8838],[15.9052,45.8857],[15.908,45.8856],[15.9091,45.8864],[15.9138,45.8876],[15.9183,45.8878]]]}},{"type":"Feature","id":"cetvrt-zagreb-13","properties":{"name":"Sesvete","province":"Zagreb","department":"Grad Zagreb","type":"Gradska četvrt","country":"Croacia","iso":"HR"},"geometry":{"type":"Polygon","coordinates":[[[16.1188,45.9691],[16.1208,45.9676],[16.1236,45.967],[16.1266,45.9672],[16.1296,45.965],[16.1336,45.9648],[16.1373,45.9654],[16.1382,45.9675],[16.1397,45.9681],[16.1418,45.9679],[16.1426,45.9685],[16.1444,45.9678],[16.1495,45.9687],[16.1504,45.9675],[16.1539,45.9675],[16.1552,45.969],[16.1562,45.966],[16.1563,45.9606],[16.1632,45.9574],[16.164,45.9561],[16.1658,45.9555],[16.1653,45.9542],[16.1667,45.9519],[16.1661,45.9498],[16.1669,45.9492],[16.1664,45.9467],[16.1671,45.945],[16.1715,45.9427],[16.1731,45.9408],[16.1719,45.9387],[16.1718,45.9364],[16.1728,45.9347],[16.1732,45.9324],[16.1727,45.9316],[16.1731,45.9259],[16.1737,45.9237],[16.1748,45.9225],[16.1734,45.9209],[16.1731,45.9189],[16.1747,45.9161],[16.1802,45.9155],[16.1791,45.9149],[16.1805,45.9138],[16.1788,45.9118],[16.1845,45.9082],[16.1835,45.905],[16.1838,45.8988],[16.1821,45.8963],[16.1797,45.8948],[16.1784,45.8923],[16.191,45.8904],[16.197,45.8938],[16.2028,45.8858],[16.2057,45.8805],[16.2096,45.8778],[16.2154,45.87],[16.2275,45.8617],[16.2279,45.8604],[16.2269,45.8588],[16.2276,45.8583],[16.2201,45.8537],[16.2222,45.8527],[16.223,45.8487],[16.2265,45.8487],[16.2266,45.847],[16.2288,45.8464],[16.228,45.8415],[16.2318,45.8404],[16.232,45.8396],[16.2337,45.84],[16.2338,45.8391],[16.2348,45.8389],[16.2355,45.8395],[16.2361,45.8387],[16.2377,45.8382],[16.2381,45.8387],[16.2396,45.8375],[16.2371,45.8358],[16.2347,45.8361],[16.2348,45.8367],[16.233,45.8373],[16.2315,45.8365],[16.2281,45.8375],[16.2262,45.8368],[16.2257,45.8374],[16.2201,45.8388],[16.2163,45.8386],[16.2161,45.8378],[16.215,45.8373],[16.2143,45.8351],[16.2133,45.8354],[16.2113,45.8342],[16.2091,45.8307],[16.2046,45.8292],[16.2044,45.8245],[16.2021,45.8217],[16.2003,45.8209],[16.1998,45.8193],[16.2016,45.8168],[16.2027,45.8105],[16.2016,45.808],[16.2003,45.8082],[16.1999,45.8034],[16.2011,45.8031],[16.1993,45.7994],[16.1998,45.7964],[16.1984,45.7886],[16.198,45.7807],[16.2005,45.7793],[16.1983,45.7773],[16.1747,45.7891],[16.1597,45.7943],[16.1464,45.7976],[16.1089,45.8054],[16.1005,45.8063],[16.1016,45.813],[16.1007,45.8152],[16.0988,45.8149],[16.0987,45.8143],[16.0974,45.8147],[16.0976,45.8164],[16.0984,45.8172],[16.0958,45.818],[16.0929,45.8206],[16.0908,45.8213],[16.0876,45.8246],[16.087,45.8261],[16.0812,45.827],[16.0814,45.8293],[16.0824,45.8287],[16.0831,45.8291],[16.0828,45.8296],[16.0845,45.834],[16.0773,45.8367],[16.0787,45.8389],[16.0795,45.8429],[16.0823,45.8421],[16.0855,45.8424],[16.0871,45.8436],[16.0931,45.8443],[16.0976,45.8457],[16.1,45.8477],[16.0977,45.8498],[16.0974,45.8523],[16.0967,45.8526],[16.0974,45.8555],[16.0964,45.858],[16.0951,45.8594],[16.0933,45.8607],[16.0857,45.861],[16.0835,45.8631],[16.0835,45.8639],[16.0817,45.8652],[16.0828,45.8676],[16.0841,45.8686],[16.0958,45.8699],[16.0957,45.8723],[16.0915,45.8763],[16.0872,45.8778],[16.0833,45.882],[16.0831,45.8858],[16.0822,45.888],[16.0768,45.8904],[16.0719,45.8918],[16.0695,45.8962],[16.0711,45.8972],[16.0721,45.9001],[16.0729,45.9004],[16.0707,45.9015],[16.07,45.9031],[16.0731,45.9069],[16.0738,45.9161],[16.0763,45.9196],[16.0792,45.92],[16.0801,45.9209],[16.0731,45.9198],[16.0708,45.9214],[16.0679,45.9222],[16.0679,45.9264],[16.0642,45.9265],[16.0641,45.9277],[16.0616,45.9298],[16.0618,45.9317],[16.0612,45.9325],[16.0591,45.9331],[16.0581,45.9341],[16.0559,45.9343],[16.0534,45.9369],[16.0518,45.9374],[16.052,45.9394],[16.0515,45.9402],[16.0521,45.941],[16.0522,45.9439],[16.0543,45.9449],[16.0611,45.9457],[16.0626,45.9464],[16.0642,45.9476],[16.0652,45.9505],[16.0724,45.9518],[16.0766,45.9543],[16.0768,45.9559],[16.0858,45.9564],[16.0897,45.9585],[16.0903,45.9572],[16.0942,45.9558],[16.0966,45.9534],[16.1005,45.9556],[16.1078,45.9559],[16.1084,45.9572],[16.1113,45.9579],[16.112,45.9588],[16.1117,45.9606],[16.1136,45.962],[16.114,45.9685],[16.1188,45.9691]]]}},{"type":"Feature","id":"cetvrt-zagreb-14","properties":{"name":"Stenjevec","province":"Zagreb","department":"Grad Zagreb","type":"Gradska četvrt","country":"Croacia","iso":"HR"},"geometry":{"type":"Polygon","coordinates":[[[15.8667,45.8138],[15.917,45.8113],[15.9174,45.8107],[15.9228,45.8106],[15.9284,45.8096],[15.9247,45.8067],[15.9115,45.7986],[15.9085,45.796],[15.892,45.7973],[15.8919,45.7956],[15.8906,45.7946],[15.8905,45.7914],[15.8869,45.7896],[15.8888,45.787],[15.8861,45.7865],[15.8817,45.7848],[15.8697,45.7834],[15.8655,45.7847],[15.8592,45.7891],[15.8529,45.792],[15.8476,45.7973],[15.8519,45.7991],[15.8537,45.8019],[15.8573,45.8019],[15.8601,45.8125],[15.8633,45.8139],[15.8667,45.8138]]]}},{"type":"Feature","id":"cetvrt-zagreb-15","properties":{"name":"Trešnjevka - Jug","province":"Zagreb","department":"Grad Zagreb","type":"Gradska četvrt","country":"Croacia","iso":"HR"},"geometry":{"type":"Polygon","coordinates":[[[15.9164,45.7953],[15.9166,45.7958],[15.9372,45.7941],[15.9525,45.7947],[15.959,45.7944],[15.9529,45.7855],[15.9541,45.7838],[15.9491,45.7811],[15.9396,45.7746],[15.9344,45.7729],[15.9299,45.7723],[15.9264,45.7727],[15.9061,45.778],[15.9034,45.7794],[15.8968,45.7854],[15.8928,45.7868],[15.8888,45.787],[15.887,45.7893],[15.8905,45.7914],[15.8906,45.7946],[15.8919,45.7956],[15.892,45.7973],[15.9164,45.7953]]]}},{"type":"Feature","id":"cetvrt-zagreb-16","properties":{"name":"Trešnjevka - Sjever","province":"Zagreb","department":"Grad Zagreb","type":"Gradska četvrt","country":"Croacia","iso":"HR"},"geometry":{"type":"Polygon","coordinates":[[[15.9365,45.8102],[15.9585,45.8089],[15.9611,45.808],[15.9661,45.8048],[15.959,45.7944],[15.9525,45.7947],[15.9372,45.7941],[15.9085,45.796],[15.9115,45.7986],[15.9247,45.8067],[15.93,45.8107],[15.9365,45.8102]]]}},{"type":"Feature","id":"cetvrt-zagreb-17","properties":{"name":"Trnje","province":"Zagreb","department":"Grad Zagreb","type":"Gradska četvrt","country":"Croacia","iso":"HR"},"geometry":{"type":"Polygon","coordinates":[[[16.0047,45.8076],[16.0169,45.7971],[16.017,45.7965],[15.9999,45.7957],[16.0045,45.7892],[16.0044,45.7872],[16.0027,45.7844],[15.9919,45.7876],[15.9804,45.7889],[15.9678,45.7879],[15.9593,45.7858],[15.9541,45.7838],[15.953,45.7847],[15.9529,45.7855],[15.9645,45.8024],[15.9733,45.8041],[15.9842,45.8037],[15.9826,45.8041],[15.9935,45.8057],[16.0034,45.8088],[16.0047,45.8076]]]}}]}